Name,Membership,Category,Description,Address,City,Province,telp1,telp2,telp3
CV. JAYA MAKMUR ABADI,"
PREMIUM RUBY
",Konsultan Hukum,"
CV. Jaya Makmur Abadi, perusahaan yang bergerak dibidang perdagangan umum Material Konstruksi & material lainnya, dan telah berpengalaman lebih dari 10 Tahun. 
Berdiri sejak Tahun 2005 dengan nama Jaya Makmur Abadi, dan diresmikan pada tahun 2010 oleh notaris Edward Agustin menjadi CV. Jaya Makmur Abadi. 
CV. Jaya Makmur Abadi bekerja sama dengan beberapa Pabrik & Distributor Material dan hingga kini sudah melayani lebih dari 900 pelanggan, yang terdiri dari pelanggan pribadi/perusahaan baik dari dalam & luar daerah di Indonesia. 
 
Visi & Misi : 


Menciptakan sistem perusahaan yang sistematis & fleksibel dalam hal pelayanan.
Menciptakan lapangan kerja & Sumber daya Manusia yang terampil, profesional& handal. 
Menciptakan pelayanan & kerjasama yang berkesinambungan dengan pelanggan.
Menjadi perusahaan multinasional yang dapat memberi sumbangsih terhadap perekonomian di Indonesia. 

CV. Jaya Makmur Abadi.General Supplier & Trading : Besi Beton & Baja. Rangka Baja Ringan & Atapnya.Aluminium Kusen Pintu & Jendela.Plywood & Kayu lainnya.Pipa Paralon & Pipa Lainnya. 
Keramik & Granit.Perlengkapan Sanitary. Aksesories Pintu & Jendela.
Segala jenis Kaca Bangunan.Aluminium Composite Panel.Kawat Baja & Besi. 
Karpet Import & VINYL. Kusen, Pintu & Jendela Kayu. Windows Fashion.Mekanikal Elektrikal.Meubelair Kantor & Sekolah.
Pipa HDPE.Pipa Air Panas.HPL.Cat.Pipa Gorong-Gorong.Plat Kapal.Dll.
Untuk melengkapi kebutuhan pelanggan, kami juga menyediakan Jasa Kontraktor, Jasa Arsitek & Jasa Konsultan.
Untuk informasi lebih jelas, dapat menghubungi Marketing kami.
Terima kasih. www.jayamakmurabadi.co.id
CV. Jaya Makmur Abadi 
Jl. Brigjend Katamso No. 2 Samarinda. Kalimantan Timur 75117.Telp : 0541-7802915Fax. : 0541-766315Email : sales@jayamakmurabadi.co.id
 

 
 ","
              Head Office :Jl. Brigjend Katamso No. 2. Samarinda. Kalimantan Timur ",Samarinda ,Kalimantan Timur,+62 823-5215-3244,+62 813-4942-8940,+62 852-4900-5619
KANTOR HUKUM GP & PARTNERS,"
                                    PREMIUM GOLD
                                ",Konsultan Hukum,"
call : 081231487845 . KANTOR PENGACARA / ADVOKAT GERMAN PANJAITAN SH. M.H.
PENGACARA SURABAYA  call   081231487845  ,   DARI KANTOR HUKUM GERMAN PANJAITAN SH MH & PARTNERS.KANTOR ADVOKAT / PENGACARA ,KONSULTAN HUKUM BERTUJUAN UNTUK DAPAT MEMBANTU, MENYELESAIKAN BERBAGAI KASUS-KASUS DI INDONESIA, BAIK YANG BERASAL DARI BERBAGAI DAERAH MANAPUN DI INDONESIA, DAN DAPAT MEMBANTU SEBAGAI LEGAL PERUSAHAAN, CORPORATE LAWYER, MAUPUN KELUARGA YG PROFESIONAL UNTUK KEMAJUAN DAN PERKEMBANGAN PERUSAHAAN.KANTOR KAMI BERKOMITMEN UNTUK DAPAT MEMBANTU MENGUTAMAKAN KEPENTINGAN KLIEN KAMI DARI BERBAGAI DAERAH. DENGAN PENYELESAIAN SECARA PROFESIONAL UNTUK KEPUASAN KLIEN KAMI.KAMI BERUPAYA MEMBERI PELAYANAN YANG KHUSUS, KEPADA KLIEN KAMI YANG TEKAH MEMBERIKAN KEPERCAYAAN PENUH KEPADA KAMI. TANPA MEMANDANG DARI SEGI EKONOMI KLIEN, BAIK SECARA PERORANGAN , KELUARGA, MAUPUN PERUSAHAAN. DAN JUGA PENANGANAN HAKI (HAK ATAS KEKAYAAN INTELEKTUAL), BIDANG HAK CIPTA, PATEN, MEREK DLL .CALL 081231487845 , PENGACARA SURABAYA  , KAMI DAPAT MENYELESAIKAN BERBAGAI PERMASALAHAN HUKUM BAIK ITU PIDANA MAUPUN PERDATA, ANTARA LAIN :1. PERDATA :- JASA LITIGASI (PENYELESAIAN DI PERSIDANGAN),- GUGATAN PERDATA,- PERBUATAN MELAWAN HUKUM,- WANPRESTASI,- TALAK,- PERCERAIAN,- WARIS,- PERJANJIAN (MOU),- HUTANG PIUTANG DAN LAIN LAIN.2. PIDANA.KAMI DAPAT MENDAMPINGI PELAPOR MAUPUN SELAKU TERLAPOR  DI KEPOLISIAN ,, POLSEK , POLRES, POLDA , MABES , SERTA DI TINGKAT BANDING, KASASI, DAN PK(PENINJAUAN KEMBALI) SECARA PROFESIONAL, PENDAMPINGAN ADANYA DUGAAN KORUPSI YANG DISANGKAKAN KEPADA PEJABAT PEMERINTAH, BUMN, MAUPUN INSTANSI LAINYA DI INDONESIA, DAN UNTUK NON LITIGASI (PENYELESAIAN DI LUAR PERSIDANGAN) KAMI DAPAT MEMBANTU MELALUI : MEDIASI.KAMI JUGA DAPAT MEMBANTU UNTUK PENGURUSAN PENDAFTARAN MEREK, PATEN, UTANG PIUTANG WIN-WIN SOLUTION, KONSULTASI. DAN DAPAT MENYELESAIKAN PENANGANAN MASALAH KREDIT MACET, HINGGA FASILITATOR, MEDIASI, GUNA PENYELESAIAN HUTANG.UNTUK LEBIH JELAS DAPAT MENGHUBUNGI KAMI DI ALAMAT ::JL. Embong Malang 1-5 Floor SURABAYA.ATAU CALL :  081-231487845.E-MAIL : gerlin_ sbylawyer@ yahoo.com , panjaitanadvokat@gmail.comwww.germanpanjaitan.comhttp://advokatpanjaitan.blogspot.com            ","
              Jl. Embong Malang 1-5 floor 23 Surabaya            ",Surabaya,Jawa Timur,+62 812-3148-7845,None,None
