Name,Membership,Category,Description,Address,City,Province,telp1,telp2,telp3
CV. JAYA MAKMUR ABADI,"
PREMIUM RUBY
",Photografi,"
CV. Jaya Makmur Abadi, perusahaan yang bergerak dibidang perdagangan umum Material Konstruksi & material lainnya, dan telah berpengalaman lebih dari 10 Tahun. 
Berdiri sejak Tahun 2005 dengan nama Jaya Makmur Abadi, dan diresmikan pada tahun 2010 oleh notaris Edward Agustin menjadi CV. Jaya Makmur Abadi. 
CV. Jaya Makmur Abadi bekerja sama dengan beberapa Pabrik & Distributor Material dan hingga kini sudah melayani lebih dari 900 pelanggan, yang terdiri dari pelanggan pribadi/perusahaan baik dari dalam & luar daerah di Indonesia. 
 
Visi & Misi : 


Menciptakan sistem perusahaan yang sistematis & fleksibel dalam hal pelayanan.
Menciptakan lapangan kerja & Sumber daya Manusia yang terampil, profesional& handal. 
Menciptakan pelayanan & kerjasama yang berkesinambungan dengan pelanggan.
Menjadi perusahaan multinasional yang dapat memberi sumbangsih terhadap perekonomian di Indonesia. 

CV. Jaya Makmur Abadi.General Supplier & Trading : Besi Beton & Baja. Rangka Baja Ringan & Atapnya.Aluminium Kusen Pintu & Jendela.Plywood & Kayu lainnya.Pipa Paralon & Pipa Lainnya. 
Keramik & Granit.Perlengkapan Sanitary. Aksesories Pintu & Jendela.
Segala jenis Kaca Bangunan.Aluminium Composite Panel.Kawat Baja & Besi. 
Karpet Import & VINYL. Kusen, Pintu & Jendela Kayu. Windows Fashion.Mekanikal Elektrikal.Meubelair Kantor & Sekolah.
Pipa HDPE.Pipa Air Panas.HPL.Cat.Pipa Gorong-Gorong.Plat Kapal.Dll.
Untuk melengkapi kebutuhan pelanggan, kami juga menyediakan Jasa Kontraktor, Jasa Arsitek & Jasa Konsultan.
Untuk informasi lebih jelas, dapat menghubungi Marketing kami.
Terima kasih. www.jayamakmurabadi.co.id
CV. Jaya Makmur Abadi 
Jl. Brigjend Katamso No. 2 Samarinda. Kalimantan Timur 75117.Telp : 0541-7802915Fax. : 0541-766315Email : sales@jayamakmurabadi.co.id
 

 
 ","
              Head Office :Jl. Brigjend Katamso No. 2. Samarinda. Kalimantan Timur ",Samarinda ,Kalimantan Timur,+62 823-5215-3244,+62 813-4942-8940,+62 852-4900-5619
PT Biruni Geo Pratama,"
                                    PREMIUM GOLD
                                ",Photografi,"
Tahun 2007 kami memulai usaha dibidang penjualan alat survey dan pemetaan seperti GPS, Total Station, Theodolite,echo sunder, water pass, Laser distance meter dan alat pendukung lainnya seperti software dan peta digital. Tahun 2008 kami mulai ekspansi dengan memasarkan  teleskop dan binocular. Kami berusaha memberikan total solusi dibidang survey dan pemetaan, kami tidak hanya menjual dengan harga terbaik tetapi kami juga memberikan layanan support seperti konsultasi dan training pemakaian alat.
 
Didukung tenaga dibidang survey specialist ( Geodetic Engineer), kami berusaha memberikan solusi masalah-masalah teknis dibidang survey dan pemetaan. Karena membuat peta bukan sekedar menarik meteran tapi banyak sekali faktor-faktor yang perlu dipertimbangkan seperti  transformasi koordinat dan proyeksi.Saat ini kami juga melayani Jasa service, Kalibrasi dan rental alat survey dan Jasa Survey teristris dan pemetaan udara 
 
Visi dan Misi kami :
 


Menjadi mitra yang sinergi  bagi Perusahaan atau perorangan yang membutuhkan alat survey dan pemetaan.
Memajukan dunia survey dan pemetaan di Indonesia, dengan menyediakan alat yang bermutu dan didukung support teknis yang benar.
Mampu bersaing menghadapi era ekonomi global, dengan menjadi perusahaan yang bisa berskala nasional.


 
 
Apa kelebihan kami
 


Kami ditunjuk sebagai reseller resmi untuk memasarkan alat survey merk : Leica, Trimble, Nikon, Spectra,Topcon, Geomax.
Tahun 2009 kami ditunjuk authorized dealer untuk produk Teleskop dan binocular merk Celestron
Tahun 2012 kami ditunjuk sebagai authorized dealer untuk Produk GPS merk TOMTOM
Tahun 2016 kami ditunjuk untuk memasarkan Drone Merk DJI dan UAV Fixwing

 ","
              Mall WTC Matahari Serpong Lantai 2 blok S20 Tangerang
021- 53153871  021-7410545 Fax 021-7410064
Email : info@biruni.co.id  http://www.biruni.co.id
SMS/WA/Call : +6281298737575            ",Tangerang Selatan,Banten,+62 812-9873-7575,None,None
PT ANDALAN BANGUN SEJAHTERA,"
                                    PREMIUM GOLD
                                ",Photografi,"
              Penjelasan Ringkas : PT. ANDALAN BANGUN SEJAHTERA Jl. Sumur Batu Raya no. 1 Kemayoran Jakarta Pusat Indonesia - 10640 Telp : 021 - 42803207, 4227517 Fax : 021 - 42803208 Contact Person : Marketing : email : sales@andalanbangun.com Marketing : Bpk Juni Mobile : +62811 198 0702 Kami menyediakan alat-alat laboratorium & Intrument untuk berbagai keperluan dan kebutuhan dari berbagai merek alat-alat laboratorium berupa: Microbiology, Chemical and Reagent, Laboratory and Scientific Equipment, Medical Equipment, dan Glassware. Product : HACH, MEMMERT, OHAUS, KETT, KERN, TAKEMURA, EPPENDORF, BOECO, JULABO, CORNING, AXYGEN, PYREX, IWAKI, WHATMAN, SOCOREX, BRAND, IKA, ADVANTEC, DIFCO, MERCK CHEMICAL, SIGMA ALDRICH, DURAN, LOVIBOND, INTERSCIENCE, SEWARD, HETTICH, METTLER TOLEDO, ALL AMERICAN, ATAGO, AZ Instrument, BROOKFIELD, CRITERION, EXTECH, FUNKE GERBER, GEMMY, GFL, GILSON, HANNA, HIRAYAMA, RION, USBECK, GOSSELIN, DAIHAN LABTECH, THERMOSSCEINTIFIC, etc., • GENERAL LAB PRODUCT : BEAKERS - Plastic Beaker - Glass Beaker BOTTLES - Aspirator Bottle - BOD Bottle - Round Bottle - Media Bottle - Reagent Bottle - Sample Bottle - Serum Bottle - Specimen Bottle - Universal Bottle - Wash Bottle CRUCIBLES - Porcelain Crucibles - Silica Crucibles - Platinum Crucibles - Crucible Tong DESICATORS - Desiccators ( Non-Vacuum) - Desiccators ( Vacuum) FUNNELS - Powder Funnels - Utility Funnels - Buchner Funnels - Separating Funnels FLASKS - Baffled Shake Flask - Conical Flask - Dewar Flask - Distillation Flask - Filtering Flask - Flat Bottom Flask - Iodine Flask - Kjeldahl Flask - Round Bottom Flask - Tissue Culture Flask - Volumetric Flask MEASURING CYLINDERS - Plastic Measuring Cyclinder - Glass Measuring Cyclinder PIPETTES - Pasteur Pipette - Transfer Pipette - Measuring Pipette - Volumetric Pipette - Micropipette - Pipette Filler TUBES & VIALS - Capillary Tubes - Centrifuge Tubes - Cryo Tubes - Culture Test Tubes - Durham Tubes - Nessler Tubes - Specimen Tubes - Test Tubes - Scintillation Vials - Others Vials TUBING & CONNECTORS - Tubing Connectors - Rubber Tubing - Silicone Tubing - Teflon Tubing STOPPERS - Cork Stopper - Rubber Stopper - Silicone Stopper - Steristopper - Teflon Stopper SYRINGES - Plastic Syringes - Glass Syringes - Micro Syringes - Syringe Filters PETRI DISHES - Plastic Petri Dish - Glass Petri Dish - Moisture Dish BURETTES - Glass Burettes - Automatic Burretes - Bottle-Top Burettes - Micro Burretes FILTER PAPERS & MEMBRANCES - Cellulose Filters - Glass Microfiber Filters - Membrane Filters INDICATOR PAPERS - Litmus Papers - Cobalt Chloride Paper - pH Paper - Universal Indicator Paper MEASURING INSTRUMENTS - Micrometers - Internal & External Calipers - Vernier Calipers - Thickness Gauges BALANCES & SCALES - Pocket Balances - School Balances - Precision Balances - Analytical Balances - Moisture Balances - Spring Scales - Platform Scales - Hanging Scales METER - pH Meters - EC & TDS Meters - ORP Meters - Combo Meters - DO Meters - COD Meters - Photometers - Turbidity Meters - Lux Meter - Moisture Meters THERMOMETER & THERMO-HYGRO - Laboratory Thermometers - Dial Thermometers - Medical Thermometers - Max-Min Thermometer - Wall Thermometers - Infrared Thermometers - Digital Thermometers - Thermocoupe Thermometers - Thermo-Hygrometers - Data Loggers CENTRIFUGES - Small Centrifuges - Hematocrit Centrifuge - Microlitre Centrifuges - Benchtop Centrifuges - Floorstanding Centrifuges CRUSHING INSTRUMENTS - Blenders - Grinders - Homogenizers - Stomachers - Test Sieves STERILIZERS - Glass Bead Sterilizer - Steam Sterilizer - Sterilizing Tube - Sterilizer Accessories OVENS - Universal Ovens - Vacuum Ovens INCUBATORS - Precision Incubator - Cooled Incubator - CO2 Incubator - BOD Incubator - Shaking Incubator LABORATORY BATHS - Oil Bath - Sand Bath - Shaking Water Bath - Ultrasonic Cleaner Bath - Water Bath HEATING INSTRUMENTS - Bunsen Burners - Dry Block Heaters - Heating Mantles - Hot Plates MIXING INSTRUMENTS - Magnetic Stirrers - Overhead Stirrers - Shakers ROTARY EVAPORATORS - Vertical Type - Diagonal Type MICROSCOPES - Monocular Microscopes - Binocular Microscopes - Stereo Microscopes - Microscope Glass Slides - Microscope Cover Slips - Prepared Microscope Slides REFRACTOMETERS - Brix Refractometers - Digital Brix Refractometers - Salinity Refractometers - Digital Salinity Refractometer - Honey Refractometer VISCOMETERS - U-Tube Viscometers - Rotational Viscometers WATER PURIFICATION SYSTEMS - Water Distiller - Water Deionizer OTHERS • Air Analysis • Air Cleaning • Airflow Meters • Animal Care • Apparel • Aquametry • Asphalt • Atomic Absorption • Autoclaves • Bacon Bombs • Bags • Balances • Barometers • Beakers • Blenders • Blood Collection • BOD • Boiling Chips • Borescopes • Bottles • Bottletop Dispensers • Buchner Funnels • Burets • Burners • Calculators • Calipers • Calorimeters • Centrif uge Tubes • Centrifuges • Centrifugeware • Chemicals • Chlorine Analyzers • Chlorine Meters • Clamps & Supports • Cleaning • Clinical Analysis • COD • Colorimeters • Conductivity • Conductivity Meters • Controllers • Counters • Crucibles • Crushing • Cryogenics • Cultur e Media • Culture Tubes • Cuvettes • Cylinders • Dairy Testing • Deionization / Distillation • Desiccators • Discontinued items • Dispensers & Pipetters • Dissolved Oxygen • Dri-Baths • Drug Testing • Dry Baths • Drying Ovens • Educational Products • Electrochemistry • Emergency Equipment • Environmental Chambers • Evaporating Dishes • Extraction Equipment • Extraction Thimbles • Filtration • FisherBrand • Flame Photometers • Flash Point • Flasks • Flocculators • Flowmeters • Fluorimeters • Food Analysis • Food Processing • Freezers • Fume Hoods • Funnels • Furnaces • Furniture • Gas Chromatography • Gas Regulators • General Laboratory • Glassware • Glassware Dryers • Glove Boxes • Gloves • Graduated Cylinders • Hardness Testers • Haws • Health Care • Heating • Heating Blocks • Heating Elements • Heating Mantles • Heating Tapes/ Mats/ Blankets • Histology • Homogenizers • Hot Plates & Stirrers • Humidity • Hydrometers • Hygrometers • Ice Makers • Imhoff Cones • Incubators • Information • ISE • Jars • Karl Fischer Titrators • Kneader • Lab Jacks • Labeling • Laboratory Reactors • Les • Life Science • Light Meters • Liquid Handling • Magnetic Stirrers • Magnets • Materials Testing • Medical Products • Melting Point • Microscopes • Milk Testing • Mixing • Moisture Analyzers • Mortars and Pestles • Multiparameter Meters • Multiwell Plates • Organizers • ORP • Ovens • PCR/ Life Science • Penetrometers • Petri Dishes • Petroleum Testing • pH Buffer Standards • pH Controllers • pH Electrodes • pH Meters & Testers • pH Transmitters • Photometers • Pipet Fillers • Pipet Washers • Pipets • Pipettes • Pipetting • Pitchers • Plastic Labware • Plumbing Fixtures • Polarimeters • Porcelain ware • Pressure Meters • Process Instrumentation • Pumps • Pumps & Dispensers • Pyrometers • Racks • Recorders • Refractometers • Refrigerators & Freezers • Reverse Osmosis Information • Rheology • Rockers • Rotary Evaporators • Rotators • Rubber Stoppers • Rubber Tubing • Safety • Sample Handling • Sample Preparation • Separatory Funnels • Serum Vial Seals • Serum Vial Stoppers • Serum Vials • Shakers • Sieves and Shakers • Siphons & Pumps • Slide Warmers • Soil Sampling • Soil Testing • Solutions • Sound Meters • Soxhlet Extractors • Specimen Containers • Spectrophotometers • Standards • Steam Baths • Sterilizers • Stir Bars • Stirring • Stirring Hot Plates • Stirring Plates • Stoppers • Tachometers • TDS Testers • Teflon Labware • Temperature & Humidity • Test Papers • Test Tube Racks • Test Tubes • Thermal Cyclers • Thermistor Products • Thermocouples • Thermometers • Thermoreactors • Timers and Stopwatches • Titrators • Tools • Trays • Tube Racks • Tubing • Turbidity Meters • Ultrasonic Cleaners • Vacuum Pumps • Vials • Videos • Viscosity • Vortex Mixers • Vwr • Water Baths • Water Chillers • Water Purification • Water Testing • Weather • Weights dan Kebutuhan instrument pendukung Laboratorium            ","
              JL. Sumur Batu No.1 RT.01 - RW.06 Kel.Sumur Batu - Kec.. Kemayoran            ",Jakarta Pusat,DKI Jakarta,+62 811-1980-702,None,None
