Name,Membership,Category,Description,Address,City,Province,telp1,telp2,telp3
CV. JAYA MAKMUR ABADI,"
PREMIUM RUBY
",Agen Properti,"
CV. Jaya Makmur Abadi, perusahaan yang bergerak dibidang perdagangan umum Material Konstruksi & material lainnya, dan telah berpengalaman lebih dari 10 Tahun. 
Berdiri sejak Tahun 2005 dengan nama Jaya Makmur Abadi, dan diresmikan pada tahun 2010 oleh notaris Edward Agustin menjadi CV. Jaya Makmur Abadi. 
CV. Jaya Makmur Abadi bekerja sama dengan beberapa Pabrik & Distributor Material dan hingga kini sudah melayani lebih dari 900 pelanggan, yang terdiri dari pelanggan pribadi/perusahaan baik dari dalam & luar daerah di Indonesia. 
 
Visi & Misi : 


Menciptakan sistem perusahaan yang sistematis & fleksibel dalam hal pelayanan.
Menciptakan lapangan kerja & Sumber daya Manusia yang terampil, profesional& handal. 
Menciptakan pelayanan & kerjasama yang berkesinambungan dengan pelanggan.
Menjadi perusahaan multinasional yang dapat memberi sumbangsih terhadap perekonomian di Indonesia. 

CV. Jaya Makmur Abadi.General Supplier & Trading : Besi Beton & Baja. Rangka Baja Ringan & Atapnya.Aluminium Kusen Pintu & Jendela.Plywood & Kayu lainnya.Pipa Paralon & Pipa Lainnya. 
Keramik & Granit.Perlengkapan Sanitary. Aksesories Pintu & Jendela.
Segala jenis Kaca Bangunan.Aluminium Composite Panel.Kawat Baja & Besi. 
Karpet Import & VINYL. Kusen, Pintu & Jendela Kayu. Windows Fashion.Mekanikal Elektrikal.Meubelair Kantor & Sekolah.
Pipa HDPE.Pipa Air Panas.HPL.Cat.Pipa Gorong-Gorong.Plat Kapal.Dll.
Untuk melengkapi kebutuhan pelanggan, kami juga menyediakan Jasa Kontraktor, Jasa Arsitek & Jasa Konsultan.
Untuk informasi lebih jelas, dapat menghubungi Marketing kami.
Terima kasih. www.jayamakmurabadi.co.id
CV. Jaya Makmur Abadi 
Jl. Brigjend Katamso No. 2 Samarinda. Kalimantan Timur 75117.Telp : 0541-7802915Fax. : 0541-766315Email : sales@jayamakmurabadi.co.id
 

 
 ","
              Head Office :Jl. Brigjend Katamso No. 2. Samarinda. Kalimantan Timur ",Samarinda ,Kalimantan Timur,+62 823-5215-3244,+62 813-4942-8940,+62 852-4900-5619
Unique Carpet & Deco Bali,"
                                    PREMIUM GOLD
                                ",Agen Properti,"
              Unique Carpet & Deco Bali bergerak dalam bidang Distribusi dan pengerjaan proyek karpet & bahan Dekorasi / interior . Produk yang kami tawarkan seperti : 1. Handmade Natural Carpet ( Wooden Carpet, Natural Fiber Carpet) 2. Carpet roll / Carpet Tile 3. Wooden Flooring / Laminated Flooring Parquet - Vinyl Flooring 4. Wallpaper / Wallcovering 5. Vinyl Carpet, Carpet Tile, Carpet Pile 6. Carpet Industry 7. Handmade Acrylic/ Wool Carpet 8. Rumput Sintetis 9. Rubber Paving ( For Playground, Jogging Track) 10. PVC Placemat / Table mat 11. Window Blinds - Gordyn - Awning 12. Yoga Accessories 13. etc. Kami menerima pesanan secara retail maupun project. Bagi anda yang berada di bali yang memiliki rencana untuk menata interior rumah, kantor, villa dan hotel. Kami melayani jasa pemasangan wallpaper, lantai vinyl, parquet kayu dan lainnya untuk keperluan interior anda. Untuk contoh produk silahkan kunjungi gallery kami di jalan Hayam Wuruk no.326 ( Sebelah Konsulat Amerika Denpasar) dan toko kami di jalan By Pass Ngurah Rai No.290 A Denpasar, Bali. Untuk keterangan lebih lanjut mengenai produk kami, jangan ragu untuk menghubungi kami melalui form kontak atau telpon yang tertera. Silahkan Hubungi kami : Head Office Bali ( Denpasar) UNIQUE CARPET & DECO BALI Jln. Hayam Wuruk No.326 Renon Denpasar Sebelah consulat Amerika Tel/ fax : 0361-4744851 Hp : 0819858868, 085888858868, 081999538338 E-mail : uniquedecobali@ yahoo.com a_ uniquecarpetdecobali@ yahoo.com s_ uniquecarpetdeco @ yahoo.com Facebook : Unique Carpet Deco Bali UNIQUE CARPET & DECO BALI Branch Jl. By Pass Ngurah Rai Sanur No 290A - Seberang Restoran Serenity Tel / Fax : 0361-286543 Email : uniquedecobali@ yahoo.com uniquecarpetdecobali@ yahoo.com Facebook : Unique Yoga Bali Carpet - Wall to wall Carpet - Tile Carpet - Event Vinyl Laminate - Flooring Anti-Fatigue & Doormat Artificial Grass Wallpaper Roller Blinds Vertical Blinds Horizontal Blinds Accessories Karpet project, Karpet Roll, Karpet tile, Karpet hand tufted custom, Karpet acrylic, Karpet karet, Karpet vinyl, Karpet kantor, Karpet hotel, Karpet restaurant, Karpet pameran, Karpet rumah, Karpet Ruang tidur, Karpet ruang tamu, Karpet dapur, Karpet gudang, Karpet pesawat, Karpet container, Karpet kapal ferry, Karpet karoseri, Karpet kereta api, Karpet bus, Karpet rumah sakit, Karpet mushola, Karpet lapangan olahraga Keset doormat, Keset nomad, Keset 3M, Keset mie / bihun, Keset anti slip Handmade natural carpet, Karpet natural, Karpet anyaman, Karpet sisal, Karpet serat, Karpet abaca, Karpet banana fiber, Karpet seagrass, Karpet wool, Karpet cotton, Karpet raffia, Parket kayu, Wooden parquet, Lantai kayu Rumput sintetis, Rumput plastik, Rumput pvc, Karpet rumput List kayu, List parket, List dinding, List vinyl, List pvc Wallpaper kantor / office, Wallpaper rumah , Wallpaper polos , Wallpaper motif, Wallpaper vinyl , Wallpaper nonwoven, Wallpaper bunga, Wallpaper kayu, Wallpaper batu , Wallpaper anyaman, Wallpaper korea, Wallpaper Sangetsu, Wallpaper Lily color, Wallpaper Exselect, Wallpaper Reserve 1000, Wallpaper fine 1000 Placemat pvc, Placemat anyaman, Placemat hotel, Placemat restoran, Placemat caf√© Amenities hotel Gordyn , Krey, Vertical blind, Horizontal blind, Roman shade, Awning Yoga mat, Yoga towel, Yoga props, Yoga ball, Yoga block, Yoga clothing, Yoga accessories            ","
              Jl.Hayam Wuruk No.326, Denpasar Bali            ",Denpasar,Bali,+62 878-6183-3535,None,None
CV. ASINDO,"
                                    PREMIUM GOLD
                                ",Agen Properti,"
Perusahaan yang bergerak di bidang Jual Beli Rumah & Tanah (Property), dan memiliki anak cabang SIFAMA yang bergerak dalam bidang pembuatan / perakitan Depo Air Minum Isi Ulang. ","
              Jl. Borobudur Utara 02 Rt 08/Rw 03 Manyaran Semarang Barat            ",Semarang,Jawa Tengah,+62 812-2657-1007,None,None
Sumber Jaya Surabaya,"
                                    PREMIUM GOLD
                                ",Agen Properti,"
              Sumber Jaya Surabaya adalah yang menjual berbagai macam barang sesuai dengan kebutuhan kita seperti aki kendaraan, rumah , lampu ,pengadaan Projek Solar cell, dll baik secara eceran maupun grosir. Adapun kami bergerak dibidang : - ACCU = Menjual berbagai macam aki Kendaraan mobil dan sepeda motor/ aki alat berat, aki moge, aki Genset, aki forklif, aki UPS, aki mainan anak, aki kapal, aki Solar cell, battery industri dengan berbagai macam Type & Merk yang berkualitas & bergaransi. Selain itu kami juga menerima atau membeli Aki bekas/ rusak anda dengan harga yang tinggi.-Paket Solar cell = PJU Solar cell, Solar Home Sytem (SHS) , PLTS terpusat , Lampu Taman Tenaga Surya , Pompa Air Tenaga Surya , Genset Tenaga MAtahari, Solar charge Controller (BCR) , Box Panel , dll-Pengadaan dan service UPS (Uninterruptible Power Supply)=Kami menyediakan berbagai macam merk UPS seperti : Laplace, Ica, Vektor , Socomex, dll) dan menerima service ups dan ganti battery  - Property & Bahan Bangunan Menjadi agen property bagi anda yang hendak membeli maupun menjual rumah. Juga menjual Tandon air beton dengan harga murah. Serta kami membuka cabang khusus untuk membangun serta merenovasi rumah atau bangunan ( kontraktor) dengan sistem pembayaran per periode. - Solar cell ( Energi Terbarukan) Penyedia macam-macam kebutuhan projek Solar cell di Nusatara Indonesia , Seperti Projek PJU tenaga Surya, Solar Home System ( SHS) , Projek Solar Panel Terpusat . - Kontraktor Mekanikal elektrikal Menyediakan Jasa ME untuk keperluan Kantor , Mall, PAbrik, Bandara, Gedung , ruko, toko, maupun rumah tangga. - Dan masih banyak lagi bidang-bidang lain yang kami bisa tawarkan untuk anda. Anda bisa mengklik "" Info Perusahaan"" , "" Katalog Produk"" , "" Penawaran Dagang"" dan "" Hubungi Kami"" untuk melihat isi dan informasi lain dari situs Sumber JAya Surabaya.            ","
              Jalan Medokan Ayu MA1- H14, Medokan Ayu, Rungkut.- No.telp Marketing : (0823 3549 3766 Kantor), (0822.444.54.123 Fara), (081.369.202.202 Candra)  ",Surabaya,Jawa Timur,+62 822-4445-4123,None,None
PT. Arya Pancarindo Perkasa,"
                                    PREMIUM GOLD
                                ",Agen Properti,"
              Kami PT. Arya Pancarindo Perkasa ( APP) adalah perusahaan yang bergerak dalam bidang general trading, supplier, distributor tunggal resmi bel otomatis sekolah ( BOS) untuk sekolah-sekolah, pabrik, instansi dan tempat-tempat yang memerlukan tingkat kedisiplinan "" ON TIME"" . Audio Sound Sistim merupakan keahlian utama dari perusahaan kami, yang telah berdiri sejak tahun 2008, PT.APP adalah perusahaan yang resmi yang memiliki Akte Notaris Perusahaan, Surat Keputusan Kementrian Hukum dan HAM RI, Domisili Perusahaan, NPWP, SIUP, TDP dan PKP di Kantor Pajak dan Rekening Perusahaan. Dan hingga saat ini sudah lebih dari 500 client yang telah menjalin kerjasama dengan kami. Bukan hanya mensuply tapi juga kami dapat melakukan instalasi / pemasangan yang didukung tenaga-tenaga yang handal dan profesional di bidangnya. Penyediaan alat dan Instalasi yang dapat disediakan oleh perusahaan kami adalah sbb : 1. Audio Sistim di gedung, sekolah, pabrik, gudang, mall, tempat wisata, apartement, mesjid, instansi baik pemerintah maupun swasta. 2. Audio Selektor + pendukungnya. 3. LCD Projector + perangkatnya 4. CCTV 5. Instalasi Listrik di Pabrik dan Perumahan. 6. Smoke dan Heat Detector 7. Car Call 8. Paging System Dalam memperluas bidang USAHA PT. Arya Pancarindo Perkasa, sejak tahun 2013, kami merambah di bidang "" Pembangunan"" dalam bidang Konstruksi Sipil dan juga pengadaan dalam bidang Electrical Development. Adapun cakupan nya adalah : - Perencanaan - Design dan Gambar - Konstruksi - Renovasi Juga kami menyediakan "" Design Interior"" sebagai pelengkap di Bidang Konstruksi Sipil. Untuk Electrical Development yang dapat kami lakukan seperti misalnya : menggabungkan mesin Alarm dengan Bel Timer otomatis di suatu pabrik dengan tambahan alat yang disebut Alarm Mixer Detection. Untuk Informasi lebih lanjut dapat menghubungi : Office : ( 021) 7975465  Hp : 081219450524 WA : 085697946499            ","
              Jl. Warung Jati Timur Raya no. 69Hp : 081219450524 WA : 085697946499            ",Jakarta Selatan,DKI Jakarta,+62 856-9794-6499,None,None
Kamarmandiku.com,"
                                    PREMIUM GOLD
                                ",Agen Properti,"
              Apakah Anda Sedang mencari Perlengkapan- peralatan kamar mandi serta dapur yang berkualitas dan bergaransi? .Kini telah hadir Kamar Mandiku.com, yang akan membantu anda menemukan perlengkapan kamar mandi yang lengkap dan dengan model yang terbaru.Dengan Dukungan dari produk terkenal serta terpercaya Seperti: Roca bathroom, Teka,Midea, Grohe,Toto, American Standard, Wilo, Bold, Biotaff, Taff, Biofil, Hitachi, Sanei, Chrysolite, Meridian, Wika, Solahart, Honeywell, Daalderop, Penguin ,Tecnogas Waterco, Profil Tank, Grohe, Crestial, 3M, Edwards, Broco, Wasser, Toclas, Yamaha, samsung, yale dll.Kamar Mandiku.com akan membantu mewujudkan semua mimpi anda. Kemudahan transaksi serta harga yang kompetitif menjadikan pelayanan kami berbeda dengan toko lain pada umumnya. MOTTO : "" Tinggal klik barang langsung dikirim"" . Begitu mudahnya ! ! . Sehingga anda akan menghemat waktu yang berharga serta uang yang tidak sedikit untuk berburu perlengkapan kamar mandi yang anda inginkan. Kamar Mandiku.com juga memberikan gratis desain kamar mandi, gratis pemasangan serta gratis jasa pengiriman. Trade in ( tukar Tambah ) , Jasa Renovasi serta dukungan instalasi. Dengan pengalaman lebih dari 9 tahun, kamar mandiku.com telah melayani seluruh konsumen di Indonesia, bahkan mancanegara seperti malaysia & Brunai. Kejujuran serta tanggung jawab menjadi modal utama kami untuk terus maju & berkembang. Disertai dukungan sistem informasi yang canggih kami siapkan untuk memberikan Pelayanan terbaik kami. Nikmati dan temukan apa yang sedang anda cari, hubungi kami jika ada yang mungkin menjadi pertanyaan, 24 jam kami akan menjawab segala pertanyaan dan masukan anda. Akhir kata senang bisa berkenalan dengan anda semua. Selamat berbelanja, harapan kami anda akan senang dengan pelayanan kami. Salam Sukses            ","
              Rukan Niaga Boulevard  Metland  menteng blok i1 No.26  Raya Bekasi Km.26 Jakarta Timur            ",DKI Jakarta,DKI Jakarta,+62 811-1185-538,None,None
