Name,Membership,Category,Description,Address,City,Province,telp1,telp2,telp3
CV. JAYA MAKMUR ABADI,"
PREMIUM RUBY
",Arsitek & Sipil Bangunan,"
CV. Jaya Makmur Abadi, perusahaan yang bergerak dibidang perdagangan umum Material Konstruksi & material lainnya, dan telah berpengalaman lebih dari 10 Tahun. 
Berdiri sejak Tahun 2005 dengan nama Jaya Makmur Abadi, dan diresmikan pada tahun 2010 oleh notaris Edward Agustin menjadi CV. Jaya Makmur Abadi. 
CV. Jaya Makmur Abadi bekerja sama dengan beberapa Pabrik & Distributor Material dan hingga kini sudah melayani lebih dari 900 pelanggan, yang terdiri dari pelanggan pribadi/perusahaan baik dari dalam & luar daerah di Indonesia. 
 
Visi & Misi : 


Menciptakan sistem perusahaan yang sistematis & fleksibel dalam hal pelayanan.
Menciptakan lapangan kerja & Sumber daya Manusia yang terampil, profesional& handal. 
Menciptakan pelayanan & kerjasama yang berkesinambungan dengan pelanggan.
Menjadi perusahaan multinasional yang dapat memberi sumbangsih terhadap perekonomian di Indonesia. 

CV. Jaya Makmur Abadi.General Supplier & Trading : Besi Beton & Baja. Rangka Baja Ringan & Atapnya.Aluminium Kusen Pintu & Jendela.Plywood & Kayu lainnya.Pipa Paralon & Pipa Lainnya. 
Keramik & Granit.Perlengkapan Sanitary. Aksesories Pintu & Jendela.
Segala jenis Kaca Bangunan.Aluminium Composite Panel.Kawat Baja & Besi. 
Karpet Import & VINYL. Kusen, Pintu & Jendela Kayu. Windows Fashion.Mekanikal Elektrikal.Meubelair Kantor & Sekolah.
Pipa HDPE.Pipa Air Panas.HPL.Cat.Pipa Gorong-Gorong.Plat Kapal.Dll.
Untuk melengkapi kebutuhan pelanggan, kami juga menyediakan Jasa Kontraktor, Jasa Arsitek & Jasa Konsultan.
Untuk informasi lebih jelas, dapat menghubungi Marketing kami.
Terima kasih. www.jayamakmurabadi.co.id
CV. Jaya Makmur Abadi 
Jl. Brigjend Katamso No. 2 Samarinda. Kalimantan Timur 75117.Telp : 0541-7802915Fax. : 0541-766315Email : sales@jayamakmurabadi.co.id
 

 
 ","
              Head Office :Jl. Brigjend Katamso No. 2. Samarinda. Kalimantan Timur ",Samarinda ,Kalimantan Timur,+62 823-5215-3244,+62 813-4942-8940,+62 852-4900-5619
PT. TRIPUTRA JAYA MAKMUR,"
PREMIUM RUBY
",Arsitek & Sipil Bangunan,"
PT. TRIPUTRA JAYA MAKMUR General Supplier, Contractor & Sub-Contractor Sipil- Arsitektur - Mekanikal & Elektrikal. 
Mulai berkarya dalam bidang Perdagangan umum barang & Jasa untuk melayani infrastruktur di Kalimantan Timur sejak tahun 2005, berawal dengan nama CV. TRIPUTRA JAYA MAKMUR diresmikan pada tahun 2015 oleh Notaris Samarinda. Kemudian pada Tahun 2020, mendirikan perusahaan PT. TRIPUTRA JAYA MAKMUR.Kami menawarkan Jasa Kontraktor & Sub-kontraktor khusus wilayah Kalimantan dengan keterangan pekerjaan sebagai berikut :ARSITEKTUR 

Perumahan tunggal dan Koppel serta perawatannya.
Perumahan multi hunian beserta perawatannya.
Bangunan pergudangan dan industry beserta perawatannya
Bangunan komersial beserta perawatannya.
Bangunan non perumahan serta perawatannya.
Fasilitas pelatihan sport di luar gedung, tempat rekreasi serta perawatannya.
Pertamanan serta perawatannya.
Pemasangan aksesoris bangunan serta perawatannya.
Pekerjaan dinding dan jendela serta perawatannya.
Pekerjaan interior termasuk perawatannya.
Pengerjaan logam.
Pengerjaan kayu.
Pengerjaan bangunan dan gedung.
Pengerjaan Kaca & Aluminium.
Pengerjaan Aluminium Composite Panel

ELEKTRIKAL

Pembangkit tenaga listrik semua daya beserata perawatannya.
Pembangkit tenaga listrik dengan daya maksimal 10MW beserta perawatannya.
Jaringan transmisi tenaga listrik baru dan terbarukan beserta perawatannya.
Jaringan transmisi tenaga listrik tegangan tinggi dan ekstra tegangan.
Jaringan transmisi telekomunikasi serta perawatannya.
Instalasi kontrol dan instrumentasi serta perawatannya.
Instalasi listrik gedung dan pabrik serta perawatannya.
Instalasi listrik lainnya serta perawatannya.

 MEKANIKAL

Instalasi pemanasan, ventilasi udara dan AC serta perawatannya.
Perpipaan air dalam bangunan serta perawatannya.
Instalasi pipa gas dalam bangunan serta perawatannya.
Insulasi dalam bangunan serta perawatannya.
Instalasi lift dan escalator serta perawatannya.
Pertambangan dan manufaktur serta perawatannya.
Instalasi thermal, bertekanan, minyak, gas, pekerjaan rekayasa serta perawatannya.
Konstruksi alat angkut dan alat angkat serta perawatannya.
Konstruksi perpipaan minyak, gas, dan energy serta perawatannya.
Fasilitas produksi penyimpanan minyak dan gas serta perawatannya.
Jasa penyedia peralatan konstruksi.

 PEKERJAAN SIPIL

Jalan raya dan jalan lingkungan serta perawatannya.
Lapangan terbang dan runway serta perawatannya.
Jembatan serta perawatannya.
Terowongan serta perawatannya.
Jalan bawah tanah serta perawatannya.
Pelabuhan dan dermaga serta perawatannya.
Drainase kota serta perawatannya.
Bendungan serta perawatannya.
Irigasi dan drainase serta perawatannya.
Pengerukan dan pengurukan serta perawatannya.
Pekerjaan penghancuran.
Pekerjaan penyiapan dan pengupasan lahan.
Pekerjaan penggalian dan pemindahan.
Pekerjaan pemancangan.
Pekerjaan pondasi.
Pekerjaan kerangka atap serta perawatannya.
Pekerjaan pembetonan.
Pekerjaan konstruksi baja serta perawatannya.
Pekerja pelaksana khusus lainnya.

Untuk informasi lebih jelas, hubungi Marketing kami. Email : triputrajayamakmurindonesia@yahoo.com
  ","
              Head Office :Panin Tower 8th Floor Jl. Jenderal Sudirman No.7 Klandasan Ilir, Balikpapan.Branch Office :Jl. Brigjend Katamso No. 2A Samarinda. ", ,Kalimantan Timur,+62 858-4906-8419,+62 831-5376-6410,None
PT PANGESTU MEGA GRAHA,"
                                    PREMIUM GOLD
                                ",Arsitek & Sipil Bangunan,"
              PT PANGESTU MEGA GRAHA, anak perusahaan dari PANGESTU GROUP yang bergerak dalam bidang fabrikasi konstruksi baja untuk gudang ataupun pabrik dan konstruksi bidang sipil. Sebagai perusahaan yang bergerak di bidang jasa konstruksi dan di bidang jasa penunjang konstruksi ( pra-konstruksi ) , kami memberikan pekerjaan pelayanan sebagai berikut : 1. Penyediaan Lahan tanah untuk industri sesuai kebutuhan dengan lokasi strategis, dekat pelabuhan internasional dengan harga terjangkau. 2. Pengurusan perijinan Industri ( IMB, ijin HO, UKL-UPL, SIUP, TDP, IUI ) sampai dengan perijinan Kawasan Berikat. 3. Pekerjaan Pengurugan, galian tanah dan pemerataan lahan. 4. Pekerjaan Pembersihan Lahan. 5. Desain, fabrikasi, pemasangan pekerjaan konstruksi rangka atap baja. 6. Pekerjaan konstruksi bidang sipil ( bangunan gedung, kantor, selokan, paving, pagar ) . 7. Instalasi Listrik / electrical.            ","
              JL. MAJAPAHIT NO 76            ",SEMARANG,Jawa Tengah,+62 877-3426-3783,None,None
PT. Bintang Makmur Wiramandiri,"
PREMIUM RUBY
",Arsitek & Sipil Bangunan,"
PT. BINTANG MAKMUR WIRAMANDIRIAdalah perusahaan yang bergerak di bidang Jasa Kontraktor dan PerdaganganJasa Kontraktor meluputi Jasa Sipil (Renovasi dan New Building Hotel, Rumah, Kantor, Apartemen dan lainya)Jasa Non Sipil/Fabrikasi (Pembuatan Conveyor semua tipe Conveyor) dan Jasa Maitenance Mesin skup factory maupun office. Sedangkan untuk Bidang PerdaganganMeliputi Perdagangan Cutting Tools, seperti Pisau Bubut, Milling, Matabor, Endmill, Bearing dan lainyaPT. Bintang Makmur Mandiri Menyediakan juga mesin - mesin untuk kebutuhan Melting Furnace/Mesin Peleburan Aluminium dan menyediakan barang - barang kebutuhan sparepart mesinyang berhubungan dengan melting furnace. Pemegang Brand tunggal Strikowestofen German# mesin tungku peleburan aluminium, wadah peleburan ","
              Jl. Raya Setu No.147 Cibitung Bekasi            ",Bekasi,Jawa Barat,+62 813-1758-9536,None,None
Az Architecture Design,"
                                    PREMIUM GOLD
                                ",Arsitek & Sipil Bangunan,"
              Az Architecturedesign meyediakan Jasa Arsitektur, Jasa Interior Design and Building : Office/ Residential/ Apartemen, Jasa Renovasi Bangunan, Jasa Mekanikal Elektrikal & Plumbing, Jasa Produksi Furniture & Pantri, Jasa Designn & Kontraktor Lanscape            ","
              Ruko Kelapa Dua Residence blok K18 Jl Tugu Raya, Kelurahan Tugu            ",Depok,Jawa Barat,+62 813-6167-1250,None,None
cv.pariwara satu sae,"
                                    PREMIUM GOLD
                                ",Arsitek & Sipil Bangunan,"
CV. Pariwara Satu Sae merupakan Perusahaan yang bergerak di Bidang Media Promosi Periklanan Outdoor maupun Indoor, serta Jasa Branding dan Promosi lainnya.Produk-produk yang kami sediakan antara lain :• Neon Sign + Travo• Lampu LED Samsung + Travo• Huruf Timbul Galvanil, Stainless Steel, Akrilik, Kuningan• Billboard / Papan Nama• Neon Box akrilik / Backlite• Stiker Cutting Scothlite• Stiker Cutting OracalKami didukung oleh tenaga-tenaga Profesional dan Berpengalaman dibidangnya. Kami selalu siap untuk melayani dan memberikan Solusi Marketing Promosi yang terbaik untuk Anda.Telp. 0341-345092 atau HP / WA 08123394055 ","
              • Head Office : Jln. Bareng Raya 2F No. 466 Malang, Jawa Timur, Indonesia.• Phone : 0812-339-4055 (Call or WhatsApp)            ",MALANG,Jawa Timur,+62 812-3394-055,None,None
TUTON ARSITEK,"
                                    PREMIUM GOLD
                                ",Arsitek & Sipil Bangunan,"
TUTON ARSITEK & INTERIOR
Berdiri sejak tahun 2015 perusahaan yang bergerak di bidang jasa interior, jasa arsitek, jasa pembuatan furniture.Visi kami memberikan hasil terbaik untuk kepuasan konsumenMisi kami memberikan design terbaik dalam setiap pekerjaan yang kami kerjakan            ","
              Jl Condet Raya No. 88Balekambang, Condet, Jakarta Timur (Depan Kantor BRI)  email: bee.tuton@gmail.com            ",Jakarta Timur,DKI Jakarta,085773989505,None,None
