Name,Membership,Category,Description,Address,City,Province,telp1,telp2,telp3
PT Biruni Geo Pratama,"
                                    PREMIUM GOLD
                                ",Kamera,"
Tahun 2007 kami memulai usaha dibidang penjualan alat survey dan pemetaan seperti GPS, Total Station, Theodolite,echo sunder, water pass, Laser distance meter dan alat pendukung lainnya seperti software dan peta digital. Tahun 2008 kami mulai ekspansi dengan memasarkan  teleskop dan binocular. Kami berusaha memberikan total solusi dibidang survey dan pemetaan, kami tidak hanya menjual dengan harga terbaik tetapi kami juga memberikan layanan support seperti konsultasi dan training pemakaian alat.
 
Didukung tenaga dibidang survey specialist ( Geodetic Engineer), kami berusaha memberikan solusi masalah-masalah teknis dibidang survey dan pemetaan. Karena membuat peta bukan sekedar menarik meteran tapi banyak sekali faktor-faktor yang perlu dipertimbangkan seperti  transformasi koordinat dan proyeksi.Saat ini kami juga melayani Jasa service, Kalibrasi dan rental alat survey dan Jasa Survey teristris dan pemetaan udara 
 
Visi dan Misi kami :
 


Menjadi mitra yang sinergi  bagi Perusahaan atau perorangan yang membutuhkan alat survey dan pemetaan.
Memajukan dunia survey dan pemetaan di Indonesia, dengan menyediakan alat yang bermutu dan didukung support teknis yang benar.
Mampu bersaing menghadapi era ekonomi global, dengan menjadi perusahaan yang bisa berskala nasional.


 
 
Apa kelebihan kami
 


Kami ditunjuk sebagai reseller resmi untuk memasarkan alat survey merk : Leica, Trimble, Nikon, Spectra,Topcon, Geomax.
Tahun 2009 kami ditunjuk authorized dealer untuk produk Teleskop dan binocular merk Celestron
Tahun 2012 kami ditunjuk sebagai authorized dealer untuk Produk GPS merk TOMTOM
Tahun 2016 kami ditunjuk untuk memasarkan Drone Merk DJI dan UAV Fixwing

 ","
              Mall WTC Matahari Serpong Lantai 2 blok S20 Tangerang
021- 53153871  021-7410545 Fax 021-7410064
Email : info@biruni.co.id  http://www.biruni.co.id
SMS/WA/Call : +6281298737575            ",Tangerang Selatan,Banten,+62 812-9873-7575,None,None
SURVINDO . CV,"
                                    PREMIUM GOLD
                                ",Kamera,"
Anda dapat menghubungi kami di :

RUKO WISMA HARAPAN BLOK E1-NO.34 Jl. Regensi 2, Gembor, Periuk, TANGERANG 15131, Banten - Indonesia

Telepon :

( 021 ) 2943 3824

Handphone & WA :

0896-1574-0924

E-mail :cv.survindo@yahoo.co.id
cv.survindo@gmail.com
Account Bank :
BCA, Mandiri, BNI, BRI ","
              RUKO WISMA HARAPAN BLOK E1-NO. 34 Jl. Regensi 2, Gembor, Periuk, Tangerang.             ",TANGERANG,Banten,+62 896-1574-0924,+62 812-8855-0107,None
PT EUPFIN ELEKTRONIK INDONESIA,"
PREMIUM RUBY
",Kamera,"
   Intelligent Transportation Management SpecialistEupfin Elektronik Indonesia didirikan pada tahun 2004. Setelah lebih dari 10 tahun berkerja keras, kami telah menjadi perusahaan  manajemen armada terbesar di Taiwan. Saat ini, Eup telah digunakan oleh lebih dari 8.000 pelanggan, dengan lebih dari 100 talenta terbaik melayani pelanggan di penjuru dunia. Komitmen kami adalah ""Fast Service, Lifetime Warranty"" untuk memastikan misi melayani anda dalam waktu 48 jam.
 
Pada tahun 2017, Eupfin mulai melayani Indonesia. Dari Taiwan ke Indonesia, membawa teknologi dan energi pelayanan top dari Taiwan. Dalam 10 tahun ke depan di Indonesia, kami akan terus mematuhi komitmen kami ""Fast Service, Lifetime Warranty"", dikombinasikan dengan pengalaman lebih 8.000 pelanggan, membawa perspektif baru dalam manajemen armada untuk melayani pelanggan di Indonesia.Eupfin adalah pelopor dalam peralatan dan solusi navigasi. Dengan pengalaman yang kami miliki, Eup memahami masalah yang dihadapi oleh bisnis tranportasi dalam manajemen armada. Kami berharap dapat membantu meningkatkan kinerja perusahaan anda melalui sistem E-Management kami.Hubungi kami :Office:Ruko Jababeka Shop House Blok 9/10 Pasir Gombong Cikarang Utara Kab. Bekasi 17530Telepon : 021-8984-0482Mobile: 082113993562
  ","
              Ruko Jababeka Shop House Blok 9/10 Pasir Gombong Cikarang Utara Kab. Bekasi 17530            ",Cikarang,Jawa Barat,+62 821-1399-3562,None,None
CV. HERRY JAYA UTAMA,"
                                    PREMIUM GOLD
                                ",Kamera,"
              CV. HERRY JAYA UTAMA ( freza_ wa@ yahoo.co.id) Sebagai Sole Agent / Distributor, Jual alat kesling / laboratorium product : Haz Dust, Wohler / woehler, Kimo Instruments, E Instruments, HI-Q, Staplex, Sensit Technologies, Vzor, Partech UK Instruments, dengan ini kami menjual peralatan sebagai berikut : MENJUAL : ALAT SAFETY ALAT TEHNIK CIPIL ALAT INSTRUMENTS ALAT LINGKUNGAN HIDUP ALAT KESEHATAN ALAT UJI AIR ( WATER TEST KIT ) ALAT UJI MAKANAN ( FOOD DETECTION KIT ) ALAT UKUR INTENSITAS SUARA SOUND LEVEL METER ALAT UKUR KEBISINGAN DI AREA KERJA ALAT LABORATURIUM KESEHATAN ALAT UJI EMISI / GAS BUANG INSENERATOR RANSEL TAS PUNGGUNG PEMADAM KEBAKARAN MICROSCOPE ALAT UKUR NOISE DOSIMETER ALAT UKUR KEBISINGAN PERSONAL VIBRATION METER ALAT UKUR GETARAN HUMIDITY METER ALAT UKUR KELEMBABAN ALAT UKUR SUHU ALAT UKUR KECEPATAN ALIRAN UDARA LUX METER ALAT UKUR INTENSITAS CAHAYA ALAT UKUR KEDALAMAN TANGKI MINYAK WBGT METER ALAT UKUR IKLIM KERJA DEEP STICk MIST BLOWER STIHL CHAINSAW STIHL TMBANGAN KURSI RODA SPECTROPHOTOMETER MICROSCOPE BLOOD LEAD TEST INCUBATOR WATER ANALYS Kami Juga Menyediakan IPAL untuk puskesmas atau rumah sakit.            ","
              Komplek Samudera Indonesia A3 no. 6 Jl. Tole Iskandar            ",Depok,Jawa Barat,+62 812-1226-5508,None,None
CV Pratama Sains Global,"
                                    PREMIUM GOLD
                                ",Kamera,"
              CV Pratama Sains Global merupakan perusahaan yang bergerak di bidang distributor alat-alat Laboratorium farmasi, Kami menyediakan Laboratori glassware dari berbagai merk seperti Pyrex, Schott Duran, merk lokal, Laboratory plasticware serta bahan kimia JT Baker, Merck, Tedia, RRC. Kami juga menyediakan instrument – instrument untuk analisa obat, air, makanan, dll seperti Analitycal Balance, Spectrophotometer, pH meter, Turbidimeter, HPLC , Ruang Asam, Climatic Chamber, Incubator, Autoclave, AAS, Laminar Air Flow, Centrifuge, mikrosentrifuge, mikropipette, Cincin Du nouy, Alat Disolusi, alat disintegrasi, Furnace, sprydryer, Viscometer Brougkfile, Coating Pan, Hotplate, Incubator, Refrigerator, Orbital Shaker, Water bath, stirer high speed, Corong Uji sudut Granule, Moister analyzer, Mikroskop yazumi , Single punch tablet press machine, Tap Density , Granule Sieve Shaker With Machine mikroskop mulitimedia, Suppo melting point, Air Sampler, Decloaking Chamber dll dari berbagai merk. Kami juga menerima maintenance( service dan kalibrasi alat laboratorium) . Untuk lebih lengkapnya Bapak / Ibu kami mohon perkenannya untuk mengunjungi kami diblogger pratamasainsglobal.blogspot.com untuk informasi alamat perusahaan dibawah ini: Office :Perumahan Cimahi City View Blok A No.5 Rt 02 Rw 12 Padaasih Cosarua Kab.Bandung BaratTel. ( 022) 82783624- 081802024436-085720595887-081222344774,Email : Pratamasains_ global@ yahoo.co.idhttps://pratamasainsglobal.indonetwork.co.id            ","
              PERUMAHAN CIMAHi CITY VIEW BLOK A NO.5 
 RT 01 RW 012
 PADAASIH,CISARUA
KAB.BANDUNG BARAT  JAWA BARAT            ",BANDUNG BARAT,Jawa Barat,None,None,None
PT. MASTE DAYAA ENERGY DIVISION,"
PREMIUM RUBY
",Kamera,"
A leading company and provider of certified product and service of world-class standard of fire and safety systems for all industries, boiler and cooling tower chemicals and equipment, waste water treatment as well as process and other industrial equipment in Indonesia. 
We provide an integrated range of products and services to give better value for our customers.
Qualified team of engineers from planning stages through design, engineering, installation, testing, commissioning and maintenance services, including assisting in finding best solutions to minimize costs as well as optimize performances. 
Our Flowserve products range are Gestra, Durco, Edward, Limitorque, Valtek (for control valve), Argus.
While we also coverage for other brands, such as: VYC (Safety Value specialist), Boiler Level Gauge, Tecofi ( Knife Gate Valves specialist), etc.
Underlining the importance on service, we are now having an Energy Division within our organization.Our Energy Division offer engineering solutions for process plants. 
We are located in Jakarta, as well in Surabaya. 
Surabaya Office
Ruko Pakuwon Town Square AA2-31
Laguna- Pakuwon City
Surabaya. 60112. Indonesia.
Telp: +62-31-58208690 - 93
Fax:  +62-31-58208688
 
Cikarang Office
Elysium Garden
Jl. Alam Hijau 3 no.8
Cikarang. Indonesia.
Telp: +62-21- 29093380 - 81
Fax: +62-21 - 29090 3376
 
  ","
              Surabaya OfficeRuko Pakuwon Town Square AA2-31 Laguna- Pakuwon CityCikarang OfficeElysium Garden Jl. Alam Hijau 3 no.8 Cikarang            ",SURABAYA,Jawa Timur,+62 823-3275-3178,None,None
Tohodo Scientific Instrument,"
                                    PREMIUM GOLD
                                ",Kamera,"
              Alat Instrument, Alat Laboratorium, Alat Lab, Scientific Instrument, Alat Laboratorium Pertanian, Alat Laboratorium Industri, Alat Laboratorium Kesehatan, Alat Laboratorium Fisika, Kimia, Biology, Alat Laboratorium Kualitas Air, Alat Laboratorium Lingkungan Hidup, dll Tohodo Scientific Instruments DTC ( Darmo Trade Centre) Wonokromo Surabaya LT. 4 Blok A No. 63 Telp : ( 031) 848 4947, ( 031) 7700 1340, 082123351143 Fax : ( 031) 848 4947 E-mail: tohodosby@ yahoo.com E-mail : hargapalingmurah@ yahoo.com ADHESIVES AIR We dealing for manufacturing and supply Scientific Instrument. ALUMINUM FOIL AMPULES ANAEROBIC SYSTEM ANEMOMETERS ANIMAL HANDLING ANTI-FOAM SPRAY APPAREL APPLICATORS AUTOCLAVES BAGS BALANCES BAROMETERS BATHS, WATER BATTERIES BEAKERS BELL JARS BENCH PROTECTORS BLENDERS BLOOD COLLECTION BOILING STONES BOOKS, REFERENCE BOTTLES BOWLS BOXES BRUSHES BURETS BURNERS CALCULATORS CALIPERS CA PS CARBOYS CARTS CENTRIFUGES CENTRIFUGE ACCESSORIES CHARTS CHROMATOGRAPHY CLAMPS/ SUPPORTS CLEANERS CLOCKS CLONING and EXPRESSION COLORIMETERS COMBUSTION APPARATUS CONDENSERS CONDUCTIVITY CORKS COTTON COUNTERS CRUCIBLES CRUSHERS C RYOGENIC CUPS CYLINDERS DATA LOGGERS DENSITOMETERS DEODORIZERS DESICCANT DESICCATORS DIALYSIS APPARATUS DIGESTORS DISHES DISPENSERS DUROMETERS ELECTRICAL ELECTROPHORESIS ENVIRONMENTAL CHAMBERS EVAPORATORS EXTRACTION APPARATUS FILM, SEALING FILTERS FLASKS FLOWMETERS FLUID BED DRYERS FORCE GAUGES FORCEPS FREEZE DRYERS FREEZERS FUNNELS FURNACES FURNITURE GAS GLASS GLASSWARE KITS GLOVES GLOVE BOXES GRINDERS HEATERS HISTOLOGY HOMOGENIZERS HOODS HOT PLATES HYBRIDIZATION HYDROMETERS HYGROMETERS ICE CONTAINERS ICE MAKERS INCUBATORS INK INOCULATING SUPPLIES JARS KEY CHAIN KNIVES LABELING SYSTEMS LABELS LADDERS LAMPS LENS PAPERS LIGHTERS LIGHT METERS LUBRICANTS MAGNETIC FIELD MAGNIFIERS MAILERS MANOMETERS MATS MEDIA MELTING POINT APPARATUS MERCURY ANALYZER MICROARRAYS MICROSCOPES MICROSCOPE COVER GLASS MICROSCOPE SLIDES MICROTOME MILK TESTING APPARATUS MILLS MOISTURE DETERMINATION MORTARS AND PESTLES MULTIWELL PLATES NOTEBOOKS NUCLEIC ACID ANALYSIS OIL TESTING APPARATUS ORGANIZERS OSMOMETER OVENS OXYGEN ANALYSIS PAILS PAINT TESTING PCR PENS AND PENCILS pH ANALYSIS PIPETS PIPETTORS PIPETTORS, TIPS PITCHERS PLATES POINTERS POLARIMETERS PRESSES PROTEIN ANALYSIS PUMPS RACKS RECORDERS REFRACTOMETERS REFRIGERATION RINGS RULERS SAF ETY SAMPLERS SECURITY EQUIPMENT SERUM SHAKERS SHEARS SHIPPERS SIEVES SIGNAL TRANSDUCTION SOIL ANALYSIS SOUND METERS SPATULAS SPECIFIC GRAVITY SPECTROPHOTOMETERS STATIC ELIMINATORS STIR BARS STIRRERS STOPCOCKS STOPPERS SYRINGES TACHOMETERS TANKS TAPE TENSIOMETER THERMOMETERS THERMOREGULATORS TIMERS TISSUE CULTURE TITRATION TONGS TOOLS TRANSFECTION TRANSILLUMINATORS TRAPS TRAYS TUB ES TUBING TURBIDITY ULTRASONIC PROCESSORS URINOMETERS VACUUM CLEANERS VIALS VISCOMETERS WASH BOTTLES WASHERS WATCH GLASSES WATER PURIFICATION WATER and WASTEWATER ANALYSIS WEATHER STATIONS WEIGHING WEIGHTS WINE ANALYSIS WIPERS WIRE Manufacturer : A& D Engineering Acculab Scales Agilent Air Systems Air Technology Air-Tite Products Airflow Technical Products Akro-Mils Alconox, Inc. Alpec Alpha Pro Tech American Allsafe American Bantex Analytical Instrument Systems Analytical Measurements Ansell Edmont APHA Arbill Industries Arrow Engineering Astral Diagnostics ATM Test Sieves Bacharach Barnant Company Barnstead/ Thermolyne Bausch & Lomb Becton-Dickinson Co. Bel-Art Products Bellco Glass Bethlehem Apparatus Co. Bico Binder Bio-Tek Biohit Biomol Bioplas Bioscience International Biospec Products Blazer Corp. Boekel Industries Brand Tech Scientific Branson Ultrasonics Brinkmann Instruments Broadley James Corp. BYK-Gardner Cannon Instrument Co. Cardinal Health Cargille Laboratories Carver Cedco Chemetrics Chromatography Research Supplies Chromolox Cooper Instruments Coors Ceramics Co. Corning Life Sciences Cramer Industries CSC Scientific D-Star Instruments Davison Chemical Decon Laboratories, Inc. Defelsko Corp. Dickson Company Difco Laboratories Dimco-Gray Drummond Scientific E-C Thermo Eagle Manufacturing Eberbach Edvotoek Electro-Tech Systems Elkay Products/ Kendall Elmeco Engineering EMD Chemicals Englehard-Clal Envirco Eppendorf Erdco Engineering Erie Scientific ERTCO Excel Scientific Exeter Analytical Extech Instruments Fairfield Digital Falcon/ B-D Labware Fawcett Fisher Research Friedrich and Dimmock Gast Manufacturing GFS Chemicals Gillis Glas-Col Apparatus Global Water Grace Biolabs Gretag Macbeth GT Instruments H-B Instrument Co. Hach Hamilton Co. Hanna Instruments Harvard Apparatus Hausser Scientific Heathrow Scientific Heidolph Instruments Hemco Corp. High Five Products Hirschmann Inc. Honeywell Burdick & Jackson Humboldt I-Chem IEC Thermo IKA-Works Intermetro Industries International Cryogenics ITS/ Industrial Test Systems J.G. Finneran Assoc. J.T. Baker ( MBI) Jencons Scientific Jones Medical Justrite Manufacturing Kapak Corp. Kendall Healthcare Products Kent Scientific Kimberly-Clark Kimble Kontes Inc. Koehler Instrument Co. Lab Glass Labconco Corp. Labcor Products Labomed LaMotte Company Lazar Research Leica Leneta Co. Lightnin Lindberg/ Blue M Liquid Metronics Inc. Little Giant Corp. Lym Tech Scientific Mallinckrodt Baker Inc. Market Forge Marvel Maryland Plastics Master Appliance Matheson Gas Products Med-E-Cell Mediatech Medline Memmert Ovens Mettler Toledo Microflex Miller Products Miltex Instrument Co. Mitutoyo MM Industries Mo Bio Laboratories Modulus Data Systems Molecular Bio-Products Monarch Instruments MP Biomedicals Myron L N-Con Systems Nalge Nunc International National Labnet National Scientific Naugatuck Glass Co. Newark Wire Cloth Newtex Industries Nilfisk-Advance America Nor-Lake NPS NRD Inc. Nusun Oakton Instruments Ohaus Scale Corp. OI Analytical Omni International Omnifit Ltd. Onset Computer Corp. Orbecco-Hellige Orion Thermo Osmonics OWL Scientific Pall Gelman Sciences Personna Medical Petroleum Analyzer Co. Phipps & Bird Photovolt Plas-Labs Plasticoid Polarware Corp. Polyfoam Packers Corp. Polymeric Systems Polyscience Corp. Pope Scientific Popper & Sons Post Medical Precision Scientific Premier Mill Princo Instruments Propper Manufacturing Protective Industrial Products Qbiogene Qorpak Quincy Labs Revco, GS Lab Equipment Ricca Chemicals Richard Allen Scientific Robot Coupe Rotronic Samco Scientific Sartorius Instruments SAS Safety Scientific Industries Scientific Lab Supplies Scientific Specialties, Inc. Scotsman Sentron, Inc. Shamrock Science Specialties Sheen Instruments, Ltd. Sheldon Manufacturing Inc. Simport Plastics Ltd. SKC, Inc. Sonics & Materials Inc. Sorenson Specialized Products, Inc. Sper Scientific Staco Energy Products Starna Cells Svedala Ind. Swift Instruments Sybron Chemicals Talboys Engineering Corp. Tantec, Inc. Taylor Precision Products Taylor Wharton Techne Inc. Tekmar Tempshield Thermo Finn Thermo Forma Thermo Haake Thermo Spectronic Torrey Pines TrippNT Troemner Tygon UDY Corp. UVP, Inc Vangard International Visco Alpha VistaLab Technologies Voss Technologies WA Hammond Waring Products Welch Vacuum Westco Scientific Westover Scientific Whatman Wheaton Science Products Willson Safety Wisconsin Oven WTW Measurement Systems Yamato Scientific Yellow Springs Instruments ( YSI) Zeltex Elcometer, Paint Thickness Gauge Fogging Machine Marka Jalan. Sepatu Pengaman Safety Shoes, Safety Jogger, Biker Shoes Lutron, Anemometer, Sound Level Meter, Tachometer, Vibration Meter, ph meter, conductivity meter, DO Meter, Turbidity Meter, Torque Meter AA-104 ACA Bench Meter ABH-4224 Cup Anemometer/ Barometer/ Humidity/ Temp ABH-4225 Vane Anemometer/ Barometer/ Humidity/ Temp AH-4223 Vane Anemometer/ Humidity/ Temperature AL-03S AL-04 Heavy Duty Alligators AL-05 Heavy Duty Alligators AM-402 Anemometer Adapter AM-4100G Anemometer + hybrid power AM-4200 Anemometer AM-4201 Anemometer AM-4202 Anemometer AM-4203 Anemometer AM-4203HA Anemometer AM-4204 Hot Wire Anemometer AM-4204HA Hot Wire Anemometer AM-4205A replaced AM-4205 Humidity/ Anemometer Meter AM-4206 Anemometer AM-4206M Anemometer AM-4207SD AM-4210 Anemometer AM-4213 Anemometer, mini vane AM-4214 Hot Wire Anemometer AM-4216 Anemometer, mini vane AM-4220 Cup Anemometer AM-4221 Cup Anemometer AM-4222 Van Anemometer AP-9VA ( round 2.5mm dia. plug) Power Adapter AP-9VB ( battery snap plug) Power Adapter AP-GTE Plug Conventer AP-GTU Plug Conventer AT-20 Frequency Counter optional accessory AV-102 ACV Bench Meter BACH-220 for DT2289 BAUM-1 x 4pcs for DT2289 BB-22 Frequency Counter optional accessory BB-400 Black Body BTM-4208SD ( END DEC) CA-03 ( soft carrying case) Soft Carrying Case CA-04 ( very small soft case) Soft Carrying Case CA-05A ( Big soft case w/ Sash) Soft Carrying Case CA-06 ( Hard Carrying Case) Soft Carrying Case CA-08 ( Big Hard Carrying Case) Soft Carrying Case CA-52A ( Small soft case w/ Sash) Soft Carrying Case CA-201 Mini Aca Current Meter CA-203 DCA/ ACA Current Adapter CA-501 DCA/ ACA Current Adapter CA-502 DCA/ ACA Current Adapter CB-933 Cable Tester/ cable Identifier CBOX-406 Capacitance Decade Box CC-420 Current Calibrator CC-421 Voltage/ Current Calibrator CC-422 Current Calibrator CC-MA Simulator CC-PH PH Calibration Checker CC-TEMPJ CC-TEMPK Type K Temp Calibration Checker CD-14 Conductivity Solution CD-4301 Conductivity Meter CD-4302 Conductivity Meter CD-4303 Conductivity Meter CD-4303HA Conductivity Meter CD-4306 Conductivity meter CD-4312 Conductivity Meter CD-4322 Conductivity Meter CDPB-03 CL-2006 Chlorine Meter CM-9930 ( 4000 count) 2000 A DCA/ ACA Clamp Meter + Dmm CM-9940 ( 4000 count) Mini DCA/ ACA Clamp Meter CM-9941 Smart Clamp Meter CM-9942G Clamp Meter CO-210M CO Controller CT-2012 Controller/ Alarm/ Indicator DA-103 DCA Bench Meter DC-515 Digital Caliper DC-516 Digital Micrometer DH-802C DI-6200 Insulation Tester DI-6300 Insulation Tester DI-6300A Insulation Tester DI-6400 Insulation Tester DL-6054 DL-9601A replaced DL-9601 Data Logger real time, paper less recorder DL-9602SD DL-9954 Aca Leakage Tester DM-1000 Mini 1000A DC/ AC Clamp Meter DM-6007 ACA Clamp Meter DM-6046 Clamp Meter DM-6052 Mini Dca/ Aca Clamp Meter DM-6053 Mini Aca Clamp Meter DM-6055C Clamp Meter DM-6056 Dca/ Aca Clamp Meter DM-6058 Dca/ Aca Clamp Meter DM-9020 Pocket DMM DM-9023 ( Capacitance Meter) Capacitance Meter DM-9027T+ CA-03 4 1/ 2 digits DMM, true rms DM-9030 + IP-07 Automotive Tester DM-9031+ IP-07 DM-9033 ( replaced bt DM-9023) DM-9080 Multi-Functions DM-9090 Multi-Functions DM-9092 Auto range DMM DM-9093 DM-9680 Multimeter DM-9680KITS Multimeter ( DM-9680 + CA06+ SW8101-WIN+ UPCB02) DM-9960 Cat lll-1000V Auto range Dmm DM-9961 Cat lll-1000V True rms DMM DM-9981G Green Power Multimeter DM-9982G Smart Multimeter DM-9983G Smart Multimeter DO-5509 Dissolved Oxygen Meter DO-5510 Oxigen Meter DO-5510HA Oxigen Meter DO-5511 DO-5519 Dissolved Oxigen Meter DP-30 Volt meter Module DP-40 Volt Meter DR-99420 Panel Meter DR-99ACA Panel Meter DR-99ACV Panel Meter DR-99DCA Panel Meter DR-99DCV Panel Meter DR-99TEMP DS-121( Accessories f/ GSM120/ 121 Wire less Detect Switch DT-1236L Laser Photo/ Contact Tachometer DT-2199 Stroboscope DT-2230 Photo/ Contact Tachometer DT-2234B ( Photo) Photo Tachometer DT-2234BL Laser Photo Tachometer DT-2235B ( Contact) Contact Tachometer DT-2236 ( Photo/ Contact) Photo/ Contact Tachometer DT-2237 Gasoline Tachometer DT-2238 ( Photo/ Contact) Photo/ Contact Tachometer DT-2239-2 ( 240VAC) DT-2240D+ PX-01 Panel Tachometer DT-2244 ( Photo) DT-2245 ( Contact) Contact Tachometer DT-2258 Photo/ Contact Tachometer DT-2259 Tachometer/ Stroboscope DT-2268 Photo/ Contact Tachometer DT-2269-220V Digital Stroboscope DT-2289 Stroboscope, Xenon BACH-220 for DT2289 BAUM-1 x 4pcs for DT2289 DT-2349 Stroboscope DT-2299 Stroboscope, Led array DT-2336G Photo/ Contact Tachometer DT-2339 Stroboscope, xenon DT-602 Tach/ M DV-101 DVC Bench meter DW-6060 Watt Meter DW-6090 Power Analyzer DW-6091 Power Analyzer DW-6092 ( Aro. Feb' 09) 3 Phase Power Analyzer DW-6160 ( END DEC) Watt Meter EA-100 EH-20 Electrode Holder EM-900P EM-9000 Environment Meter EM-9100 Environment Meter EM-9200 Intelligent Meter EM-9300SD Environment Meter EMF-810 Micro Wave Leakage Detector EMF-819 # Axis RF Electromagnetic Field Meter EMF-822A EMF tester EMF-823 EMF Tester EMF-824 EMF Adapter EMF-825 EMF Tester + type K Thermometer EMF-826SG EMF-827 EMF Tester, Separate probe EMF-828 3D EMF Tester EMF-839+ EP-03H+ EP-04L Electromagnetic Field Meter ET-3000 Earth resistance Tester FC-2500A+ AT-20+ PB-21 Frequency Counter FC-2700 Frequency Counter, bench type FC-2700+ PB21+ NN23 FC-422D Panel Meter FG-2003-220V Function Generator FG-20KG Force Gauge FG-20KG-RS232 FG-5000A Force Gauge FG-5000A-RS232 FG-5005 Force Gauge FG-5020 Force Gauge FG-5100 Forge Gauge FS-1001 + WG-01 Test Stand FT-9950 A/ DC Fork Current Tester GB-100KG Bench Scale GB-150KG Bench Csale GB-4501 GC-2028 CO2 Meter GCH-2108 CO METER Co Meter GCO-2008 CO meter GM-1500P Digital Balance GM-2000R GM-225G GM-300P Digital Balance GM-3KG 3 kg Digital Scale GM-500 Digital Scale GM-5000 Digital Scale GM-5001 Digital Scale GM-501 Digital Scale GM-600G Digital Scale GM-600P Digital Balance GMCB-89 Interface Cable GS-400 Ultrasonic Transmitter GS-5800 Ultrasonic Leakage Detector GS-5800+ GS400+ EA100 GSM-120 GSM Home Security System GSM-840 GSM Control System GSM-888 GSM Control System GSM-889 GSM Controller GU-3001 Magnetic Meter HA-701 HA-702 HD-200PAL Anemometer Probe HD-200PLX Light Probe HD-200PRH Humidity Meter Probe HD-3008 HS-01 Holster HS-02 Holster HT-305 Pocket Humidity Meter HT-306 Humidity/ Temp, Meter HT-3006A replaced HT-3006 HT-3006HA Humidity meter HT-3009 Precission Humidity + Temp + Dew Point HT-3015 replaced 3005A/ 3005HB HT-3015HA Humidity Meter HT-315 replaced HT-319 Pocket Humidity Meter HT-3007SD ( END DEC) HT-4006G Humidity/ Temp, Meter + type K/ J Temp HV-40 High Voltage Probe IP-07 Inductive Pick Up Sensor IP-09 Inductive Pick Up Sensor IR-961 KV-05 LAN-922 Lan cable atester LBOX-405 Inductance Decade Box LCR-9063 Pocket LCR Meter LCR-9073 LCR Meter LCR-9083 LCR Meter LCR-9183 LCR Meter, bench type LF-423 Line Frequency Monitor LG-09 LM-8000 Anemometer, Humidity Meter, Light Meter LM-8010 LM-8012 LM-8020G Green 4 in 1 Meter LM-8100 4 in 1 Meter LM-8102 5 in 1 Meter LM-81AM Anemometer, Humidity Meter, Light Meter LM-81AT Anemometer LM-81HT Humidity meter LM-81LX Light Meter LS-04 200 AMP Current Shunt LX-02 Light Adapter LX-100 Light Meter LX-101 Light Meter LX-101A Light Meter LX-102 Light Adapter LX-103 Light Meter LX-104G Light Meter LX-105 Light Meter LX-107 Light Meter LX-107HA Light Meter LX-108 Light Meter LX-110 Light Meter LX-1102 Light Meter LX-1108 Light Meter LX-1118 Light Meter MALE YELLOW JACK MHB-382SD ( END DEC) MHT-381SD ( END DEC) MO-2001-2 ( 240V) MO-2002-230V Milliohm Meter MO-2013-230V High Precision Milliohm Meter MP-31 probe f/ MS7000HA/ 7003 MS-7000 Moisture Meter MS-7000HA Moisture Meter MS-7001 Moisture meter MS-7002 Moisture meter MS-7003 Moisture Meter MS-7011 MS-71P ( must cal. with meter) Humidity Content Probe MTM-380SD ( END DEC) MY-81AP Anemometer MY-91HT NB-24 Frequency Counter NI-214 Negative Ion Water Tester NN-23 Frequency Counter ORP-14 replaced OPR-04 ORP Electrode ORP-203 ORP Meter ORP-213+ ORP-14 ORP Meter ORP-400 Cal. Solution OXDP-02 OXEL-03 Probe-Filling Electrolyte OXHD-04 Spare probe Head with Diaphragma OXPB-01C( 4meter) replaced 01B OXPB-01C ( PROBE f/ DO-5510) OXPB-09 F/ DO5509 OXPB-11 F/ DO-5511/ 5510 PB-21 Frequency Counter PC-6009 Power Clamp Meter PC-6010 Power Clamp meter PCD-431 Conductivity Meter PCD-432 Conductivity Meter PCO-350 CO Meter, pen type PDO-519 Dissolved Oxigen Meter PDO-520 Dissolved Oxigen Meter PDT-2250 Controller/ Monitor PO2-250 PE-01 pH electrode PE-02 Heavy Duty PH Electrode PE-03 pH Electroda PE-03K7 PH electrode + Temp probe PE-04HD Spear Tip pH Electrode PE-05T pH Electroda PE-06HD Spear Tip pH Electrode PE-08 Plane PH Electrode PE-11 pH Electroda PE-21 ph Electroda PH-04 pH 4 Buffer Solution PH-04A pH Buffer Solution PH-07 pH 7 Buffer Solution PH-07A pH 7 Buffer Solution PH-109G pH Meter PH-201 pH meter PH-202 pH Bench Meter PH-206 Temp Meter PH-207 pH meter PH-207HA pH meter PH-208 pH meter PH-209G Green pH Meter PH-211 Ph Meter PH-212 Soil Ph Meter PH-214 pH bench Meter PH-220 Pen pH Meter PH-220S Soil PH meter PH-221 pH Meter PH-222 Pen PH Meter PH-223 Pen PH Meter PH-321M PH Monitor PHB-318 Humidity/ Barometer/ Temp Meter PHT-3109 Panel Humidity/ Temp Meter PHT-316 Humidity/ Temp Meter PI-06 Photo Sensor PL-03 PLX-111 Light Meter PM-9100 Manometer PM-9100HA Manometer PM-9102 Manometer PM-9107 Manometer PMS-713 Moisture Meter PMS-714 Soil Moisture Meter PPH-2108 pH Controller/ Monitor PPS-9312 Pressure Controller/ Monitor PRS-2321 Controller/ Monitor PS-403 Pressure Adapter PS-9302 Pressure Meter PS-9302+ PS100-xxBAR+ CA-06 PS93DV-100BAR PS93DV-10BAR PS93DV-20BAR Pressure Transducer PS93DV-2BAR PS93DV-400BAR PS93DV-50BAR PS93DV-5BAR PS-93MAxxBAR Pressure Transducer PS-100-2BAR PS-100-400BAR PS-100xxBAR Pressure Sensor PSA-311 Salt Meter PTM-806 Thermometer PTM-816 Thermometer PUV-360 Pen UV Light Meter PVB-820 Pen Vibration Meter PWA-301 Pure Water Meter PX-01 Proximity Sensor PX-02 Proximity Sensor RBOX-408 Resistance Decade Box RCB-110V RCCB Checker RCB-220V RCCB Checker RGB-1001 RGB-1002 Color Analyzer RHA-33 Humidity Calibrator RHA-75 Humidity Calibrator RSC-801 Conventer RT-606 3 Phase Rotation Tester RT-608 3 phase & Motor Rotation tester RT-616 3 Phase Rotation Tester SB-01 Wind Shield Ball SC-941 ( 94dB) Sound Calibrator SC-942 ( 94dB/ 114dB) Sound Calibrator SCALE-U002 SL-3113G Sound Level Meter SL-406 Sound Adapter SL-407 Sound level meter SL-4001 Sound level meter SL-4010 Sound Level Meter SL-4011 Sound level meter SL-4012 Sound level meter SL-4013 Sound level meter SL-4022 Sound level meter SL-4023SD ( END DEC) SL-4030 Sound level meter SL-4112 Sound Level Meter SL-4113G Green Power Multimeter SPA-GE SPA-UK SPA-US ST-50 Shunt SW-808 8 meters Data Acquisition Software SW-9960 SW-D003-WINCD SW-DL2005 SW-U801-WIN Software for intelligent Instrument TA-35 Tachometer Adapter TA-601 Tachometer Adapter TC-920 Thermometer Calibrator TL-01S TL-02AS Alligator Test Lead TL-03 for DM-9023 TL-09S TL-88 Heavy Duty Test Lead TLSM-15 SMD Test Clips TM-2000 Thermometer TM-903A Thermometer TM-906A Dual Thermometer TM-907A Preccision degree Thermometer TM-909AL replaced TM-900 Infrared Thermometer TM-914C replaced TM-902C Dual Channel Thermometer TM-916 Dual Thermometer TM-916HA TM-917 Precision degree Thermometer TM-917HA TM-919AL replaced TM-900 Infrared Thermometer TM-9126 Thermometer type K/ J/ R/ E/ T TM-924C Two Channel Thermometer TM-925 Two Channel Thermometer TM-926 TM-928G Dual Channel Thermometer TM-936 Thermometer TM-939 IR Thermometer TM-946 ( to offer TM-947SD better) Thermometer TM-947SD TM-949 TM-956 Infrared Thermometer TM-958 Infrared Thermometer TM-959 Infrared Thermometer TM-966 ( forehead IR thermometer) TM-969 Infrared Thermometer TP-01 Type K Temperature Probe TP-02A Type K Temperature Probe TP-03 Type K Temperature Probe TP-04 Type K Temperature Probe TP-06 Optional Temp, Probe for pH Meter TP-07 Optional Temp, Probe for pH Meter TP-100 PT 100 ohm Temp.Probe TP-101 f/ TM-946 TP-11 TQ-8800 Torque Meter TQ-8801 Torque Wrench, 100 kg-cm TQ-8803 Torque Wrench, 100 kg-cm TU-2016 Turbidity Meter UPCB-01 USB Cable UPCB-02 Rs 232 Cable for intelligent Instrument UPCB-03 ( 20M) f/ PRS-2321 UPCB-04 UPCB-06 for DM-9960 USB-01 USB-01 UV-340A UV-340 UVA-365 UV0-A Light Meter UVC-254 UV-A Light Meter VB-8200 Vibration Meter VB-8201HA Vibration meter VB-8202 Vibration Meter VB-8203 Vibration meter VB-8210 Vibration Meter VB-8212 Vibration Meter VB-8213 Vibration Meter VB-8220 Vibration Meter VC-9200 Vacuum Meter VT-8204 Vibration/ Tachometer WA-2015 pH/ orp, DO, CD/ TDS Meter WA-2017SD pH/ ORP, DO, CD/ TDS, Salt Meter WA-300 Pure Water Tester WG-01 Wedge Grip WH-08 Case holder f/ HT-306 WT-200 YK-10LX Light Meter, YK-2000PK YK-2001PH Intelligent PH Meter YK-2001TM Intelligent Thermometer YK-2004AH Hot Wire Anemometer YK-2004CD Conductivity Meter YK-2014CD Conductivity Meter YK-2005AH Hot Wire Anemometer YK-2005AM Anemometer YK-2005CD conductivity meter YK-2005LX Light Meter, real time data logger YK-2005RH Humidity Meter real time data logger YK-2005TM Multi-function Thermometer YK-2005WA pH/ orp, DO, CD/ TDS Meter YK-200PAL Anemometer probe YK-200PAM Metal Anemometer probe YK-200PAS Mini Vane Anemometer probe YK-200PATC ATC probe YK-200PCD conductivity Probe YK-200PCT Conductivity/ TDS probe YK-200PDO Dissolved Oxygen YK-200PIR Infrared Temperature probe YK-200PLX Light Probe YK-200PRH Humidity probe YK-21PH pH meter YK-22CT Conductivity/ TDS Meter YK-22DO Disolved Oxygen Meter YK-23RP ORP Meter YK-30WA Pure Water tester YK-31SA Salt Meter YK-35UV UV Light Meter YK-43CD Conductivity meter YK-36UV UV Light Meter YK-80AM Anemometer YK-80AP Anemometer YK-80AS Anemometer-80AS YK-90HT+ CA-06 TR-PHT1A4 pH Transmitter PE-03 for TR-PHT1A4 TR-DOT1A4 Dissolved Oxygen Transmitter TR-CDT1A4 Conductivity Transmitter TR-CLP1A4 TR-VBT1A4 Vibration Transmitter TR-PST1A4 Clamp Transmitter TR-SLT1A4 Sound Transmitter TR-TMK1A4 Temp Transmitter TR-PS2W-2BAR TR-PS2W-5BAR TR-PS2W-10BAR TR-PS2W-20BAR 2 wires Pressure Transmitter TR-PS2W-50BAR TR-PS2W-100BAR TR-PS2W-400BAR TR-RH2W Wires Humidity Transmitter Optional for TR-TMK1A4 TP-01 Type K Temperature Probe TP-02A Type K Temperature Probe TP-03 Type K Temperature Probe TP-04 Type K Temperature Probe TR-TMP1A4 Temp Transmitter TP-100 for TR-TMP1A4 CT-2002-MA TR-HUM1A4 TR-AMT1A4 TR-LXT1A4 TR-RPM1A4 RPM transmitter TR-HZT1A4 Frequency Transmitter TR-LDT1A4 Load Cell Transmitter TR-PTT1A4 Potential Transmitter TR-ACV1A4-150V ACV Transmitter TR-ACV1A4-300V TR-ACA1A4-1A ACA transmitter TR-ACA1A4-5A TR-DCV1A4-200MV TR-DCV1A4-2V TR-DCV1A4-20V DCV Transmitter TR-DCV1A4-200V TR-DCA1A4-200UA DCA Transmitter TR-DCA1A4-2MA TR-DCA1A4-20MA TR-DCA1A4-2A TR-DCA1A4-5A TR-CLP1A4 ( N.A.N) Clamp Transmitter Dataloggers; Ebro EBI 20 TH/ Set - Lutron - Comet T3110 -Deltatrak -AZ Instrument - Orion - Hanna- Extech -Sound Level Meter, Vibration Meter, Dissolved Oxygen Meter, pH Meter, Conductivity Meter, Total Suspended Solid- TSS Analyzer, ShimpoTachometer. We Sell : Analytical Balance merk AND, Radwag, Ohaus, Scientech, acculab, pesola, avery, Metler Toledo, Tanita, dll Anemometer extech, lutron, az, smart, Delta Ohm, testo, vaisala. Area Heat Stress Monitor, quest Audio Meter BOD Incubator merk Aqualytic BOD Meter merk Aqualitytic Centrifuge Chlorineterase Kit COD Meter merk Aqualitytic Colony Counter Conductivity Meter Delta Ohm Current Meter Flowwatch, Dissolved Oxygen Meter Distilation Dry Gas Meter dan Wet Gas Meter merk Shinagawa Ekman Grab, merk Wildco Elektromagnetic Field EMF Meter Fit Test Flow meter Flow probe current meter merk Global water Flue Gas Analyzer Merk Anapol Swiss Furnace Gas Analyzer Gas dan Smoke Analyzer Merk Assemblad Italy Gas detector Tube Kitagawa Gas Sampler GPS Harm Vibration Meter High Volume Sampler, Merk Staplex USA Homogenizer Horizontal Alpha Water Sampler, merk Wildco Hot Plate Cimarec Human Vibration Meter Human Vibration Meter Integrating Sound Level meter Delta ohm Isokinetic Stack Sampling Kjedahl Digestion merk Gerhardt Kjedahl Distillaion merk Gerhardt Laboraatory Refrigerator merk Aqualytic Laboratory Blender Lemari Asam ( Fume hood) Low volume sampler Staplex Lux Meter Lux Meter, Light Meter Magnetic Stirer Micromanometer with Pitot Tube Multi Gas Analyzer for Ambient Air Merk Nova Multi Gas Detection Niskin PVC Water Sampler, Merk KC Denmark Noise Dose Meter Oil on Water Opacity Meter Ringleman Fuji Scope Personal Dust Sampler Personal Heat Stress monitor Personal monitor Petite Ponar Dredge , merk Wildco Ph. Meter Delta Ohm Photo Meter Photo-Radiometer Plankton Net, merk Wildco PM 10 dan PM 2.5 , Merk Staplex PM10, PM2, 5 Tactical Air sampler Merk Airmetric USA Portable Sounder Portable Suspended Solids Merk Partech Portable Water Test kits ( Microbiologi Sound Level meter Delta ohm , Lutron Spectrophotometer UV-VIS Spiro Meter Theodolite Thermohygrometer Total Organic Carbon merk Lachat Total Suspended Particulate Staplex Turbidity meter Universal Ovens merk Memmert Vaccum Pump Van Dorn Water Sampler, Merk KC Denmark Vertical Beta Water Sampler, merk Wildco Water Bath ( penangas air) Water Quality Checker TOA, Horiba Weather Station Delta Ohm Contact Us : Tohodo Scientific Instrument DTC ( Darmo Trade Center) LT.4 Blok A No.63 Jl. Raya Wonokromo Surabaya, Jawa Timur Email: tohodosby@ yahoo.com Telp : 031- 7700 1340, 031- 848 4947 Fax : 031- 848 4947, Hp : 0821 2335 1143..            ","
              DTC (Darmo Trade Center)  LT.4 Blok A No.63  Jl. Raya Wonokromo  Surabaya, Jawa Timur            ",Surabaya,Jawa Timur,+62 821-2335-1143,None,None
Sumber Jaya Surabaya,"
                                    PREMIUM GOLD
                                ",Kamera,"
              Sumber Jaya Surabaya adalah yang menjual berbagai macam barang sesuai dengan kebutuhan kita seperti aki kendaraan, rumah , lampu ,pengadaan Projek Solar cell, dll baik secara eceran maupun grosir. Adapun kami bergerak dibidang : - ACCU = Menjual berbagai macam aki Kendaraan mobil dan sepeda motor/ aki alat berat, aki moge, aki Genset, aki forklif, aki UPS, aki mainan anak, aki kapal, aki Solar cell, battery industri dengan berbagai macam Type & Merk yang berkualitas & bergaransi. Selain itu kami juga menerima atau membeli Aki bekas/ rusak anda dengan harga yang tinggi.-Paket Solar cell = PJU Solar cell, Solar Home Sytem (SHS) , PLTS terpusat , Lampu Taman Tenaga Surya , Pompa Air Tenaga Surya , Genset Tenaga MAtahari, Solar charge Controller (BCR) , Box Panel , dll-Pengadaan dan service UPS (Uninterruptible Power Supply)=Kami menyediakan berbagai macam merk UPS seperti : Laplace, Ica, Vektor , Socomex, dll) dan menerima service ups dan ganti battery  - Property & Bahan Bangunan Menjadi agen property bagi anda yang hendak membeli maupun menjual rumah. Juga menjual Tandon air beton dengan harga murah. Serta kami membuka cabang khusus untuk membangun serta merenovasi rumah atau bangunan ( kontraktor) dengan sistem pembayaran per periode. - Solar cell ( Energi Terbarukan) Penyedia macam-macam kebutuhan projek Solar cell di Nusatara Indonesia , Seperti Projek PJU tenaga Surya, Solar Home System ( SHS) , Projek Solar Panel Terpusat . - Kontraktor Mekanikal elektrikal Menyediakan Jasa ME untuk keperluan Kantor , Mall, PAbrik, Bandara, Gedung , ruko, toko, maupun rumah tangga. - Dan masih banyak lagi bidang-bidang lain yang kami bisa tawarkan untuk anda. Anda bisa mengklik "" Info Perusahaan"" , "" Katalog Produk"" , "" Penawaran Dagang"" dan "" Hubungi Kami"" untuk melihat isi dan informasi lain dari situs Sumber JAya Surabaya.            ","
              Jalan Medokan Ayu MA1- H14, Medokan Ayu, Rungkut.- No.telp Marketing : (0823 3549 3766 Kantor), (0822.444.54.123 Fara), (081.369.202.202 Candra)  ",Surabaya,Jawa Timur,+62 822-4445-4123,None,None
PT.YAMASU-SURABAYA,"
                                    PREMIUM GOLD
                                ",Kamera,"
PT. Yamasu adalah perusahaan distribusi industri solusi teknik untuk basis klien yang substansial di industri otomotif, kedirgantaraan, kelautan dan umum. Sejak tahun 1975, Yakin Maju telah mendorong produktivitas dan efisiensi dengan memberikan solusi dalam proses pembuatan presisi. Portofolio beragam produk kami terdiri dari alat pemotong, mesin, peralatan mesin dan peralatan metrologi berteknologi tinggi yang bersumber dari seluruh dunia dengan cermat. Produk dan layanan Yakin Maju melayani baik perusahaan besar maupun bengkel kecil.
 Dengan 5 cabang utama di Jakarta, Cikarang, Bandung, Semarang dan Surabaya, kami dapat memberikan saran teknis, pemecahan masalah, dan layanan perbaikan kepada pelanggan, pengiriman tepat waktu, dan kunjungan di lokasi untuk memahami kebutuhan dan tantangan khusus Anda. 
 Untuk melayani kebutuhan pelanggan kami yang luas dan terus berkembang, kami terus berupaya memperluas portofolio produk dan kemampuan teknis kami ","
              Pertokoan Aneka Graha Asri, Jl. Ngagel 179-183 Kav. 19, Ngagel, Wonokromo, Kota SBY, Jawa Timur 60246            ",surabaya,Jawa Timur,+62 813-6412-6451,None,None
SURABAYA GEMILANG,"
                                    PREMIUM GOLD
                                ",Kamera,"
Sejahtera Gemilang Surabaya merupakan Perusahaan yang konsen di Bidang :

PABX PANASONIC
CCTV
IP CAM
FAX
Billing System

Kami melayani Service :

PABX
Service CCTV
Service Fax
Pemasangan, Setting dan Program, Bongkar-Pasang Ulang dan Lain Sebagainya


-----
Hubungi Kontak Kami Sekarang untuk Dapatkan Penawaran Terbaik dan Harga Bersaing (CALL/WHATSAPP)
• Phone : 0812-3425-6389 (Amar Hasan)
• e-Mail : pabxgemilang@yahoo.com
• Website : www.JualPabxCctv.com
 ","
              • Head Office : Jln. Gayungan III No. 14, Surabaya, Jawa Timur, Indonesia• Phone : 0812-3425-6389 (Call or WhatsApp)            ",SURABAYA,Jawa Timur,+62 812-3425-6389,None,None
PT. JAYA UTAMA SANTIKAH,"
PREMIUM RUBY
",Kamera,"
PT. Jaya Utama Santikah adalah perusahaan Perseroan terbatas yang bergerak dibidang Perdagangan Umum dan Jasa. Perusahaan kami telah berdiri sejak 1997 di Jawa Timur dengan nama CV. Jaya Santikah, dan ditahun 2008 kami telah berkembang menjadi PT. Jaya Utama Santikah dan kami sekarang memiliki kantor di Jakarta.
 
Sesuai dengan moto kami yaitu membantu akan kebutuhan dalam bidang Jasa Perawatan Kebersihan dan Keindahan pada setiap lingkungan yang dibutuhkan. Seperti halnya yang kami tawarkan Jasa Kebersihan Gedung, Jasa Perawatan Taman Jakarta semua hal itu tentunya dibutuhkan sebuah management khusus agar kegiatan yang berjalan sesuai dengan apa yang diharapkan.
 
Dan kami menyadari tidak semua kantor atau gedung memiliki management khusus kebersihan dan perawatan seperti ini, dan pastinya untuk membentuk management ini juga dibutuhkan sumber daya yang profesional dan memahami setiap langkah apa saja yang harus dilakukan. Dan semua tahap itu tentunya membutuhkan proses yang panjang, untuk mempersingkat waktu dan meminimakan pembiayaan dalam memenuhi kebutuhan perawatan kebersihan kami siap membantu Anda dalam jasa penyedia cleaning service, jasa cleaning service terbaik, jasa perawatan taman Jakarta, jasa kebersihan gedung, jasa kurir antar barang dan distributor alat cleaning service sebagai produk perdagangan kami. ","
              Jl. Daan Mogot KM19 Kebon Besar Batuceper, kota Tanggerng,             ",Smart Market Daan Mogot Blok B No. 5,DKI Jakarta,+62 811-1833-992,+62 812-8998-071,None
PT.SURRAMA TRIDAYA MANDIRI,"
PREMIUM BLUE ONYX
",Kamera,"
Surrama Tridaya Mandiri adalah Kontrol & Instrumentasi perusahaan memberikan kualitas produk dan layanan kepada industri. Filosofi kami adalah untuk bekerja dalam kemitraan dengan kami pelanggan untuk memastikan bahwa kami memberikan solusi yang tepat untuk memenuhi kebutuhan Anda kebutuhan bisnis. Kami menawarkan berbagai produk kepada pelanggan kami. Ini adalah tujuan kami untuk memastikan bahwa Anda diberikan saran terbaik untuk membantu Anda memilih solusi yang tepat atau jasa untuk memungkinkan Anda untuk melakukan kegiatan bisnis Anda efektif dan efisien. pelanggan kami berhak permintaan kualitas tinggi, harga terbaik dan waktu respon segera. Oleh karena itu Kami menempatkan penekanan yang sangat tinggi pada tidak hanya memenuhi tuntutan ini tetapi juga pada penyediaan penekanan kuat pada layanan pelanggan dan customer care. Pada Kontrol STM kami berkomitmen untuk melayani kebutuhan pelanggan kami di atas semua pertimbangan lain. Kami percaya bahwa rumus untuk keberhasilan bisnis kami secara langsung terkait dengan keberhasilan kami bisnis pelanggan. 
Kontrol STM ' Pelanggan Charter'
• Pelanggan adalah yang paling penting orang di kantor kami.• Pelanggan tidak tergantung pada kita; kita tergantung padanya.• Pelanggan tidak gangguan terhadap pekerjaan kami, ia adalah tujuan itu. Dia melakukan kita nikmat dengan memberikan kita kesempatan untuk memecahkan masalahnya.• Konsumen bukanlah seseorang untuk berdebat atau sesuai dengan akal. Tidak ada yang pernah memenangkan argumen dengan pelanggan.• Pelanggan harus dibuat merasa seolah-olah mereka adalah orang-orang yang paling penting di dunia kita. Perhatian pribadi kami kepada pelanggan kami melebihi yang dari pesaing lainnya.For More Info Contact Us :PT. Surrama Tridaya MandiriCiti Square Business Park Blok E No. 6Jl. Peta Selatan RT 010 RW 001, Kalideres, Kalideres, Jakarta Barat, DKI Jakarta, Indonesia 11840Telp    : +62-21-22520556 (Hunting)Fax     : +62-21-22526597 ","
              Citi Square Business Park Blok E No. 6 Jl. Peta Selatan RT 010 RW 001, Kalideres            ",Jakarta Barat,DKI Jakarta,+62 878-8572-0277,None,None
TEKNIK MANDIRI,"
PREMIUM BLUE ONYX
",Kamera,"
Teknik Mandiri adalah sebuah perusahaan yang khusus memfokuskan diri dalam memenuhi kebutuhan industri,Rumah tangga,Proyek dan Automotive di bidang produk mechanical, electrical,handtools,welding,safety,dan Lifting pneumatic Equipment  Visi: Menjadi yang terbaik di antara yang terbaik.  Misi: Menjadikan Teknik Mandiri sebagai partner Industry, Rumah Tangga, Proyek dan Automotive dalam menghadapi tantangan dan menyongsong kesempurnaan dimasa depan.  Kami bekerja keras dan selalu melakukan yang terbaik untuk melayani pelanggan-pelanggan dimanapun dan kapanpun dalam memberikan informasi yang akurat dan solusi yang tepat pada saat dibutuhkan.Info Produk & Order Hubungi :Phone : 021-5644267    Mobile : 0812 1214 3333( Call/WA)Email : teknikmandiriindo@gmail.com ","
              Jl. Setia Warga 8 No.40 Rt 10/11 Grogol Petamburan, Jakarta Barat            ",Jakarta Barat,DKI Jakarta,+62 812-1214-3333,None,None
Axia Prima Sejahtera,"
                                    PREMIUM GOLD
                                ",Kamera,"
              PT. Axia Prima Sejahtera, adalah perusahaan yang berada di Indonesia yang bergerak dalam bidang sistem keamanan/ perlengkapan & produk berteknologi yang berkualitas tinggi, dapat dipercaya dan berstandard kelas dunia. Dimana penyedia produk kami adalah beberapa negara besar yang unggul dalam bidang sistem keamanan & produk perlengkapan seperti Jerman, Amerika, Canada, Denmark, Korsel, RRC, Jepang & Taiwan. Jika anda membutuhkan sistem keamanan atau solusi teknologi untuk perusahaan, kami akan memberikan saran dan membantu anda dalam perencanaan, konsultasi, penyediaan, instalasi, pelatihan, 24 jam dan 7 hari dalam seminggu untuk dukungan pelayanan purna jual berdasarkan kontrak pemeliharaan dan layanan telepon. Permasalahan anda dalam sistem keamanan dan produk teknologi akan ditanggapi secepatnya oleh tim ahli dan teknisi profesional yang telah berpengalaman lebih dari 10 tahun yang telah menerima pelatihan baik didalam maupun luar negeri. Kami menyediakan sistem keamanan dan produk berteknologi dengan standard tinggi dan manajemen perencanaan untuk instansi pemerintahaan, sektor swasta maupun perorangan."" "" "" Sebagai; distributor, disain, konsultan, penjualan, instalasi, perawatan, jasa dibidang Sistem Keamanan serta perlengkapan keamanan ( Security System & Security Equipment ) "" "" ""Distributor Resmi untuk Produk Keamanan Siemens Jerman dan Indonesia Distributor resmi untuk Produk CCTV Pelco AmerikaContact : Name : F. Heru Sukrisna, S.SI Email : axiasejahtera@axia.co.id, heru.krisna@axia.co.id Email Sales Manager : winarkodanang@axia.co.idEmail Sales Engineer : billy.gumilar@axia.co.id , akhmad@axia.co.id.Telephone : 021 - 7661187, 021 - 7502301, 021 - 98561299Mobile : 0811 8067 877Fax : 021 - 7590 8764Facebook : Axia Security Systems,Twitter : @axiasecuritysys            ","
              Plaza Karinda Blok B1 No. 14, Jl. Karang Tengah Raya, Lebak Bulus,            ",Jakarta Selatan,DKI Jakarta,+62 811-8067-877,None,None
NETSOLUSI TEKNOLOGI ,"
                                    PREMIUM GOLD
                                ",Kamera,"
              Kami adalah perusahaan yang bergerak di bidang IT baik penjualan barang, jasa service & maintenance IT. Fokus utama kami adalah produk CCTV, Notebook, PC ( Personal Computer ), Server, Printer, Tinta Toner, Projector ALL BRAND.Adapun barang barang yang kami jual adalah: 1. CAMERA CCTV - AXIS, BOSCH, PANASONIC, SONY, SAMSUNG, HIKS VISION, KYOMITSU, VIVOTEK, AVTECH2. NOTEBOOK /CPU- HP, DELL, LENOVO, ACER, ASUS, FUJITSU, PC RAKITAN3. SERVER - HP, DELL, IBM, ASUS, ACER, QNAP, SERVER RAKITAN4. PRINTER - HP, CANON, EPSON, BROTHER, FUJIXEROX5. TONER - HP, EPSON, CANON, PANASONIC, FUJIXEROX6. PROJECTOR- INFOCUS, EPSON, HITACHI, Ben-Q, ACER, SONYUntuk mendapatkan harga yang competitif silahkan menghubungi sales kami. Datang untuk berkunjung atau hubungi kami Netsolusi Teknologi Mangga Dua Square Lt. 1 Blok B No. 132 Jl. Gunung Sahari No.1 Jakarta Utara AYU/ LASMI Telp: 021 293 82221, FAX: 021 2262 0693HP/WA: 0812 8345 2663 / 0812 1280 6671 / 0812 8923 1035email: salesnetsolusi@gmail.com, lasmi_netsolusi@yahoo.com, netsolusi01@yahoo.co.id            ","
              Mangga Dua Square Lt. 2 Blok B.10-12Jl. Gunung Sahari Raya No. 1Jakarta Utara            ",Jakarta Utara,DKI Jakarta,+81 28-345-2663,None,None
 PT Sukses Mandiri Cemerlang,"
                                    PREMIUM GOLD
                                ",Kamera,"
PT. Sukses Mandiri Cemerlang yang berdiri pada tahun 2001 dimana pada tahap-tahap awal kami hanya melayani penjualan dan service PC rakitan saja dan seiring dengan berjalan waktu maka PT. Sukses Mandiri Cemerlang juga mulai merambah ke sektor penjualan dan service serta kontak dan penyewaan komputer yang meliputi: Server, Sparepart Server, Jaringan, Notebook, PC branded, Sisco serta CCTV dan maintenance. Dimana kami telah berpengalaman didalam komputer, selama hampir sebelas tahun, dan kami pun sudah mempunyai rekan diluar jakarta, seperti, makasar, Medan, Surabaya, Solo, Cirebon, Palembang, Kalimatan, Pekan Baru, Magelang. PT. Sukses Mandiri Cemerlang telah berdiri selama sebelas tahun dan sampai sekarang pun masih tetap berjalan dengan baik semuanya ini juga berkat dari Tuhan Yang Maha Kuasa juga serta dukungan dan support dari pada distributor serta customer kami, dan kami pun juga tahu bahwa Customer adalah RAJA maka dari itu kami akan melayani customer kami dengan sepenuh hati sesuai dengan Motto kami : “ Bahwa customer adalah RAJA dan tanpa Customer kami bukanlah apa-apa” Dan maka karena didalam melayani customer dengan motto tersebut maka sampai sekarang pun customer kami hampir selalu bertambah dan cutomer lama pun tetap setia kepada kami diantaraya: 1. PT. Kompas.Gramedia 2. Carefour Indonesia 3. Direktorat Jenderal Pajak. 4. PT. Girder Indonesia 5. PT. Trakindo Utama Tbk 6. Departemen Perindustrian 7. Kementrian Pendidikan Nasional 8. PT. Citra Marghanusaphala Persada Tbk 9. PT. CPI 10. Sungai Group Tbk 11. PT. Mediate International 12. PT. Cross Mediate 13. PT. IMS Logistik Indonesia 14. PT. Induro International 15. PT. QDC Technologies 16. PT. Global Lingust 17. Rajawali Cyber Indonesia 18. PT. Djabesmen 19. PT. Asuransi Ramayana Tbk 20. PT. SML Technologies 21. PT. Perdana Bangun Pusaka Tbk. 22. PT. Citra Wasphutowa 23. PT. Astra Oto Pats 24. Universitas Manchung 25. Universitas Mercu Buana 26. BPR JABAR 27. PT. Travira Air Customer adalah RAJA bagi kami PT. Sukses Mandiri Cemerlang telpon : 02122543584, 021 22522687 Fax : 021 22522688 email = suryamandiri89@ yahoo.com suryamandiricemerlang@ yahoo.com YM = suryamandiri89@ yahoo.com suryamandiricemerlang@ yahoo.com ad_ smc@ yahoo.com Skype = suryamandiri.cemerlang ","
              RUKO PASAR LARIS B NO.7 RT.005 RW.013 DURI KOSAMBI, CENGKARENG, JAKARTA BARAT, DKI JAKARTA 11750            ",JAKARTA BARAT,DKI Jakarta,+62 851-0023-0773,+62 815-420-600,None
Karya Mandiri Instrument Indonesia,"
                                    PREMIUM GOLD
                                ",Kamera,"
Karya Mandiri Instrument Indonesia adalah supplier peralatan laboratorium baik eletronik maupun mekanik, serta berbagai macam instrument measurement, dengan didukung dari berbagai macam merk dari negara negara Eropa, US, dan beberapa negara di Asia seperti Korea, Japan dan Taiwan. Instrument yang kami sediakan seperti : Anemometer, Analitical Balance, Spectrophotometer, pHmeter, Laser survey, Micropipette, Peristaltic Pump, Flame photometer, Water bath heating cooling, Colorimeter, Water Strirer, Viscometer. Freezers, Refractometer, Polarimeter, Sound Level meter, Tachometer. Dll Kami juga menerima jasa service( Repair alat laboratorium/instrument, alat ukur, Alat kesehatan) dan kalibrasi untuk peralatan laboratorium sesuai kemampuan kami.Info Produk dan Order Hubungi :Mobile : 081294124885 // 085778084789 // 085104387311Email   : karyamandiriinstrument@yahoo.comWebsite : www. karyamandiri-instrument.com ","
              Jl.Cilangkap Baru,Griya Amar Ma'Ruf No 2A,cilangkap-Cipayung Jakarta Timurr            ",Jakarta Timur,DKI Jakarta,+62 812-9412-4885,None,None
Best Safe Indonesia,"
                                    PREMIUM GOLD
                                ",Kamera,"
Tentang Kami Kami adalah Perusahaan yang baru berkembang dibidang managemen keselamatan kerja Minyak dan Gas yang berkantor di Jakarta.
Perusahaan kami khusus bergerak dibidang Managemen Pencegahan dan Perlindungan dari Kebakaran, Perkapalan, Alat kesehatan dan Keselamatan Kerja, serta jasa pengisian ulang alat pemadam api ringan.
Target Perusahaan kami sangat sederhana : MENGURANGI TERJADINYA KECELAKAAN, MELINDUNGI DARI BAHAYA, DAN TIDAK UNTUK KERUSAKAN LINGKUNGAN.
Hal yang di tanamkan pada para pekerja adalah semua kecelakaan dan penyakit akibat kerja dapat dicegah seperti pepatah mengatakan : “ Tidak ada pekerjaan yang lebih penting bilamana anda tidak melakukannya dengan aman” .Karena kami adalah Solusi AMAN Anda.
Kami bergerak di bidang alat-alat keamanan seperti alat pemadam api ringan ( APAR) , alarm, helm, masker, dll
Melayani juga jasa Refill untuk APAR, dimana kami akan memberikan back up untuk barang yg akan di refill, sehingga keamanan anda tetap terjaga.
Untuk Refill , kami adalah spesialis dimana harga sudah termasuk : Visual Inspection every 6 months after refill Temporary replacement / back up for units Repainting bottle ( if need) Weight and liquid check Air tightness test Mob / Demob Warranted by product and Best Safe Produk untuk APAR adalah: Yamato, Viking, Appron, Gunnebo, Servvo, Protech, Fire-x, dan lain-lain. Media dari apar adalah : Dry Powder, CO2, Foam, Halon, Halotron, AF11, Solkaflam. Kami juga menjual alat keamanan diri ( Personal Protective Equipment) seperti : Helm MSA, King' s safety shoes, King' s safety glass, Cheetah safety shoes, Krusher safety shoes, Penguin safety shoes, Red Wing safety shoes.Ear plug Ultrafit 3M, Safety sign, Metal detector, dan lain-lain Kami juga menjual Alarm System APPRON ( Original)
 
Untuk info lebih lanjut Hub :
* Office : Jl. Pelepah Raya Blok TM 1 No: 16 Gading Pandawa Kelapa Gading, Jakarta Utara - 14240 DKI Jakarta
* Telp : 021-22455238
* Fax : 021-4501783
* Mobile : 0822-6051-1128
* Phone : 0878-8714-1393
* Email : andreassugiarta@gmail.com
* Whatsapp : 087 887 141 393 ","
              Jl.Pelepah Raya Blok TM 1 No: 16 RT 10 RW 01 Gading Pandawa Kelapa Gading Timur Kelapa Gading Permai Jakarta 14240
            ",Jakarta Utara,DKI Jakarta,+62 878-8714-1393,None,None
Aneka Jasa Solusindo.,"
                                    PREMIUM GOLD
                                ",Kamera,"
Aneka Jasa Solusindo adalah perusahaan yang bergerak dalam bidang Pengadaan sarana alat-alat telekomunikasi, supplier-Electrical Arus lemah dan jasa instalasinya. Perusahaan kami banyak menangani Perusahaan, Perhotelan, Perkantoran, dan kerja sama dengan para kontaraktor. Untuk pengadaan alat2 komunikasi tersebut, kami telah-membangun hubungan yang luas dengan para Agen dan Distributor dari berbagai merk alat2 komunikasi , Dengan merk2 sebagai berikut:
Adapun produk yang kami tawarkan meliputi :
- PABX system - Call Center - IVR ( Interactive Voice Respond ) - Voice Mail System - Digital Telephone Recording atau Voice Logger - Billing Software atau Call Accounting Software - LAN Infrastucture - Security System spt : IP Camera dan Analog camera , Finger print/ access control.
Prinsip kami untuk setiap client adalah selalu memberikan solusi yang terbaik dengan memberikan produk yang tepat guna serta ekonomis. Kami percaya kepuasan pelanggan adalah merupakan salah satu aset utama yang dapat memberikan kontribusi sangat besar bagi pertumbuhan dan kemajuan perusahaan kami. Beberapa produk yang kami pasarkan meliputi beberapa merk seperti :
-PABX system Panasonic , NEC , Siemens, LG , Alcatel , Avaya, Nortel, Transtel.
-Automatic Attendant System
-Voice Mail dan IVR system merk Integra Voicel Logger / Telephone Recording System merk Zibosoft
-Matrix Call Center atau Contact Center
-Billing software atau Call Accounting merk Matrix
-Intercom Sistem, RS-Nurse Calling Sistem
-Solusi LAN Infrastructure meliputi beberapa merk : AMP, Belden, Panduit, Allied,       Telesyn, Nortel, Cisco, Rosenberger, Systimax dll. Beberapa produk lainnya.
-MATRIX CALL ACCOUNTING atau Billing Software versi standart dan Billing software versi budgeting MATRIX TAPI for Call Center Aplication Telephone, Voice Recording atau Voice Logger MATRIX dan Zibosoft Telephone Voice , Recording Multisuns TCR 1000 Auto Attendant Merk YOSIN VOICE MAIL PC Base, Merk Integra Beberapa merk dan tipe PABX yang kami support a.l : PANASONIC IP PABX KX-TDA 30/ 100/ 200/ 600 Panasonic IP PABX KX-TDE 100/ 200 Panasonic ACD Server KX-NCV 200 for call center Panasonic KX-TD 1232 Panasonic KX-TD 500 Panasonic KX-T 336 Panasonic KX-T 192 NITSUKO DXZ 600 Nitsuko NICE 288 NEC ASPILA TOPAZ NEC ASPILA EX NORTEL BCM 50/ 100/ 200/ 400 Nortel Meridian 1 OPTION 11/ 51/ 61 ALCATEL LUCENT Serie OXO dan OXE SIEMENS HICOM 130/ 150/ 300 HYPATH 1120/ 1130/ 1150/ 1190 / 3000/ 4000 TRANSTEL HYBREX TDS 600 tipe TDS 40/ 160/ 320/ 640/ 1280 LG NORTEL Aria SOHO dan IP LDK PABX / Key Telephone Sistem: PANASONIC, NEC, TOSHIBA, SIEMEN, AVAYA, NORTEL DLL IP-Camera/ CCTV Sistem: SANYO, PANASONIC, TELVIEW, VIVOTEK, BOSH, DLL. Sound Sistem & Public Addres: TOA, BOSH, INTER-M, RAMSA DLL Software Billing sistem Under Windows: MATRIX, DINAMIT, FIRAMID, DLL Auto Attandant / Voice Processing sistem: ADFEX, YOSIN, VODATRACT, MULTISAN, DLL. Acces Control / Finger Print Sistem: ROGER, CARD NETIC, ALBOX, VIRDI, DLL Fire Alarm / Burglar Alarm sistem : NITTAN, APRON, HOOSEKI, BOSH, NOHMI dll .
Dengan hubungan yg luas tersebut, maka kami siap membantu Anda dalam memenuhi segala kebutuhan alat2 komunikasi dan perangkat lain2nya baik untuk PABRIK, HOTEL RUMAH SAKIT, BANK, SHOPPING CENTER, MALL DLL MENJADI MITRA ANDA ADALAH SUATU KEBANGAAN BAGI KAMI. Jika anda ingin informasi lebih lanjut silahkan hubungi kami , Atau kunjungi Show Room kami di: WTC Mangga Dua Mall Lantai Upper Ground A26 Telp. (021)30017933, Fax.( 021) 30017933 . Hp. 0812-8829-9858, 0816.1816087 (Iwan) ","
              WTC Mangga Dua Lt.Upper Ground A26Hp. 0812-8829-9858, 0816.1816087 (Iwan)            ",Jakarta- Pusat,DKI Jakarta,+62 816-1816-087,None,None
"PT Mega Promosindo Telp : 081316710440, 021-88950650 ","
                                    PREMIUM GOLD
                                ",Kamera,"
Mega Promosindo adalah group dari mega makmur sentosa perusahaan yang bergerak di bidang trading Percetakan, barang Promosi , Percetakan souvenir atau merchandise Seperti: Mug, Jam, Payung, USB Flash Disk, Power Bank, Pin, ID Card, Tas, Godie Bag, Topi, Kaos, Polo T-Shirt, Buku Agenda, Kalender dan masih banyak lagi produk lainya. Barang kami merupakan produk lokal dan impor yang memiliki keunikan tersendiri Mega Promosindo berdiri sejak tahun 2000 sehingga memiliki pengalaman yang cukup di bidang ini, dengan demikian kami dapat mensuplai barang-barang tepat waktu dengan harga bersaiang dan kualitas yang dapat diandalkan dengan dibantu tenaga kerja yang berpengalaman dan didukung mesin cetak yang cukup modern. Selain Percetakan perusahaan ini bergerak di bidang: Pabrik Kaos, Pabrik Jaket, Pabrik Topi, Pabrik Baju Olahraga, Pabrik Jeans, Pabrik Kaos Polo, Pabrik Polo Shirt, Konveksi Kaos, Konveksi Kaos Polo-Polo Shirt, Konveksi Jaket, Konveksi Celana, Konveksi Seragam ( uniform) , Konveksi Garment, Konveksi Jeans, Garment Seragam, Garment Kemeja, Garment Jaket, Garment Promosi Mengerjakan produksi untuk beraneka jenis pakaian di pabrik/ konveksi sendiri seperti: Seragam : Pakaian Seragam Kerja, Seragam Promosi, Seragam Karyawan, Pakaian Safety, Seragam Kantor, Seragam Lapangan, Seragam Cleaning Service, Seragam Security/ Satpam Pabrik, Pakaian Seragam Teknisi Pabrik, Baju Team Olahraga, Seragam Pemda ( PNS) , Seragam SPBU, Seragam Operator Pabrik, Kemeja: Kemeja Promosi, Kemeja Safety, Kemeja Formal, Kemeja kualitas Garmen, Kemeja F1, Kemeja Kantor, Kemeja Lapangan, Kemeja Reflector, Kemeja Tropical, Kemeja High Twist, Kemeja Safari, Kemeja PDH, Kemeja PDL, Kemeja Otomotif, Kemeja Pabrik, Polo Shirt: Polo Shirt Promosi, Polo Shirt Souvenir, Polo Shirt Golf, Polo Shirt Pique, Polo Shirt Merchandise, Polo Shirt kualitas Ekspor ( Export) , Polo Shirt Seragam, Polo Shirt kualitas Garmen, Polo Shirt Eksklusif, Polo Shirt Pabrik Jaket: Jaket Promosi, Jaket Semi Jas, Jacket Formal, Jaket Safety, Jaket Club, Jaket Casual, Jaket Olahraga, Jaket Polo, Jaket Balap, Jaket kualitas Ekspor ( Export) , Jaket Reflector ( Jaket tambang) , Jaket Loreng, Jaket Pabrik, Jaket Kerja, Jaket Lapangan, Jaket Double side, Jaket Micro Fibre, Jaket Parasit, Jaket Taslan, Jacket Waterproof, Jaket Cold Storage, Jaket fleece, Jacket sport, Jaket Training, Jaket Kontingen, Jaket Atlet, Jaket Almamater, Jaket Mahasiswa, Jaket Canvas, Jaket Kantor, Topi: Topi Promosi, Topi Souvenir, Topi Rimba, Topi Golf, Topi Eksklusif, Topi Pekerja Pabrik, Topi Instansi, Topi Laken Wol, Topi Canvas, Topi Raphel, Kaos T-Shirt: Kaos Oblong, Kaos Polo, Kaos Krah ( Wangki) , Kaos kualitas garmen, Kaos Katun ( cotton) , Kaos Pilkada, Kaos Promosi, Kaos Kampanye, Kaos Sablon, Konveksi Kaos Merchandise, Kaos Formula 1, Kaos olahraga, Kaos Souvenir, Pabrik Kaos murah, Kaos Loreng ABRI, Pabrik Kaos katun Carded, Konveksi Kaos T-Shirt Polos, Pabrik Kaos Bola, T Shirt Promosi, Pabrik Kaos Promo, Kaos Pabrik, Kaos Seragam, Kaos Seluler, Kaos Pariwisata, Kaos Komunitas, Kaos Order, Pesan Kaos, Produksi Kaos, Kaos Family Gathering, Pabrik Kaos PE, Kaos Hyget, Kaos Full Print, Kaos body fit, Kaos Pameran, Kaos Rohani, Kaos Kelas, Pabrik Kaos Bandung, Konveksi Kaos Wanita, Kaos Spandex, dsb. Celana Kerja, Celana PDL, Celana Formal, Celana Pabrik Rompi Promosi, Rompi Order, Tas Promosi, Konveksi Tas Seminar, Konveksi Tas Travel, Tas Pinggang, Baju Pabrik, Baju Wisuda, Baju Keki, Baju Safari, PDH ( Pakaian Dinas Harian) , PDL ( Pakaian Dinas Lapangan) , Konveksi Celana Jeans, Konveksi Kemeja Jeans, Konveksi Jaket Jeans, Pabrik Jeans, dsb, Dengan atribut sablon dan bordir komputer. Untuk kebutuhan Order Perusahaan, Rumah Sakit, Militer, Perusahaan Pertambangan ( Mining) , Team Olahraga, Garment, Pabrik- Pabrik, Perusahaan Produsen, Kantor, Dinas, dll. Sales Marketing : 081316710440 WA :08176454000 E-mail : sales@megapromosindo.com ","
              Kemayoran Jakarta Pusat            ",Jakarta Pusat,DKI Jakarta,+62 813-1671-0440,None,None
