Name,Membership,Category,Description,Address,City,Province,telp1,telp2,telp3
CV. JAYA MAKMUR ABADI,"
PREMIUM RUBY
",Konsultan Taman Wisata,"
CV. Jaya Makmur Abadi, perusahaan yang bergerak dibidang perdagangan umum Material Konstruksi & material lainnya, dan telah berpengalaman lebih dari 10 Tahun. 
Berdiri sejak Tahun 2005 dengan nama Jaya Makmur Abadi, dan diresmikan pada tahun 2010 oleh notaris Edward Agustin menjadi CV. Jaya Makmur Abadi. 
CV. Jaya Makmur Abadi bekerja sama dengan beberapa Pabrik & Distributor Material dan hingga kini sudah melayani lebih dari 900 pelanggan, yang terdiri dari pelanggan pribadi/perusahaan baik dari dalam & luar daerah di Indonesia. 
 
Visi & Misi : 


Menciptakan sistem perusahaan yang sistematis & fleksibel dalam hal pelayanan.
Menciptakan lapangan kerja & Sumber daya Manusia yang terampil, profesional& handal. 
Menciptakan pelayanan & kerjasama yang berkesinambungan dengan pelanggan.
Menjadi perusahaan multinasional yang dapat memberi sumbangsih terhadap perekonomian di Indonesia. 

CV. Jaya Makmur Abadi.General Supplier & Trading : Besi Beton & Baja. Rangka Baja Ringan & Atapnya.Aluminium Kusen Pintu & Jendela.Plywood & Kayu lainnya.Pipa Paralon & Pipa Lainnya. 
Keramik & Granit.Perlengkapan Sanitary. Aksesories Pintu & Jendela.
Segala jenis Kaca Bangunan.Aluminium Composite Panel.Kawat Baja & Besi. 
Karpet Import & VINYL. Kusen, Pintu & Jendela Kayu. Windows Fashion.Mekanikal Elektrikal.Meubelair Kantor & Sekolah.
Pipa HDPE.Pipa Air Panas.HPL.Cat.Pipa Gorong-Gorong.Plat Kapal.Dll.
Untuk melengkapi kebutuhan pelanggan, kami juga menyediakan Jasa Kontraktor, Jasa Arsitek & Jasa Konsultan.
Untuk informasi lebih jelas, dapat menghubungi Marketing kami.
Terima kasih. www.jayamakmurabadi.co.id
CV. Jaya Makmur Abadi 
Jl. Brigjend Katamso No. 2 Samarinda. Kalimantan Timur 75117.Telp : 0541-7802915Fax. : 0541-766315Email : sales@jayamakmurabadi.co.id
 

 
 ","
              Head Office :Jl. Brigjend Katamso No. 2. Samarinda. Kalimantan Timur ",Samarinda ,Kalimantan Timur,+62 823-5215-3244,+62 813-4942-8940,+62 852-4900-5619
Maju Mukti,"
                                    PREMIUM GOLD
                                ",Konsultan Taman Wisata,"
              UMKM dibidang agribisnis, hydroponik sayuran, budidaya kelinci dan budidaya jangkrik beserta olahannya serta hasil - hasil produk Peternakan dan pertanian lainnya juga wahana eduwisata agro/ outingclass/ outbond / ODMG (out Door Manejemen Game)            ","
              Jl. Wiratama no 3 RT 01 RW 01 Desa Karangnanas Kecamatan Sokaraja Kabupaten Banyumas Provinsi Jawa Tengah kode pos 53181            ",Banyumas,Jawa Tengah,085867764000,+81 226-68-8773,None
Raja Fiber Indonesia,"
                                    PREMIUM GOLD
                                ",Konsultan Taman Wisata,"
              SELAMAT DATANG ! di Sentra Kerajinan Waterslide JAWA TENGAH Anda telah menemukan sebuah situs yang memberikan informasi terlengkap dan terupdate mengenai produk-produk fiber berkualitas dan terpercaya.Hanya kami Raja Fiber yang mampu memberikan solusi terbaik bagi kemajuan dan keberlangsungan bisnis Anda. Jika anda membutuhkan jasa kami dalam mengkonsep dan mendesain bisnis waterpark, segera hubungi Raja Fiber di nomor HP.0817 9475 943 atau HP.0821 3660 8248 untuk membantu Anda dalam merencanakan dan membangun bisnis waterpark. Kami Bergerak Dibidang Pembuatan Waterboom, Waterpark Mulai Dari Perencanaan, Lanscaping, Fiber, Kontruksi Sipil, Mechanical Electical, Filter dan Plumbing System.Kami adalah kontraktor yang bergerak di bidang pengembangan villa & resort seluruh Indonesia Kontraktor Waterpark & Waterboom yang terpercaya sejak tahun 2006.Raja Fiber mempunyai workshop pabrikasi fiberglass sendiri sehingga Anda tidakperlu khawatir dengan produk wahana seluncuran fiberglass yang Aman, Awet, dan Berkualitas. Raja Fiber melayani berbagai produk Fiber Reinforcement Plastic ( FRP) dengan beragam desain dan ukuran seperti: 1.Waterslide 2.Waterboom 3.Waterpark 4.Playground 5.Kiddie ride 6.Tempat sampah 7.Cargo box 8.Boat, perahu dan kano ( canoe) 9.Hand Power Boat ( Popeye Boat) 10.Perahu Angsa 11.Kolam Renang Beton | Concrete | Batu Alam 12.Kolam Renang Fiberglass | Fibreglass Pools | Composite Pools 13.Made by order Produk kami berkualitas dengan pelayanan terbaik dan harga terjangkau.Kami juga melayani design, siteplan, dan pembangunan water boom di berbagai daerah. Kami spesialis membuat waterslide ekstrem.Dengan membangun wahana water slide yang tidak biasa namun memiliki tantangan yang mengundang adrenalin seperti black thunder slide, tornado slide, tsunami slide/ half pipe, boomerango slide, aqua loop slide dll. Raja Fiber , Pusat Produksi Fiberglass Berkualitas dan Terjangkau Selamat dan Sukses ! OFFICE & MARKETING Dk.Cebukan RT4 RT5 Ds.Sonorejo Kec.Grogol Kab.Sukoharjo 57552 JAWA TENGAH Tlp : 0271 7880 866 Fax: 0271 7880 866 SMS Center: 0817 9475 943 - 0821 3660 8248Â  WA 082136608248 Email: rajafiber.info@ gmail.com SMS/WA CENTER 24 JAM: Ketik : Nama[ spasi] Kota[ spasi] Pertanyaan KIRIM Ke: 0821 3660 8248 Dengan QUICKSMS SERVER dalam hitungan menit Anda akan mendapatkan respon jawaban dari Team IT Raja Fiber Merk dan Produk RAJA FIBER INDONESIA Hak Cipta dilindungi undang-undang Nomor 19 Tahun 2002 Desain Industri dilindungi undang-undang Nomor 31 Tahun 2000 Fatwa MUI Nomor 1 Tahun 2003 tentang Hak Cipta Fatwa MUI Nomor 1/ MUNAS VII/ MUI/ 15/ 2005 tentang HAKI. . Informasi PAKET BIAYA Membangun Waterpark Disertai RAB Download di: http: / / www.rajafiber.wordpress.com http: / / www.slideshare.net/ rajafiber            ","
              Workshop 1Dk.Cebukan RT4 RW5 Ds.Sonorejo Kec.Grogol            ",Sukoharjo,Jawa Tengah,+62 821-3660-8248,None,None
