Name,Membership,Category,Description,Address,City,Province,telp1,telp2,telp3
DUTA KHANSA MANDIRI,"
                                    PREMIUM GOLD
                                ",Suku Cadang,"
              CV.  DUTA KHANSA MANDIRI menyediakan: Jasa KONTRAK SERIVICE  & Penjualan Sparepart Alat berat dari China, Jepang, Korea maupun UK & USA .  Dengan merek XGMA, LIUGONG, XCMG, CHANGLIN, WEICHAI, YUCHAI, CATERPILAR, KOMATSU, CATERPILLAR, HYUNDAI , DOOSAN, KOBELCO, HITACHI, LONKING, SDLG, SHANTUI, WEICHAI, YUCHAI, XINCHAI,TIANLY, SEM, KOHLER ENGINE, PERKINS, CUMMINS, TOYOTA , TCM, MITSUBISHI , BOULI , HANGCHA, PATRIA ,LOVOL, HELLY, CHANLIN, PUMP HYDRAULIC ALAT BERAT dll.CV.  DUTA KHANSA MANDIRI menyediakan: Jasa & Penjualan Sparepart FORKLIFT, ALAT BERAT, GENSET dan Engine  merek ISUZU, KOMATSU,CATERPILLAR, HITACHI,CUMMINS  , TCM, MITSUBISHI, WEICHAI, YUCHAI, FAW ENGINE ,NISSAN ,HINO  dll..CV.  DUTA KHANSA MANDIRI merupakan DISTRIBUTOR resmi penyalur Oli , MINYAK PELUMAS  , PELUMAS OLI  dengan Merek """"PanaOil""""""""PanaOil"""" merek Oli yang setara dengan oli kelas tinggi yang sudah beredar di Indonesia.Sedangkan Untntu Kebutuhan KUSUS ,  Mesin KAPAL MARINE  Kami juga menyedikan dengan merek  ''NUSA OIL'' Kami menyediakan dengan harga terbaik Kelebihan SPARE PARTS kami menggunakan komponen utama yang sudah banyak di pasaran sehingga memudahkan untuk pencarian Spare Parts, seperti;Bulldozer, Motor Grader, Wheel Loader, Vibratory Compactor, Tandem Vibratory Roller, Pneumatic Roller, Forklift1. XCMG ( Bulldozer, Motor Grader, Wheel Loader, Vibratory Compactor, Tandem Vibratory Roller, Pneumatic Roller, Forklift)2. LIUGONG ( Bulldozer, Grader, Wheel Loader, Vibratory Compactor, Tandem Vibratory Roller, Pneumatic Roller, Forklift)3. LONKING( Bulldozer, Grader, Wheel Loader, Vibratory Compactor, Tandem Vibratory Roller, Pneumatic Roller, Forklift)4. CHANGLIN ( Bulldozer, Grader, Wheel Loader, Vibratory Compactor, Tandem Vibratory Roller, Pneumatic Roller)5. SHANTUI ( Bulldozer, Grader, Wheel Loader, Excavator)6. CHENGONG ( Hydraulic Excavator, Mini Excavator, Skid Steer Loader, Wheel Loader)7. ZOOMLION ( Bulldozer, Grader, Wheel Loader, Excavator)8. TIANGONG  / SINOMACH ( Bulldozer, Grader, Wheel Loader, Excavator)9. SDLG ( Bulldozer, Grader, Wheel Loader)10. SANY ( Excavator, Wheel loader, Crane etc)11. YUTONG ( Bulldozer, Grader, Wheel Loader, Vibratory Compactor, Tandem Vibratory Roller, Pneumatic Roller,12. LUTONG ( Tandem, Compactor)13. LUYANG ( Tandem, Compactor)14. FAW SHACMAN HOWO SANY DONGFENG CHENGLONG DFLZ ( Truck)15. WEICHAI ( Engine for Marine and Industrial )16. YUCHAI ( Engine for Marine and Industrial )17. HYUNDAI ( Hydraulic Excavator, Mini Excavator, Skid Steer Loader, Wheel Loader)18. DOOSAN ( Hydraulic Excavator, Mini Excavator, Skid Steer Loader, Wheel Loader)19. VOLVO ( Hydraulic Excavator, Mini Excavator, Skid Steer Loader, Wheel Loader)20. GENSET PARTS ( CUMMINS PERKINS MITSHUBISHI MAN DEUTZ CATERPILLAR YANMAR VOLVOProduk Utama :1. Jual Baterai / Aki / Batteray Traction Untuk Forklift Electric2. Jual Sparepart Alat Berat LIUGONG, LONKING, XCMG, XGMA, SDLG ,HYUNDAI, CATERPILAR, HITACHI  ( WHEEL LOADER, EXCAVATOR, MOTOR GLADER, VIBRO, BULLDOZER, CATERPILAR).   3. Jual Engine Parts : Weichai, Yuchai, Perkins, Cummins, Mitsubishi, Isuzu, Cummins,Toyota dll4. Jual spareparts forklift , Forklift Sparepart : TCM, Mitsubishi, Toyota, Nichiyu Forklift dll5. Jual spare parts Genset , Sparepart: shinchai, shangchai, shanghai, Weichai, Cummins, Perkins, , caterpilar , Marine DLL./Attachment :1. FORK2. Extention FORKS, Sepatu FORK3. Bale Clamp, Paper Roll Clamp dllJual Aneka  ATTACHMENT :Type Baterai Traction, Ban / Tire / Tyre, Forks / Garpu forklift dan sarung fork, Bale Clamp & Attachment , Chain Lift lainnya.MENYEDIAKAN Jasa Perbaikan :- Overhaul Engine / Transmisi / General Overhaul Unit- Kontrak Maintenance / Kontrak Service - Repair alat berat  - Perbaikan forklift- Perbaikan Excavator- Perbaikan whell loader - Perbaikan Alat berat , dllCV. DUTA KHANSA sebagai perusahaan yang bergerak dibidang pengadaan barang dan jasa, kami menyediakan solusi  bisnis  inovatif  kepada perusahaan yang ingin menjadi mitra kami yang mana kami selalu mengutamakan mutu serta kepercayaan demi kelangsungan  bisnis yang harmonis dan berkelanjutan.Contact Us :Mobile      : 085285628186  Whatsapp : 085285628186      fax   Only : 021 7324196  ( only fax .  call before/ after  fax done )Email       : by Whatsap
PERWAKILAN  :
1. Pekalongan Wiradesa.  Smarang  Jawa Tengah
    Contact : HP/WA   081548065555./ 085285628186
2. Kota Bandung  Jawa Barat
    Contack  : HP/WA  081220096566.
HUBUNGI   PERWAKILAN KAMI TERDEKAT. ","
              Head Office :Jl.Dr Cipto Mangunkusumo no.37 Paninggilan Utara Ciledug TANGERANG. Fax ( Only ) : 021 7324196  HP / WA : 085285628186  Warehouse:Jl. Raya Taman Sari,  Asem Reges  Lantai 2  AKS: 52   JAKARTA.   Fax  ( Only ) : 021 7324196 HP / WA :   085285628186Perwakilan  :1. Pekalongan Wiradesa.  Jawa Tengah    Contact : HP/WA   081548065555. 0852856281862. Kota Bandung  Jawa Barat    Contack  : HP/WA  081220096566.HUBUNGI   PERWAKILAN KAMI TERDEKAT.              ","JAKARTA  & TANGERANG 085285628186, Cabang : BANDUNG (081220096566)  & PEKALONGAN (081548065555.) JATENG",DKI Jakarta,085285628186,None,None
BERKAT PARTINDO ABADI,"
                                    PREMIUM GOLD
                                ",Suku Cadang,"
Berkat Partindo Abadi adalah perusahaan yang berbegerak dalam bidang penjualan Ban Alat Berat dan Velg Alat Berat untuk Dump Truck, Mobile Crane, Forklift, Loader, Traktor, Grader, Backhoe, Compactor, Road Roller, Vibro, Tandem, Wheel Dozer, Skidder, Reach Stacker, Straddle Carrier, Gantry Gate, Harvester, Finisher, Paver, Skidder, Bob Cat, dan Alat Berat lainnya.
Berkat Partindo Abadi memberikan hanya pelayanan yang terbaik, produk unggulan tepat guna, dan harga yang kompetitif kepada setiap pelanggan dan mitra kerjanya. Silahkan Hubungi Kami : CV. Berkat Partindo Abadi Sales 1 : 0858 88 20 22 66 .Sales 2 : 0858 33 66 88 99 .Fax : 021 - 2960 8397 ( Fax) .Email : info@berkatpartindoabadi.com .Website : https://berkatpartindoabadi.com . ","
              CV. Berkat Partindo Abadi - MGK Kemayoran - Lantai UG - Blok A18 / 7 - Jl. Angkasa Kav. B6 - Kemayoran - Jakarta Pusat            ",Jakarta Pusat,DKI Jakarta,+62 858-3366-8899,None,None
PT BESTINDO TEKNIK,"
                                    PREMIUM GOLD
                                ",Suku Cadang,"
PT. BESTINDO TEKNIK Adalah perusahaan sebagai importir dan stockist penyaringan peralatan di indonesia untuk industri . Terutama digunakan dalam banyak produk kami industri sebagai desalinasi , pengolahan air bersih , pembangkit listrik , makanan & amp; minuman , refinery , & minyak dan gas , lukisan , elektronik , kimia , farmasi , laut lepas pantai , pembuat air proses penyaringan dan orang lain cartridge filter , filter swro cartridge , filter bwro cartridge , filter fwro cartridge , perumahan filter ss tas , tas poliester filter , tas polypropyelene filter , filter mikro elemen , filter cartridge , filter sedimen , tingginya arus filter , filter mikron , filter keamanan , elemen filter cair.Salam,CONTACTYanto 085210007118 ","
              Jl. Kemanggisan Raya Kelurahan Kebon Jeruk, Kecamatan Kebon Jeruk Jakarta Barat 11530            ",Jakarta Pusat,DKI Jakarta,+62 852-1000-7118,None,None
