Name,Membership,Category,Description,Address,City,Province,telp1,telp2,telp3
PT. DENKO WAHANA SAKTI,"
PREMIUM BLUE ONYX
",Hand Pallet,"
              Welcome to PT Denko Wahana Sakti PT Denko Wahana Sakti didirikan pada Bulan November Tahun 1992. Berawal dari sebuah kantor di daerah Ketapang, Jakarta Pusat yang bergerak dalam bisnis penjualan Turbin Ventilator, Castor Wheel serta beberapa produk Material Handling PT Denko Wahana Sakti sebagai Holding Company dari DENKO GROUP melakukan ekspansi dengan menambah bidang bisnis penjualan yang baru dan membuka cabang yang di Kota Surabaya pada Tahun 1994, kemudian di Kota Bandung pada Tahun 1997 dengan nama PT Denko Wahana Prima. Dan PT. Denko Wahana Sakti Semarang berdiri pada tanggal 1 Mei 2008 untuk memenuhi kebutuhan produk-produk denko di area Jawa Tengah dan Yogyakarta Divisi Belden PT Denko Wahana Sakti merupakan Distributor berbagai jenis kabel dengan brand Belden yang merupakan brand terkemuka di pasar kabel saat ini. Kami menjual Kabel UTP Belden, rs485,rj45 dan rs232 Belden, Coaxial rg8 dan rg11, fiber optic belden, Patch Cord, Patch Panel, modular cat6 dan Face Plate dengan kantor di Jakarta, Surabaya dan Semarang ( melayani area Jawa Tengah dan daerah istimewa Yogyakarta ) Divisi Material Handling Kami juga menjual berbagai produk material handling seperti Hand Pallet Truck, Manual stacker, full electric stacker, electric pallet truck, aluminium work platform, drum porter, hand truck prestar, drum handler, drum tipper, drum gripper, trolly 3 susun, hand truck, pallet truck with scale, mini forklift, vertical lift, Hand truck, scissor lift, hand stacker full electric, hand stacker manual, hand drum lift, hand drum lift semi electric, lift table, trolly, tangga elektrik, turbine ventilator, semi electric stacker, hand pallet, tangga electric, hand stacker semi electric, forklift, pallet mesh, forklift, reach truck, pallet mover,electric tractor, towing dan hand pallet Divisi Dalton Tools Kami adalah distributor chainsaw, hand tool, Ladder, jack equipment, dustbin, gergaji pohon, mesin las, genset tiger, generator spakins, kunci pas, gergaji kayu, air compressor, welding machine, tang, mesin las inverter, kunci ring, engine water pump, mesin las, dongkrak botol, water pump, generator, genset , tong sampah, dongkrak buaya, bootle jack, floor jack, jack stand dan tangga Divisi Chastor Wheel Kami juga membantu anda untuk menyediakan roda trolley / chastor wheel berbagai tipe untuk kebutuhan industrial serta kebutuhan untuk roda scafolding, bed rumah sakit, troley supermarket, troley bandara dan laini-lainnya. Merk-merk terbaik yang kami sediakan diantara, Roda Nansin, Nippon, Star Rollen, Shengteng / STG, Shenpay, Sumo, Helver, Global dan Roda Triple-S. Divisi Turbin Ventilator Tersedia juga ditempat kami alat sirkulasi udara / turbin ventilator merk DENKO yang akan membantu mengeluarkan udara panas, kelembaban dan bau tidak sedap pada ruangan pabrik, ruangan produksi dan ruangan rumah anda. Menjadikan udara didalam ruangan pabrik, gudang dan rumah anda menjadi lebih nyaman dan segar. Kami telah membangun bisnis jangka panjang dengan pelanggan kami diseluruh Indonesia, jika anda tertarik dengan beberapa model dan tipe produk yang kami tawarkan didalam website ini, silahkan hubungi kami. Kami siap memberikan layanan konsultasi kepada anda, untuk memilih produk teknik berkualitas TERBAIK dengan harga yang TERMURAH dan tentunya bisa memenuhi kebutuhan anda saat ini. Terimakasih. PT DENKO WAHANA SAKTI Contact Person : Helmi Efendi, ST Office : Jalan Banjardowo Tengah Blok C No 8 Genuk, Semarang 50117, Jawa Tengah INDONESIA Fax : 024-76580141 Email 1 : pt_dws_semarang@yahoo.co.id Email 2 : helmi_effendi@denko.co.id Jam Kantor : Senin - Ju'mat : 08.00 - 17.00 Cara Pembayaran : Tunai, Pembayaran tempo bisa saja dilakukan bila kami telah survey ke tempat anda dan semuanya memenuhi kriteria yang kami telah tetapkan.            ","
              Jalan Banjardowo Tengah - Kompleks Industri Banjardowo Blok C No 8 Genuk, Semarang, Jawa Tengah INDONESIA            ",Semarang,Jawa Tengah,+62 812-3592-407,None,None
TOKO SEMARANG TEKNIK,"
                                    PREMIUM GOLD
                                ",Hand Pallet,"
Selamat datang di website TOKO SEMARANG TEKNIKEMAIL : SARANA_SMG@CBN.NET.IDemail : SEMARANGTEKNIK@CBN.NET.IDPT. Sarana Teknik adalah Perusahaan yang menjadi distributor resmi penjualan Produk Electric Motor, Gear Motor, Gear Reducer, Gear box, Industrial Pump, Copling, Pulley, Chain, Conveyor Chain, Belt Conveyor, Sprocket, transmisi tenaga mekanik, dll. Dengan penghargaan dari custumer akhirnya kami menjadi di kenal dengan Stokist pada product sebagai berikut : BALDOR MOTOR DODGE COUPLING - DODGE BEARING FALK COUPLING REXNORD COUPLING - REXNORD CHAIN ADDAX COUPLING , THOMAS, FENNER BELT COUPLING PULLEY , SIHI PUMP, KOSHIN GEAR PUMP, SOUTHERN CROSS PUMP, EBARA PUMP, FRANKLIN SUBMERSIBLE PUMP, KENFLO PUMP, BEARING, BANDO BELT, CONTINENTAL CONVEYOR BELT MARTIN, LINK BELT, HITACHI, MTK, NIKKEN, KHK, KTR, KB PENTA POWER, CUTES INVERTER, TOSHIBA INVERTER, DELTA INVERTER, KBMM, TECO MOTOR, SIEMENS MOTOR, YUEMA ELECTRIC MOTOR, TSUBAKI POWER HELICAL DRIVE REDUCER, KOP-FLEX, TB WOOD' S, FLENDER, NBK, KTR, MITSUBOSHI, CENTA, EBARA, MOTOVARIO , MOTOVARIO GEARBOX , MOTOVARIO INDONESIA , MOTOVARIO WORM GEAR , BONFIGLIOLI , BONFIGLIOLI INDONESIA , BONFIGLIOLI RIDUTTORI , BONFIGLIOLI GEARMOTOR, dll.Untuk informasi dan pemesanan Hubungi Kami :Head OfficeToko Semarang TeknikJl. Wonodri Sendang Raya No.15 A Semarang 50242Phone : ( 024 ) 356 6377 ( Hunting)Fax   : ( 024 ) 356 9019EMAIL : SARANA_SMG@CBN.NET.IDEmail : semarangteknik@cbn.net.id ","
              Jl. Wonodri Sendang Raya No.15 A Semarang 50242            ",Semarang,Jawa Tengah,+62 815-2260-1312,None,None
Sarana Teknik Cikarang,"
                                    PREMIUM GOLD
                                ",Hand Pallet,"
              Sarana Teknik Menjual dan Stok Item Sbb :- Electric Motor : BALDOR, ELEKTRIM, SIEMENS, TECO, TATUNG, WEG- Gear Box : SEW, OMEGA MOTORI, BONFIGLIOLI, FALK, FENNER, MAKISHINKO, REVCO, SUMITOMO, TRANCYCLO- Roller Chain : FENNER, RENOLD, REXNORD, HITACHI, TSUBAKI, NIKKEN, DID- Inverter : TOSHIBA, LG, DELTA, SANCH, CUTES, TOPTEK, TEC - Coupling : FALK, FENNER, MITSUBOSHI, NBK, TB WOODS, LOVE JOY, NEUPEX FLENDER, TSUBAKI, SEISA- V Belt : BANDO, MITSUBOSHI, GATES, FENNER, OPTIBELT, CONTITECH- Belt Conveyor : STAR, CONTINENTAL, BANDO, HABASIT, PVC DISTRIBUTOR & STOCKIST SPARE PART INDUSTRIC- POWER TRANSMISSION: ELECTRIC MOTOR-GEARMOTOR-GEAR BOX- GEAR REDUCER- PUMP- COUPLING-COUPLING-ROLLER CHAIN -CONVEYOR CHAIN- CONVEYOR BELT-SPROCKET-PULLEY.DENGAN MERK: BALDOR-BONFIGLIOLI-MOTOVARIO-ELEKTRIM-FALKKAMI MENJUAL PRODUCT POWER TRANSMISSION : FENNER Shaft Mounted Speed Reducer, FENNER GEARBOX, FENNER GEARMOTOR, FENNER SMSR, FENNER PULLEY, FENNER BELT, BELT FENNER BALDOR Induction Motor, BALDOR MOTOR, MOTOR BALDOR, BALDOR EXPLOSION PROOF, BALDOR NEMA MOTOR, BALDOR IEC MOTOR RELIANCE ELECTRIC DODGE Gear Box, DODGE PILLOW BLOCK, DODGE D FLEX COUPLING, DODGE PAR FLEX COUPLING, DODGE GEAR COUPLING, DODGE GRID LIGN COUPLING, DODGE BEARING PENTA KB POWER DC Motor controllers RENOLD Product, RENOLD GEARBOX, RENOLD WORMGEAR, RENOLD ROLLER CHAIN, RENOLD CONVEYOR CHAIN, RENOLD MINING COVEYOR CHAIN FALK Coupling KOP FLEX Coupling RATHI Coupling FLENDER COUPLING ROTEX Coupling NORMEX Coupling THOMAS Coupling CENTA Coupling TB WOOD Coupling REXNORD OMEGA Coupling FENNER Tireflex Coupling NBK Miniature Coupling WESTCAR ROTOFLUID Coupling FLUIDOMAT Fluid Coupling RENOLD Chain MTK Chain LINK BELT Conveyor Chain CONTINENTAL Conveyor Belt STAR Conveyor Belt QUANTUM Cardan Shaft & Universal Joint KOSHIN Gear Pump Quantum Vibrator Motor Quantum Power Lock SAMBO Backstop MORSE Backstop Tsubaki Backstop            ","
              Rukan Simprug Plaza Blok A2 No 11 Jababeka (dekat stadion wibawa mukti)Fax : 021-89324530            ",Cikarang,Jawa Barat,+62 812-9491-737,None,None
Sarana Teknik Cikarang,"
                                    PREMIUM GOLD
                                ",Hand Pallet,"
              SARANA TEKNIK Menjual dan Stok Item Sbb :-Electric Motor : BALDOR, ELEKTRIM, SIEMENS, TECO, TATUNG, WEG-Gear Box : SEW, OMEGA MOTORI, BONFIGLIOLI, FALK, FENNER, MAKISHINKO, REVCO, SUMITOMO, TRANCYCLO-Roller Chain : FENNER, RENOLD, REXNORD, HITACHI, TSUBAKI, NIKKEN, DID -Inverter : TOSHIBA, LG, DELTA, SANCH, CUTES, TOPTEK, TECO- Coupling : FALK, FENNER, MITSUBOSHI, NBK, TB WOODS, LOVE JOY, NEUPEX FLENDER, TSUBAKI, SEISA- V Belt : BANDO, MITSUBOSHI, GATES, FENNER, OPTIBELT, CONTITECH - Belt Conveyor : STAR, CONTINENTAL, BANDO, HABASIT, PVC DISTRIBUTOR & STOCKIST SPARE PART INDUSTRIC- POWER TRANSMISSION: ELECTRIC MOTOR-GEARMOTOR-GEAR BOX- GEAR REDUCER- PUMP- COUPLING-COUPLING-ROLLER CHAIN -CONVEYOR CHAIN- CONVEYOR BELT-SPROCKET-PULLEY. DENGAN MERK: BALDOR-BONFIGLIOLI-MOTOVARIO-ELEKTRIM-FALK KAMI MENJUAL PRODUCT POWER TRANSMISSION : FENNER Shaft Mounted Speed Reducer, FENNER GEARBOX, FENNER GEARMOTOR, FENNER SMSR, FENNER PULLEY, FENNER BELT, BELT FENNER BALDOR Induction Motor, BALDOR MOTOR, MOTOR BALDOR, BALDOR EXPLOSION PROOF, BALDOR NEMA MOTOR, BALDOR IEC MOTOR RELIANCE ELECTRIC DODGE Gear Box, DODGE PILLOW BLOCK, DODGE D FLEX COUPLING, DODGE PAR FLEX COUPLING, DODGE GEAR COUPLING, DODGE GRID LIGN COUPLING, DODGE BEARING PENTA KB POWER DC Motor controllers RENOLD Product, RENOLD GEARBOX, RENOLD WORMGEAR, RENOLD ROLLER CHAIN, RENOLD CONVEYOR CHAIN, RENOLD MINING COVEYOR CHAIN FALK Coupling KOP FLEX Coupling RATHI Coupling FLENDER COUPLING ROTEX Coupling NORMEX Coupling THOMAS Coupling CENTA Coupling TB WOOD Coupling REXNORD OMEGA Coupling FENNER Tireflex Coupling NBK Miniature Coupling WESTCAR ROTOFLUID Coupling FLUIDOMAT Fluid Coupling RENOLD Chain MTK Chain LINK BELT Conveyor Chain CONTINENTAL Conveyor Belt STAR Conveyor Belt QUANTUM Cardan Shaft & Universal Joint KOSHIN Gear Pump Quantum Vibrator Motor Quantum Power Lock SAMBO Backstop MORSE Backstop Tsubaki Backstop            ","
              Ruko Simprug Plaza Blok A2 no 11 - Jababeka 2 Cikarang            ",Bekasi,Jawa Barat,+62 819-0675-7270,None,None
"AVODAMITRA INDOTECH, CV","
PREMIUM RUBY
",Hand Pallet,"
              TIMBANGAN DIGITAL / WEIGHING SCALE : Jembatan Timbang , Conveyor Belt scale , Bagging Scale , Batching scale , AMP Scale , Batching plant scale , Floor Scale , Bench Scale , Timbangan hewan , Timbangan sapi , Timbangan emas , hand pallet scale , pocket scale , loadcell , waterproof scale BEST BRAND ; USA , EUROPE , JAPAN , KOREA , CHINA , TAIWAN , INDONESIA PROGRAM APLIKASI TIMBANGAN Program jembatan timbang , AMP , Batching plant , Chek weigher , belt scale , industrial automation MELAYANI SERVICE SEMUA MERK DAN TERA METROLOGY LEGAL TOTAL INDUSTRIAL MACHINERY : Stones Crusher Plant, Batching Plant , Bagging Scale , Conveyor Check Weigher , Conveyor belt scale , Aspalt mixing plant INDUSTRIAL AUTOMATION ; Electrical and control panel touch sceen , programable , database INDUSTRIAL INSTRUMENT Floow control, Temperatur control , Mouisture control TOTAL Weighing Solution and Automation            ","
              OFFICE 1 / WORKSHOP : Jl. Pranti Semampir RT 10 / RW 04, Samping Perum OASIS Village, Sedati, Sidoarjo 61253OFFICE 2 : Jl. Gunung Anyar Tengah No. 58A, Surabaya 60294 , Telp           ;  081357505788 081331599789Email        ;  avodamitra@yahoo.com            ",Sidoarjo,Jawa Timur,+62 813-5750-5788,+62 813-3159-9789,None
CV. JATIM TRONIK - Surabaya - Jawa Timur - Indonesia,"
PREMIUM BLUE ONYX
",Hand Pallet,"
CV. JATIM TRONIK, merupakan salah satu perusahaan Supplier Timbangan dan Perlengkapannya, dengan bidang-bidang usaha sebagai berikut : 1) Menjual Segala Jenis Timbangan Elektronik dan Timbangan Mekanik. 2) Menjual Timbangan Truk / Timbangan Jembatan, Timbangan Ternak, Timbangan Lantai (Platform), Timbangan Analytic, Timbangan Duduk, Timbangan Portable, Timbangan Pocket. 3) Menjual Indicator, Load Cell, Weighing System ( Hopper, Batching, dan Bagging). 4) Menjual Accessories Timbangan, Personal Computer, Software Timbangan Jembatan, Printer. 5) Menerima Service, Reparasi, Instalasi, Modifikasi Segala Jenis / Merk Timbangan. 6) Melayani Konsultasi Permasalahan Timbangan dan Perlengkapannya. 7) Fabrikasi Konstruksi Timbangan, Pembuatan Pondasi Timbangan, dan Rumah Timbangan. 8) Melayani Jasa Tera Baru dan Tera Ulang,  Jasa Kalibrasi, Sertifikasi UTTP (Ukuran Takaran Timbangan dan Perlengkapannya) ","
              Jl. Raya Merak No.53 Rewwin Waru            ",Surabaya - Sidoarjo,Jawa Timur,+62 856-0856-2121,+62 813-3090-9696,None
CV. INOMEK,"
                                    PREMIUM GOLD
                                ",Hand Pallet,"
ABOUT USEstablished in 2017 in Surabaya, INOMEK is a company that focused in the distribution of innovative industrial mechanical such us Pneumatic & Vacuum Automation, Pressure & Temperature Gauge, Valves, Ergonomic Handling, Vacuum Conveyor and Metal Detector with Ejection System, etc. We are committed to distributing only qualified products and services, provides high-quality equipment, proper application, and model selection, and backed up by strong after-sales service leave ""no-worries"" in operation performance.VISSION To be the best company that distribution Innovative Industrial Mechanical in Indonesia.MISSION

CUSTOMER TALK, WE LISTEN. The voice of the customer will always drive the development of ou strategic plans and actions.
CONTINUOUS IMPROVEMENT (KAIZEN) IS OUR WAY OF LIFE. Set breakthrough objectives, experiment and learn every day, eliminate waste in our business processes, and benchmark the best, then better them.
INNOVATION DEFINE OUR FUTURE. Individual and organizational creativity will drive breakthrough ideas for technology, products, solutions, and processes.
 ","
              PERUMAHAN STAR LOTUS BLOK A NO 26. SUKODONO, KABUPATEN SIDOARJO. JAWA TIMUR-INDONESIA.            ",Kabupaten Sidoarjo,Jawa Timur,+62 878-4207-0711,None,None
PT SEAN INDONESIA,"
                                    PREMIUM GOLD
                                ",Hand Pallet,"
PT SURYA ENERGI ANUGERAH NUSANTARA INDONESIA ( PT SEAN INDONESIA ) was established in  2017, and rapidly grew into and aggressive and commited distributor of industrial, General Contractor, Mechanical & Electrical, Civil and Construction, Logistic Solutions, Design and Supply. 
In the General Contractor, Mechanical & Electric, Civil and Construction, Design & Supply, PT SEAN INDONESIA has M1 category ( Grade 5 ) & NFPA Member* Scope of work PT SEAN INDONESIA *
• GENERAL CONTRACTOR, MECHANICAL & ELECTRIC, CIVIL & CONSTRUCTION, DESIGN & SUPPLY ( M1 category – Grade 5 ) – NFPA MEMBER
• SAFETY SPECIALIST of FIXED FIRE FIGHTING SYSTEM, FIRE DETECTION & GENERAL ALARM SYSTEM
• SAFETY SPECIALIST of BUILDING, INDUSTRIAL ,MARINE FIRE PROTECTION SYSTEM & EQUIPMENT AND LIFE SAVING
• A PROFESSIONAL SUPPLIER for INDUSTRIAL SECTIONAL DOORS, LOADING DOCK SYSTEMS, HIGH SPEED DOORS, & AUTOMATION SYSTEM
• MATERIAL HANDLING, WAREHOUSE EQUIPMENT & SAFETY EQUIPMENT
• STORAGE RACKING SYSTEM, SOLUTION OF AS/RS, AUTOMATION EQUIPMENT,  WAREHOUSE PROTECTION • MPM PLASTIC PROTECTIONS• SOLAR PANEL, SOLAR SYSTEM, SOLAR INVERTER, SOLAR COMPONENT
• RENTAL FORKLIFT, HAND PALLET  - SERVICE AND SPARE PART
• APPLIANCES CUSTOMIZED FILTRATION, WORK OF RUBBER SEALS, VITTON, PU, NBR, GRAPHITE, NYLON etc
• SEAN Conveyor Product's gravity roller conveyors are available in many sizes and configurations. Gravity roller will convey light, medium, and heavy loads that have firm flat bottoms such as cartons, totes, cases, skids, drums, etc.
Through ingenious design and quality that’s proven and tested, Sean Indonesia is the supplier for product to many Foreign Based Companies ( PMA ) in the manufacturing, Pharmaceutical, Chemical ,cigarette Industrial and others. 
We company’s commitment is simple and yet something that we sincerely wish for all of our customers, Principals, employees, and shareholder... “  We serve, innovation and solution “  ","
               Office : The Taman Dhika Cluster Boulevard BL 8 No. 8 , Jl Kesatrian Buduran - Sidoarjo 61252            ",Sidoarjo,Jawa Timur,+82 12-228-5168,None,None
PT. SARANA TEKNIK COUPLING & MOTOR,"
                                    PREMIUM GOLD
                                ",Hand Pallet,"
PT. SARANA BLOWER & COMPRESSOR Contact Person: Mr. Welly Setiyono ( Hp. 081357000876, 081615322773 ) . Telp: 031 - 8685823 - 24 Fax: 031 - 8685825 Email: wellysarana@gmail.com; atau sarana_surabaya@cbn.net.id Website: www.sarana-teknik.com Kami menjual Blower dan Compressor: MERK BLOWER: 1. CHUAN FAN 2. CRELEC 3. FU - TSU 4. TOKAI 5. TSURUMI 6. SHOWFOU 7. TRUNDEAN 8. FUJI 9. VORTEX 10. BACKPORT 11. HONG HSING MERK COMPRESSOR: 1. PUMA 2. PANTHER 3. SWAN 4. JAGUAR 5. BISON 6. UNITED 7. ALPHA AIR 8. EURO AIR 9. SHARK 10. FUSHENG 11. HITACHI dll. Jual: WIREMESH, MESIN CRUSHER, JAW CRUSHER, DAN UNIT CONVEYOR Produk: BACKSTOP / CLUTCH BRAKE: Merknya: Shinko Sinfonia, KEB, Mitsubishi, Osaka, Suntes, Airflex Eaton, Warner, Morse, Formsprag, sambo, Marlan, Ringspann, Stieber, renold dll. RING BLOWER, TURBO BLOWER & ROOTS BLOWER Merknya: Chuan Fan, Back Port, Tai-Yih Sun, Crelec, Ho-Hsing dan Showfou Produk INVERTER AC 1 Phase dan 3 Phase Merknya: LG/ LS, FUJI, HITACHI, CUTES, DELTA, TOSHIBA, SIEMENS, TECO, MITSUBISHI, ABB. DC Controller KB-Penta Power Produk COMPRESSOR Mernya: PUMA, PANTHER, JAGUAR, SWAN, EURO AIR, FUSHENG, SARK, BISON. Electric Motor: Baldor Electric motor, Explosion Prof motor BALDOR, CMG ac dc electric motor, Bonfiglioli electric motor, westcar electric motor, toyo electric motor, electrim electric motor, yuema electric motor, motovario electric motor, mitsibishi electric motor, quantum electric motor, Siemens electric motor, reliance electric motor, teco electric motor. GEAR BOX & GEAR MOTOR. Gear dan gear motor; Bonfiglioli Ridutori gear motor, Yuema gear motor, Mitshubishi gear motor, Motovario gear motor, Quantum gear motor, Reliance gear motor, Siemens gear motor, Teco gear motor, Flender gear motor, fenner gear, Omega Motori gear reducer. SITI ( GearBox Reducer Motor ) . INDUCTION MOTOR: ELEKTRIM CANTONI ( Polandia ) ELEKTRIM EMM TECO TATUNG YUEMA TRANS MAX OMEGA MOTORI MITSUBISHI SUPER LINE LOW VOLTAGE/ HIGHT VOLTAGE MEZ SIEMENS ABB BALDOR QUANTUM BONFIGLIOLI MOTOVARIO MGM, VEMA, WESTERN, WEG SEW, AEB, SEM, PEM, FEMOZE, TOYO, ATM 1 Phase. Gear Box: FALK GEAR REDUCER REXNORD GEAR REDUCER FALK GEAR MOTOR REXNORD GEAR MOTOR FALK GEAR DRIVE DRIVES REXNORD DRIVE DRIVES REXNORD TABLE TOP CHAIN LINK BELT BEARING LINK BELT CHAIN TUNGLEE GEAR MOTOR Ex. Taiwan FALK REXNORD GEAR REDUCER FALK REXNORD GEAR MOTOR FALK REXNORD GEAR GRIVES FALK GEAR V CLASS QUANTUM MASTER GEARBOX QUANTUM GEAR MOTOR QUANTUM GEAR REDUCER ROSSI MOTORIDUTTORI, SITI, MAKISHINKO - GEAR BOX - GEAR MOTOR - GEAR REDUCER - GEAR BOXES KB Penta Controller DC: KBIC 240D, KBMD 240D, & KBCC 225 INVERTER AC: LG/ LS, DELTA, TOSHIBA, CUTES, TOP TEK, Fuji. KAO JYH: ROTARY JOINTS TPC PNEUMATICS SMC PNEUMATICS HITECH ROLLER CHAIN CONTIMAX CONVEYOR CHAIN DODGE CONVEYOR CHAIN EK ROLLER CHAIN NCK ROLLER CHAIN NARA COUPLING NARA ROLLER CHAIN 1. BONFIGLIOLI RIDUTORI 2. SEW 3. FLENDER 4. TSUBAKI 5. YUEMA 6. SOUTHERN CROSS 7. SIHI PUMP 8. DAVID BROWN 9. TRANSDISCO 10. TRANSYKO 11. CHALLENGE 12. BREVINI 13. BROOK HANSEN 14. PE-EI 15. TRANSMAX / OMEGA MOTORI 16. NISSEI 17. SUMITOMO 18. TOSHIBA 19. MAKISHINKO 20. SKT, TSF, MCN, Ex. Taiwan Merk Electric / Induction Motor: TECO, TATUNG, LI-MING, ATT, FUKUTA. YUEMA, VEMA, VEM, SEM, FEMOUS, TRANSMAX, ROTOR. BALDOR, RELIANCE, ABB, SIEMENS, BONFIGLIOLI ELEKTRIM CANTONI, ELEKTRIM EMM SEW, WEG, CMG, MEZ, MGM Brake motor MARELLI, SUPERLINE MITSUBISHI, TOSHIBA. TRANSTEX CLUCTH BRAKES WARNER CLUCTH BRAKES WICHITA CLUCTH BRAKES FORMSPRAG CLUCTH STIEBER CLUCTH BEARING LEESON DC MOTOR SAN YA FLIUD MIXER & AGIGATOR SAN YA PLANETARI OIL DINAMIC PLANETARI Merk Pump: ALFA LAVAL PUMP TORISHIMA SIHI PUMP, STERLING PUMP, KSB PUMP, APP PUMP, LOWARA, CNP PUMP GROUNFOS ORIENTAL KOSHIN EBARA, SHOWFU, KENFLO FRANKLIN, SOUTHERN CROSS. 1. TSUBAKI CHAIN, For Palm Oil & Sugar Mill Chains 2. DAICHAIN CONVEYOR CHAIN 3. HI - TECH COUPLING 4. C - KING COUPLING 5. MAXTON CONVEYOR CHAIN 6. SIT PULLEY 7. FUJIMOTO CONVEYOR CHAIN 8. CHALLENGE COUPLING, ROLLER CHAIN 9. DIAMOND ROLER CHAIN 10. DONGHUA ROLLER CHAIN 11. REXNORD ROLLER CHAIN, REXNORD TABLE TOP, RENOLD ROLLER CHAIN 12. FALK V CLASS ALL COUPLING: Centa, Transfluid coupling, Dodge coupling, falk coupling, Fenner coupling, Flender coupling, addax coupling, IDD-FCL Coupling, KOPFLEX coupling, KTR coupling, LoveJoy coupling, Masterflex coupling, Mitsuboshi coupling, NBK coupling, Normex coupling, Rathi coupling, Rexnord coupling, Seisha coupling, TB WOOD' S coupling, Thomas coupling, Tsubaki coupling, Westcar coupling, Jointing, Universal jointing: KTR, Quantum, Sankyu Power Lock, Locking Bush: Quantum, Stand Word, Ring Feeder. Ringspann Backstop, Tsubaki Backstop. 1. VOITH COUPLING 2. MIKI PULLEY COUPLING 3. STIEBER BEARING 4. STIEBER CLUTCH BACKSTOP 5. STIEBER COUPLING 6. TURBOFLEX COUPLING 7. AMERIDRIVES COUPLING 8. BIBBY COUPLING 9. NB LINEAR BEARING 10. NIS CHAIN AND COULING 11. ROTARY JOINT ROSSI MOTORIDUTTORI GEARBOX GEAR REDUCER MAKISHINKO GEARBOX GEAR REDUCER, GEAR MOTOR STM GEAR MOTOR, GEAR REDUCER TRANS GEAR REDUCER WORM GEAR. ALL BACKSTOP MERK: BACKSTOP FOR CONVEYOR BACKSTOP MARLIN BACKSTOP STIEBER BACKSTOP RINGSPANN BACKSTOP FORMSPRAG BACKSTOP SAMBO BACKSTOP MASTER BACKSTOP TSUBAKI Flender: N-Eupex Coupling, Rupex Coupling, Bipex Coupling, Arpex Coupling, Zapex Coupling, & Fludex Coupling. - KTR ROTEX - TB-WOOD' S SUREFLEX, DURAFLEX - NBK, FCL, MST - NORMEX/ HYPERFLEX E, MT/ MH - CENTAFLEX, CFA, CFX - FENNER HRC, TYREFLEX, TAPER LOCK PULLEY, SPZ, SPA, SPB, SPC - IDD FCL, RANTAI Chain: Link-Belt, AVE, Rexnord, Tsubaki, Fenner, DID, MTK. Table Top Chain Rexnord, & Cable Chain. Sprocket: Mtk sprocket, Tsubaki sprocket, FENNER Sprocket. Taper Lock Pulley: Fenner pulley, Master Pro pulley, NBK pulley, & SIT. Taper Lock Timming Pulley & Pilot Bore Timming Pulley: Fenner Timming Pulley, Martin Timming Pulley, SIT Timiming Pulley, dan Timming Lokal Pilot Bore. Gardan shaft: GWB cardan shaft, KGN cardan shaft, Quantum cardan Shaft, SanKyu cardan shaft, KHK stok Gear ( Rotary Joints Kao jyh ) Jointing: Ktr jointing, Quantum jointing, Sankyu jointing, Universal join. Merk LUX: Rotary Joints, Rotary Valve. Universal Joint: Merk, Quantum, GWB - GKN, GMB, KYOWA, KTR, SANKYU, DANA SPICER, VOITH, WICHMANN. Pump: Oriental Koshin pump, Southern Cross pump, Sterling Sihi pump, Torishima, Lowara, Ebara, CNP, Kenflo, dan Franklin Pump. Material Handling: Cuan Fan Blower: Ring Blower, Turbo Blower & Root Blower. Sprocket: MTK Sprocket, Tsubaki Sprocket, Fenner Sprocket. Pulley: Fenner Pulley, Master Pro Pulley, NBK Pulley. Conveyor belt: Link belt conveyor, Continental conveyor, Star Conveyor, Bando conveyor, & Rock Trans. 1 ) . MITSUBISHI SUPERLINE MOTOR 1 Phase & 3 Phase. 2 ) . TRANSMAX MOTOR 3 ) . TOSHIBA INVETER 4 ) . DELTA INVETER 5 ) . TOP TEK INVERTER 6 ) . LG/ LS INVERTER 7 ) . YUEMA MOTOR, YUEMA GEAR MOTOR, YUEMA GEAR BOX, YUEMA GEAR PUMP 8 ) . EDDY CARRENT GEAR MOTOR + SPEED CONTROLLER TECO 9 ) . INVETER DELTA 10) . HALVIBRAS VIBRATOR MOTOR 11) . MEZ ELECTRIK MOTOR / INDUCTION MOTOR 12) . WEG EXPLOSION PROOF MOTOR 13) . EURO DRIVES EXPLOSION PROOF MOTOR 14) . WESTERN ELECTRIK MOTOR 15) . SIEMENS MOTOR / SIEMENS FLENDER GEAR MOTOR / GEAR BOX MERK QUANTUM: VIBRATOR MOTOR GEAR BOX REDUCER GEAR MOTOR GEAR BOX QUANTUM MASTER GEAR BOX POWER LOCK UNIVERSAL JOIN Type MA ( Single ) / MB ( Double ) ROSSI MOTORIDUTTORI: GEAR BOX GEAR REDUCER GEAR MOTOR SITI: GEAR BOX BOXES GEAR REDUCER GEAR BOXES GEAR MOTOR MAKISHINKO: GEAR BOX GEAR REDUCER REVCO: SPEED REDUCER GEAR BOX WPA, WPS, WPX, WPO. TRANSCYCO: GEAR BOX CYCLOIDAL SPEED REDUCER PANASONIC: MOTOR SERVO GEAR MOTOR LI-MING: ELECTRIK / INDUCTION MOTOR GEAR BOX HORIZONTAL & VERTICAL GEAR MOTOR HORIZONTAL & VERTICAL WORM GEAR BOX Type: NMRV...? "" BOLOGNA "" SPEED REDUCER GEAR BOX "" TSF "" PE-EI: PEEI MOTOR, PEEI MOGER, VARIABLE SPEED PULLEY OCR: OCR GEAR BOXES OCR GEAR REDUCER ALFA FLUID COUPLING CENTA TRANSMISSION. Bearing: Fag bearing, SKF Bearing, NTN Bearing, INA Bearing, Iko bearing, dodge bearing, rexnord bearing, linkbelt bearing, morse bearing, seal master bearing, Timken bearing, nsk bearing. PT. Sarana Teknik Group didirikan sejak Oktober 1998. Perusahaan yang menyediakan perangkat dan transmisi daya berkualitas dan produk motor listrik. Kami telah mendidedikasikan diri untuk memecahkan masalah-masalah industri Kami didukung oleh engineer yang sangat ahli serta divisi penjualan kami dan perwakilan layanan pelanggan yang terlatih memberikan bantuan teknis kepada pelanggan kami selalu akan berusaha untuk memberikan, membantu, memberikan berpengetahuan, dan efisien. Kami mempertahankan tingkat tertinggi pengetahuan tentang semua produk kami. Silakan hubungi kami di alamat berikut Ruko Sentra Tropodo Blok C7 Jl. Raya Tropodo No.115 Waru , Surabaya Telp : ( 031) 868 5823 - 24 Fax : ( 031) 868 5825 Email : sarana_ surabaya@ cbn.net.id Website : www.sarana-teknik.com Produk / Jasa Utama Menjual: * COUPLING We provide a various of industrial coupling to fill your procurement and user needs. * TECO MOTOR Menyediakan juga electric motor merek teco untuk varian yang common tersedia di stock kami dan untuk high duty dan tidak common silahkan hubungi representative kami * QUANTUM VIBRATOR MOTOR Menyediakan vibrator motor merek quantum untuk varian yang common tersedia di stock kami dan untuk high duty dan tidak common silahkan hubungi representative kami di kota anda. * bearing menyediakan berbagai bearing, fag, ntn, koyo, ina, skf, ntn. ","
              RUKO SENTRA TROPODO BLOK C7, Jln. Raya Tropodo No. 115 Waru, Sidoarjo-Surabaya ",SURABAYA,Jawa Timur,+62 813-5700-0876,+62 815-2277-1508,None
TOKO SURABAYA TEKNIK,"
                                    PREMIUM GOLD
                                ",Hand Pallet,"
Selamat datang di website TOKO SURABAYATEKNIK>>>EMAIL : SARANA_SURABAYA@CBN.NET.ID.........>>>email : SURABAYATEKNIK@CBN.NET.ID...................PT. Sarana Teknik adalah Perusahaan yang menjadi distributor resmi penjualan Produk Electric Motor, Gear Motor, Gear Reducer, Gear Box, Industrial Pump, Coupling, Pulley, Chain, Conveyor Chain, Belt Conveyor, Sprocket, transmisi tenaga mekanik, dll. Dengan penghargaan dari custumer akhirnya kami menjadi di kenal dengan Stokist pada product sebagai berikut : BALDOR MOTOR DODGE COUPLING - DODGE BEARING FALK COUPLING REXNORD COUPLING - REXNORD CHAIN ADDAX COUPLING , THOMAS, FENNER BELT COUPLING PULLEY , SIHI PUMP, KOSHIN GEAR PUMP, SOUTHERN CROSS PUMP, EBARA PUMP, FRANKLIN SUBMERSIBLE PUMP, KENFLO PUMP, BEARING, BANDO BELT, CONTINENTAL CONVEYOR BELT,  MARTIN PULLEY, LINK BELT, HITACHI, MTK, NIKKEN, KHK, KTR, KB PENTA POWER, CUTES INVERTER, TOSHIBA INVERTER, DELTA INVERTER, KBMM, TECO MOTOR, SIEMENS MOTOR, YUEMA ELECTRIC MOTOR, TSUBAKI POWER HELICAL DRIVE REDUCER, KOP-FLEX, TB WOOD'S, FLENDER, NBK, KTR, MITSUBOSHI, CENTA, EBARA, MOTOVARIO , MOTOVARIO GEARBOX , MOTOVARIO INDUCTION , MOTOVARIO WORM GEAR , BONFIGLIOLI , BONFIGLIOLI INDUCTION MOTOR , BONFIGLIOLI RIDUTTORI , BONFIGLIOLI GEARMOTOR, dll.Untuk informasi dan pemesanan Hubungi Kami :Head OfficeToko Surabaya TeknikRuko Sentra Tropodo Blok C7, Jl. Raya Tropodo No.115 Waru, SurabayaPhone : (031) 868 5823-24 ( Hunting)Fax   : (031) 868 5825>>EMAIL : SARANA_SURABAYA@CBN.NET.ID>>Email : surabayateknik@cbn.net.id ","
              Ruko Sentra Tropodo Blok C7, Jl. Raya Tropodo No.115 Waru, Surabaya            ",Surabaya,Jawa Timur,+62 815-2277-1508,None,None
PT. SARANA TEKNIK SURABAYA,"
                                    PREMIUM GOLD
                                ",Hand Pallet,"
              PT. SARANA TEKNIK SURABAYAContact Person:Mr. Andy Ruko Sentra Tropodo Blok C7 Jl. Raya Tropodo No.115 Waru ,SurabayaTelp :( 031) 868 5823 - 24Fax : ( 031) 868 5825Email : sarana_ surabaya@cbn.net.idJual: WIREMESH, MESIN CRUSHER, TAIXING WEIBO, JAW CRUSHER, DAN UNIT CONVEYOR Product Tsubaki:1. Tsubaki roller chain2. Tsubaki conveyor cahin3. Tsubaki backstop4. Tsubaki power lock5. Tsubaki power cylinder.Produk: BACKSTOP / CLUTCH BRAKE: Merknya: Shinko Sinfonia, KEB, Mitsubishi, Osaka, Suntes, Airflex Eaton, Warner, Morse, Formsprag, sambo, Marlan, Ringspann, Stieber, renold dll. RING BLOWER, TURBO BLOWER & ROOTS BLOWER Merknya: Chuan Fan, Back Port, Tai-Yih Sun, Crelec, Ho-Hsing dan Showfou Produk INVERTER AC 1 Phase dan 3 Phase Merknya: LG/ LS, FUJI, HITACHI, CUTES, DELTA, TOSHIBA, SIEMENS, TECO, MITSUBISHI, ABB. DC Controller KB-Penta Power Produk COMPRESSOR Mernya: PUMA, PANTHER, JAGUAR, SWAN, EURO AIR, FUSHENG, SARK, BISON. Electric Motor: Baldor Electric motor, Explosion Prof motor BALDOR, CMG ac dc electric motor, Bonfiglioli electric motor, westcar electric motor, toyo electric motor, electrim electric motor, yuema electric motor, motovario electric motor, mitsibishi electric motor, quantum electric motor, Siemens electric motor, reliance electric motor, teco electric motor. GEAR BOX & GEAR MOTOR. Gear dan gear motor; Bonfiglioli Ridutori gear motor, Yuema gear motor, Mitshubishi gear motor, Motovario gear motor, Quantum gear motor, Reliance gear motor, Siemens gear motor, Teco gear motor, Flender gear motor, fenner gear, Omega Motori gear reducer. SITI ( GearBox Reducer Motor ) . INDUCTION MOTOR: ELEKTRIM CANTONI ( Polandia ) ELEKTRIM EMM TECO TATUNG YUEMA TRANS MAX OMEGA MOTORI MITSUBISHI SUPER LINE LOW VOLTAGE/ HIGHT VOLTAGE MEZ SIEMENS ABB BALDOR QUANTUM BONFIGLIOLI MOTOVARIO MGM, VEMA, WESTERN, WEG SEW, AEB, SEM, PEM, FEMOZE, TOYO, ATM 1 Phase. Gear Box: FALK GEAR REDUCER REXNORD GEAR REDUCER FALK GEAR MOTOR REXNORD GEAR MOTOR FALK GEAR DRIVE DRIVES REXNORD DRIVE DRIVES REXNORD TABLE TOP CHAIN LINK BELT BEARING LINK BELT CHAIN TUNGLEE GEAR MOTOR Ex. Taiwan FALK REXNORD GEAR REDUCER FALK REXNORD GEAR MOTOR FALK REXNORD GEAR GRIVES FALK GEAR V CLASS QUANTUM MASTER GEARBOX QUANTUM GEAR MOTOR QUANTUM GEAR REDUCER ROSSI MOTORIDUTTORI, SITI, MAKISHINKO - GEAR BOX - GEAR MOTOR - GEAR REDUCER - GEAR BOXES KB Penta Controller DC: KBIC 240D, KBMD 240D, & KBCC 225 INVERTER AC: LG/ LS, DELTA, TOSHIBA, CUTES, TOP TEK, Fuji. KAO JYH: ROTARY JOINTS TPC PNEUMATICS SMC PNEUMATICS HITECH ROLLER CHAIN CONTIMAX CONVEYOR CHAIN DODGE CONVEYOR CHAIN EK ROLLER CHAIN NCK ROLLER CHAIN NARA COUPLING NARA ROLLER CHAIN1. BONFIGLIOLI RIDUTORI2. SEW3. FLENDER4. TSUBAKI5. YUEMA6. SOUTHERN CROSS7. SIHI PUMP8. DAVID BROWN9. TRANSDISCO10. TRANSYKO11. CHALLENGE12. BREVINI13. BROOK HANSEN14. PE-EI15. TRANSMAX / OMEGA MOTORI16. NISSEI17. SUMITOMO18. TOSHIBA19. MAKISHINKO20. SKT, TSF, MCN, Ex.Taiwan Merk Electric / Induction Motor: TECO, TATUNG, LI-MING, ATT, FUKUTA. YUEMA, VEMA, VEM, SEM, FEMOUS, TRANSMAX, ROTOR. BALDOR, RELIANCE, ABB, SIEMENS, BONFIGLIOLI ELEKTRIM CANTONI, ELEKTRIM EMM SEW, WEG, CMG, MEZ, MGM Brake motor MARELLI, SUPERLINE MITSUBISHI, TOSHIBA. TRANSTEX CLUCTH BRAKES WARNER CLUCTH BRAKES WICHITA CLUCTH BRAKES FORMSPRAG CLUCTH STIEBER CLUCTH BEARING LEESON DC MOTOR SAN YA FLIUD MIXER & AGIGATOR SAN YA PLANETARI OIL DINAMIC PLANETARI Merk Pump: ALFA LAVAL PUMP TORISHIMA SIHI PUMP, STERLING PUMP, KSB PUMP, APP PUMP, LOWARA, CNP PUMP GROUNFOS ORIENTAL KOSHIN EBARA, SHOWFU, KENFLO FRANKLIN, SOUTHERN CROSS.1. NEXTON CHAIN, For Palm Oil & Sugar Mill Chains2. DAICHAIN CONVEYOR CHAIN3. HI - TECH COUPLING4. C - KING COUPLING5. MAXTON CONVEYOR CHAIN6. SIT PULLEY7. FUJIMOTO CONVEYOR CHAIN8. CHALLENGE COUPLING, ROLLER CHAIN9. DIMAOND ROLER CHAIN10. DONGHUA ROLLER CHAIN11. REXNORD ROLLER CHAIN, REXNORD TABLE TOP, RENOLD ROLLER CHAIN12. FALK V CLASSALL COUPLING: Centa, Transfluid coupling, Dodge coupling, falk coupling, Fenner coupling, Flender coupling, addax coupling, IDD-FCL Coupling, KOPFLEX coupling, KTR coupling, LoveJoy coupling, Masterflex coupling, Mitsuboshi coupling, NBK coupling, Normex coupling, Rathi coupling, Rexnord coupling, Seisha coupling, TB WOOD' S coupling, Thomas coupling, Tsubaki coupling, Westcar coupling, Jointing, Universal jointing: KTR, Quantum, Sankyu Power Lock, Locking Bush: Quantum, Stand Word, Ring Feeder. Ringspann Backstop, Tsubaki Backstop.1. VOITH COUPLING2. MIKI PULLEY COUPLING3. STIEBER BEARING4. STIEBER CLUTCH BACKSTOP5. STIEBER COUPLING6. TURBOFLEX COUPLING7. AMERIDRIVES COUPLING8. BIBBY COUPLING9. NB LINEAR BEARING10. NIS CHAIN AND COULING11. ROTARY JOINT ROSSI MOTORIDUTTORI GEARBOX GEAR REDUCER MAKISHINKO GEARBOX GEAR REDUCER, GEAR MOTOR STM GEAR MOTOR, GEAR REDUCER TRANS GEAR REDUCER WORM GEAR.ALL BACKSTOP MERK: BACKSTOP FOR CONVEYOR BACKSTOP MARLIN BACKSTOP STIEBER BACKSTOP RINGSPANN BACKSTOP FORMSPRAG BACKSTOP SAMBO BACKSTOP.            ","
              Jl. Raya Tropodo No.115  Waru , Surabaya  Telp : ( 031) 868 5823 - 24  Fax : ( 031) 868 5825  Email : sarana_surabaya@cbn.net.id,    surabayateknik@cbn.net.id             ",Surabaya,Jawa Timur,+62 815-2277-1508,None,None
CV. PRIMAKARYA ADITAMA,"
                                    PREMIUM GOLD
                                ",Hand Pallet,"
              CV. PRIMAKARYA ADITAMA (PRAMA) merupakan perusahaan Supplier dibidang ""Timbangan Digital"".Scoupe bussines kami melayani ; Penjualan, Perbaikan / Repair, Tera-Calibration, Programming/Software, Automation Controller Weighing System, Mesin Packaging dan Spare part.Produk :

Jembatan Timbang (Truck Scale),
Timbangan Lantai / Platform (Floor Scale),
Timbangan Duduk (Bench Scale),
Timbangan Crane (Crana Scale),
Timbangan Laboratorium (Analitical Balance),
Timbangan Packaging & Bagging,
Timbangan Conveyor / Belt Conveyor (Static & Dinamic Scale),
Check Weigher System,
Programming PLC & HMI,
Programming Dekstop PC Aplication,
Automation Control System.
 ","
              JL. Raya Buncitan, Graha Sedati Mas F-5            ",Sidoarjo,Jawa Timur,+62 813-1558-6805,None,None
UD. SIDO MUMBUL,"
                                    PREMIUM GOLD
                                ",Hand Pallet,"
              UD. SIDO MUMBULPerusahaan kami bergerak di bidang distribusi barang pecah belah / bolo pecah, plastik rumah tangga, peralatan / alat dapur ( kitchen wares) dan kebersihan ( cleaning equipments) , perlengkapan rumah tangga ( house wares / home appliances) dan kebutuhan industri ( industrial wares) lebih dari 30 tahun di Pasar Turi, Surabaya. Kami menjual barang-barang produksi lokal dan impor seperti barang-barang aluminium, kaca, plastik, stainless steel, perkakas, dll. dengan harga dan kuantiti partai ( grosir) untuk dijual kembali ( reseller price).Beberapa merek barang yang kami jual adalah Hock, Lion Star, Maspion, Global Eagle, Green Leaf, Dian Sari, Owl Plast, Technoplast, Bull Star dan masih banyak lagi. Untuk informasi lebih lengkap bisa dilihat pada halaman Katalog Produk kami atau bisa langsung datang ke kantor kami pada hari Senin - Sabtu pada pukul 10: 00 - 17: 00 WIB di jalan Dupak 63, kompleks pertokoan Mutiara Dupak C-22, Surabaya.  Dengan dukungan supplier lokal dan nasional, kami siap untuk memenuhi kebutuhan usaha anda. Kontak kami segera untuk berbisnis dengan kami.Kami juga melayani kebutuhan hotel, rumah sakit, cafe, restoran & katering.Untuk pemesanan produk dapat dilakukan via telepon, short message service ( SMS) , Yahoo! Messenger, Blackberry Messenger ( BBM) dengan sistem pembayaran cash ( transfer bank / kontan) . Pembayaran dapat dilakukan setelah mendapat konfirmasi dari kami atas ketersediaan jumlah produk yang dibutuhkan. Apabila anda serius, dimohon untuk tidak mengirimkan e-mail kepada kami tanpa melakukan konfirmasi terlebih dahulu.  Tersedia kualitas produk biasa, menarik, murah, kuat dan berkualitas tergantung merk dan kebutuhan. Untuk area surabaya kami dapat mengirim, untuk konsumen luar kota dan luar pulau dapat dikirim lewat ekspedisi yang telah disepakati bersama. JAKARTA - BANDUNG - YOGYAKARTA - MAGELANG - SOLO - DENPASAR - SEMARANG - MALANG - SURABAYA - BANYUWANGI - PASURUAN - PROBOLINGGO - JEMBER - PRABUMULIH - MEDAN - JAMBI - PEKANBARU - MAKASSAR - BALIKPAPAN - PONTIANAK - BANJARMASIN - BATAM - PALEMBANG - LAMPUNG - SAMARINDA - PADANG - MATARAM - KALABAHI - MANADO - JAMBI - ACEH - PANGKALAN BUN - KUALA PEMBUANG - BATU LICIN - SAUMLAKI - TUAL - GORONTALO - TANJUNG SELOR - TOLI TOLI - AMBON - BATAM - PANGKALPINANG - WAINGAPU - WAIKABUBAK - KUPANG - ATAMBUA - DILI - PALU - SAMPANG - BANGKALAN - SUMENEP - JAYAPURA - SORONG - BIAK - MANOKWARI - MERAUKE - BAU BAU - TERNATE - TOBELO - KENDARI UD. SIDO MUMBUL - Jln. Dupak 63 / Pertokoan Mutiara Dupak C-22, (031) 5469330 / 081938685700, Surabaya. PIN BBM = 7C5F4B40 / 5B69FFC6 / 228B81D4 WA = +6282143438684 LINE = herry.sutanto E-mail = ud_sido_mumbul@yahoo.com / herrychenzhongqiang@gmail.com Jam Kerja = Senin - Sabtu 10:00 - 17:00 WIB, Hari Minggu / Besar Libur            ","
              Jln. Dupak 63 / Pertokoan Mutiara Dupak C-22, (031) 546-9330 / 0819-3868-5700, Surabaya.
PIN BBM = 7C5F4B40 / 5B69FFC6
WA = 0821-4343-8684
LINE = herry.sutanto            ",Surabaya,Jawa Timur,+62 814-3438-684,None,None
CV. MULYA SCALE,"
                                    PREMIUM GOLD
                                ",Hand Pallet,"
              Perusahaan kami bergerak dalam bidang Spesialist Industri, Import, Supply dan Jasa Service Timbangan Elektronik / Digital untuk semua merk dan type Timbangan Digital / Truck Scale / Jembatan Timbang dengan berbagai macam merk, type dan kapasitas, Kami menjual berbagai macam dan merk Timbangan, Indikator dan Load Cell dari kapasitas kecil ( Lab) sampai besar ( Jembatan Timbang) sesuai dengan kebutuhan Industri. Kami juga melayani service / repair timbangan berbagai merk dan berbagai kapasitas terutama JEMBATAN TIMBANG. Dengan didukung oleh tenaga professional yang spesialis dan berpengalaman di bidang timbangan. Kami akan memberikan pelayanan dengan baik, Pengalaman kami telah terbukti dalam hal pelayanan customer, baik di kota Surabaya, Jawa Timur, dan kota besar lainnya di seluruh Indone 1. Timbangan Laboratory : Analytical Balance, Balance Scale, Micro Balance 2. Timbangan Produksi : Simple Weighing, Counting Scale, Pricing Scale 3. Timbangan Produksi : Platform Bench Scale, Hybrid Scale, Pallet Scale 4. Timbangan Gudang : Floor Scale, Crane Scale, Forklift Scale 5. Timbangan Truk : Pitless Type, Pit Type, Shallow Pit Type 6. Timbangan Sistim : Batching Scale, Hopper Scale, Filling Scale 7. Timbangan Mesin : Conveyors Scale, Check Weighing, Tank Scale 8. Part : Loadcell, Indicator, Juction Box, Extenal Display 9. Aksesoris : Mounting, Software, Printer 10. Dan Lain - Lain Menjual / Menerima SErvice / Tera segala merkTimbangan, Indikator serta loadcell dari kapasitas sampai besar( timbangan laborat sampai jembatan timbang) . AND - HOSSE-L - ZEMIC - AVERY - SONIC - EXCELLENT - GSC - CAS - UScell - GREAT SCALE - KELI - KUBOTA - CELTRON - PT - TEDEA - GRAINS - PRESICA - UWE - CARDINAL - HBM - VISHAY - USCELL - VMC - TOLEDO - SARTORIUS DLL HARGA BERSAING...BUKTIKAN ! ! ! ! ! ! CV. MULYA SCALE JL. LARANGAN KENJERAN SURABAYA 085100848948 - 081231634657 EMAIL : mulyascale@yahoo.co.ikd            ","
              Jl. Larangan III/22 - KENJERAN - SURABAYA            ",SURABAYA,Jawa Timur,+62 812-3163-4657,None,None
PT. Alva Liftindo Perkasa,"
                                    PREMIUM GOLD
                                ",Hand Pallet,"
Jasa Penyewaan Forklift, Handpallet dan Towing Car PT. Alva Liftindo Perkasa - Pekanbaru - Riau
PT. Alva Liftindo Perkasa, merupakan sebuah perusahaan yang menawarkan jasa sewa forklift di Kota Pekanbaru untuk kebutuhan pelanggan dengan Kapasitas Forklift 3 Ton, 7 Ton Dan 10 Ton dengan Operator berpengalaman,digunakan untuk segala keperluan industri angkat berat.Rental Forklift merupakan suatu pilihan bagi perusahaan yang tidak memerlukan investasi, serta tanpa mengeluarkan biaya perawatan. Setiap unit forklift yang kami rentalkan telah melalui pemeriksaan oleh mekanik yang handal.Penyedia jasa sewa forklift yang telah kami lakukan telah berdiri sejak tahun 2015, kami telah berpengalaman dalam mengatasi berbagai macam masalah pengangkatan barang yang anda hadapi sehingga anda dapat merasakan keuntungan yang kami berikan, diantaranya:

Harga Yang Kompetitif
Operator yang berpengalaman
Armada yang terawat dan aman digunakan
Tepat Waktu
Waktu perjalanan tidak kami hitung (sampai di tempat baru kami hitung)
Memberikan solusi untuk pelanggan
Dapat di sewa secara dadakan*
Melayani non stop 24 jam

Ketentuan Tarif SewaUntuk Sewa Forklift, kami menyediakan tarif yang cukup variatif dan flexible, anda tidak perlu khawatir karena tarif sewa forklift kami menyesuaikan dengan kebutuhan pemakaian anda.Perhitungan waktu kami dimulai pada saat forklift telah sampai lokasi dan diluar masa perjalanan forklift dari garasi ke lokasi anda. Harga sewa forklift kami sangat relatif murah. Selain sewa Bulanan, Mingguan dan Harian, kamipun menyewakan untuk hitungan per jam, Kami memiliki sistem paket yaitu Paket untuk 2 jam. Sehingga tidak banyak mengeluarkan biaya banyak apabila hanya menurunkan satu atau dua barang saja.
Tarif sewa Forklift yaitu :Sewa Shift : Tarif sewa forklift ini berlaku untuk pemakaian skala pendek dengan asumsi jumlah item yang dikerjakan sejumlah 1 container atau lebih. Jadi pilihannya adalah Paket Sewa 2 jam. Dengan perincian sebagai berikut :


Biaya Sewa Forklift 3 ton = Rp. 2.000.000,+ Biaya Mobilisasi/Demobilisasi Dalam Kota = Rp. 1.000.000,- dan Biaya Overtime Alat+Operator/Jam = Rp. 300.000,-/Jam (Dihitung setelah pemakaian sewa 2 jam).


Biaya Sewa Forklift 7 ton = Rp. 3.000.000,- + Biaya Mobilisasi/Demobilisasi Dalam Kota = Rp. 1.500.000,-  dan Biaya Overtime Alat+Operator/Jam = Rp. 400.000,-/Jam (Dihitung setelah pemakaian sewa 2 jam).


Biaya Sewa Forklift 10 ton = Rp. 4.000.000,-+ Biaya Mobilisasi/Demobilisasi Dalam Kota = Rp. 1.500.000,- dan Biaya Overtime Alat+Operator/Jam = Rp. 600.000,- (Dihitung setelah pemakaian sewa 2 jam).

Untuk Penyewaan Forklift diluar Kota Pekanbaru dihitung berdasarkan Jarak Lokasi Mobilisasi/Demobilisasi Forklift.

Tarif Sewa Towing Car/Mobil Derek yaitu :Sewa Dalam Kota Pekanbaru Minimal Harga Sewa Rp. 400.000,- s/d Rp. 500.000,- dan untuk Sewa Luar Kota Pekanbaru dihitung berdasarkan Jarak Tempuh lokasi Penjemputan atau Pengiriman Kendaraan dengan Harga Sewa Rp. 15.000,-/KM. (Nego Tipis)Tarif Sewa Handpallet Manual yaitu :Sewa Dalam Kota Pekanbaru Minimal 1 Hari/24 Jam dengan Harga Sewa Rp. 100.000,-/Hari + Biaya Mobilisasi/Demobilisasi Rp. 100.000,-Sewa Luar Kota Pekanbaru Minimal 1 Hari/24 Jam dengan Harga Sewa Rp. 150.000,-/Hari + Biaya Mobilisasi/Demobilisasi tergantung Jarak Lokasi dari Pekanbaru.Informasi lain yang perlu diketahui adalah:

Pembayaran dilakukan dengan cash atau transfer via Bank Mandiri No. Rekening : 1080014346952 an. PT. Alva Liftindo Perkasa
DP minimal 30% sebelum Mobilsasi dan sisanya dibayar di lapangan selesai pekerjaan.
Biaya yang ditimbulkan oleh pekerjaan sepenuhnya tanggung jawab pihak penyewa kecuali Bahan Bakar Solar menjadi tanggung jawab PT. Alva Liftindo Perkasa.
Perizinan di lapangan disiapkan oleh pihak penyewa.
Jika terjadi kehilangan / kerusakan dari Pihak Ketiga terhadap alat forklift selama dilokasi / site maka hal itu adalah sepenuhnya tanggung jawab pihak penyewa (Customer ).

Contact Person :Alamsyah PutraHp. 08127604466, 08121654466, 085667604466, 081915154466Alamat Kantor dan Garasi : Jl. Limbungan No. 2a Rumbai Pesisir Pekanbaru 28261 RiauAlamat Email : pt.alvaliftindoperkasa@yahoo.com ","
              Jl. Limbungan No. 2a RT.01/RW.05 Rumbai Pesisir            ",Pekanbaru,Riau,08127604466,None,None
PT. SARANA TEKNIK,"
PREMIUM RUBY
",Hand Pallet,"
Selamat datang di website www.sarana-teknik.co.idemail : SARANAGROUP@CBN.NET.IDPT. Sarana Teknik berdiri sejak Oktober 1998 adalah Perusahaan yang menjadi distributor transmisi tenaga mekanik & produk motor listrik. Dengan penghargaan dari custumer akhir nya kami menjadi di kenal dengan Stokist pada product sebagai berikut : BALDOR MOTOR DODGE COUPLING - DODGE BEARING FALK COUPLING REXNORD COUPLING - REXNORD CHAIN ADDAX COUPLING , THOMAS, FENNER BELT COUPLING PULLEY , SIHI PUMP, KOSHIN GEAR PUMP, SOUTHERN CROSS PUMP, EBARA PUMP, FRANKLIN SUBMERSIBLE PUMP, KENFLO PUMP, BEARING, BANDO BELT, CONTINENTAL CONVEYOR BELT MARTIN, LINK BELT, HITACHI, MTK, NIKKEN, KHK, KTR, KB PENTA POWER, CUTES INVERTER, TOSHIBA INVERTER, DELTA INVERTER, KBMM, TECO MOTOR, SIEMENS MOTOR, YUEMA ELECTRIC MOTOR, TSUBAKI POWER HELICAL DRIVE REDUCER, KOP-FLEX, TB WOOD' S, FLENDER, NBK, KTR, MITSUBOSHI, CENTA, EBARA, MOTOVARIO , MOTOVARIO GEARBOX , MOTOVARIO INDONESIA , MOTOVARIO WORM GEAR , BONFIGLIOLI , BONFIGLIOLI INDONESIA , BONFIGLIOLI RIDUTTORI , BONFIGLIOLI GEARMOTOR, dll.Untuk informasi dan pemesanan Hubungi Kami :Head Office PT. Sarana TeknikKompleks Perkantoran Sunter Permai Blok B.11, Jl. Danau Sunter Utara Kav. K-2, Sunter Agung Jakarta 14350 IndonesiaPhone : ( 021) 651-9582 ( Hunting)Fax : ( 021) 65305868 – 6400893Fax Bebas Pulsa : 0800-1-666-777Email : sarana@bit.net.id // saranateknik@cbn.net.idWebsite : www.sarana-teknik.comBranch OfficeA. CikarangSimprug Plaza Blok A2 No.11, JABABEKA 2 Cikarang - BekasiPhone : ( 021) 8932 4575, 8932 4587Fax   : ( 021) 8932 4530Email : sarana_ cikarang@ cbn.net.id // saranagroup@cbn.net.idAttn. BAPAK FARID ILHAMSYAHB. SurabayaRuko Sentra Tropodo Blok C-7 Jl. Raya Tropodo No. 115, Waru – SurabayaPhone : ( 031) 8685823–24Fax   : ( 031) 8685825Email : sarana_ surabaya@cbn.net.id/ saranagroup@cbn.net.idAttn. BAPAK JUANDI/ NANANG ","
              Komplek Perkantoran Sunter Permai Blok B11 Jl. Danau Sunter Utara Kav. K-2 Sunter Agung TEL 6519682EMAIL : SARANAGROUP@CBN.NET.ID            ",Jakarta,DKI Jakarta,+62 815-1968-4035,None,None
TEKNIK MANDIRI,"
PREMIUM BLUE ONYX
",Hand Pallet,"
Teknik Mandiri adalah sebuah perusahaan yang khusus memfokuskan diri dalam memenuhi kebutuhan industri,Rumah tangga,Proyek dan Automotive di bidang produk mechanical, electrical,handtools,welding,safety,dan Lifting pneumatic Equipment  Visi: Menjadi yang terbaik di antara yang terbaik.  Misi: Menjadikan Teknik Mandiri sebagai partner Industry, Rumah Tangga, Proyek dan Automotive dalam menghadapi tantangan dan menyongsong kesempurnaan dimasa depan.  Kami bekerja keras dan selalu melakukan yang terbaik untuk melayani pelanggan-pelanggan dimanapun dan kapanpun dalam memberikan informasi yang akurat dan solusi yang tepat pada saat dibutuhkan.Info Produk & Order Hubungi :Phone : 021-5644267    Mobile : 0812 1214 3333( Call/WA)Email : teknikmandiriindo@gmail.com ","
              Jl. Setia Warga 8 No.40 Rt 10/11 Grogol Petamburan, Jakarta Barat            ",Jakarta Barat,DKI Jakarta,+62 812-1214-3333,None,None
CV. PROTECH SERVICE INDONESIA ,"
                                    PREMIUM GOLD
                                ",Hand Pallet,"
Menyediakan produk teknik mesin stok jakarta , assesories utk heavy equipment , pertambangan industri , design tata udara exhaus fan industri, Anti vibration mounting , spring mounting for genset pump chiller Exhaust Fan cooling tower, damper , BONPET Inno automatic fire extingusher, Mechanical seal Burgmann ,kebutuhan workshop enginering , Loctite , Permatex, Bakerlok ,GOJO hand cleaner  Westers cold galvanish compound 8008 , recoil set V coil, Bakerlok 19950. Tersedia macam produk wiremesh & screen stainless steel utk industri dan comersial. Sunflex industial & hidrolik hose high pressure hose & coupling CEJN, WIKA SCHUH pressure gauge, LOCTITE Henkel, PERMATEX , DEVCON titanium Ceramic stainless steel putty ,plastik steel , Belzona fast metal Putty ,Polymer , Flover compound Felpro for lapping compound, Hylomar Universal Blue M Aerograde PL 32 , roda troley Edly Der Sheng . utk keterangan lebih lanjut mhn bisa hub Sugiyono 0815-18-24775 atau 0815-10-387900. Perusahaan PKP terdaftar di KPP Kembangan email : protechserviceindonesia@gmail.com""WE DO OUR BEST  TO SERVE YOU"" ","
              Jl. Meruya Selatan DPR RI I no.17A . ( H. Merin ) , meruya selatan , Jakarta Barat 11650            ",Jakarta Barat,DKI Jakarta,+62 815-1824-775,None,None
PT. BISHAMON OPK HAND PALLET - STACKER INDONESIA ( sarana group),"
                                    PREMIUM GOLD
                                ",Hand Pallet,"
PT. BISHAMON OPK HAND PALLET STACKER INDONESIA ( sarana gorup) MATERIAL HANDLING EQUIPMENT Komp Perkantoran Sunter Permai Blok B 11 Jl. danau sunter utara kav k2 SUNTER JAKARTA UTARA TEL  : 021-651 9582 FAX  : 021-6530 5868----6400893 EMAIL : saranagroup@cbn.net.id // sarana@bit.net.id  KAMI MENJUAL HAND PALLET & STACKER MERK BISHAMON DAN OPK : - HAND PALLET - STACKER MANUAL & STACKER ELECTRIC - MOBILE LIFT TABLE - LIFT TABLE  Pallet Truck Bishamon BS Series Blue Label Pallet Trucks are easy to use and exceptionally durable. These premium Pallet Trucks have many features not found on most all competitive models and provide unsurpassed rollability. Blue Label Pallet Trucks are designed and manufactured to easily move palletized loads. By utilizing top quality components and advanced manufacturing techniques, Bishamon’ s BS Series Pallet Trucks can be expected to outlast competitive models that promise comparable quality. Bishamon pallet trucks are completely rebuildable and offer many extra years of valued service. Bishamon Industries Corporation is committed to providing quality, innovative ergonomic products to enhance worker safety and productivity. Bishamon' s goal is to exceed our customer' s expectations in quality, delivery and value through continuous improvement and customer interaction. Evermove Engrg & General Supplies Pte Ltd is the agent & stockist for Material Handling Equipment from Bishamon Industries Corporation.  OPK OPK Inter-Corporation Sdn Bhd was officially registered in Malaysia on 22nd October 1994 and commenced operations in 1996 with less than 10 staff. Currently we have a dedicated team of more than 50 highly skilled staff producing quality Lift Tables, Drum Handling Equipments, Hydraulic Stackers, Hand Pallet Trucks, and Motor Bike Lifters etc, mainly for the overseas market. We strive to provide our customer with a safe and efficient workplace, together with savings on time and costs. In line with our commitment to quality, OPK Inter-Corporation Sdn Bhd secured ISO 9002 certification in 2000, ISO 9001 re-certification in 2002 and ISO 14001 certification in 2007. Our customers are assured of the highest level of quality and reliability in our standard and tailor made product. ","
              Komplek Perkantoran Sunter Permai Blok B11 Jl. Danau Sunter Utara Kav.K-2 Sunter Agung Podomoro Jakarta 14350.....email : saranagroup@cbn.net.id            ",Jakarta,DKI Jakarta,+62 815-1968-4035,None,None
"PT. Denko Wahana Sakti, ","
                                    PREMIUM GOLD
                                ",Hand Pallet,"
PT. Denko Wahana SaktiEmail : bahri@denko.co.idTelp : 0838-9872-7628
Didirikan pada bulan November tahun 1992, PT. DENKO WAHANA SAKTI adalah perusahaan yang bergerak dibidang penjualan barang barang tehnik. Kami selalu memakai prinsip ” Utamakan Kualitas, Harga serta Pelayanan Terbaik ” ( Mr Bahridenko Jkt Pst - W.A, Call, Sms = 0838-9872-7628 )Yang berbendera di bawah Denko Wahana Sakti, PT, Jakarta Pusat adalah DISTRIBUTOR Resmi untuk Product-Product Material Handling, Seperti : -Forklift Elektrik Kapasitas 1600kg, 2000kg, 2500kg, 3000kg. - Forklift Diesel Kapasitas 3000kg, 5000kg - Tangga Listrik Hidroulik Elektrik - Battery Automatis, Alat Lifter Orang, Tinggi 6 , 8, 10, 12, 14, 16, 18, 20 m - 42 m, dll. Alat untuk pasang Lampu Jalan, Maintenance Gedung, Cat Gedung, Reparasi Gedung, Perbaikan, Proyek, Bandara, Sport Hall, Gudang, Pabrik, dsb. - Hand Lift - Hand Stacker Manual/ Semi / Auto , Kapasitas 1 ton, 1, 5 ton, 2 ton dg tinggi 1, 6m, 2m, 2, 5m, 3m, 4m, 5m - Hand Troly, Kapasitas 150 kg, 300 kg, 400 kg, 500 kg, dll. ( Nb 101, NF 301, NG 401 ) - Castor Roda, Bahan Besi, Rubber - Karet, Nylon , PU - Poly Urethane Size 4 inch, 5 "" , 6 inch, 8 "" dsb. - Pallet Mesh - Pallet Besi Keranjang Lipat - Pallet Bronjong Besi Lipat Type ( Stockist Stocky 2, 3, 5, 7 ) Kapasitas 800 kg, 1, 2 ton, 1, 5 ton - Drum Handler - Gripper - Tipper - Lifter , ( ALat pindah dan Angkat Drum ) Kapasitas 350 kg, 700 kg. - Hand Pallet / Alat Pindah Angkat Pallet Kayu, Plastik, Besi . Manual / Battery semi Auto & Full Auto Kapasitas 2 Ton, 3 ton, 4 ton. - Cat ORCHA , Cat Pelapis Atap Anti Panas, Anti Bocor, Anti Berisik. Kemasan Pail - 20 kg, 1 paket = 2 Pail u Base Coat dan Top Coat. dan ...... PABRIKAN - MANUFACTURED yang sudah bersertifikat ISO URS 9001, untuk Product sbb : - Denko' s ROOF VENTILATOR - Kipas Atap Otomatis Tanpa Listrik Denko' s Size - Type DT 14"" , 16 Inch, 24 "" , 30 Inch, 36 "" , 42 Inch Material Aluminium dan Stainless Steel. - Alat Sirkulator Udara / Alat Ventilator Udara Otomatis non Listrik - Alat untuk Menghilangkan Panas Ruangan, Bau Pengab Tak Sedap, Asap didalam Ruangan, Kelembaban, dan Debu2 halus Ruangan. - Alat Penyejuk Udara secara Alami - Natural tanpa Listrik, dll Anda Membutuhkan Alat2 diatas ..? Atau Mengalami Problem2 - Masalah seperti diatas ? Tepat disini Solusi Murah dan Alasannya... ! ...Mr Bahridenko - Jkt, Agustus - Desember 2020! ...HP 0838-9872-7628 ( Call, W.A, SMS ) ","
              Mr. Bahridenko - 0838-9872-7628 ( Call, W.A, Sms) , Head Office : Komplek Duta Merlin, Blok C no 1-3, Jalan Gajah Mada No 3-5, Harmoni - Istana Negara Jakarta Pusat            ",DKI - Jakarta Pusat,DKI Jakarta,+62 812-9396-361,None,None
PT. SARANA westcar coupling & vibrator motor quantum ( please send email : saranagroup@ cbn.net.id),"
                                    PREMIUM GOLD
                                ",Hand Pallet,"
              PT SARANA WESTCAR TRANSFLUID & VIBRATOR MOTOR OMB QUANTUM AUTHORIZED DISTRIBUTOR WESTCAR and QUANTUM VIBRATOR in Indonesiatelp 021 6519582fax 65305868-6400893email : saranateknik@cbn.net.idattn: ivanronaldWESTCAR ROTOFLUID s.r.l, MILANO - ITALY WESTCAR began manufacturing and marketing their own line of fluid and flexible couplings in 1978.ROTOFLUID ALFA “ K”ROTOFLUID ALFA “ SCF K”ROTOFLUID ALFA “ DCF K”ROTOFLUID ALFA “ K-S” “ SCF K-S” “ DCF K-S”ROTOFLUID ALFA “ K-LRV” “ SCF K-LRV” “ DCF K-LRVROTOFLUID ALFA “ K-LRU” “ SCF K-LRU” “ DCF K-LRU”ROTOFLUID ALFA “ K-FRV” “ SCF K-FRV” “ DCF K-FRVROTOFLUID ALFA “ K-FRU” “ SCF K-FRU” “ DCF K-FRUROTOFLUID ALFA “ K-AB” “ SCF K-AB” “ DCF K-ABROTOFLUID ALFA “ K-FRD” “ SCF K-FRD” “ DCF K-FRDROTOFLUID ALFA “ K-AFF” “ SCF K-AFF” “ DCF K-AFFROTOFLUID ALFA “ K-FR-PAV” “ SCF K-PAV” “ DCF K-PAVROTOFLUID couplings BETA pulleyROTOFLUID BETA “ X” SCF DCFROTOFLUID BETA “ J” SCF DCFROTOFLUID BETA “ H” SCF DCFROTOFLUID BETA “ Z” -“ ZI” SCF DCF ...QUANTUM VIBRATOR The BM series is a complete range of vibrating motors with foot base mounting, covering most of applications needs on vibrating equipments in the different industrial sectors. All the BM range is manufactured in conformity to the EEC Directives in force ( Safety of Machines 2006/ 42/ CE; Low Tension 2006/ 95/ CE, Electromagnetic Compatibility 2004/ 108/ CE) , and it is available conform to ATEX 94/ 9/ CE, in execution Ex II 3D tD A22 IP65 for zone Dust-22 and 3G EEx nA II T3 for zone Gas-2.Characteristics Transfluid Power Transmission Equipment Transfluid Couplings Transfluid Couplings are used on all types of industrial equipment driven by internal combustion engines and electric motors. They improve overall performance and protect both driving and driven machines Please click on the left menu to access our line of series: K-Series Fluid Couplings KX-Series Fluid Couplings BM Series Flexible Couplings KSL-Variable Fill Fluid Couplings KPT-Variable Fill Fluid Couplings KPTO-Drain-type Fluid Couplings            ","
              Kompleks Perkantoran Sunter Permai Blok B.11 Jl. Danau Sunter Utara Kav.K-2 Sunter Agung            ",DKI JAKARTA,DKI Jakarta,+62 815-1968-4035,None,None
pt.inti karya karisma,"
                                    PREMIUM GOLD
                                ",Hand Pallet,"
              PT.INTI KARYA KARISMA adalah suatu perusahaan dagang yang berkembang sangat pesat, khususnya dalam bidang penyediaan barang dan alat - alat untuk kebutuhan industri yang ada di Indonesia, meliputi bidang Valev - Valev, Automation System dan Electrical Components Seperti : PNEUMATIC & HYDRAULICS : SMC, KOGANEI, CKD, KURODA, TAIYO, TACO, ROSS, AIRTAC, TOYOOKI, AUTOGIKEN, DAIKIN, UCHIDA, YUKEN, NOK F- TEC, FUJIKURA, JUNRON, MARUHA, NACHI, SHINDENGEN, MAC, ERACON ( NEW ERA ) PISCO, KONDOH, FOTEK, CHANTO, PNEUMAX, SANG- A, MAC, NUMATICS, MYOTOKU, AURORA CONVUM, KONAN, FUJI SEIKI, KINGSTON, JUNRON, KCC, YPC, BIMBA, FABCO- AIR Etc. CLUTCH & BRAKE ELECTROMAGNETIC : OGURA, SHINKO, OSAKI DENGYOSA, SUNTES, MITSUBISHI, AIRFLEK, PLANOX, MIKKI PULLEY, STROMAG, GUMMI, FAWICK, EATON, AUTOGARD, STEARN, ORTLINGHAUS, SIME, BINDER, COREMO, ANTEC, PINTS BAMAG, WARNER, MAYR, AIR CHAMP ELECTRIC & MOTOR : MITSUBISHI, YASKAWA, FUJI ELECTRIC, HITACHI, TOSHIBA, NIKKI DENSO, TSUKASA, TAMAGAWA SEIKI, NISSEI, OGURA, OMRON, RORZE, SANYO DENKI, SAWAMURA, TAMAGAWA SEIKI, ORIENTAL, VEXTA, PANASONIC, YAMATAKE, SHINKO, SHIMPO, NIDEC, MIKI PULLEY, ITOH, MAKISHINKO, TSUBAKI, PATLITE, USHIO, IDEC IZUMI, HANYOUNG, PHILIPS, OSRAM, TOYO FAN, TDK, KOINO, ALPS, NIKKAI ( NKK ) SENSOR & CONTROLS : OMRON, SUNX, SHINKO, KEYENCE, RIKEN, NATIONAL, YAMATAKE, SEEKA, HONEYWELL, IFM, KOYO, EUROTHERM, PEPPERL+ FUCHS, BALLUFF, PILZ, SICK, TURCK, DATASENSOR, TAKENAKA, IDEC IZUMI, KOINO, TOYO , NIPPON AUTOMATION POWER SUPPLIES : COSEL, NEMIC LAMBDA, OMRON, MATSUSHITA, MEAN WELL, ASTEC, MURR, SPELLMAN, ZENTRO, XP Power Supplies COOLANT PUMP : MITSUBISHI, NIPPON OIL PUMP, FUJI ELECTRIC, TERAL TROCHOID PUMP : NIPPON OIL PUMP, FUJI, MITSUBISHI BEARING : THK, IKO, NSK, NB, NMB, EZO, KURODA, SAMICK, HIWIN, NTN Etc TEMPERATURE CONTROL : RKC, TOHO, SHIMADEN, FUJI ELECTRIC, HONEYWELL, ASAHI KEIKI, YOKOGAWA, AMETEK, DYWER, TESCOM, SHIMAX, OPTEK Keuntungan dari pelayanan kami adalah sbb: Untuk permintaan penawaran harga silahkan e- mail ke : PT.INTI KARYA KARISMA Hp : 081286783132, 081218651189 Tlp : 021- 50408997 E- mail : pt.intikaryakarisma@ yahoo.co.id            ","
              Mega Glodok Kemayoran            ",Jakarta,DKI Jakarta,+62 812-8678-3132,None,None
PT. SARANA TEKNIK,"
                                    PREMIUM GOLD
                                ",Hand Pallet,"
              PT.SARANA TEKNIKTEL 651 9582FAX 65305868-6400893EMAIL : saranagroup@ cbn.net.idwww.sarana-teknik.comPT. SARANA TEKNIK Distributor, penjual, stockist, Bearing, Coupling, Electric motor, servomotor, gardan shaft, conveyor, powerlock, pump industrial, vacum pump, gear pump, universal jointing, belt konveyor, ban berjalan, blower, gearbox, Pulley, sprocket, variator, Lowara pump, ebara pump, baldor electric motor, rexnord Coupling, reynold coupling, yuema pump, cnp pump, sihi pump dll check di website kami www.sarana-teknik.com dan hubungi nomor kami untuk keperluan anda.Kami telah mendidedikasikan diri untuk memecahkan masalah-masalah industri Kami didukung oleh engineer yang sangat ahli serta divisi penjualan kami dan perwakilan layanan pelanggan yang terlatih memberikan bantuan teknis kepada pelanggan kami selalu akan berusaha untuk memberikan, membantu, memberikan berpengetahuan, dan efisien. Electric Motor Distributor di Indonesia.Pump distributor: Centrifugal pump, vacuum pump, Gear pump, Sihi sterling pump, Lowara pump, ebara pump, CNP Pump, APP pump, Southern cross pump, Franklin electric pump, yuema gear pump, Oriental Koshin pumpElectric Motor: Baldor Electric motor, Explosion Prof motor BALDOR, CMG ac dc electric motor, Bonfiglioli electric motor, westcar electric motor, toyo electric motor, electrim electric motor, yuema electric motor, motovario electric motor, Mitsubishi electric motor, quantum electric motor, Siemens electric motor, reliance electric motor, teco electric motor. Gear dan gear motor; Bonfiglioli Ridutori gear motor, Yuema gear motor, Mitshubishi gear motor, Motovario gear motor, Quantum gear motor, Reliance gear motor, Siemens gear motor, Teco gear motor, Flender gear motor, fenner gear, Omega Motori gear reducer. Coupling, Centa, Transfluid coupling, Dodge coupling, falk coupling, Fenner coupling, Flender coupling, addax coupling, IDD-FCL Coupling, KOPFLEX coupling, KTR coupling, LoveJoy coupling, Masterflex coupling, Mitsuboshi coupling, NBK coupling, Normex coupling, Rahthi coupling, Rexnord coupling, Seisha coupling, TB WOOD' S coupling, Thomas coupling, Tsubaki coupling, Westcar coupling, Chain: Link-Belt, AVE, Rexnord, Tsubaki, Fenner, Renold, DID, MTK. Sprocket: Mtk sprocket, Tsubakhi sprocket, Renold sprocket Pulley: Fenner pulley, Master Pro pulley, NBK pulley, Gardan shaft: GWB cardan shaft, KKN cardan shaft, Quantum cardan Shaft, San Kyu cardan shaft Pump: Koshin pump, Southern Cross pump, Sterling Sihi pump. Material Handling: Jointing, Universal jointing: KTR, Quantum, Sankyu Blower: Cuan Fan blower. Power Lock, Locking Bush: Quantum. Sprocket: MTK Sprocket, Tsubaki Sprocket, Renold. Pulley: Fenner Pulley, Master Pro Pulley, NBK Pulley. Gardan Shaft: Gwb Cardan Shaft, Sankyu Gardan Shaft, Quantum cardan Shaft. Jointing: Ktr jointing, Quantum jointing, Sankyu jointing, Universal Jointing. Conveyor belt: Link belt conveyor, continental conveyor, Star Conveyor, Flexco conveyor. Bearing: Fag bearing, SKF Bearing, NTN Bearing, INA Bearing, Iko bearing, dodge bearing, rexnord bearing, linkbelt bearing, morse bearing, seal master bearing, Timken bearing, nsk bearing.Kami mempertahankan tingkat tertinggi pengetahuan tentang semua produk kami. Silakan hubungi kami di alamat berikutHEAD QUARTERPT. Sarana TeknikPhone : ( 021) 651-9582 ( Hunting)Fax : ( 021) 65305868 - 6400893Fax Bebas Pulsa : 0800-1-666-777Email : saranagroup@cbn.net.idWebsite : www.sarana-teknik.comRepresentative;Jl. Raya Industri No.54 Jababeka Cikarang - IndonesiaTelp : ( 021) 8983 5649, 8983 5702, 3013 3532Fax : ( 021) 8983 5882Email : sarana_ cikarang@cbn.net.idRuko Sentra Tropodo Blok C7 Jl. Raya Tropodo No.115 Waru, SurabayaTelp : ( 031) 868 5823 - 24Fax : ( 031) 868 5825Email : sarana_ surabaya@cbn.net.idJl.Imam Bonjol No.61 Dadapsari Semarang 50173Telp : ( 024) 3566 377, 3566 365Fax ( 024) 356 9019Email : sarana_ smg@ cbn.net.idJl.Cendrawasih IV No.4 Rt 39 Komplek Bumi Lingkar Basirih Banjarmasin-Kalimantan Selatan 70246Telp : ( 0511) 4225 020, 0815 9633116 Fax ( 0511) 4225 010Email : saranabanjar@cbn.net.idJ            ","
              Kompleks Perkantoran Sunter Permai Blok B.11, Jl. Danau Sunter Utara Kav. K-2, Sunter Agung            ",Jakarta Utara,DKI Jakarta,+62 815-1968-4035,None,None
* * CV. GARUDA MAS JAYA* *,"
                                    PREMIUM GOLD
                                ",Hand Pallet,"
CV. GARUDA MAS JAYA  Kami Melayani Penjualan, Jasa Service, Kalibrasi, Tera, Tera Ulang oleh dinas metrologi( Sertifikasi) Berbagai Merk Timbangan. Produk kami berupa Timbangan Mekanik, Digital, Batu Timbangan,Sparepart,Accesories Timbangan sesuai dengan kebutuhan & Pengadaan Alat Uji Kemetrologian. Untuk memenuhi kebutuhan dan menemukan solusi timbangan anda segera hubungi kami : CV.GARUDA MAS JAYAAlamat : Pedongkelan Belakang No.09B Cengkareng, Jakarta Barat 11720 Phone / WA : 0813.8031.4948 - 0878.0433.9042E-mail : cvgmj123@yahoo.com  Web : www.loadcelltimbanganmurah.com  -  www.jualloadcellmurah.com Kami PASTI memberikan DISCOUNT dan GARANSI. B U K T I K A N ! ! ! ! ! ! ! ! ! ! ! ! ! ! !            ","
              Jl. Pedongkelan Belakang No. 09B Cengkareng, Jakarta Barat  11720            ",Jakarta Barat,DKI Jakarta,+62 813-8031-4948,None,None
CV. GMS. Distributor Timbangan Digital Tlp. 0811-8686-598,"
                                    PREMIUM GOLD
                                ",Hand Pallet,"
Kami perusahaan yang bergerak dibidang penjualan timbangan digital di indonesia antara lain : Timbangan NAGATA, Timbangan EXCELLENT,  Timbangan SONIC, Timbangan GSC, Timbangan HENHERR, Timbangan ALEXA, Timbangan VIBRA SHINKO DENSHI, Timbangan JADEVER, Timbangan CAS, Timbangan FUJITSU, Timbangan AND dan merk lain sesuai dengan permintaan.  Produk kami berupa timbangan Digital/Eletrik maupun timbangan Mekanik/Jarum mulai dari analytical balances sampai dengan Truck scales.  Selain melayani penjualan timbangan digital, timbangan elektrik, timbangan jarum/mekanik kami juga melayani jasa service timbangan digital, service timbangan elektrik, service jembatan timbang, service timbangan mobil, penjualan sparepart timbangan(Load cell & Indikator timbangan), kalibrasi timbangan & tera timbangan(Sertifikasi Timbangan) penjualan batu timbangan, anak timbangan dan kami PASTI berikan :  1. Harga Lebih Murah + Discount Tambahan Yang Menarik  2. Timbangan Yang Berkualitas  3. Gratis Biaya Pengiriman  4. Jaminan/Garansi  Perusahaan kami didukung oleh teknisi - teknisi handal dan berpengalaman dibidangnya,Costumer kami ada diberbagai kota dan provinsi diseluruh Indonesia  Untuk memenuhi kebutuhan dan menemukan solusi timbangan anda segera hubungi kami :  Tlp.    021-22587150, 0811-8686-598  Hp.    0812-1006-7998  WA.   0812-1006-7998  Pin BB : E3CF8E9D E-mail : cvgms@yahoo.com ","
              Jl. Pedongkelan Belakang No. 138 Kapuk Cengkareng Jakarta Barat - 11720 Tlp. 021-22587150            ",Cengkareng - Jakarta Barat,DKI Jakarta,+62 812-1006-7998,None,None
PT. SARANA TEKNIK,"
                                    PREMIUM GOLD
                                ",Hand Pallet,"
PT. Sarana Teknik adalah yang berdiri sejak Oktober 1998. WWW.SARANA-TEKNIK.COM EMAIL : saranagroup@cbn.net.idtel 021 6519582  Perusahaan yang menjadi distributor transmisi tenaga mekanik & produk motor listrik. Dengan penghargaan dari custumer akhir nya kami menjadi di kenal dengan Stokist pada product sebagai berikut:  BALDOR MOTOR DODGE COUPLING - DODGE BEARING FALK COUPLING REXNORD COUPLING - REXNORD CHAIN ADDAX COUPLING, THOMAS, FENNER BELT COUPLING PULLEY, SIHI PUMP, KOSHIN GEAR PUMP, SOUTHERN CROSS PUMP, EBARA PUMP, FRANKLIN SUMMESIBLE PUMP, KENFLO PUMP, BEARING, BANDO BELT, CONTINENTAL CONVEYOR BELT MARTIN, LINK BELT, HITACHI, MTK, NIKKEN, KHK, KTR, KB PENTA POWER, CUTES INVERTER, THOSIBA INVETER, DELTA INVERTER, KBMM, TECO MOTOR, SIEMENS MOTOR, YUEMA ELECTRIC MOTOR, TSUBAKI POWER HELICAl DRIVE REDUCER, KOPFLEX, TB WOOD' S, FLENDER, NBK, KTR, MITSUBOSHI, CENTA, EBARA, MOTOVARIO, MOTOVARIO GEARBOX, MOTOVARIO INDONESIA , MOTOVARIO WORM GEAR, BONFIGLIOLI, BONFIGLIOLI INDONESIA, BONFIGLIOLI RIDUTTORI, BONFIGLIOLI GEARMOTOR  Untuk informasi dan pemesanan :  KANTOR PUSAT PT. Sarana Teknik Kompleks Perkantoran Sunter Permai Blok B.11, Jl. Danau Sunter Utara Kav. K-2, Sunter Agung Jakarta 14350 Indonesia Phone : ( 021) 651-9582 ( Hunting) Fax : ( 021) 65305868 - 6400893 Fax Bebas Pulsa : 0800-1-666-777 Email : saranagroup@cbn.net.id  Website : www.sarana-teknik.com Branch Office A. Cikarang Jl. Raya Industri No. 54 Cikarang Jababeka - Cikarang ( Dekat Pintu Gebang Jababeka) Phone : ( 021) 89835649, 89835702 Fax : ( 021) 89835882 Email : sarana_ cikarang@ cbn.net.id/ saranagroup@ cbn.net.id ATTN BAPAK ADRIAN/ FARID/ WINARNO/ AJIN  B. Surabaya Ruko Sentra Tropodo Blok C-7 Jl. Raya Tropodo No. 115, Waru - Surabaya Phone : ( 031) 8685823 - 24 Fax : ( 031) 8685825 Email : sarana_ surabaya@cbn.net.id/ saranagroup@ cbn.net.id ATTN BAPAK JUANDI/ NANANG kusnindra ","
              Komplek Perkantoran Sunter Permai Blok B11 Jl.Danau Sunter Utara Kav. K-2 Sunter AgungSUNTER JAKARTA UTARA            ",Jakarta,DKI Jakarta,+62 815-1968-4035,None,None
CV.CENTRAL ASIA TEKNIK,"
                                    PREMIUM GOLD
                                ",Hand Pallet,"
              Perusahaan dagang khusus alat2 teknik : Tools, Hardware, Heavy Duty, Machinery, Safety Equipment, Technical Supplier GENERAL SUPPLIER Distributor For STANLEY, Stanley Hand Tools, Stanley measuaring tools, Stanley laser tools, Q-Light, Stanley tools, SUN& RUN, SIMPLEX, YAMANOTE, JASON, SUN RUN, OPT, PANDA, HILTY, TECHWAY, HEYCO, RIDGID, TOKU, TEKIRO, TOMECO, ELORA, DEKKO, GEDORE, PROCUT, DeFelsko, ATA, BOSUN, FUJIYAMA, TOMECO, VESSEL, H& L, FLAG, PICUS, NETUREN, BULLOCK, MULTIPRO, SELLERY, MAKITA, BOSCH, MAKTEC, HITACHI, WEST LAKE, FIRMAN, TIGER, GENERAL, MISAKA, YAMAWA, YAMAMOTO, JIANG CHAI, ASTRAKOERA, MIKAWA, HONDA, MULTI EQUIPMENT, GreenPower, NOVELTEC. Perusahaan dagang khusus alat2 teknik : Tools, Hardware, COSMEC, REX, WEKA, MCC, Dragon, BALDUL.Aneka mesin Trafo las, Stabilizer, Genset, Pompa air, Pemadam api. Viking, Hoseky..dll atau kunjungi kami di http: / / indonetwork.co.id/ central_ asia_ teknik www.stanleytools.com ( Untuk PRoduct Stanley, Sebutkan no part nya untuk mengetahui harganya) NITTO, Delvo, MEDO, Tigon, ASADA, Hydrovane, Makishinko, Takeda, Nippon Sharyo, PACIFIC, AIRMAN, Sohken, GASBOY, HUSKY, FUKUDA, SMC , SHIYUAN, Swan, Starke. Serta alat2 konstruksi seperti Bar bender dan Bar Cutter buatan Jepang, Cina dan Korea            ","
              LTC Glodok Lantai GF 1 Blok B19 No.8Jl.Hayam Wuruk No.127JAKARTA BARAT            ",Jakarta,DKI Jakarta,+62 811-9958-228,None,None
