Name,Membership,Category,Description,Address,City,Province,telp1,telp2,telp3
PT. GLORI ARTHA LOGISTIK,"
                                    PREMIUM GOLD
                                ",Pengurusan Impor,"

Dengan Hormat,
 
Perkenalkan kami PT.GLORI ARTHA LOGISTIK salah satu perusahaan jasa Import specialist dalam bidang jasa Import Door to door & Customs Clearance berikut beberapa penawaran Jasa dari kami :

Product dan Services kami antara lain :
 1. Sea and Air Cargo Custom Service.
2. Undername Consignee Services
3. Break Bulk / Conventional
4. Container Cargo Vessel
5. FCL & LCL Agents
6. Heavylift Rental & Leasing
7. PPJK Export Import
8. Inland Transport & Domestic
9. Cargo Insurance
10. Door to Door Service
 
VISI KAMI : “ Bersama Kami Membangun Negeri “
  ","
              Sampoerna Strategic Square 30th Floor South Tower Jl. Jend Sudirman Kav. 45-46 Jakarta 12930                  E-mail : info@pt.glorilogistik.com | www.glorilogistik.com            ",Jakarta Selatan,DKI Jakarta,08119701297,None,None
