Name,Membership,Category,Description,Address,City,Province,telp1,telp2,telp3
Multikom,"
                                    PREMIUM GOLD
                                ",Kursus Komputer,"
Multikom adalah sebuah lembaga pendidikan komputer profesional yang telah memiliki izin resmi dari Dinas Pendidikan. Multikom sudah berdiri sejak tahun 1992 dan sudah banyak dipercaya menangani pelatihan di berbagai Instansi Pemerintahan dan Swasta. Kami beralamat kantor di Jl. Raya ragunan No.16 depan Ramayana Pasar Minggu - Jakarta selatan.
 
Kami menyelenggarakan kursus komputer dengan sistem pembelajaran di dalam kelas, privat, ataupun inhouse training. Anda bisa memilih materi kursus Paket Spesialis ataupun Program Pilihan sesuai dengan kebutuhan. Selain kursus komputer, Multikom juga menyelenggarakan kursus Bahasa Asing untuk Anda yang membutuhkan. Selain kursus komputer, Multikom juga menyelenggarakan kursus Bahasa Asing untuk Anda yang membutuhkan. Jika Anda mencari tempat kursus komputer di Jakarta yang dekat dengan Pasar Minggu, jangan ragu untuk menghubungi Multikom. 7 Alasan memilih Multikom :- Memiliki izin resmi dari Dekdiknas- Materi Up to Date dan mudah dipahami- Pengajar profesional dan ahli dibidangnya- Bebas memilih belajar di kelas, privat, atau inhouse training- Bebas memilih jadwal- Tidak ada pembatasan usia- Berpengalaman melayani berbagai individu dan instansi
Kontak Multikom
Anda dapat menghubungi kami di salah satu nomor kontak berikut:
 
021-7800125
021-7801885
0857 7556 2222
021-96912970
021-7819133
Info lain terkait Multikom bisa Anda lihat melalui website kami: www.lpkmultikom.com,
 
atau bisa juga datang langsung ke alamat kami di:
 
Jl. Raya Ragunan No.16 depan Ramayana PS. Minggu – Jakarta Selatan. Kode pos 12520.
 ","
              Jl. Raya Ragunan No.16 depan Ramayana PS. Minggu – Jakarta Selatan            ",Jakarta Selatan,DKI Jakarta,+62 857-7556-2222,None,None
Acacia Grafika,"
                                    PREMIUM GOLD
                                ",Kursus Komputer,"
              PERCETAKAN ACACIAPercetakan Acacia Grafika Offset Printing, Screen printing, Advertising & Promotion www.acacia.indonetwork.co.id E-mail: acacia_ grafika@yahoo.com, edi_sofian_s@yahoo.co.id Jl. Veteran II no 7 Gambir Jakarta PusatTelp 081316628204  Menerima: 1. Cetak buku 2. Poster 3. Kalender 4. Kartu nama 5. Kartu undangan 6. Brosur 7. Famlet 8. Box untuk kemasan obat, box makanan, 9. Stiker, dll Terima ongkos sablon: 1. Plastik, Balon 2. Tas kantong / shopping bag  Kami menyelenggarakan 1.Kursus sablon 2. Kursus percetakan. Hubungi: Edi Sofian Sanjaya Telp.:  Hp. 0813 1662 8204 www.acacia.indonetwork.co.id Email: edi_sofian_s@yahoo.co.id            ","
              PercetakanAcacia Grafika  Offset Printing, Screen printing, Advertising & Promotion www.acacia.indonetwork.co.id   E-mail: acacia_grafika@yahoo.comedi_sofian_s@yahoo.co.id Jl. Veteran II No 7 Gambir Jakarta Pusathp/wa; 0813 1662 8204            ","Gambir, Jakarta Pusat",DKI Jakarta,+62 813-1662-8204,None,None
