Name,Membership,Category,Description,Address,City,Province,telp1,telp2,telp3
zeropromosi,"
                                    PREMIUM GOLD
                                ",Kemasan Kertas,"
              Perkenalkan kami Zeropromosi.com merupakan penyedia aneka souvenir seperti: - souvenir kantor - souvenir ultah - souvenir pernikahan Produk kami terdiri dari flashdisk, payung, tumbler, pulpen, mug/gelas, powerbank, tali id card dan banyak lainnya Kami sudah berpengalaman dibidang barang promosi & souvenir dengan selalu memenuhi deadline yang ketat serta yang tidak kalah penting adalah HARGA KOMPETITIF. Min order 100pcsharga blm termasuk cetakJika ada yang belum jelas dan ingin ditanyakan bisa langsung menghubungi kami di:mkt 1 WA / Tlp : 0877 8186 7176mkt 2 WA / Tlp : 0877 8185 7176Email : zeropromosi@gmail.comLine : @zeropromosi (harus pake @)            ","
              Jl. Arcadia Daan Mogot Blok H7 No.16,  Batuceper, Kec. Batuceper, Kota Tangerang, Banten 15122, Indonesia            ",Tangerang,Banten,087781857176,087781867176,081808064176
Unique Carpet & Deco Bali,"
                                    PREMIUM GOLD
                                ",Kemasan Kertas,"
              Unique Carpet & Deco Bali bergerak dalam bidang Distribusi dan pengerjaan proyek karpet & bahan Dekorasi / interior . Produk yang kami tawarkan seperti : 1. Handmade Natural Carpet ( Wooden Carpet, Natural Fiber Carpet) 2. Carpet roll / Carpet Tile 3. Wooden Flooring / Laminated Flooring Parquet - Vinyl Flooring 4. Wallpaper / Wallcovering 5. Vinyl Carpet, Carpet Tile, Carpet Pile 6. Carpet Industry 7. Handmade Acrylic/ Wool Carpet 8. Rumput Sintetis 9. Rubber Paving ( For Playground, Jogging Track) 10. PVC Placemat / Table mat 11. Window Blinds - Gordyn - Awning 12. Yoga Accessories 13. etc. Kami menerima pesanan secara retail maupun project. Bagi anda yang berada di bali yang memiliki rencana untuk menata interior rumah, kantor, villa dan hotel. Kami melayani jasa pemasangan wallpaper, lantai vinyl, parquet kayu dan lainnya untuk keperluan interior anda. Untuk contoh produk silahkan kunjungi gallery kami di jalan Hayam Wuruk no.326 ( Sebelah Konsulat Amerika Denpasar) dan toko kami di jalan By Pass Ngurah Rai No.290 A Denpasar, Bali. Untuk keterangan lebih lanjut mengenai produk kami, jangan ragu untuk menghubungi kami melalui form kontak atau telpon yang tertera. Silahkan Hubungi kami : Head Office Bali ( Denpasar) UNIQUE CARPET & DECO BALI Jln. Hayam Wuruk No.326 Renon Denpasar Sebelah consulat Amerika Tel/ fax : 0361-4744851 Hp : 0819858868, 085888858868, 081999538338 E-mail : uniquedecobali@ yahoo.com a_ uniquecarpetdecobali@ yahoo.com s_ uniquecarpetdeco @ yahoo.com Facebook : Unique Carpet Deco Bali UNIQUE CARPET & DECO BALI Branch Jl. By Pass Ngurah Rai Sanur No 290A - Seberang Restoran Serenity Tel / Fax : 0361-286543 Email : uniquedecobali@ yahoo.com uniquecarpetdecobali@ yahoo.com Facebook : Unique Yoga Bali Carpet - Wall to wall Carpet - Tile Carpet - Event Vinyl Laminate - Flooring Anti-Fatigue & Doormat Artificial Grass Wallpaper Roller Blinds Vertical Blinds Horizontal Blinds Accessories Karpet project, Karpet Roll, Karpet tile, Karpet hand tufted custom, Karpet acrylic, Karpet karet, Karpet vinyl, Karpet kantor, Karpet hotel, Karpet restaurant, Karpet pameran, Karpet rumah, Karpet Ruang tidur, Karpet ruang tamu, Karpet dapur, Karpet gudang, Karpet pesawat, Karpet container, Karpet kapal ferry, Karpet karoseri, Karpet kereta api, Karpet bus, Karpet rumah sakit, Karpet mushola, Karpet lapangan olahraga Keset doormat, Keset nomad, Keset 3M, Keset mie / bihun, Keset anti slip Handmade natural carpet, Karpet natural, Karpet anyaman, Karpet sisal, Karpet serat, Karpet abaca, Karpet banana fiber, Karpet seagrass, Karpet wool, Karpet cotton, Karpet raffia, Parket kayu, Wooden parquet, Lantai kayu Rumput sintetis, Rumput plastik, Rumput pvc, Karpet rumput List kayu, List parket, List dinding, List vinyl, List pvc Wallpaper kantor / office, Wallpaper rumah , Wallpaper polos , Wallpaper motif, Wallpaper vinyl , Wallpaper nonwoven, Wallpaper bunga, Wallpaper kayu, Wallpaper batu , Wallpaper anyaman, Wallpaper korea, Wallpaper Sangetsu, Wallpaper Lily color, Wallpaper Exselect, Wallpaper Reserve 1000, Wallpaper fine 1000 Placemat pvc, Placemat anyaman, Placemat hotel, Placemat restoran, Placemat café Amenities hotel Gordyn , Krey, Vertical blind, Horizontal blind, Roman shade, Awning Yoga mat, Yoga towel, Yoga props, Yoga ball, Yoga block, Yoga clothing, Yoga accessories            ","
              Jl.Hayam Wuruk No.326, Denpasar Bali            ",Denpasar,Bali,+62 878-6183-3535,None,None
GLOS -GREEN LEAVES ORCHID SALATIGA,"
                                    PREMIUM GOLD
                                ",Kemasan Kertas,"
GLOS, Green Leaves Orchid Salatiga, Kami bergerak dibidang kebun pembibitan dan pengembangan tanaman anggrek. Kami menyediakan berbagai jenis dan ukuran anggrek, hybrid/ mericlone hasil produksi kami atau import. Contoh beberapa jenis yang tersedia: Dendrobium, Phalaenopsis, Vanda, Oncidium, Cattleya, Brassia, Degarmoara, Zygopetalum dan lainnya. Selain itu kami juga memasarkan beberapa sarana pertanian seperti: Pot tray, Pot trai, Fibroot tray, bermacam-macam Paranet, net/ jaring peneduh, lokal/ import, insect/screennet, plastik UV, penjepit plastik uv/springclip, plastikclip, spacnum moss, pot transparan/lunak, terpal plastik khusus dan lainnya ","
              Sinoman Tempel III/235            ",Salatiga,Jawa Tengah,+62 811-298-163,+62 815-7837-6322,None
www.mulyocreative.com,"
                                    PREMIUM GOLD
                                ",Kemasan Kertas,"
              sejak tahun 1971, Kami melayani pembuatan/ buat, pembikinan / bikin, pemesanan / pesan, penjualan / jual, kebutuhan konsumen kami seperti sekolah, universitas, kantor, dan instansi-instansi pemerintah. Seiring berjalannya waktu, mereka ternyata juga memerlukan, bikin, buat, pesan, beli produk-produk seperti plakat resin, plakat kayu, plakat kristal, bikin / buat plakat, bikin / buat vandel, bikin / buat tropy, bikin / buat piala, bikin / buat pin, bros, pin coating, pin etsa, pin etching, gantungan kunci, NAMA DADA, NAME TAG, NAMA FIBER, PAPAN NAMA DADA / papan nama dada, BIKIN LENCANA PIN, PESAN PIN , CARI PIN, ATRIBUT, LENCANA, ETSA, ETCHING, BIKIN, BUAT, JUAL, PESAN, PRODUKSI, papan nama magnit, nama dada magnet, mendali, medali, Gordon, emas, perak, perunggu, label, plat, lencana instansi, lencana, lencana pejabat, lencana penghargaan, tanda jabatan, trophy, ATRIBUT / LENCANA KORPRI, ATRIBUT / LENCANA PRAMUKA, TOPI LURAH, TOPI KEPALA DESA, JUAL, CARI, BELI, KWALITAS EKSKLUSIF, bikin wing, pesan wing, buat wing, itu semua kami, jual, buat, bikin atau produksi sendiri, JUAL LYCAL GEM LIKE RESIN 1011, JUAL LYCAL GEM LIKE RESIN 1079, Medali Kejuaraan, Medali Wisuda, Medali, Mendali, Medali Wisuda, Medali Pelantikan, Medali Kelulusan, Medali Kejuaraan, Medali Perlombaan, Medali Turnamen, Medali Pertandingan, Medali Kompetisi, Pesan Medali, Bikin Medali, Buat Medali, Tempat Pusat Produksi Jual Beli Sell Murah Bikin Sedia Menjual Membuat Plakat Trophy Award Piala Prasasti Kayu Akrilik Granite Resin Kristal Jasa Cari Menyediakan Cetak Pembuatan Bikin Kilat Cepat Singkat Murah, Bordir Komputer, Lokasi Bordir, Logo Sekolah Bordir, Atribut Bordir, Lokasi Sekolah Bordir, Gordon Wisuda, Pesan Gordon Wisuda Bilamana membutuhkan, cari, butuh, perlu , memerlukan, bahan dasar coating, ( lapisan fiber) kamipun menyediakan, sedia, jual LYCAL GEM LIKE RESIN 1011 A dan B. dan LYCAL GEM LIKE RESIN 1079 A dan B Bp. Mulyanto Gunawan sebagai salah satu putra dari pendiri Toko MULYO SOKARAJA yang memang sangat mengerti tentang berbagai proses pengolahan untuk barang-barang di atas, dengan dibekali pengalamannya dari luar negeri melihat peluang ini. Karena kami memproduksi, bikin, buat sendiri, maka seandainya untuk di jual kembalipun ( grosir) harganya masih terjangkau. Kami pun bersedia mengirimkan foto proses produksi dari pesanan anda via e-mail. sehingga, anda dapat memantau proses produksinya dan lebih yakin akan pesanan anda pada kami. Karena kami menghargai pesanan anda, dan kepercayaan anda pada kami. Dan tak lepas dari kata SYUKUR PADA TUHAN, karena banyak respon dan saran dari rekanan/ relasi kami dari luar kota mengapa hanya melayani daerah banyumas dan sekitarnya saja sedangkan harga serta kualitas bisa bersaing. Sehingga pada tahun 2010 ini kami mulai meluncurkan web site untuk menjadi sarana komunikasi awal bagi konsumen kami dari luar kota. Dan kami pun menjadi anggota dari web perdagangan nasional dan internasional untuk mempromosikan produk-produk kami. Untuk pengiriman, kami banyak bekerjasama dengan agen paket yang berkompeten, sehingga barang akan sampai tepat ke tujuan. Bilamana pemesanan memenuhi standart kuota, tidak dikenakan biaya pengiriman dan prosesnya pun bisa di lacak melalui web online. Kami selalu siap memenuhi kebutuhan Anda dan selalu berusaha meningkatkan profesionalitas kami. TERIMAKASIH PADA SEMUA KONSUMEN ATAU RELASI KAMI. YANG TELAH MEMBERIKAN APRESIASI DAN PENGAKUAN NYA PADA HASIL PRODUKSI KAMI MELALUI SERTIFIKAT ATAU PIAGAM. MESKIPUN TANPA BERTEMU MUKA, LEWAT WEB ATAU INTERNET. KAMI MENYADARI, MASIH TERDAPAT BEBERAPA HAL YANG TIDAK SEMPURNA DAN PERLU KAMI PERBAIKI. MESKIPUN KAMI MENDAPATKAN PENGHARGAAN, SERTIFIKAT ATAU PENGAKUAN AKAN PRODUKSI DAN HASIL KARYA KAMI, KAMI SELALU TETAP BERUSAHA MEMENUHI KEBUTUHAN, PESANAN, PEMBELIAN, PENJUALAN, MENINGKATKAN KWALITAS, MENJAGA KEPERCAYAAN AKAN PESANAN DARI KONSUMEN KAMI LEWAT WEB ATAU INTERNET. DAN SELALU MAU MENERIMA KRITIK ATAU SARAN YANG MEMBANGUN, SELALU TERUS BERINOVASI. SEMUANYA KAMI LAKUKAN TIDAK LEBIH, HANYA UNTUK KEPUASAN PESANAN KONSUMEN ATAU RELASI KAMI. MENJAGA PRESTASI YANG TELAH KAMI DAPAT, DAN SELALU MENINGKATKANNYA WWW.MULYOCREATIVE.COM a/ n MULYANTO GUNAWAN, SH Jln Perintis Kemerdekaan - Ruko No. 2 Purwokerto 53141 ( 200 Meter MORO Swalayan PURWOKERTO) J A W A T E N G A H MOBILE + 6281914910399 PIN BBM : 26C3C461 OFFICE + 62281634392 FAX + 622816441756 E-MAIL : contact@ mulyocreative.co.id dan info@ mulyocreative.co.id .            ","
              Jln. Perintis Kemerdekaan - Ruko Perintis No 2(200 m SELATAN SWALAYAN MORO atau200 m UTARA KANTOR DINAS PENDIDIKAN Kab. BANYUMAS )PURWOKERTO  53141  JAWA TENGAH            ",PURWOKERTO - KAB. BANYUMAS,Jawa Tengah,+62 821-1001-0385,None,None
cv tiga saka,"
                                    PREMIUM GOLD
                                ",Kemasan Kertas,"
CV. Tiga Saka merupakan perusahaan yang memulai bisnisnya sebagai suplier polynet roll ( fruit bag ). Saat ini perusahaan kami adalah salah satu perusahaan yang di percaya mendistribusikan produk plastik wrapping dengan merk Haiwa, Best Fresh, untuk memenuhi kebutuhan industri di bidang Perhotelan, Rumah sakit, Restoran, Catering service, Supermarket, Fishery, Bakery & cake shop, General food packaging, dan Agro bussiness.Kami menyadari hal tersebut sepenuhnya dan bertekat mampu menjadi partner terpercaya yang memahami kebutuhan pelanggan. diwujudkan dengan mengembangkan kultur perusahaan yang berfokus pada customer, ditunjukan dengan usaha berkesinambungan dalam melakukan inovasi yang memicu nilai tambah nyata produk dan meningkatkan kualitas layanan secara penuhKesemuanya itu dengan tujuan memberikan pengalaman interaksi yang menyenangkan terhadap pelanggan, produk, layanan dan solusi.Adapun Produk-produk yang kami jual :- Perforated Bag and Polynet- Tray Foam- Impulse Sealer- Mesin Wraping Plastik- Aluminium Foil Roll- Plastik Wraping merk “Best Cling”- Plastik Wraping merk “Raypin”- Plastik Wraping merk “Bset Fresh”- Plastik Wraping merk “Haiwa""- Foamnet- Lakban buah&sayurUntuk Informasi dan Pemesanan bisa langsung menghubungi kami di kontak yang tersedia. ","
              Jl. RM. Soebagiono Tjk Bentulu No. 1 Karangmalang - Mijen - Semarang Jawa Tengah            ",Semarang,Jawa Tengah,+81 575-52-7889,None,None
PT EDPACK KARUNIA PERSADA,"
                                    PREMIUM GOLD
                                ",Kemasan Kertas,"
Sekilas PT Edpack Karunia Persada
PT Edpack Karunia Persada atau yang juga dikenal dengan Brand Edpack Persada merupakan perusahaan yang hingga saat ini bergerak dibidang produksi atau manufaktur produk-produk kemasan industri dan sekaligus mendistribusikan dan mensupply produk-produk industri tersebut ke berbagai Perusahaan di berbagai lokasi.
Bekerjasama dengan Berbagai Perusahaan
PT Edpack Karunia persada selama dalam menjalankan usaha dibidang produk-produk kemasan industri, telah mendistribusikan dan bekerjasama dengan berbagai perusahaan di berbagai lokasi baik perusahaan skala lokal, nasional maupun multinasional. Berbagai Jenis Perusaahaan tersbut misalnya :

perusahaan-perusahaan Semen, Semen Instan, Semen Mortar, Semen Putih
Perusahaan-perusahaan Makanan dan Minuman atau Food and beverage
Perusahaan-perusahaan dengan produk-produk makanan yang bersifat organik
Perusahaan-perusahaan arang seperti arang aktif, arang kelapa, arang kayu dan lainnya
Perusahaan Karbon Aktif
Perusahaan -Perusahaan kimia atau chemical company dengan berbagai jenis produk
Perusahaan Teh
Perusahaan dengan produk Aspal Dingin atau Cold Mix Asphalt
Perusahaan dengan produk-produk sabun dan sejenisnya
Perusahaan dengan produk biji plastik, compund dan sejenisnya
Perusahaan-perusahaan dengan produk-produk tekstil dan sejenisnya
Dan Berbagai Jenis Perusahaan lainnya

Produk produk PT Edpack Karunia Persada digunakan baik untuk keperluan lokal ataupun internasional atau export. Kedepannya PT Edpack Karunia Persada akan tetap menjalin kerjasama dengan berbagai jenis perusahaan atau pelaku industri lainnya.
Berpengalaman dibidangnya 
PT Edpack Karunia Persada telah berpengalaman dibidang produksi atau manufaktur dan distribusi produk-produk kemasan industri ke berbagai jenis industri. Produk-produk kemasan industri yang hingga saat ini kami produksi dan supply atau distirbusikan keberbagai perusahaan adalah :
Kemasan Kertas
Produk Kemasan kertas merupakan produk kemasan yang berbahan utama terbuat dari kertas. Produk-produk kemasan kertas misalnya Karung Kertas (Paper Sack) seperti Karung Kertas Kraft, Karung kertas laminasi woven (Sandwich Bag), karung kertas laminasi Aluminium Foil dan Karung kertas Laminasi PE coated, Siku Kertas (Paper Angle), Pallet Kertas (Paper Pallet), Tabung Kertas (Paper Core dan paper tube), Karton Box (Cartoon box), Honeycomb core dan Honeycomb Board
Kemasan Plastik
Produk Kemasan plastik adalah produk kemasan industri dengan berbahan utama terbuat dari jenis plasstik dan atau woven. Produk Produk Tersebut misalnya adalah Karung Woven (Woven Bag), Karung Jumbo (Jumbo Bag), Plastic Bag seperti HDPE, LLDPE dan PP, Plastic Vacuum, Pallet Plastik, Plastik Wrapping, Strapping Band, Infraboard
Kemasan Kayu
Produk Kemasan kayu merupakan produk dengan berbahan utama dari Kayu baik kayu mentah ataupun kayu olahan. Produk Tersebut misalnya Pallet Kayu (Wooden Pallet) dan Box Kayu (Wooden Crate). Produk ini tersedia dengan kualitas lokal dan kualitas ISPM No.15
Mengapa Bekerjasama dengan PT Edpack Karunia persada dalam memenuhi kebutuhan perusahaan anda akan produk kemasan industri adalah pilihan yang tepat? Hal ini tidak lepas dari apa yang menjadi Visi dan misi perusahaan, Sasaran mutu dan Motto atau slogan perusahaan serta nilai nilai perusahaan yang kami tanamkan pada segenap Team perusahaan dalam beraktivitas sehari hari.
Visi dan Misi PT Edpack Karunia Persada
Dalam menjalankan usahanya PT Edpack Karuia Persada memiliki visi dan misi dan komitment yang menjadi acuan dalam menjalankan usahanya sehari hari. adapun yang menjadi visi dan misi perusahaan adalah :
VISI PT EDPACK KARUNIA PERSADA
Menjadi Perusahaan yang Terpercaya, handal, cepat dan tepat serta komunikatif dalam menangai semua bisnis perusahaan dan menjadi perusahaan rujukan bagi pelanggan-pelanggan dan pasar dalam memenuhi kebutuhan mereka dan relasi mereka sehubungan dengan produk-produk kemasan baik untuk keperluan skala lokal, nasional dan internasional
MISI PT EDPACK KARUNIA PERSADA
Komitement penuh dalam menjawab kebutuhan pelanggan dan pasar yang semakin berkembang melalui penyediaan produk-produk yang berkualitas. Cepat, Tepat dan akurat dalam menjawab dan menyelesaikan permasalahan yang ada. Komunikatif dan persuasif dalam mendengar pelanggan. Trampil dan terlatih dalam menyelesaikan tugas dan tanggungjawab serta kewajiban. Pelayanan yang ramah dan management yang sistematis, terkendali dan terpercaya
SASARAN MUTU PT EDPACK KARUNIA PERSADA
Berusaha penuh dalam mencapai tingkat kepuasan Pelanggan dengan zero complaint serta efektifitas dan efisiensi proses produksi dan pelayanan pelanggan
MOTTO PT EDPACK KARUNIA PERSADA
PT Edpack Karunia Persada memiliki Motto atau slogan dalam berusaha yang kami singkat sebagai ""INNER QUALITY ONE STOP SERVICE"" yang merupakan singkatan dari Innovative, Excellence, Respect, Quality, dan One Stop Service. Berikut apa yang menjadi penjelasan dari Motto atau Slogan Peruahaan PT Edpack Karunia Persada :

Innovative : Perusahaan senantiasa melakukan inovasi baik pelayanan maupun produk dan jasa perusahaan dei mncapai visi dan misi perusahaan serta sasaran mutu perusahaan dalam berusaha.
Excellence : Bahwa Perusahaan senantiasa berusaha menyediaan produk dan jasa yang terbaik, pelayanan yang terbaik demi mencapai tujuan perusahaan serta visi, misi dan sasaran perusahaan dalam beraktivitas
Quality : Bahwa PT Edpack Karunia Persada dalam menjalankan usahanya senantiasa menyediakan produk dan jasa yang berkualitas, memenuhi standard kualitas yang terbaik sehingga produk dan jasa tersebut digunakan oleh pelanggan sesuai expektasi sehingga tercapai kepuaan pelanggan
One Stop Service : Bahwa PT Edpack Karunia Persada dalam menjalankan usahanya berusaha untuk menyediakan berbagai jenis komunikasi yang cepat dan tersedia baik melalui komunikasi langsung, chatting, maupun komunikasi melalui situs dan email sehingga pelayanan produk dan jasa perusahaan dapat diakses kapanpun dan dimanapun

Nilai Nilai Berusaha PT Edpack Karunia Persada
Nilai nilai PT Edpack Karunia Persada dalam menjalankan usaha sehari hari :

Bagi Kami, pelanggan bukanlah sarana untuk mendapatkan keuntungan semata, tetapi adalah Mitra Keluarga perusahaan yang harus tetap eksis, berkembang dan berkelanjutan dalam usahanya. Relasi jangka panjang dengan pelanggan serta kepercayaan pelanggan adalah hal yang tetap kami jaga.
Bagi Kami, Kualitas Produk dan pelayanan adalah hal yang sangat penting dan merupakan inti dari semua produk dan jasa yang kami sediakan
Bagi kami, Memberi kemudahan dan rasa nyaman bagi pelanggan dalam bekerjasama dengan kami adalah hal yang sangat mendasar. Kemudahan dalam mendapatkan produk berkualitas, kemudahan dalam berkomunikasi dan kemudahan dalam menyelesaikan berbagai permasalahan yang ada.
Bagi kami, Pelayanan yang ramah, komunikatif dan persuasif, pengiriman produk yang cepat, harga yang terjangkau, kualitas produk yang terjamin, tenaga kerja yang trampil, handal dan terlatih adalah hal yang menjadi faktor utama untuk mencapai kepuasan pelanggan.
Bagi Kami, tetap bersama pelanggan adalah suatu kewajiban. Untuk itu kami menyediakan layanan konsultasi dan layanan purna jual kepada semua pelanggan pelanggan kami

Segeralah bekerjasama dengan PT Edpack Karunia Persada. PT Edpack Karunia Persada akan melayani anda dengan baik. Hubungi kami segera. PT Edpack Karunia Persada hadir untuk anda.




PT.EDPACK KARUNIA PERSADA - PACKAGING MANUFACTURER
Email  :  csupport@edpackpersada.com
Web    : https://www.edpackpersada.com 

 
Follow Us On
 
        
Paper Packaging Division :  Paper Sack, Paper Angle, Paper core, paper pallet, honeycomb, paper box, 
Plastic Packaging Division :  Paper vacuum bag, Plastic Bag, Woven Bag, Jumbo Bag, Plastic Wrapping, Plastic Pallet, Strapping Band
Wooden Packaging : Wooden Pallet, Wooden Crate ISPM 15 quality
Other packaging : Jute Bag (Karung Goni) 
 
 
 



 ","
              Jl. Irigasi Komplek Edpack Persada No 1 RT 002/RW 003, Ciranji Barat, Ragemanunggal, Kecamatan Setu, Bekasi Jawa Barat 17320            ",setu bekasi ,Jawa Barat,+62 877-3561-5426,None,None
 CV. ALIMAR SEJAHTERA ,"
                                    PREMIUM GOLD
                                ",Kemasan Kertas,"
              PABRIK MUG KERAMIK / CERAMIC MUG Produsen Mug Keramik. Produk utama : GELAS/ GLASS, MUG KERAMIK, CERAMIC MUG, ASBAK ROKOK, ASHTRAY, TEA POT, TEKO, TEA SET, COFFE SET, PIRING, PLATE, MANGKUK, BOWL, CANGKIR, CUP, TATAK, SAUCER, PISIN dan lain-lain produk keramik dengan berbagai model dan ukuran untuk keperluan media PROMOSI atau SOUVENIR dan MERCHANDISE disertai dengan logo perusahaan yang dicetak secara permanen dengan sistem DECAL TRANSFER PAPER dan melalui proses pembakaran sampai dengan suhu 800 derajat celcius sehingga cetakan melekat secara permanen pada permukaan Keramik, Hasil Sablon atau cetakan tidak akan luntur, terhapus atau tergores, walau digores dengan benda tajam sekalipun. Untuk jumlah tertentu anda bisa memesan khusus bentuk mug yang anda sukai dengan model sendiri disertai dengan gambar khusus baik berupa logo perusahaan, foto, nama atau mungkin hanya kalimat-kalimat yang unik untuk keperluan promosi, souvenir, hadiah ulang tahun, pernikahan, plakat, parcel atau juga untuk keperluan perangkat makan di kafe/ restoran anda dengan menonjolkan identitas perusahaan anda. Anda tertarik, Anda bisa menghubungi kami via Telp/WA di nomor: 0818 821 291 atau 0815 1070 3740.Email: tulipkeramik@ gmail.com atau tulip_ crk@ yahoo.com atau alimarsejahtera@ yahoo.com Tertarik dengan produk-produk kami, anda bisa datang dan melihat contoh-contoh produk yang pernah kami buat. Workshop kami di: Puri Nirwana 1 Jln Prambanan 10. Blok JJ.16 Pabuaran, Cibinong, Bogor. 16916. Atau kirimkan data dan pesan anda ke email kami di: tulip_ crk@ yahoo.com, atau tulipkeramik@ gmail.com atau alimarsejahtera@ yahoo.com dan kami akan meresponnya segera. Kami tunggu kerjasamanya dari anda semua... Salam. Tulip Keramik.            ","
              Perum Puri Nirwana 1. Jl. Prambanan 10  blok JJ.16. RT.12  RW.14. Pabuaran. Cibinong            ",Bogor,Jawa Barat,+62 818-821-291,None,None
"Dian Perdana Indonesia, PT","
                                    PREMIUM GOLD
                                ",Kemasan Kertas,"
              PT. Dian Perdana Indonesia berdiri pada tahun 2013. Pada awal berdiri, perusahaan kami bergerak dalam bidang produksi dan pemasaran kemasan kertas. Kemasan kertas yang kami produksi adalah paper sack atau karung kertas atau lebih dikenal dengan sebutan multiwall paper sack (paper bag).Seiring perkembangan dan permintaan pasar yang semakin pesat maka kami menambah pemasaran kami dibidang karung lainnya seperti karung plastik seperti karung woven dan plastik vacuum, plastic PE, karung aluminium foil dan karung jumbo.Guna melengkapi kebutuhan  kemasan pelanggan-pelanggan kami, kami menyediakan produk Pallet  seperti pallet kertas, pallet kayu dan pallet plastik.Dibidang perdagangan lainnya, perusahaan kami bekerjasama dengan beberapa rekanan dalam hal penyediaan  produk produk foods and beverage powder dari produk pertanian, organic dan rempah rempah seperti  coconut powder, cocoa powder, palm sugar, vanila, pala, lada dan juga produk produk bahan bangunan (mortar dan aspal dingin).Perusahaan kami senantiasi berusaha melakukan perbaikan dan pengembangan dalam seluruh aktivitas pelayanannya dan produk-produk yang diproduksi dan dipasarkan guna menyesuaikan diri dengan permintaan pelanggan-pelanggan kami dan keinginan pasar.Visi Perusahaan“Menjadi perusahaan yang terbesar dan tercepat dalam penanganan bidang kemasan sack kertas serta menjadi pemimpin pasar untuk mempertahankan keberadaan kami dalam mengejar perusahaan yang bertaraf Internasional untuk organisasi nasional maupun internasional”.Misi Perusahaan“Berkomitmen penuh dalam menjawab kebutuhan pelanggan, permintaan pasar dan penyelesaian permasalahan yang ada melalui penyediaan produk yang lengkap dan berkualitas, sumber daya manusia yang ramah, terlatih dan kompeten, managemen yang sistematis dan terkendali, pelayanan yang terpercaya dan akurat, infrastruktur yang tersedia serta pelayanan yang terintegrasi dan berbasis informasi dan teknologi”.Kebijakan Mutu“Memberikan pelayanan yang sistematis, tercepat dan terpercaya dalam semua aktivitas bisnis kami guna mempertahankan keberadaan sebagai pemimpin pasar terhadap organisai nasional maupun internasional”.Sasaran Mutu1.    Meningkatkan kepuasan pelanggan serta mengurangi keluhan pelanggan2.    Meningkatkan efektivitas dan efisiensi proses produksi dan pelayanan.Motto kami adalah "" INNER QUALITY ONE STOP SERVICE "" atau Innovation, Excellence, Respect, Quality dan One Stop Service.Produk - Produk Perusahaan Kami memproduksi beberapa produk-produk kemasan dan juga bekerjasama dengan beberapa supplier dalam menyalurkan produk-produk pertanian, organik, rempah-rempah dan bahan bangunan. Kemasan Karung (Sack Packaging) -    Karung Kertas (Paper Sack)Paper Sack yang kami produksi dan pasarkan terdiri dari beberapa tipe dan jenis berdaarkan bahan baku yang digunakan :Tipe atau Model Paper Sack yang kami produksi 1.    Paper Sack Tipe Jahit (Sewn Paper Sack)2.    Paper Sack Tipe Block Bottom Atas Terbuka (Block Bottom open mouth)3.    Paper Sack tipe Block Bottom Open Valve (valve Paper Sack)Jenis Paper Sack Berdasarkan Bahan Baku1.    Karung kertas kraft (Kraft paper Sack)2.    Karung kertas Kraft Sandwich (Woven Laminated Paper Sack Kraft)3.    Karung kertas Kraf laminasi PE coated (PE coated lamination Sack Kraft Paper)4.    Karung kertas Kraft laminasi Aluminium Foil (Aluminium foil laminated kraft paper sack)-    Karung Woven1.    Karung woven laminasi (Laminated woven bag)2.    Karung woven tanpa laminasi (Non lamination woven bag)3.    Karung Jumbo (Jumbo Bag)-    Karung Plastik1.    Karung Plastik PE/HD (PE/HD Plastic Bag)2.    Karung Plastic Vacuum (Plastic vacuum bag)-    Karung Aluminium Foil1.    Kantong Aluminium Foil ZipLock2.    Karung Aluminium Foil PouchKemasan Pallet (Pallet Packaging)-    Pallet Kertas-    Pallet Kayu-    Pallet PlastikProduk-produk food and beverage dari produk pertanian, organic dan rempah-rempah -    Coconut Powder (Tepung Kelapa)-    Cocoa Powder (Tepung Coklat)-    Palm Sugar Powder (Tepung Gula Semut)-    Vanila Powder (Tepung Vanila)-    Nutmeg Powder (Tepung Pala)-    Pepper Powder (Tepung Lada)Produk-Produk Bahan Bangunan-    Semen Mortar-    Asphalt DinginMarketing Office :Jl. Alternatif Cileungsi, Metropolitan Land Transyogi, Cluster Green Palma, Sektor Tanjung 14 No.20 Bogor - Jawa Barat, 16820
Hubungi kami segera dimarketing office : 
Tety : 085780546226
 
Raja : 081384422156
 
Ana : 081384422154
 
Fitri : 081384422152
 
Nurul : 081389214174
 
Nadia : 081389214175
 
Citra :  081384422153
 
Boy : 081384422155
 
No tlp office :
021-29628514
021-29628515
021-29628516
021-22950363
 
Email :info@dianperdanaindonesia.commarketing@dianperdanaindonesia.com ","
              Jl. Alternatif Cileungsi, Komplek Metropolitan Land Transyogi, Cluster Green Palma, Sektor Tanjung 14 No.20            ",Bogor,Jawa Barat,+62 813-8442-2155,+62 813-8442-2153,+62 813-8442-2157
TATOISO Creative Product,"
                                    PREMIUM GOLD
                                ",Kemasan Kertas,"
TATOISO Creative Product adalah sebuah usaha yang bergerak dalam bidang pembuatan produk-produk keperluan promosi, kampanye, aksesoris kantor dan souvenir. Pada awal berdirinya produk-produk kami terbatas pada Gantungan Kunci Karet dan Gantungan Kunci Akrilik. Namun dewasa ini usaha kami telah berkembang ke berbagai jenis produk. Perkembangan usaha kami tidak lepas dari meningkatnya kepercayaan para customer. Kepercayaan dari customer dapat selalu terjaga karena kami selalu berusaha untuk memberikan yang terbaik bagi mereka. Kami selalu memberikan kualitas produk yang bagus dan dengan komitmen waktu pengiriman yang terjaga. Dan yang tidak kalah penting kami selalu dapat memberikan penawaran harga yang lebih kompetitif. Satu hal yang selalu kami terapkan dalam konsep bisnis kami adalah kerjasama jangka panjang yang saling menguntungkan.Berikut ini adalah contoh produk-produk kami:1. Produk gantungan kunci ( karet, model pin 2 sisi, model pin 2 sisi, model bukaan tutup bukaan tutup botol dan akrilik)2. PIN ( Bros, PIN resin almunium dan PIN kuningan / stainless )3. Gelang karet berlogo4. Gantungan handphone berlogo5. Topi6. Kaos7. Label karet8. Sticker9. Mug10. Payung11. Jam dinding12. Plastik Shopping Bag13. Paper bag14. Souvenir pernikahan / khitanan, dan masih banyak lagi.Semua produk tersebut di atas dapat mengikuti desain dari customer ( customized design) . Penjelasan detail masing-masing produk tersebut dapat Anda lihat pada bagian "" Penawaran Dagang"" .Kami juga menerima pesanan produk keperluan promosi yang idenya 100% baru dari customer. Kami dapat mempelajari feasibility pembuatannya. Secara umum produk-produk kami cocok untuk:1. Media iklan produk2. Sarana kampanye ( campaign), baik itu PILKADA, Capres, Cawapres ataupun LSM3. Memeriahkan suatu event4. Memberikan identitas pada suatu organisasi5. Memenuhi kebutuhan aksesoris instansi / kantor6. Memenuhi kebutuhan souvenir pernikahan / kithananAnda tertarik dengan produk-produk kami? Silakan jangan merasa sungkan untuk menghubungi kami di telepon 0821.2020.6999 / 0817.025.0817, atau melalaui email di tatoiso@ gmail.com.Anda akan kami layani dengan baik. Dan kita dapat menjalin kerjasama jangka panjang yang saling menguntungkan.Contact Person:SutartoPhone: 022-662.5588HP: 0821.2020.6999 / 0817.025.0817Email: tatoiso@gmail.comFacebook: tatoiso@gmail.comAddress: Perum. Tani Mulya Indah Jl. Botani 2 No. 14 ( RT 09/ 15) Ngamprah, Kab. Bandung Barat, Jawa Barat, Indonesia ","
              Perum. Tani Mulya Indah, Jl. Botani II No. 14 RT 9 RW 15 Kec. Ngamprah            ",Kab. Bandung Barat,Jawa Barat,+62 821-2020-6999,None,None
CV.changdong Indonesia,"
                                    PREMIUM GOLD
                                ",Kemasan Kertas,"
CV.Changdong Indonesia di dirikan pada tgl 05 Mei 2007, Tujuan didirikan perusahaan adalah memproduksi mesin-mesin pertanian, perkebunan, perikanan, Industri Kecil Menengah dan Usaha Kecil Menengah. demi mendukung percepatan pertumbuhan ekonomi masyarakat menengah kebawah serta membuka lapangan kerja baru. Pada saat ini, CV.Changdong Indonesia memproduksi mesin-mesin pertanian antara lain :
- Power Thresher- Mesin Pengurai Sabut Kelapa- Mesin Pencacah Sampah Organik ( APPO)- Mesin Press Kemasan Hidrolik- Mesin Pres Kemasa- Mesin Pencetak Pellet- Mesin Press Batako- Mesin Paving Blok Hidrolik- Mesin Pencacah Plastik- Mesin Granulator- Mesin Press Bata Merah- Mesin Mixer- Mesin Pirolisis Arang- Mesin Gongsengan Kopi- Mesin Pemipil Jagung- Mesin Hammer Mill atau Penghalus Jagung- Dan masih banyak yang lainnya
Lokasi CV. Changdong Indonesia terletak di Jl. Gondang No.13 RT 01/RW 10 Kecamatan Mustika Jaya, Kota Bekasi -Jawa Barat  CV. Changdong Indonesia memilih bahan baku seperti Plat Mild steel, Kanal UNP, Plat Strip dan Besi Beton, Stainless steel dengan memilih kualitas yang baik. Dan kami juga menerima segala permintaan bahan baku dari setiap costumer kami. Didukung pula oleh Teknisi yang berpengalaman dan terlatih. Pada saat ini CV.Changdong Indonesia menghasilkan produk dan kapasitas disesuaikan dengan permintaan pasar. Konsumen CV.Changdong Indonesia adalah Petani, Pengusaha, Pemerintahan, Swasta dan Rekanan dari pemerintahan di seluruh Indonesia. Visi CV. ChangdongIndonesia: “ Mengutamakan kepuasan pelanggan atas layanan kami ” Misi CV. Changdong Indonesia : “ Meningkatkan mutu dan kualitas, Efisiensi yang ramah lingkungan ”Untuk Informasi Lebih Lanjut Hubungi
CV Changdong IndonesiaJl. Gondang No.13, RT 01/RW10 KecamatanMustika Jaya,Kota Bekasi -  Jawa Barat 17158Hp : 085287938886 - 081280097909 - 08788728889
 ","
              JL. Gondang No.13 Kec Mustika Jaya Kota Bekasi -  Jawa Barat             ",Bekasi,Jawa Barat,+62 852-8793-8886,None,None
VIN'C MERCHANDISE,"
PREMIUM RUBY
",Kemasan Kertas,"
              VIN' C MERCHANDISE. HP & WA. 0812 8410 0927 Office: 031-87852748  WA 2: 081235077017 Email: vincdesain@gmail.com atau vincdesain@yahoo.com web : www.vincmerchandise beralamat di Jalan Medayu Utara III No. 8 Medokan Ayu, Kec. Rungkut, Surabaya - Jawa Timur ( dari MERR IIC belok ke Jalan Pandugo lurus sampai ketemu jalan raya medayu utara) Visi dan Misi Vin'c Merchandise 1. Menjadi rujukan merchandise di seluruh indonesia 2. Menjadi Perusahaan yang mensejahterakan Stakeholder khususnya karyawan dan masyarakat sekitar 3. membantu menambah pendapatan keluarga dengan bekerja di rumah VIN' C MERCAHNDISE buka: Senin - Sabtu : 08.00 - 16.30 WIB Minggu dan Hari Besar LIBUR VIN' C MERCHANDISE bergerak dibidang : 1. MERCHANDISE 2. SOUVENIR & GOODY BAG 3. PEMBUATAN AGENDA4. PEMBUATAN TAS, POUCH, DOMPET, TUMBLER ATAU BOTOL MINUM5. PEMBUATAN GIFTSET VIN' C Merchandise sudah berpengalaman dengan Perusahaan berskala lokal maupun multinasional yang sudah menggunakan jasa dan produk kami. Adapun customer kami: PT. Astra International Tbk, PT. HM Sampoerna, Tbk, PT. Jawa Pos, Bank BNI 46, Bank BRI, Bank Danamon, BCA Finance, Mandala Tiger Airlines, PT. Adi SURYA Sempurna ( Distributor Shell) , House Of Quality, PT. Armada International Mobil, Crown Prince Hotel, Batik Trusmi, dan lain sebagainya Berikut Produk dan Jasa yang kami bisa berikan dan layani dengan baik: KALENDER 2016 & AGENDA 2016. 1. ID Card/ Kartu Anggota/ Kartu Member 2. PIN 4.4 cm 3. PIN 5.8 cm 4. Gantungan Kunci 4.4 cm 5. Gantungan Kunci 5.8 cm 6. Gantungan Kunci Buka Botol 4.4 cm7. Gantungan Kunci Buka Botol 5.8 cm8. Gantungan Kunci Akrilik9. Gantungan Kunci Karet10. Gantungan Kunci Kulit11. Gantungan Kunci Besi dan Kulit Imitasi12. X-Banner Indoor & Outdoor13. K-Banner Indoor14. K- Banner Outdoor15. Roll Banner16. STIKER ONE WAY VISION17. STIKER SANDBLAST + CUTTING18. Wallpaper Dinding Gambar Sendiri19. BRANDING MOBIL STATION20. BRANDING TRUCK21. Mug Standar22. Mug Lucky23. Mug Hati/ Love24. Mug Lucky dalam warna25. Mug Bening26. Mug Beer Keramik27. Tumbler Mini28. Tumbler Besar29. Aneka Macam Tumbler30. Aneka Macam Jam Dinding31. Aneka Macam Jam Meja32. Piring Hiasan kecil & Besar33. Payung Standar34. Payung Jumbo35. Puzzle BERGAMBAR36. Mouse Pad37. Notes38. Amplop Perusahaan/ Organisasi39. Nota40. Brosur41. Agenda42. Termos Sport43. Company Profile44. Kalender Meja45. Kalender Dinding46. Desain Produk47. Desain Logo48. Desain Brosur49. Desain Company Profile50. Desain Undangan51. Stempel Perusahaan52. Cutting stiker kantor/ gedung53. Korek Api Branding ( Cricket / Tokai)54. MUG HATI FULL COLOUR55. Souvenir Ulang Tahun56. Hampers Manyeek57. Hampers 1 Bulanan58. Hampers Ulang Tahun Untuk informasi lebih lanjut hubungi kami melalui telp/ e-mail / bb, kami siap memberikan LAYANAN YANG LEBIH BAIK untuk ANDA: CS1 : 0812 8410 0927 CS2 : 081 2350 77017 CS3 : 031 87852748 ( Office) EMAIL 1: vincdesain@gmail.com EMAIL 2: vincdesain@yahoo.com Kami berusaha memberikan pelayanan yang lebih baik dan kualitas hasil menjadi fokus perhatian kami dan yang terpenting kepercayaan anda pada layanan kami shg hubungan kerja bisa berkelanjutan dan saling meningkatkan usaha/ bisnis bersama. Terima kasih atas kesempatan dan kepercayaannya menggunakan produk dan jasa kami. Hormat kami, MANAJEMEN VIN'C MERCHANDISE            ","
              Jl. Medayu Utara III No. 8 Medokan Ayu, Kec. Rungkut, Surabaya 60295            ",Surabaya,Jawa Timur,+62 812-3507-7017,None,None
CV Sunday Prima Packindo,"
                                    PREMIUM GOLD
                                ",Kemasan Kertas,"
CV Sunday Prima Packindo kami adalah Suplier packaging dan kemasan untuk kebutuhan Cafe, Resto dan bakery di Jawa Timur, dengan dukungan beberapa perusahaan handal dan ternama kami berusaha memerikan produk produk dan service standar nasional, foodgrade, service dan harga yang terbaik dan harapan kerjasama mutual jangka panjang. konsultasikan kebutuhan packaging dan branding anda dengan kami sesuai dengan produk anda, dan kami adalah solusi. Dan kepercayaan anda kami harapkan bisa jangka panjang bermitra dengan kami Packaging dan Branding merupakan faktor penting suksesnya penjualan produk anda. karna hal tersebut yang membawa produk anda untuk kemudian dilihat secara visual oleh calon pembeli sehingga memutuskan untuk membeli. 
 ","
              Istana Mentari Blok E1 No 33 Cemengkalang, Sidoarjo kota            ",Sidoarjo,Jawa Timur,+62 821-4010-5588,None,None
SPON BUSA ABADI,"
                                    PREMIUM GOLD
                                ",Kemasan Kertas,"
              HARGA PABRIK! ! MELAYANI ORDER DARI 1 PCS - RIBUAN PCS ( SEMAKIN BANYAK SEMAKIN MURAH) . DARI KUALITAS YANG PALING EKONOMIS HINGGA KUALITAS YANG PALING BAGUS SUDAH BERPENGALAMAN LEBIH DARI 30 TAHUN MELAYANI DARI INDUSTRI KECIL HINGGA BESAR. MELAYANI KEBUTUHAN EKSPORT ANDA. BAIK DARI SEGI BAHAN BAKU, MAUPUN PRODUK JADI.MEMBUAT KASUR UNTUK KEBUTUHAN PONDOK PESANTREN, MESS PERUSAHAAN, KOS2AN, KASUR UNTUK KAPAL, RUMAH SAKIT, PONDOK PESANTREN, MESS, DLL. MELAYANI PABRIK MEBEL, KEBUTUHAN MATRAS UNTUK SEKOLAH DAN INSTANSI OLAHAGA, HINGGA PROYEK2 KHUSUS SEPERTI SPON UNTUK COBLOSAN PILKADA/ PEMILU, ISI TEMPAT PENSIL, DAN LAIN SEBAGAINYA. ANDA ADA PROYEK ATAU LUBANG YANG SESUAI DENGAN BIDANG KAMI TAPI TIDAK TERTULIS DIATAS? JANGAN RAGU UNTUK MENGHUBUNGI DAN BERDISKUSI DENGAN KAMI. SERAHKAN PADA AHLINYA... SPON BUSA PRODUKSI KAMI :POLYURETHANE SPONGE DARI DENSITY 7-50REBONDED SPONGE R70, R100, R120            ","
              Sepanjang - Sidoarjo            ",sidoarjo,Jawa Timur,+62 816-535-100,None,None
percetakan murah surabaya ,"
                                    PREMIUM GOLD
                                ",Kemasan Kertas,"
              berbagai macam produk percetakan yang kami terima Secara garis besar, produk dan jasa yang kami tawarkan bisa dikelompokkan ke dalam bidang-bidang berikut: Printing ( percetakan) . Bidang percetakan yang kami tawarkan memiliki spektrum yang luas, seluas kebutuhan cetak yang berkembang pada masyarakat modern. Paling tidak kami biasa mengelompokkannya ke dalam 5 kebutuhan cetak :

Promosi, yaitu kebutuhan cetak yang berkaitan dengan media sosialisasi sebuah layanan atau produk, seperti kalender, brosur, poster, paper bag, pamflet, undangan, flyer, hanging mobile, company profile, atau katalog, company profile, danm lainnya.
Penerbitan, yaitu kebutuhan cetak yang berkaitan dengan usaha-usaha penerbitan seperti bulletin, majalah, tabloid, buku, agenda, dan lainnya.
Packaging, yaitu kebutuhan cetak yang berkaitan dengan kemasan sebuah produk misalnya kemasan pakaian ( baju, songkok, sarung) , kemasan makanan ( roti dan donat) , kemasan barang atau kemasan lainnya ( inner box) .
Administrasi, yaitu kebutuhan cetak yang berhubungan dengan administrasi seperti ID Card, kartu nama, atau form administrasi, dan lainnya. Jasa, yaitu layanan berupa jasa kerja di bidang percetakan seperti jasa desain grafis, jasa cetak atau jasa plong.
Publishing ( penerbitan) . layanan cetak seperti media buletin dan majalah yang muncul secara periodik, ataupun buku yang terbit di waktu tertentu saja. Advertising ( media pariwara) . Pada bidang ini kami menawarkan pembuatan: Merchandise ( kaos, mug, gantungan kunci, dan lainnya.) In Door ( art visual, x-banner, sticker vynil / cutting, dan lainnya.) Out Door ( umbul- umbul, spanduk, banner, baliho, billboard, neon sign/ box, dan lainnya) Komunikasi audiovisual ( cd interaktif, iklan radio, iklan televisi, company profile, dan lainnya) Lain-lain ( pembuatan logo perusahaan)

hubungi kami ---->>> 081217715726 , 085100812174website : www.sinarimajinasi.com            ","
              jl. rambutan 14 rt.5 rw 2 geluran taman sidoarjo             ",Surabaya,Jawa Timur,+62 812-1771-5726,None,None
CV PIRANTI SEJAHTERA,"
                                    PREMIUM GOLD
                                ",Kemasan Kertas,"
              Perusahaan kami bergerak dibidang perdagangan umum, pengadaan Laboratory Equipment, Glassware untuk Laboratory, Plasticware untuk Laboratory, pengadaan Bahan Kimia ( Industri ( Teknis & PA) , Mikrobiologi, Diagnostik / Medis) , Reagent Kimia dan Bahan Kimia untuk Rumah Sakit, Alat Peraga Pendidikan ( TK, SD, SMP & SMU) , Peralatan Perikanan, Perternakan dan Pertanian, Peralatan deteksi gas, Peralatan ukur fluks cahaya, Peralatan ukur suara, Peralatan Medis, Peralatan Sanitasi dan Kebutuhan untuk Rumah Sakit, Tong Sampah dan Troley Sampah Medis.            ","
              JL. KUTISARI 4 NO. 21 (SURABAYA / INDONESIA BARAT), JL.MANGGIS NO.60A (PALU / INDONESIA TIMUR)            ",SURABAYA (JATIM) & PALU (SULTENG),Jawa Timur,None,None,None
JATIM SABLON,"
                                    PREMIUM GOLD
                                ",Kemasan Kertas,"
 
Selamat Datang di Website JATIM SABLON. Kami merupakan perusahaan yang bergerak dalam industri Gelas Plastik, Gelas Kertas, Gelas Plastik PP, Sendok Plastik, Kertas Nasi, Kotak Makan Custom. Kami berada di Kawasan Jombang Jawa Timur.
Kami berkomitmen terhadap kualitas, waktu dan pelayanan terbaik kepada pelanggan karena tujuan kami adalah kerja sama jangka panjang yang saling menguntungkan. ","
              JL. Anggrek no.4 RT/RW 2/1 Dsn. Mojoduwur Selatan Ds. Mojoduwur Kec. Mojowarno            ",Jombang,Jawa Timur,+62 816-5489-620,None,None
UD. SIDO MUMBUL,"
                                    PREMIUM GOLD
                                ",Kemasan Kertas,"
              UD. SIDO MUMBULPerusahaan kami bergerak di bidang distribusi barang pecah belah / bolo pecah, plastik rumah tangga, peralatan / alat dapur ( kitchen wares) dan kebersihan ( cleaning equipments) , perlengkapan rumah tangga ( house wares / home appliances) dan kebutuhan industri ( industrial wares) lebih dari 30 tahun di Pasar Turi, Surabaya. Kami menjual barang-barang produksi lokal dan impor seperti barang-barang aluminium, kaca, plastik, stainless steel, perkakas, dll. dengan harga dan kuantiti partai ( grosir) untuk dijual kembali ( reseller price).Beberapa merek barang yang kami jual adalah Hock, Lion Star, Maspion, Global Eagle, Green Leaf, Dian Sari, Owl Plast, Technoplast, Bull Star dan masih banyak lagi. Untuk informasi lebih lengkap bisa dilihat pada halaman Katalog Produk kami atau bisa langsung datang ke kantor kami pada hari Senin - Sabtu pada pukul 10: 00 - 17: 00 WIB di jalan Dupak 63, kompleks pertokoan Mutiara Dupak C-22, Surabaya.  Dengan dukungan supplier lokal dan nasional, kami siap untuk memenuhi kebutuhan usaha anda. Kontak kami segera untuk berbisnis dengan kami.Kami juga melayani kebutuhan hotel, rumah sakit, cafe, restoran & katering.Untuk pemesanan produk dapat dilakukan via telepon, short message service ( SMS) , Yahoo! Messenger, Blackberry Messenger ( BBM) dengan sistem pembayaran cash ( transfer bank / kontan) . Pembayaran dapat dilakukan setelah mendapat konfirmasi dari kami atas ketersediaan jumlah produk yang dibutuhkan. Apabila anda serius, dimohon untuk tidak mengirimkan e-mail kepada kami tanpa melakukan konfirmasi terlebih dahulu.  Tersedia kualitas produk biasa, menarik, murah, kuat dan berkualitas tergantung merk dan kebutuhan. Untuk area surabaya kami dapat mengirim, untuk konsumen luar kota dan luar pulau dapat dikirim lewat ekspedisi yang telah disepakati bersama. JAKARTA - BANDUNG - YOGYAKARTA - MAGELANG - SOLO - DENPASAR - SEMARANG - MALANG - SURABAYA - BANYUWANGI - PASURUAN - PROBOLINGGO - JEMBER - PRABUMULIH - MEDAN - JAMBI - PEKANBARU - MAKASSAR - BALIKPAPAN - PONTIANAK - BANJARMASIN - BATAM - PALEMBANG - LAMPUNG - SAMARINDA - PADANG - MATARAM - KALABAHI - MANADO - JAMBI - ACEH - PANGKALAN BUN - KUALA PEMBUANG - BATU LICIN - SAUMLAKI - TUAL - GORONTALO - TANJUNG SELOR - TOLI TOLI - AMBON - BATAM - PANGKALPINANG - WAINGAPU - WAIKABUBAK - KUPANG - ATAMBUA - DILI - PALU - SAMPANG - BANGKALAN - SUMENEP - JAYAPURA - SORONG - BIAK - MANOKWARI - MERAUKE - BAU BAU - TERNATE - TOBELO - KENDARI UD. SIDO MUMBUL - Jln. Dupak 63 / Pertokoan Mutiara Dupak C-22, (031) 5469330 / 081938685700, Surabaya. PIN BBM = 7C5F4B40 / 5B69FFC6 / 228B81D4 WA = +6282143438684 LINE = herry.sutanto E-mail = ud_sido_mumbul@yahoo.com / herrychenzhongqiang@gmail.com Jam Kerja = Senin - Sabtu 10:00 - 17:00 WIB, Hari Minggu / Besar Libur            ","
              Jln. Dupak 63 / Pertokoan Mutiara Dupak C-22, (031) 546-9330 / 0819-3868-5700, Surabaya.
PIN BBM = 7C5F4B40 / 5B69FFC6
WA = 0821-4343-8684
LINE = herry.sutanto            ",Surabaya,Jawa Timur,+62 814-3438-684,None,None
CV Bersama Jaya,"
",Kemasan Kertas,"
CV Bersama Jaya adalah perusahaan dalam bidang sablon dengan menggunakan teknik manual, mesin dan rotrogravure.Kami melayani sablon dan printing gelas plastik, paper cup, lid sealer, kantong plastik, map, tas, dll.
Kami sudah berpengalaman dalam bidang sablon selama lebih dari 5 tahun.
Pengerjaan paling lama di perusahaan kami maximal 7 hari kerja sudah selesai.
Silahkan sablon gelas plastik, sablon papercup, sablon lunchbox anda, dsb. ","
              Jl Gajayana 573 A
Kel Dinoyo Kec Lowokwaru
Malang Jatim            ",Malang,Jawa Timur,None,None,None
PT Nitto Indonesia,"
                                    PREMIUM GOLD
                                ",Kemasan Kertas,"

You will find SEA HORSE GROUP in a place where looks delicious.
You wander into a store and find yourself somehow drawn to a particular sweet.
You can tell that it has been made with tender loving care and it's going to taste delicious.
That is a place where people will find SEA HORSE GROUP containers.
SEA HORSE GROUP was established in 2004 to offer to market by that time unavailable packing and fast food and other types of
food systems. It is our goal to meet ever-greater demands of restaurant owners and their customers, using state-of-the-art
technology and providing higher standards and better ways of presentation.
Corporate concept
Producing paper containers for ""deliciousness""
SEA HORSE GROUP is an innovative development company that produces original products in which customer satisfaction and
unique ideas are made into actual products. We strive to share a contribution to society, the marketplace and many industries with
""deliciousness.""
To deliver “deliciousness”
Our products are developed with designs and functionalities that are easy to use for customers when cooking and excellently
portray its delicious contents. We strive for creative development and production every day, respecting the desire of those who
produce food and the feeling of those who eat it.
Good designs increase sales.
Even when much deliciousness is guaranteed, it is essential to catch customer’s eyes first.So the design of containers and wrappings
are critical. Our dedicated staff will meticulously work on your requests to meet your requirements. We then offer proposals with
data and physical samples in various stages .
A broad range of products are availab
SEA HORSE GROUP covers a vast number of products to suit different application. Standard products ensure immediate delivery.
Made-to-order products provide customer’s originality into shape. Seasonal product designs are also available such as Gathering,Eid
Mubarak , Christmas and Valentine’s Day
Utilizing accumulation of our original molding techniques.
To produce our products in a short period of time to meet immediate requirements for customers,We strive to create unique
products which cannot be imitated by any other companies using our tecnology and know-how we have built over the years.
We strive for high quality and hygienic products in all sincerity.
In the production and sale of food containers, through consistent quality and hygenic control are critical. We make extreme effort
for thorough quality control, in addition to establishment and improvement of our hygenic environment to ensure reliable
produntion quality and safety.
Custom Order Product
We desire to meet any type of request.
Please contact us when you can’t find the containers in the shape and design you need. Our sales offices will immediately undertake
to accommodate your request.
Our marketing will be set up to address your request.
OUR PRODUCT
SEA HORSE GROUP is a producer of Smart box, Lunch box, Boat tray, Burger box, Salad box, Paper plates, Cupcake Box, Cake Box,
Macaron Box,Display Box, Kraft Box,Pizza Box, Labels & Stickers, Reusable Bags, Sushi Packaging, Fast Food Packaging, Wine Bags,
Burger Wrapping Paper, Bottle bags, Chocolate Boxes, Produce Bags, Donut Box, Bread Bag,Kraft Paper bag, Eco Food Packaging,opp
,pe,hd plastic bag , seal pvc shrink, etc ....and custom made products.
All our products are made of the finest cardboard and plastic intended exclusively for food industryAlamat : Ruko Oasis Citra Garden VII blok A8/20 kalideres – Jakarta Barat 11840No. Telp : 021 – 22520981 WA : 081319996883Marketing : 0812.9473.6669WEBSITE : www.nittoindonesia.id ","
              CITRA GARDEN 7 BLOK A8/20            ",JAKARTA BARAT,DKI Jakarta,+62 813-1999-6883,+62 812-9473-6669,None
PT.SINARDO PRATAMA,"
                                    PREMIUM GOLD
                                ",Kemasan Kertas,"
PT. SINARDO PRATAMA sebagai stockies dan distributor untuk produk material steel bagi perindustrian & project di Indonesia. Kami spesialis dalam mensupport ( mensuply ) kebutuhan proyek – proyek industri seperti : Oil & Gas Pipelines Konstruksi,Pembangkit Listrik ( Power Plants )  Pembuatan Kapal ( Ship Building )  Boiler, Pulp & Paper, Chemical, Dll. Adapun material yang dapat kami suply sebagai berikut : * PIPA : Carbon steel, Galvanis ( Welded & Seamless ) API 5L, A 106 Gr. B, A 53 Gr. A/ A 53 Gr. B, Gr.X 52 Size : ½ ” – 32” Spiral Welded Steel Line Pipe Size : ½ ” – 120” Stainless Steel Pipe SUS 304, 304L, 316, 316L Size : ½ ” – 24” Alloy Steel Pipe A333 Gr. 6, A335 P5, P11, P12 Tubing SS 316, 316L * Fitting : Elbow Tee Reducer Concentric & Eccentric Union Coupling Half Coupling Hex Plug Thredolet Weldolet Sokolet Dll Sch 10, 20, 30, 40, 60, 80, 120, 160 Class # 150, # 1000, # 2000, # 3000, # 6000 Carbon Steel : ASTM/ ASME SA234 WPB, WPC, WPL6, A 105 Alloy steel: ASTM/ ASME SA234 WP5, WP9, WP11, WP12, WP22, WP91 * Flange Weld neck Flange Slip On Flange Blind Flange Socket Weld Flange Lap Joint Class # 150, # 300, # 600, # 900, # 1500, # 2500, JIS 10K, PN 10, 16 Dll Matr’ ASTM A105 ASTM A182 304, 304L, 316, 316L ASTM A350 LF 2 * Valve Gate Valve Glove Valve Check Valve Ball Valve Butterfly Valve Knife Gate Valve Strayner Type : ANSI, JIS, PN Matr’ A 105, A216WCB, A 350 LF2, SS 304, 304L, 316, 316L Brand : Kitz, Tomoe, Toyo, GLT, James Bury * Steel Construction H – Beam IWF Steel Angle Assental Plate Channel U CNP Matr’ SS 400, A36, A 516 Gr. 70, SS 202, SS 304, 304L, SS316, 316L Pressure Vessel, Boiler Plate Dll RUBBER HOSE INDUSTRIAL, FLEXIBLE METALIC HOSE, HIDRAULIC HOSE, FLEXIBLE RUBBER HOSE, CAM LOCK, QUICK COUPLING, FIRE HOSE, DAN PRODUK-PRODUK STEEL DAN HARDWARE LAINNYA Untuk kepuasan client, kami PT. SINARDO PRATAMA memberikan pelayanan maksimal berupa pengiriman material untuk wilayah JABODETABEK dengan tepat waktu tanpa biaya tambahan, dan selalu siap melakukan Quality Test untuk semua produk yang ditawarkan serta dapat melengkapi Sertifikat produk yang di jual.

PT. SINARDO PRATAMA
Jl. Gunung Sahari Selatan 
Komp. Mega Glodok Kemayoran Lt. GF Blok A11 No.2
Kemayoran, Jakarta Pusat
Telp     : 021 2913 5143
Fax      : 021 2913 5744
Marketing: Togi Rahmad
Mobile : 082122129193
Email     togirahmad@yahoo.co.id
Marketing:Martha
Mobile  :081385590755
Email    marthamanalu71@gmail.com

 
  ","
              Jl. Gunung Sahari Selatan Komp. Mega Glodok Kemayoran Lt. GF Blok A10 No.11Kemayoran, Jakarta PusatMartha Hp : 081385590755Togi Hp : 082122129193 ",Jakarta Pusat,DKI Jakarta,+62 821-2212-9193,None,None
"PT Mega Promosindo Telp : 081316710440, 021-88950650 ","
                                    PREMIUM GOLD
                                ",Kemasan Kertas,"
Mega Promosindo adalah group dari mega makmur sentosa perusahaan yang bergerak di bidang trading Percetakan, barang Promosi , Percetakan souvenir atau merchandise Seperti: Mug, Jam, Payung, USB Flash Disk, Power Bank, Pin, ID Card, Tas, Godie Bag, Topi, Kaos, Polo T-Shirt, Buku Agenda, Kalender dan masih banyak lagi produk lainya. Barang kami merupakan produk lokal dan impor yang memiliki keunikan tersendiri Mega Promosindo berdiri sejak tahun 2000 sehingga memiliki pengalaman yang cukup di bidang ini, dengan demikian kami dapat mensuplai barang-barang tepat waktu dengan harga bersaiang dan kualitas yang dapat diandalkan dengan dibantu tenaga kerja yang berpengalaman dan didukung mesin cetak yang cukup modern. Selain Percetakan perusahaan ini bergerak di bidang: Pabrik Kaos, Pabrik Jaket, Pabrik Topi, Pabrik Baju Olahraga, Pabrik Jeans, Pabrik Kaos Polo, Pabrik Polo Shirt, Konveksi Kaos, Konveksi Kaos Polo-Polo Shirt, Konveksi Jaket, Konveksi Celana, Konveksi Seragam ( uniform) , Konveksi Garment, Konveksi Jeans, Garment Seragam, Garment Kemeja, Garment Jaket, Garment Promosi Mengerjakan produksi untuk beraneka jenis pakaian di pabrik/ konveksi sendiri seperti: Seragam : Pakaian Seragam Kerja, Seragam Promosi, Seragam Karyawan, Pakaian Safety, Seragam Kantor, Seragam Lapangan, Seragam Cleaning Service, Seragam Security/ Satpam Pabrik, Pakaian Seragam Teknisi Pabrik, Baju Team Olahraga, Seragam Pemda ( PNS) , Seragam SPBU, Seragam Operator Pabrik, Kemeja: Kemeja Promosi, Kemeja Safety, Kemeja Formal, Kemeja kualitas Garmen, Kemeja F1, Kemeja Kantor, Kemeja Lapangan, Kemeja Reflector, Kemeja Tropical, Kemeja High Twist, Kemeja Safari, Kemeja PDH, Kemeja PDL, Kemeja Otomotif, Kemeja Pabrik, Polo Shirt: Polo Shirt Promosi, Polo Shirt Souvenir, Polo Shirt Golf, Polo Shirt Pique, Polo Shirt Merchandise, Polo Shirt kualitas Ekspor ( Export) , Polo Shirt Seragam, Polo Shirt kualitas Garmen, Polo Shirt Eksklusif, Polo Shirt Pabrik Jaket: Jaket Promosi, Jaket Semi Jas, Jacket Formal, Jaket Safety, Jaket Club, Jaket Casual, Jaket Olahraga, Jaket Polo, Jaket Balap, Jaket kualitas Ekspor ( Export) , Jaket Reflector ( Jaket tambang) , Jaket Loreng, Jaket Pabrik, Jaket Kerja, Jaket Lapangan, Jaket Double side, Jaket Micro Fibre, Jaket Parasit, Jaket Taslan, Jacket Waterproof, Jaket Cold Storage, Jaket fleece, Jacket sport, Jaket Training, Jaket Kontingen, Jaket Atlet, Jaket Almamater, Jaket Mahasiswa, Jaket Canvas, Jaket Kantor, Topi: Topi Promosi, Topi Souvenir, Topi Rimba, Topi Golf, Topi Eksklusif, Topi Pekerja Pabrik, Topi Instansi, Topi Laken Wol, Topi Canvas, Topi Raphel, Kaos T-Shirt: Kaos Oblong, Kaos Polo, Kaos Krah ( Wangki) , Kaos kualitas garmen, Kaos Katun ( cotton) , Kaos Pilkada, Kaos Promosi, Kaos Kampanye, Kaos Sablon, Konveksi Kaos Merchandise, Kaos Formula 1, Kaos olahraga, Kaos Souvenir, Pabrik Kaos murah, Kaos Loreng ABRI, Pabrik Kaos katun Carded, Konveksi Kaos T-Shirt Polos, Pabrik Kaos Bola, T Shirt Promosi, Pabrik Kaos Promo, Kaos Pabrik, Kaos Seragam, Kaos Seluler, Kaos Pariwisata, Kaos Komunitas, Kaos Order, Pesan Kaos, Produksi Kaos, Kaos Family Gathering, Pabrik Kaos PE, Kaos Hyget, Kaos Full Print, Kaos body fit, Kaos Pameran, Kaos Rohani, Kaos Kelas, Pabrik Kaos Bandung, Konveksi Kaos Wanita, Kaos Spandex, dsb. Celana Kerja, Celana PDL, Celana Formal, Celana Pabrik Rompi Promosi, Rompi Order, Tas Promosi, Konveksi Tas Seminar, Konveksi Tas Travel, Tas Pinggang, Baju Pabrik, Baju Wisuda, Baju Keki, Baju Safari, PDH ( Pakaian Dinas Harian) , PDL ( Pakaian Dinas Lapangan) , Konveksi Celana Jeans, Konveksi Kemeja Jeans, Konveksi Jaket Jeans, Pabrik Jeans, dsb, Dengan atribut sablon dan bordir komputer. Untuk kebutuhan Order Perusahaan, Rumah Sakit, Militer, Perusahaan Pertambangan ( Mining) , Team Olahraga, Garment, Pabrik- Pabrik, Perusahaan Produsen, Kantor, Dinas, dll. Sales Marketing : 081316710440 WA :08176454000 E-mail : sales@megapromosindo.com ","
              Kemayoran Jakarta Pusat            ",Jakarta Pusat,DKI Jakarta,+62 813-1671-0440,None,None
Acacia Grafika,"
                                    PREMIUM GOLD
                                ",Kemasan Kertas,"
              PERCETAKAN ACACIAPercetakan Acacia Grafika Offset Printing, Screen printing, Advertising & Promotion www.acacia.indonetwork.co.id E-mail: acacia_ grafika@yahoo.com, edi_sofian_s@yahoo.co.id Jl. Veteran II no 7 Gambir Jakarta PusatTelp 081316628204  Menerima: 1. Cetak buku 2. Poster 3. Kalender 4. Kartu nama 5. Kartu undangan 6. Brosur 7. Famlet 8. Box untuk kemasan obat, box makanan, 9. Stiker, dll Terima ongkos sablon: 1. Plastik, Balon 2. Tas kantong / shopping bag  Kami menyelenggarakan 1.Kursus sablon 2. Kursus percetakan. Hubungi: Edi Sofian Sanjaya Telp.:  Hp. 0813 1662 8204 www.acacia.indonetwork.co.id Email: edi_sofian_s@yahoo.co.id            ","
              PercetakanAcacia Grafika  Offset Printing, Screen printing, Advertising & Promotion www.acacia.indonetwork.co.id   E-mail: acacia_grafika@yahoo.comedi_sofian_s@yahoo.co.id Jl. Veteran II No 7 Gambir Jakarta Pusathp/wa; 0813 1662 8204            ","Gambir, Jakarta Pusat",DKI Jakarta,+62 813-1662-8204,None,None
PT. MAPLESONIC INDONESIA,"
                                    PREMIUM GOLD
                                ",Kemasan Kertas,"
PT.MAPLESONIC INDONESIAPT Maplesonic Indonesia berdiri sejak tahun 2008 , kami specialist di bidang Packaging dan Printing Marking Untuk Industrial .
VisiMenjadi Perusahaan Coding Printing & Packaging untuk semua kemasan produk baik material plastik, Metal, Karton Box, Kertas, Kaleng dll, yang terdepan denganmengedepankan efisensi cost kepada mitra bisnis kami dalam hal pemakaian rutin tinta /make up/ dan sparepartsMISI 1. Membangun hubungan kemitraan jangka panjang dengan mitra bisnis kami berlandaskan saling percaya dan menguntungkan 2. Memberi solusi kepada Mitra bisnis kami dalam mensupply mesin coding 3. Kepuasan pelanggan menjadi tujuan utama kami
Komitmen kami untuk After sales and Service
# One Day Respon 1 x 24 jam# Garansi back up Mesin# Profesional Technical Service # Saving Cost Advise solusi cerdas pemilihan produk yang sesuai
Office       :
Jl. Kamal Raya Outer Ring Road
Ruko Sedayu Square Blok A /21 
Cengkareng , Jakarta Barat 
11730 – Indonesia
Tel : (+6221) 22557548 / 29526078
Fax : (+6221) 29526078
WA  : 08151620321
E-mail : ptmaplesonic@gmail.com
      cs@maplesonic.com
  ","
              RUKO SEDAYU SQUARE Blok A. 21 Jl. Kamal Raya Outer Ring Road  CENGKARENGJakarta Barat             ",Jakarta Barat,DKI Jakarta,+62 812-1021-2221,None,None
UNIQUE CARPET & DECORATION,"
                                    PREMIUM GOLD
                                ",Kemasan Kertas,"
              Unique Carpet & Deco bergerak dalam bidang Distribusi dan pengerjaan proyek karpet & bahan Dekorasi / interior . Produk yang kami tawarkan seperti : 1. Handmade Natural Carpet ( Wooden Carpet, Natural Fiber Carpet) 2. Carpet roll / Carpet Tile 3. Wooden Flooring / Laminated Flooring Parquet - Vinyl Flooring 4. Wallpaper / Wallcovering 5. Vinyl Carpet, Carpet Tile, Carpet Pile 6. Carpet Industry 7. Handmade Acrylic/ Wool Carpet 8. Rumput Sintetis 9. Rubber Paving ( For Playground, Jogging Track) 10. PVC Placemat / Table mat 11. Window Blinds - Gordyn - Awning 12. Yoga Accessories 13. etc. Kami menerima pesanan secara retail maupun project. For More Information please contact us: UNIQUE CARPET & DECORATION Jl. Danau Sunter Utara Blok G.3 No 17 Sunter Agung – Jakarta Utara Telp: 021-6400584 – 085100313760 Fax : 021-6400584 Email : uniquecarpetdeco@ yahoo.com or a.uniquecarpet@ yahoo.com Website: www.uniquecarpetdeco.com Hp : 087770350275 / 081290225888 Pin BB : 5703AA0D Whatsapp : 087788286801 Carpet - Wall to wall Carpet - Tile Carpet - Event Vinyl Laminate - Flooring Anti-Fatigue & Doormat Artificial Grass Wallpaper Roller Blinds Vertical Blinds Horizontal Blinds Accessories Karpet project, Karpet Roll, Karpet tile, Karpet hand tufted custom, Karpet acrylic, Karpet karet, Karpet vinyl, Karpet kantor, Karpet hotel, Karpet restaurant, Karpet pameran, Karpet rumah, Karpet Ruang tidur, Karpet ruang tamu, Karpet dapur, Karpet gudang, Karpet pesawat, Karpet container, Karpet kapal ferry, Karpet karoseri, Karpet kereta api, Karpet bus, Karpet rumah sakit, Karpet mushola, Karpet lapangan olahraga Keset doormat, Keset nomad, Keset 3M, Keset mie / bihun, Keset anti slip Handmade natural carpet, Karpet natural, Karpet anyaman, Karpet sisal, Karpet serat, Karpet abaca, Karpet banana fiber, Karpet seagrass, Karpet wool, Karpet cotton, Karpet raffia, Parket kayu, Wooden parquet, Lantai kayu Rumput sintetis, Rumput plastik, Rumput pvc, Karpet rumput List kayu, List parket, List dinding, List vinyl, List pvc Wallpaper kantor / office, Wallpaper rumah , Wallpaper polos , Wallpaper motif, Wallpaper vinyl , Wallpaper nonwoven, Wallpaper bunga, Wallpaper kayu, Wallpaper batu , Wallpaper anyaman, Wallpaper korea, Wallpaper Sangetsu, Wallpaper Lily color, Wallpaper Exselect, Wallpaper Reserve 1000, Wallpaper fine 1000 Placemat pvc, Placemat anyaman, Placemat hotel, Placemat restoran, Placemat café Amenities hotel Gordyn , Krey, Vertical blind, Horizontal blind, Roman shade, Awning Yoga mat, Yoga towel, Yoga props, Yoga ball, Yoga block, Yoga clothing, Yoga accessories            ","
              Jl. Danau Sunter Utara Blok G 3 Kav No 17, Sunter Agung, Jakarta Utara 14350            ",Jakarta Utara,DKI Jakarta,+62 877-8828-6801,None,None
CV.CENTRAL ASIA TEKNIK,"
                                    PREMIUM GOLD
                                ",Kemasan Kertas,"
              Perusahaan dagang khusus alat2 teknik : Tools, Hardware, Heavy Duty, Machinery, Safety Equipment, Technical Supplier GENERAL SUPPLIER Distributor For STANLEY, Stanley Hand Tools, Stanley measuaring tools, Stanley laser tools, Q-Light, Stanley tools, SUN& RUN, SIMPLEX, YAMANOTE, JASON, SUN RUN, OPT, PANDA, HILTY, TECHWAY, HEYCO, RIDGID, TOKU, TEKIRO, TOMECO, ELORA, DEKKO, GEDORE, PROCUT, DeFelsko, ATA, BOSUN, FUJIYAMA, TOMECO, VESSEL, H& L, FLAG, PICUS, NETUREN, BULLOCK, MULTIPRO, SELLERY, MAKITA, BOSCH, MAKTEC, HITACHI, WEST LAKE, FIRMAN, TIGER, GENERAL, MISAKA, YAMAWA, YAMAMOTO, JIANG CHAI, ASTRAKOERA, MIKAWA, HONDA, MULTI EQUIPMENT, GreenPower, NOVELTEC. Perusahaan dagang khusus alat2 teknik : Tools, Hardware, COSMEC, REX, WEKA, MCC, Dragon, BALDUL.Aneka mesin Trafo las, Stabilizer, Genset, Pompa air, Pemadam api. Viking, Hoseky..dll atau kunjungi kami di http: / / indonetwork.co.id/ central_ asia_ teknik www.stanleytools.com ( Untuk PRoduct Stanley, Sebutkan no part nya untuk mengetahui harganya) NITTO, Delvo, MEDO, Tigon, ASADA, Hydrovane, Makishinko, Takeda, Nippon Sharyo, PACIFIC, AIRMAN, Sohken, GASBOY, HUSKY, FUKUDA, SMC , SHIYUAN, Swan, Starke. Serta alat2 konstruksi seperti Bar bender dan Bar Cutter buatan Jepang, Cina dan Korea            ","
              LTC Glodok Lantai GF 1 Blok B19 No.8Jl.Hayam Wuruk No.127JAKARTA BARAT            ",Jakarta,DKI Jakarta,+62 811-9958-228,None,None
CV. Orientasi Nusantara,"
                                    ANGGOTA BASIC
                                ",Kemasan Kertas,"
              CV Orientasi Nusantara bergerak bid.perdagangan umum..jasa/ proses pembuatan/ maklon herbal dlm bentuk teh celup, menyediakan peralatan/ perlengkapan yg diperlukan dlm usaha produksi teh celup herbal. kami juga menawarkan utk dpt menjadi bagian dari jaringan mitra pemasaran produk / agen kami. Kunjungi :
  orientasinusantaranews.blogspot.co.id   Atau 
  kantongtehceluporientasinusantara01.blogspot.co.id  https://youtu.be/o2BMA_wG-2g  https://youtu.be/EH3Y7n5fuoQ
 Whatsapp 0813 1638 0784   0877 2177 8320 ","
              Jl.Nangka growong 70 Kelapa dua wetan Ciracas Jak-Tim            ",Jakarta timur,DKI Jakarta,+62 813-1638-0784,None,None
