Name,Membership,Category,Description,Address,City,Province,telp1,telp2,telp3
CV. AIRMAS TEKNIK,"
                                    PREMIUM GOLD
                                ",Sewa Genset,"
CV. AIRMAS TEKNIK
PERUSAHAAN YANG BERDIRI SEJAK 12 NOVEMBER 2012 YANG BERGERAK DALAM BIDANG :

SUPPLY DIESEL GENSET SPAREPART
PANEL ELECTRIC
MAINTENANCE SERVICE MECHANICAL ELECTRIC
REPAIR AND REWINDING GENERATOR / INDUCTION MOTOR
SALE AND RENTAL DIESEL GENSET
JUAL BELI DAN SEWA UNIT GENSET

Supply Diesel Genset 10-1500 KVA, Untuk kebutuhan industri, proyek, gedung, rumah sakit, perhotelan, perkantoran, rumahan, restoran, cafe, kampus dan kebutuhan anda lainnya.Merk-merk genset yang kami supply adalah:

MITSUBISHI
CATERPILLAR
ISUZU
KOMATSU
DEUTZ
YANMAR
DENYO
KUBOTA
CUMMINS
MERCEDES BENZ
MWM
MAN
PERKINS
LOVOL
FOTON
-DLL.

CV. AIRMAS TEKNIK, MELAYANI PENJUALAN GENSET SECOND HAND DAN PEMBELIAN SEBAGAI BERIKUT 1. JUAL GENSET SECOND HAND CONDITION 80%2. SEWA GENSET UNTUK PROJECT 10-1500 KVA3. TERIMA TUKAR TAMBAH GENSET BEKAS, CAPACITY 10 KVA S/D 1500 KVA 4. TERIMA GENSET BEKAS BERCAPACITY MULAI DARI 10 KVA S/D 1500 KVA MELAYANI MAINTENANCE SERVICE BERKALA DAN OVER HAUL. - OVERHAUL - TOP OVERHAUL- GENERAL OVERHAUL - MAYOR OVERHAUL- SERVICE BERKALA INFORMASI LEBIH LANJUT DAPAT MENGHUBUNGI KAMI. Sebuah hubungan Business dapat berlangsung lama karena kepercayaan dari dua belah pihak, disini kami sebagai pihak seller, akan memenuhi semua kewajiban kami dengan sebaik-baiknya tanpa ada maksud sedikitpun untuk merugikan pihak buyers, karena kami percaya bahwa hubungan baik adalah kunci dari sebuah Business yang sukses.CV. AIRMAS TEKNIK MEMILIKI REKANAN DAN HUBUNGAN KERJA DENGAN BANYAK CLIENT YANG SAMPAI SEKARANG MASIH BERJALAN DENGAN ERAT. KARENA CV. AIRMAS TEKNIK MEMILIKI SDM YANG BERMUTU, KEPERCAYAAN DAN CAPABILITY YANG SELALU DIJAGA UNTUK MELAYANI CLIENT SEHINGGA JALINAN DAN HUBUNGAN KERJA TERUS BERLANGSUNGSebuah Kepercayaan dan Hubungan didalam bisnis akan tetap terjalin apabila pihak-pihak yang terlibat didalamnya bisa saling PERCAYA, MENJAGA dan PROFESIONAL. Salam Sejahtera, CV. AIRMAS TEKNIK            ","
              Jl. Raya Perancis No. 88A RT. 01/09 Kel. jatimulya, Kec. Kosambi, Kab. Tangerang            ",Kab. Tangerang,Banten,+62 812-9516-6610,None,None
PT Pantja Putra Mashindo,"
PREMIUM RUBY
",Sewa Genset,"
SELAMAT ANDA BERUNTUNG DATANG DIWEBSITE INI SEWA RENTAL SERVICE DIESEL GENERATOR SET / GENSET KAPASITAS 10 - 1000 KVA, RENTAL FORKLIFT DIESEL KAPASITAS 2.5 - 15 TON, RENTAL SEWA FORKLIFT BATTERY KAPASITAS 1-2.5 TON, RENTAL Air Compressor Baru - Bekas Ex ( Eks) Jepang 125 CFM, 175 CFM, 390 CFM, 655 CFM, 750 CFM -- Airman, Denyo, Atlas Copco. Air Compressor Bekas - Built Up Jepang. Juga tersedia High Pressure Air Compressor bertekanan tinggi sampai 20 Bar.  â€œ HADIR KAMI SOLUSI ANDA !  * Harga dengan KUALITAS * * Harga untuk semua PELANGGAN * * Harga dengan layanan PRIORITAS   supplai untuk wilayah: Jakarta, bogor, cirebon tangerang, bekasi, cibitung, cikarang, semarang, solo, yogyakarta, surabaya, bandung, subang, sumedang, sulawesi utara, barat, timur, selatan, kalimantan barat, kalimantan timur, kalimantan utara, dll  http: / / www.youtube.com/ watch? v= g6ZvYwp38cA  MENYEWAKAN / RENTAL GENSET SILENT OR OPEN KAP 20-1000 KVA VOLTASE : 110/ 220/ 380/ 440, 50/ 60 HZ Merk-merk Diesel Genset yang kami supply adalah: MITSUBISHI-ISUZU-YANMAR-DENYO- AIRMAN - KUBOTA-CUMMINS-MERCEDES BENZ-MWM-MAN-PERKINS-LOVOL-FOTON-DLL  https: / / www.youtube.com/ watch? v= 3RyFcD4R9EU  Air Compressor Baru - Bekas Ex ( Eks) Jepang 125 CFM, 175 CFM, 185 CFM, 390 CFM, 655 CFM, 750 CFM -- Airman, Denyo, Atlas Copco.  Hub :  081296161886 /081380001576/ WA 083870551617 Email : sugengparanto.pp@gmail.com / cvpantjaputra@gmail.com  ","
              Jl  An-nur No 106 Rt 005/ 012 Perwira,
Bekasi Utara, Perwira, Bekasi Utara, Kota Bks            ",bekasi,Jawa Barat,+81 3-8000-1576,None,None
