Name,Membership,Category,Description,Address,City,Province,telp1,telp2,telp3
CV. SAMUDERA TEKNIKINDO SELARAS,"
                                    PREMIUM GOLD
                                ",Service Generator,"
CV SAMUDERA TEKNIKINDO SELARAS merupakan perusahaan yang bergerak dibidang general trading (General Supplier) dengan 2 (dua) divisi yaitu Perbaikan / Maintenance machine Industri khusus Electrical dan Import product part machine. 
CV SAMUDERA TEKNIKINDO SELARAS memiliki kualitas yang handal dan harga yang sangat ekonomis dan cocok untuk industries dan semua pabrik manufacturing. Adapun merk yang kami supply, diantaranya : Omron, Mitutoyo, Keyence, Yokogawa, SMC, Nagano Keiki, Panasonic, Hanyoung, LG / LS, Fuji Electric, Mitsubishi, Hanyound, Yamatake / Azbil, Klar Stern, Taffware, Panasonic, Hitachi, Siemens, Emerson, Taiyo Parker, Sipik, Shinko, Idec, Sanyo Denki / Dyna Ace, NMB, Daito / Fanuc, NTN, THK, Swan, Oriental Motor, CDK, Luyang, Sick, Bando V-Belt, Yamamoto, Steins, dan masih banyak produk lainnya dari berbagai merk yang kami sediakan, mulai  dari China, Jepang, Taiwan, Korea dan Produk Europa lainnya.
Untuk informasi dan pemesanan silahkan hubungi kami :
CV SAMUDERA TEKNIKINDO SELARAS
Jl. Tarum Barat 2, Ruko Pasar Bersih B-7 (Pintu 11) Kawasan Industri Jababeka II, Jayamukti, Cikarang, Bekasi - Jawa Barat
Phone : 081287602917 // 081219415790 (Call / WA)
Tlp : +62 21 2945 3721 // +62 21 2945 3722
Email : samuderateknikindo@yahoo.com
Website : www.samuderateknikindo.co.id ","
              Office : Jl. Tarum Barat 2, Ruko Pasar Bersih B-7 (Pintu 11) Kawasan Industri Jababeka II, Jayamukti, Cikarang, Bekasi - Jawa Barat ",Cikarang,Jawa Barat,+62 812-1941-5790,None,None
MITZUI ENGINEERING SURABAYA,"
                                    PREMIUM GOLD
                                ",Service Generator,"
MITZUI ENGINEERING adalah perusahaan yang bergerak dibidang Maintenance/Service Cooling Tower, Pengadaan dan Pemasaran Spare parts dan Cooling Tower.MITZUI ENGINEERING dikelola oleh PT. TSUBAMA BERKAH INDONESIA dan berdiri sejak tahun 1985.  Segala macam Spare Part Cooling Tower yang dapat digunakan atau disesuaikan pada cooling tower dari berbagai merk dengan harga bersaing dan kwalitas terjamin, seperti :- Cooling Tower type Counter Flow dari merk-merk :Liang Chi, King Sun, Shinwa, Liang Ho, Hamon, Marley, Escher WeissBaltimore, Century, Tower Super, Jaya Cool dan Linear.  - Cooling Tower type Cross Flow dari merk â€“ merk :Hamon, Nihon Spindle, Marley, Liang Ho, Kuken, Liang Chi, Paharphore, dan Baltimore        - Filler Type :Untuk Filler Cooling Tower kami dapat sediakan berbagai macam motif dan ukuran sesuai dengan original dari berbagai merk Cooling Tower (Type Counter Flow maupun Type Cross Flow). Penyesuaian dapat dimodifikasi untuk kemudahan perawatan, yaitu :- Bahan dapat disesuaikan ( Ketebalan, Kegunaan dan warna Material)- Bentuk dan ukuran dapat disesuaikan.   Other Product :Selain Filler, MITZUI ENGINEERING menyediakan Spare Part Cooling Tower yang lain diantaranya :- Sprinkle Head (Aluminium Alloy)- Sprinkle Pipe (PVC)- Fan Blade (Aluminium Alloy)- Fan Stack & Fan Deck (FRP)- Casing Body (FRP)- Inlet Louver (PVC)- Reparation of Gear Reducer/Speed ReducerMITZUI ENGINEERING  juga dapat melakukan Rekondisi Cooling Tower dengan Struktur Kayu, Fiberglass dan HDGS. Untuk kayu kami berikan jenisnya sesuai dengan kebutuhan.MITZUI ENGINEERING Alamat Workshop :PERUMAHAN MAKARYA BINANGUN, JL. DEWI SARTIKA BARAT VI BLOK C NO.6 WARU - SIDOARJO Alamat Office :PERUMAHAN MAKARYA BINANGUN, JL. DEWI SARTIKA BARAT III BLOK G NO.4 WARU - SIDOARJOTelp : 03185585035 Contact Person :IndartoWA : 082141846356  Call : 081217879043 ","
              PERUMAHAN MAKARYA BINANGUNJL. DEWI SARTIKA BARAT III BLOK G NO.4  WARU - SIDOARJO ",Surabaya,Jawa Timur,+62 821-4184-6356,None,None
CV. MULYA SCALE,"
                                    PREMIUM GOLD
                                ",Service Generator,"
              Perusahaan kami bergerak dalam bidang Spesialist Industri, Import, Supply dan Jasa Service Timbangan Elektronik / Digital untuk semua merk dan type Timbangan Digital / Truck Scale / Jembatan Timbang dengan berbagai macam merk, type dan kapasitas, Kami menjual berbagai macam dan merk Timbangan, Indikator dan Load Cell dari kapasitas kecil ( Lab) sampai besar ( Jembatan Timbang) sesuai dengan kebutuhan Industri. Kami juga melayani service / repair timbangan berbagai merk dan berbagai kapasitas terutama JEMBATAN TIMBANG. Dengan didukung oleh tenaga professional yang spesialis dan berpengalaman di bidang timbangan. Kami akan memberikan pelayanan dengan baik, Pengalaman kami telah terbukti dalam hal pelayanan customer, baik di kota Surabaya, Jawa Timur, dan kota besar lainnya di seluruh Indone 1. Timbangan Laboratory : Analytical Balance, Balance Scale, Micro Balance 2. Timbangan Produksi : Simple Weighing, Counting Scale, Pricing Scale 3. Timbangan Produksi : Platform Bench Scale, Hybrid Scale, Pallet Scale 4. Timbangan Gudang : Floor Scale, Crane Scale, Forklift Scale 5. Timbangan Truk : Pitless Type, Pit Type, Shallow Pit Type 6. Timbangan Sistim : Batching Scale, Hopper Scale, Filling Scale 7. Timbangan Mesin : Conveyors Scale, Check Weighing, Tank Scale 8. Part : Loadcell, Indicator, Juction Box, Extenal Display 9. Aksesoris : Mounting, Software, Printer 10. Dan Lain - Lain Menjual / Menerima SErvice / Tera segala merkTimbangan, Indikator serta loadcell dari kapasitas sampai besar( timbangan laborat sampai jembatan timbang) . AND - HOSSE-L - ZEMIC - AVERY - SONIC - EXCELLENT - GSC - CAS - UScell - GREAT SCALE - KELI - KUBOTA - CELTRON - PT - TEDEA - GRAINS - PRESICA - UWE - CARDINAL - HBM - VISHAY - USCELL - VMC - TOLEDO - SARTORIUS DLL HARGA BERSAING...BUKTIKAN ! ! ! ! ! ! CV. MULYA SCALE JL. LARANGAN KENJERAN SURABAYA 085100848948 - 081231634657 EMAIL : mulyascale@yahoo.co.ikd            ","
              Jl. Larangan III/22 - KENJERAN - SURABAYA            ",SURABAYA,Jawa Timur,+62 812-3163-4657,None,None
