Name,Membership,Category,Description,Address,City,Province,telp1,telp2,telp3
PT. TRIPUTRA JAYA MAKMUR,"
PREMIUM RUBY
",Sewa Alat Berat,"
PT. TRIPUTRA JAYA MAKMUR General Supplier, Contractor & Sub-Contractor Sipil- Arsitektur - Mekanikal & Elektrikal. 
Mulai berkarya dalam bidang Perdagangan umum barang & Jasa untuk melayani infrastruktur di Kalimantan Timur sejak tahun 2005, berawal dengan nama CV. TRIPUTRA JAYA MAKMUR diresmikan pada tahun 2015 oleh Notaris Samarinda. Kemudian pada Tahun 2020, mendirikan perusahaan PT. TRIPUTRA JAYA MAKMUR.Kami menawarkan Jasa Kontraktor & Sub-kontraktor khusus wilayah Kalimantan dengan keterangan pekerjaan sebagai berikut :ARSITEKTUR 

Perumahan tunggal dan Koppel serta perawatannya.
Perumahan multi hunian beserta perawatannya.
Bangunan pergudangan dan industry beserta perawatannya
Bangunan komersial beserta perawatannya.
Bangunan non perumahan serta perawatannya.
Fasilitas pelatihan sport di luar gedung, tempat rekreasi serta perawatannya.
Pertamanan serta perawatannya.
Pemasangan aksesoris bangunan serta perawatannya.
Pekerjaan dinding dan jendela serta perawatannya.
Pekerjaan interior termasuk perawatannya.
Pengerjaan logam.
Pengerjaan kayu.
Pengerjaan bangunan dan gedung.
Pengerjaan Kaca & Aluminium.
Pengerjaan Aluminium Composite Panel

ELEKTRIKAL

Pembangkit tenaga listrik semua daya beserata perawatannya.
Pembangkit tenaga listrik dengan daya maksimal 10MW beserta perawatannya.
Jaringan transmisi tenaga listrik baru dan terbarukan beserta perawatannya.
Jaringan transmisi tenaga listrik tegangan tinggi dan ekstra tegangan.
Jaringan transmisi telekomunikasi serta perawatannya.
Instalasi kontrol dan instrumentasi serta perawatannya.
Instalasi listrik gedung dan pabrik serta perawatannya.
Instalasi listrik lainnya serta perawatannya.

 MEKANIKAL

Instalasi pemanasan, ventilasi udara dan AC serta perawatannya.
Perpipaan air dalam bangunan serta perawatannya.
Instalasi pipa gas dalam bangunan serta perawatannya.
Insulasi dalam bangunan serta perawatannya.
Instalasi lift dan escalator serta perawatannya.
Pertambangan dan manufaktur serta perawatannya.
Instalasi thermal, bertekanan, minyak, gas, pekerjaan rekayasa serta perawatannya.
Konstruksi alat angkut dan alat angkat serta perawatannya.
Konstruksi perpipaan minyak, gas, dan energy serta perawatannya.
Fasilitas produksi penyimpanan minyak dan gas serta perawatannya.
Jasa penyedia peralatan konstruksi.

 PEKERJAAN SIPIL

Jalan raya dan jalan lingkungan serta perawatannya.
Lapangan terbang dan runway serta perawatannya.
Jembatan serta perawatannya.
Terowongan serta perawatannya.
Jalan bawah tanah serta perawatannya.
Pelabuhan dan dermaga serta perawatannya.
Drainase kota serta perawatannya.
Bendungan serta perawatannya.
Irigasi dan drainase serta perawatannya.
Pengerukan dan pengurukan serta perawatannya.
Pekerjaan penghancuran.
Pekerjaan penyiapan dan pengupasan lahan.
Pekerjaan penggalian dan pemindahan.
Pekerjaan pemancangan.
Pekerjaan pondasi.
Pekerjaan kerangka atap serta perawatannya.
Pekerjaan pembetonan.
Pekerjaan konstruksi baja serta perawatannya.
Pekerja pelaksana khusus lainnya.

Untuk informasi lebih jelas, hubungi Marketing kami. Email : triputrajayamakmurindonesia@yahoo.com
  ","
              Head Office :Panin Tower 8th Floor Jl. Jenderal Sudirman No.7 Klandasan Ilir, Balikpapan.Branch Office :Jl. Brigjend Katamso No. 2A Samarinda. ", ,Kalimantan Timur,+62 858-4906-8419,+62 831-5376-6410,None
KARYA UTAMA JAYATEKNIK,"
                                    PREMIUM GOLD
                                ",Sewa Alat Berat,"
              Perusahaan kami menyediakan produk seperti :PneumaticHydraulic systemPerancangan dan fabrikasi peralatan industriScissor liftTable liftLoading dockJig fixturesUntuk informasi lainnya bisa hubungi kami            ","
              Jl. Raya kota Legenda No.78 Grandwisata, Tambun Selatan - Bekasi            ",Kabupaten Bekasi,Jawa Barat,+62 816-1478-543,None,None
CV. Artha Kharisma,"
PREMIUM BLUE ONYX
",Sewa Alat Berat,"
Artha Kharisma adalah sebuah perusahaan yang bergerak di bidang jual beli dan jasa rental alat berat seperti Excavator, Bulldozer, Grader, Loader, Truck, Vibro, Crane, dan Truck. Semua alat berat kami sediakan dalam keadaan sehat dan siap untuk digunakan. Selain itu kami juga menyediakan berbagai tipe dan merk alat berat seperti Komatsu, Kobelco, Hitachi, Caterpillar, Sakai, Mitsubishi, Zoomlion, dan Kato. Untuk info lebih lanjut mengenai unit kami bisa langsung mengunjungi workshop kami di Jalan Sidotopo Kidul 61 Surabaya (Artha Kharisma) atau hubungi WA Kami di 0813-3181-2666 (Ibu Vivi) ","
              Jl. Sidotopo Kidul 61 Surabaya            ",Surabaya,Jawa Timur,+62 813-3181-2666,None,None
BENGKEL BUBUT LESTARI,"
                                    PREMIUM GOLD
                                ",Sewa Alat Berat,"
              Salam kenal dan salam sukses,perkenalkan perusahaan kami BENGKEL BUBUT LESTARI. Kami berdiri sejak 1998 di jl.H.Juhri.Rt010.Rw.04.No 28 B. Meruya selatan. Kembangan. Jakarta Barat. Ber awal dari menangani tehnik perbaikan, produksi,fabrikasi alat alat tehnik di antaranya korter,slyp kruk as ,sitting valve,lemboring knoken shaft terus berkembang hingga pengecoran logam,produksi hydrand pillar,pembuatan adjustable bekisting untuk pengecoran landas pacu bandara di timika papua. Kami terus mengembangkan tehnik tehnik di segala bidang dan mumpuni dalam meracik logam hingga dapat membuat spare part yang berkualitas tinggi.       Seiring perkembangan dan permintaan akan dukungan pekerjaan bubut maka kami sampai pada pekerjaan pekerjaan pada sektor alat alat konstruksi. Di sinilah kami menemukan tantangan yang kami anggap mewakili jiwa kami yang sangat dinamis dan berkomitmen. Adapun selana kami menangani alat alat konstruksi kami sudah banyak menangani banyak hal, di antaranya adalah pembuatan spare part Tower crane, passanger hoist,bar cutter,bar bender,vibrator,anchor hingga pembuatan bucket cor.       Dalam urusan bekerja sama kami juga telah banyak menjalin kerja sama dengan perusahaan perusahaan beken semisal Pt Takenaka indonesia, Pt Wijaya Kusuma Contractors, Pt Catur Bangun Mandiri, Pt PP Taisei, Pt Jaya Konstruksi dll hingga sub kontraktor lainya.Untuk itu kami sangat berkomitment pada bidang ini hingga kami saat ini sudah mengembangkan diri pafa sektor sewa,servis,jual dan beli alat alat konstruksi di antaranya: BAR CUTTER. BAR BENDER. CONCRETE VIBRATOR. BUCKET COR. GENSET. COMPRESSOR. ,dll       Untuk informasi lebih lanjut hubungi Nardi.WA : 081311082146LINE : 087883636105BB : 57BC4DF2Email : cutbenrent17@gmail.comBLOG : bubutlestari.blogspot.co.id            ","
              Jl.H.Juhri.Rt 010. Rw 04. No 29 B. Meruya selatan. Kembangan. Jakarta barat            ",DKI Jakarta,DKI Jakarta,+62 813-1108-2146,None,None
BEJO REJO BANGKIT JAYA,"
                                    PREMIUM GOLD
                                ",Sewa Alat Berat,"
              PT. BEJO REJO BANGKIT JAYA merupakan Perusahaan Jual / Beli / Sewa Concrete Pump, alat berat, heavy equipment di Jakarta - Indonesia. CONCRETE PUMP / POMPA BETON : disini kami untuk concrete pump menyediakan berbagai macam tipe sesuai kebutuhan anda, ada concrete pump mini, concrete pump standa ( 18 meter ) concrete pump long boom ( 26 meter ) , concrete pump super long boom ( 32 - 37 meter) dan juga ada concrete pump portable atau biasa di sebut pompa kodok/ stationary, pompa portable sendiri kegunaanya untuik pengecoran dengan ketinggian dan jarak yang sudah tidak bisa di lakukan oleh concrete pump mobile. Sewa Concrete Pump Jual Concrete Pump Beli Concrete Pump Rental Concrete Pump Jasa Concrete Pump Sewa Heavy Equipment Jual Heavy Equipment Beli Heavy Equipment Rental Heavy Equipment Heavy Equipment Rental Pump Jasa Heavy EquipmentUntuk informasi lebih lanjut silahkan hubungi : Bpk. Hermanto / Bpk Darma Hp : 08129107773 Hp : 0818124645            ","
              DAAN MOGOT KM.17- NO. 38 (KALIDERES)            ",JAKARTA BARAT,DKI Jakarta,+62 818-124-645,None,None
