Name,Membership,Category,Description,Address,City,Province,telp1,telp2,telp3
CV Bangkit Jaya Sealindo,"
PREMIUM RUBY
",Buldozer & Excavator,"
              CV Bangkit Jaya Sealindo adalah suppier Mechanical Seal yang sudah berpengalaman dalam dunia ini.Kami spesialis dalam pembuatan MECHANICAL SEAL dan Seal custom lainnya, dapat membuat Mechanical Saeal / Seal sesuai contoh dan sesuai request yang diinginkan.            ","
              Komplek Ruko Kosambi Megah Blok A/34 kelurahan Jati Mulya Kecamatan kosambi kabupaten Tanggerang Banten 15211            ",Tanggerang,Banten,+81 3-5300-5500,None,None
PT Banyoe Atika Mandiri,"
                                    PREMIUM GOLD
                                ",Buldozer & Excavator,"
              Perusahaan Kami bergerak di bidang Industri Pengecoran logam :Kami Jual atau Supplier, cast iron, aluminium, kuningan dan stainless steel. Produk - produk yang di hasilkan di antaranya : manhole, grill, greating, dack drain, roof drain, floor drain, Grease Trap, dan juga Perusahaan Kami siap menerima pesanan khusus, dengan harga bersaing. Hubungi Kami : m : + 628118833662t : + 6221-22524647 f : + 6221-22524541 e : info@banyoe.co.id            ","
              RUKAN CBD BLOK C NO.75A GREEND LAKE CITY            ",Tangerang,Banten,+62 811-8833-662,None,None
CV. Artha Kharisma,"
PREMIUM BLUE ONYX
",Buldozer & Excavator,"
Artha Kharisma adalah sebuah perusahaan yang bergerak di bidang jual beli dan jasa rental alat berat seperti Excavator, Bulldozer, Grader, Loader, Truck, Vibro, Crane, dan Truck. Semua alat berat kami sediakan dalam keadaan sehat dan siap untuk digunakan. Selain itu kami juga menyediakan berbagai tipe dan merk alat berat seperti Komatsu, Kobelco, Hitachi, Caterpillar, Sakai, Mitsubishi, Zoomlion, dan Kato. Untuk info lebih lanjut mengenai unit kami bisa langsung mengunjungi workshop kami di Jalan Sidotopo Kidul 61 Surabaya (Artha Kharisma) atau hubungi WA Kami di 0813-3181-2666 (Ibu Vivi) ","
              Jl. Sidotopo Kidul 61 Surabaya            ",Surabaya,Jawa Timur,+62 813-3181-2666,None,None
PT. Rajawali Trans Logistic,"
                                    PREMIUM GOLD
                                ",Buldozer & Excavator,"
PT RAJAWALI TRANS LOGISTICS adalah Perusahaan pengiriman barang domestik swasta yang telah berdiri dan berpengalaman lebih dari 5 tahun. Sebagai penyedia jasa pengiriman barang yang berpengalaman, kami memberikan solusi total rantai pasokan untuk kebutuhan logistik dan manajemen pengiriman (mis. Layanan Door to Door, Pengangkutan, dokumen Pengiriman Barang, dll.)
 
Kami menawarkan semua jenis layanan pengiriman barang di Indonesia, serta transportasi laut internasional. Kami menawarkan solusi transportasi yang disesuaikan dengan kebutuhan dengan harga pasar yang kompetitif. Kepuasan pelanggan adalah prioritas utama kami, kami sangat berkomitmen untuk mencakup seluruh rantai pasokan dengan solusi pengiriman yang dipersonalisasi dan hemat biaya. Kami memastikan bahwa barang Anda sampai di tujuan dengan aman dan dengan harga terbaik. Semuanya diatur oleh tim profesional bermotivasi tinggi dengan latar belakang logistik yang luas. Jadi jika Anda berencana untuk mengekspor atau mengimpor barang dan sedang mencari perusahaan ekspedisi dengan pengalaman dan pengetahuan yang luas tentang peraturan bea cukai di Indonesia, jangan ragu untuk menghubungi kami untuk membantu Anda dalam operasi logistik.
 

TIM KITA
Di PT RAJAWALI TRANS LOGISTICS, kami selalu bekerja dengan hati-hati dalam memilih pribadi yang tepat, berpengalaman, dan sangat terlatih untuk mengelola dan menangani bisnis Anda dengan benar.
 
PENGLIHATAN
Menjadi perusahaan jasa pengiriman dan logistik multinasional di Indonesia.
 
MISI
Membantu pelanggan dalam mengirimkan barang dengan layanan yang sangat baik dan tepat waktu. Dipenuhi dengan tenaga manusia yang andal, transportasi unit tepat waktu, dan harga terjangkau.
 
TAGLINE
‚Äú KEPUASAN PELANGGAN ADALAH HARGA TETAP ‚Äù
 
 
JASA
- Door To Door Project Cargo
- Kargo umum
- Wadah
- Kargo Proyek (mis. Minyak & Gas, Infrastruktur, Proyek Pipa, Semen, dll.)
- Heavylifts dan Turnkey Projects
- Izin Kustom
- Shore Crane, Forklift, dan Unit Medis Lainnya
- Bongkar muat
 
PELANGGAN KAMI
- WIJAYA KARYA, TBK.
- WIKA BETON, TBK.
- ADHI KARYA, TBK.
- WASKITA KARYA, TBK.
- ADHIMIX PRECAST INDONESIA
- STEEL PIPE INDUSTRY INDONESIA (SPINDO)
- PETROWOOD BANGUN MANDIRI
- PENGIRIMAN ADITYA ARYAPRAWIRA
- LAYANAN PEROLEUM HUABEI
- DLL
 
HUBUNGI KAMI
- Jln. Perak Barat No. 171 Surabaya
- (031) 3288-7007-10 / 0813-3250-5800
- rajawalilogistic@gmail.com ","
              KANTOR PUSAT (SURABAYA)üìç Jln. Perak Barat No. 171 SurabayaPHONE / WHATSAPP‚òéÔ∏è 0813-3250-5800‚Äî            ",SURABAYA,Jawa Timur,+62 813-3250-5800,None,None
PT. ARISCO MANDIRI,"
PREMIUM RUBY
",Buldozer & Excavator,"
              Arisco menjual sparepart Komatsu, spareparts alat berat, jual komponen alat-alat berat seperti unit Komatsu Excavator. Komatsu Bulldozer, Komatsu Motorgrader, Komatsu Dump Truck, Komatsu Wheel Loader, dll. kami adalah distributor / stockist untuk pengadaan spare parts spareparts Komatsu seperti unit spareparts excavator, spareparts bulldozer, spareparts motorgrader, spareparts dumptruck, spareparts wheel loader, dan barang yang ditawarkan meliputi sparepart merk asli, sparepart genuine komatsu, sparepart oem komatsu, sparepart non genuine komatsu, sparepart replacement komatsu, untuk tipe unit komatsu meliputi :Excavator : PC75UU-2 PC78US-5 PC100-3 PC100-5 PC100-6 PC200-3 PC200-5 PC200-6 ( engine komatsu) PC200-6 ( engine cummins) PC200-7 PC200-8 PC300-5 PC300-6 PC300-7 PC300-8 PC350-6 PC350-7 PC350-8 PC400-5 PC400-6 PC400-7 PC400-8 PC410 PC450-7 PC450-8 PC800-7 PC1000 PC1250-7 PC1250-8RBulldozer : D31P D31P-18 D31PX-21 D31EX-21 D60E-8 D61EX-12 D61PX-12 D65E-8 D65EX-12 D65PC-12 D70LE D85ESS-2 D155A-1 D155A-2 D155A-3 D155A-5 D155A-6 D375A-2 D375A-3 D375A-5 D375A-6Motorgrader : GD200 GD300 GD400 GD405A-1 GD505A-2 GD510R-1 GD511A-1 GD600 GD605 GD625 GD705A-4Dump Truck : HD200 HD205 HD320 HD325-5 HD325-6 HD325-7R HD465-5 HD465-7 HD465-7R HD605-7 HD785-5 HD785-7 HM350 HM400 HM400-2RWheel Loader : WA100 WA120 WA120-3 WA180-1 WA180-3 WA200 WA200-3 WA250 WA250-3 WA300 WA300-3 WA320 WA320-3 WA350-3 WA380 WA380-3 WA400 WA420-1 WA420-3 WA470-3 WA500-1 WA500-3 WA600-1 WA600-3 WA700 WA800Merek unit specialist di pengadaan spareparts KOMATSU, untuk unit lainnya seperti jual Spareparts PERKINS, jual Spareparts YANMAR, jual Spareparts CATERPILLAR, jual Spareparts KOBELCO, jual Spareparts VOLVO.Dan untuk FORKLIFT merek KOMATSU, Spareparts TCM, Spareparts TOYOTA, Spareparts PATRIA. Berikut kategori product list untuk sparepart umum yang dijual. Dan tersedia untuk barang2 GENUINE, OEM atau Replacement Parts.Tipe Product yang kita jual sbb:‚Ä¢ ENGINE ( CRANKSHAFT - PISTON - RING PISTON - METAL SET - CON ROD[ STANG PISTON] - dll )‚Ä¢ TURBOCHARGER ( GARRET - HOLSET - IHI - SCWITHZER)‚Ä¢ MAIN PUMP ASS‚Äô Y‚Ä¢ FUEL INJECTION PUMP / CONTROL VALVE‚Ä¢ WATER PUMP‚Ä¢ GASKET KIT ( OVERHAUL )‚Ä¢ SERVICE KIT ( BOOM - BUCKET - ARM - HOIST ) / SEAL KIT / O-RING KIT‚Ä¢ OIL / FUEL FILTER / COROSION RESIST / WATER SEPARTOR‚Ä¢ UNDERCARIGE ( TRACK SHOE - IDLER - ROLLER - TRACK LINK - SPROCKET - TOOTH - dll )‚Ä¢ BEARING ( NTN - NSK - TIMKEN - SKF - dll )‚Ä¢ ELECTRIC ( CONTROL PANEL - WIRE HARNESS - SOLENOID - SWITCH - dll )‚Ä¢ ALTERNATOR / STARTING MOTOR / MOTOR GASHarga yang kami tawarkan sangatlah kompetitif. Untuk info lebih lanjut bisa menghubungi kami langsung.            ","
              Taman Sari Raya Komp. Ruko 56 no.91Jakarta Barat            ",Jakarta Barat,DKI Jakarta,+62 878-2851-4000,None,None
PT. Bina Pertiwi,"
PREMIUM BLUE ONYX
",Buldozer & Excavator,"
PT BINA PERTIWICALL : 082116688533 / 081219572050 (WA)PT Bina Pertiwi (BP) didirikan pada 15 November 1976, fokus di bidang Agriculture, Material handling, Power and Energy, dan Construction. Dimiliki sepenuhnya oleh PT United Tractors Tbk (UT) yang juga merupakan bagian dari PT Astra Internasional, Tbk. Serta didukung oleh karyawan yang berkompeten dan tim manajemen yang solid, kami hadir di seluruh Indonesia melalui kantor cabang dan perwakilan yang siap melayani anda.
 
Bina Pertiwi selalu berusaha memberikan pelayanan terbaik dengan meningkatkan jangkauan dan kemampuan untuk memenuhi permintaan pelanggan melalui ketersediaan suku cadang, jasa perbaikan dan jasa perawatan yang ditangani oleh mekanik yang bersertifikat serta dilengkapi dengan pelatihan operator.
 
Bina Pertiwi juga memiliki komitmen untuk terus melakukan perbaikan demi memberikan solusi terbaik bagi para pelanggan.PT Bina PertiwiJl. Raya Bekasi KM. 22, Jakarta 13910PIC : CHRIS HP : 081219572050 / 082116688533 ","
              Jl. Raya Bekasi KM. 22, Jakarta 13910            ",Jakarta Timur,DKI Jakarta,+62 812-1957-2050,None,None
PD MULTI PARTINDO JAYA,"
                                    PREMIUM GOLD
                                ",Buldozer & Excavator,"
              Perusahaan kami bergerak di bidang penjualan spare part alat berat, genset serta engine marine. Dimana kami menjual spare part untuk segala engine Caterpillar, Cummins, Komatsu, Nissan, Mitsubishi, Kobelco, Hitachi, Bomag dll. Kami juga menyediakan teknikal supplay untuk Perusahaan yang membutuhkan jasa reparasi engine. Dimana mekanik kami sudah sangat berpengalaman dalam bidang tersebut. Kami tidak memberikan janji dalam bekerjasama, tapi kami memberikan bukti dan service yang selayaknya di dapat oleh pelanggan pelanggan kami. Untuk perhatiannya kami ucapkan terima kasih.            ","
              Jl. karang Anyar Raya, komp Ruko Karang Anyar Permai 55 Blok B1 No. 43Jakarta Pusat             ",Jakarta Barat,DKI Jakarta,+62 812-1945-7221,None,None
PT.NUSANTARA SENTRAL TEKNOTAMA,"
                                    PREMIUM GOLD
                                ",Buldozer & Excavator,"
Jual : Undercarriage, Sparepart Alat Berat , Sparepart Truck , Sparepart Forklift ,Sparepart Genset  Di Jakarta. 
Jual Spare part Alat Berat Komatsu , Caterpillar , Kobelco , Hitachi , Hyundai , Volvo
Excavator PC40 , PC45 , PC50 , PC75 , PC130F-7 , PC200-5 , PC200-6 , PC200 -7 , PC200-8 ,PC200-8MO ,PC300-6 ,PC300-7 , PC300-8 , PC400-7 , PC400-8 , CAT320 , CAT320B , CAT320C , CAT320D , CAT320D-2 ,ZX48 , ZX110 , ZX210F , ZX200-5G , ZX330 , EX200-3 , EX200-5 , SK200-6 , SK200-8 , SK330-8 , SK480LC-8 , R210-7 , R210-9 , R220-7 , R220-9 , SH130 , SH210 , EC210.
Dozer D85ESS-2,D65ESS-2,D65PX-8,D31P-20,D6D,D6G,D3C,D4K,D6R,D7G,D5R.
Motor Grader GD510A-1, GD511A-1, GD405, CAT 120K, CAT 140H.
Wheel Loader WA100-6 , WA150-5 , WA200 , WA300, WA400-8, WA500.Jual Spare part ForkliftForklift Komatsu , Forklift Caterpillar , Forklift TCM , Forklift Toyota , Forklift Mitsubishi , Forklift Nissan.Jual Spare part GensetGenset Perkin , Genset Yanmar , Genset Cummin , Genset Firman , Genset Dongfeng , Genset Kubota.www.spareparthitachinst.comwww.sparepartKomatsunst.comwww.sparepartCaterpillarnst.comwww.sparepartKobelconst.comwww.sparepartHyundainst.comwww.sparepartsumitomonst.comwww.sparepartvolvonst.comwww.agensparepartnst.comwww.sparepartalatberatnst.comwww.jualsparepart.co.id ","
              Jalan Karang Anyer Raya Komplek ruko 55 Blok. B1 No.32            ",Jakarta Pusat,DKI Jakarta,+62 812-9888-8228,None,None
BEJO REJO BANGKIT JAYA,"
                                    PREMIUM GOLD
                                ",Buldozer & Excavator,"
              PT. BEJO REJO BANGKIT JAYA merupakan Perusahaan Jual / Beli / Sewa Concrete Pump, alat berat, heavy equipment di Jakarta - Indonesia. CONCRETE PUMP / POMPA BETON : disini kami untuk concrete pump menyediakan berbagai macam tipe sesuai kebutuhan anda, ada concrete pump mini, concrete pump standa ( 18 meter ) concrete pump long boom ( 26 meter ) , concrete pump super long boom ( 32 - 37 meter) dan juga ada concrete pump portable atau biasa di sebut pompa kodok/ stationary, pompa portable sendiri kegunaanya untuik pengecoran dengan ketinggian dan jarak yang sudah tidak bisa di lakukan oleh concrete pump mobile. Sewa Concrete Pump Jual Concrete Pump Beli Concrete Pump Rental Concrete Pump Jasa Concrete Pump Sewa Heavy Equipment Jual Heavy Equipment Beli Heavy Equipment Rental Heavy Equipment Heavy Equipment Rental Pump Jasa Heavy EquipmentUntuk informasi lebih lanjut silahkan hubungi : Bpk. Hermanto / Bpk Darma Hp : 08129107773 Hp : 0818124645            ","
              DAAN MOGOT KM.17- NO. 38 (KALIDERES)            ",JAKARTA BARAT,DKI Jakarta,+62 818-124-645,None,None
pt.inti karya karisma,"
                                    PREMIUM GOLD
                                ",Buldozer & Excavator,"
              PT.INTI KARYA KARISMA adalah suatu perusahaan dagang yang berkembang sangat pesat, khususnya dalam bidang penyediaan barang dan alat - alat untuk kebutuhan industri yang ada di Indonesia, meliputi bidang Valev - Valev, Automation System dan Electrical Components Seperti : PNEUMATIC & HYDRAULICS : SMC, KOGANEI, CKD, KURODA, TAIYO, TACO, ROSS, AIRTAC, TOYOOKI, AUTOGIKEN, DAIKIN, UCHIDA, YUKEN, NOK F- TEC, FUJIKURA, JUNRON, MARUHA, NACHI, SHINDENGEN, MAC, ERACON ( NEW ERA ) PISCO, KONDOH, FOTEK, CHANTO, PNEUMAX, SANG- A, MAC, NUMATICS, MYOTOKU, AURORA CONVUM, KONAN, FUJI SEIKI, KINGSTON, JUNRON, KCC, YPC, BIMBA, FABCO- AIR Etc. CLUTCH & BRAKE ELECTROMAGNETIC : OGURA, SHINKO, OSAKI DENGYOSA, SUNTES, MITSUBISHI, AIRFLEK, PLANOX, MIKKI PULLEY, STROMAG, GUMMI, FAWICK, EATON, AUTOGARD, STEARN, ORTLINGHAUS, SIME, BINDER, COREMO, ANTEC, PINTS BAMAG, WARNER, MAYR, AIR CHAMP ELECTRIC & MOTOR : MITSUBISHI, YASKAWA, FUJI ELECTRIC, HITACHI, TOSHIBA, NIKKI DENSO, TSUKASA, TAMAGAWA SEIKI, NISSEI, OGURA, OMRON, RORZE, SANYO DENKI, SAWAMURA, TAMAGAWA SEIKI, ORIENTAL, VEXTA, PANASONIC, YAMATAKE, SHINKO, SHIMPO, NIDEC, MIKI PULLEY, ITOH, MAKISHINKO, TSUBAKI, PATLITE, USHIO, IDEC IZUMI, HANYOUNG, PHILIPS, OSRAM, TOYO FAN, TDK, KOINO, ALPS, NIKKAI ( NKK ) SENSOR & CONTROLS : OMRON, SUNX, SHINKO, KEYENCE, RIKEN, NATIONAL, YAMATAKE, SEEKA, HONEYWELL, IFM, KOYO, EUROTHERM, PEPPERL+ FUCHS, BALLUFF, PILZ, SICK, TURCK, DATASENSOR, TAKENAKA, IDEC IZUMI, KOINO, TOYO , NIPPON AUTOMATION POWER SUPPLIES : COSEL, NEMIC LAMBDA, OMRON, MATSUSHITA, MEAN WELL, ASTEC, MURR, SPELLMAN, ZENTRO, XP Power Supplies COOLANT PUMP : MITSUBISHI, NIPPON OIL PUMP, FUJI ELECTRIC, TERAL TROCHOID PUMP : NIPPON OIL PUMP, FUJI, MITSUBISHI BEARING : THK, IKO, NSK, NB, NMB, EZO, KURODA, SAMICK, HIWIN, NTN Etc TEMPERATURE CONTROL : RKC, TOHO, SHIMADEN, FUJI ELECTRIC, HONEYWELL, ASAHI KEIKI, YOKOGAWA, AMETEK, DYWER, TESCOM, SHIMAX, OPTEK Keuntungan dari pelayanan kami adalah sbb: Untuk permintaan penawaran harga silahkan e- mail ke : PT.INTI KARYA KARISMA Hp : 081286783132, 081218651189 Tlp : 021- 50408997 E- mail : pt.intikaryakarisma@ yahoo.co.id            ","
              Mega Glodok Kemayoran            ",Jakarta,DKI Jakarta,+62 812-8678-3132,None,None
Sumber Berkat Abadi,"
                                    PREMIUM GOLD
                                ",Buldozer & Excavator,"
SUMBER BERKAT ABADI
Kami Specialist menyediakan :
¬†
1. Auto Synchronous Generator
= Woodward, Smartgen, ComAp, Datakom
Speed Control & Actuator
= Woodward, GAC, Segma, Cummins
¬†
2. Battery Charger
= BAE, SEG, Smartgen BAC, CSS, Aspire, Datakom SMPS & Firetrol
¬†
3. AVR
= Stamford, Leroy Somer, Marrelli, Mecc Alte, Taiyo, Basler, Caterpillar, OEM
¬†
4. VDO Gauge & VDO Sender
¬†
5. Turbocharger
= Holset, Garrett, KMP, Perkins, IHI, Mitsubishi, Caterpillar
¬†
6. Relay Protection, Overcurrent, Overvoltage & Trafo
= Broyce Control & SEG
¬†
7. Solenoid & MPU
= Woodward, HEL, Deutz, Kubota, DENSO, OEM
¬†
8. Stater Motor & Alternator
= Bosch, Mahle, Iskra, Delco Remy, Hitachi, OEM
COS
= Smartgen & Kyoritsu
¬†
9. Fuse MV
= SIBA, Bussmann, Schneider, Siemens
¬†
10. Spare Parts Generator
= Cummins, Komatsu, Perkins, Deutz, Caterpillar, Yanmar & Kubota
¬†
11. Undercarriage Excavator
¬†
12. Potensiometer, Dioda, Switch, Connector
= Vishay Spectrol, Bourns
¬†
HP / WA : 08788-24-000-19
Bpk. Sonny Pranata ","
              Jl. Pintu Air 3 No. 25-C Pasar Baru            ",Jakarta Pusat,DKI Jakarta,+62 878-8240-0019,None,None
PT Panca Jaya Teknik,"
                                    PREMIUM GOLD
                                ",Buldozer & Excavator,"
Kami adalah perusahaan yang bergerak dalam bidang penjualan dan penyewaan alat berat used Jepang dan lokal seperti, forklift, dozer, wheel loader, excavator, Hydraulic breaker, dan lainnya. dengan merk : KOMATSU, HALLA, CATERPILLAR, FURUKAWA, HITACHI, SUMITOMO, KOBELCO.HYDRAULIC BREAKER MADE IN KOREA, WINTCH HYDRAULIC GENERAL DIESEL PARTS & TECHNICAL SUPPLIER. Dengan HARGA Yang KOMPETITIF. kami juga menjual spare part hydraulic breaker seperti diaphragm, seal kit, Through bolt, inner bushing, outter bushing, chisel, moil point untuk breaker SOOSAN, JISUNG, SAGA, T&H, OKB, DELPHI, KH, DONYANG, YONDA, POWER KING, EVERDIGM, EDT, SANHA, MSB, AJCE,RHINO, DAEMO, FURUKAWA, NPK H-10XB dan H-11XB, KTR, MIRACLE. F20, F22 ,FXJ 275, FXJ 375. KOMATSU JTHB 210-3, kami jamin spare part genuine made in korea ","
              JL.lodan raya no.59D  ancol 
jakarta utara            ",Jakarta Utara,DKI Jakarta,+62 811-912-801,None,None
Central_ Alat_ Berat,"
                                    PREMIUM GOLD
                                ",Buldozer & Excavator,"
              Kami CV. AZTEKINDO MANDIRI Sebagai Central Alat Berat yang bergerak dibidang penjualan alat-alat berat dan Spare Parts alat berat Meliputi mesin construction dan Mesin2 untuk Kebutuhan Industri Dan Kami Menjual segala macam Ragam SPARE PARTS untuk mesin konstruksi merk China dan korea :1. ASPHALT MIXING PLANT Cap. 40-60 TPH, 60-80 TPH, 66-96 TPH, 150 TPH etc.2. STONE CRUSHER PLANT CAP. 30-40 TPH, 40-60 TPH, 60-80 TPH, 90-100 TPH etc.3. CONCRETE BATCHING PLANT CAP. 30 M3 PER HOUR, 60 M3 PER HOUR, 100 M3 PER HOUR etc.4. XGMA ( Bulldozer, Motor Grader, Wheel Loader, Vibratory Compactor, Tandem Vibratory Roller, Pneumatic Roller, Forklift)5. XCMG ( Bulldozer, Motor Grader, Wheel Loader, Vibratory Compactor, Tandem Vibratory Roller, Pneumatic Roller, Forklift)6. LIUGONG ( Bulldozer, Grader, Wheel Loader, Vibratory Compactor, Tandem Vibratory Roller, Pneumatic Roller, Forklift)7. LONKING( Bulldozer, Grader, Wheel Loader, Vibratory Compactor, Tandem Vibratory Roller, Pneumatic Roller, Forklift)8. CHANGLIN ( Bulldozer, Grader, Wheel Loader, Vibratory Compactor, Tandem Vibratory Roller, Pneumatic Roller)9. SHANTUI ( Bulldozer, Grader, Wheel Loader, Excavator)10. CHENGONG ( Hydraulic Excavator, Mini Excavator, Skid Steer Loader, Wheel Loader)11. ZOOMLION ( Bulldozer, Grader, Wheel Loader, Excavator)12. TIANGONG ( Bulldozer, Grader, Wheel Loader, Excavator)13. SDLG ( Bulldozer, Grader, Wheel Loader)14. SANY ( Excavator, Wheel loader, Crane etc)15. YUTONG ( Bulldozer, Grader, Wheel Loader, Vibratory Compactor, Tandem Vibratory Roller, Pneumatic Roller,16. LUTONG ( Tandem, Compactor)17. LUYANG ( Tandem, Compactor)18. FAW SHACMAN HOWO SANY DONGFENG CHENGLONG DFLZ ( Truck)19. WEICHAI ( Engine for Marine and Industrial )20. YUCHAI ( Engine for Marine and Industrial )21. HYUNDAI ( Hydraulic Excavator, Mini Excavator, Skid Steer Loader, Wheel Loader)22. DOOSAN ( Hydraulic Excavator, Mini Excavator, Skid Steer Loader, Wheel Loader)23. VOLVO ( Hydraulic Excavator, Mini Excavator, Skid Steer Loader, Wheel Loader)24. GENSET PARTS ( CUMMINS PERKINS MITSHUBISHI MAN DEUTZ CATERPILLAR YANMAR VOLVO)25. All Parts of Machinery Industry ( Pump, Motor, Generator Set, Conveyor, Bearings, Hydraulic and Pneumatic Tools)26. CONVEYOR BELT STAR INDIA, BELTRAM KOREA, PIX, CONTINENTAL etc27. AIRMAN COMPRESSOR PDS 185 , PDS175, PDS 265S, PDS 39OS, PDS 655, PDS 750, PDSF140 etc28. SPARE PARTS KOMATSU CATERPILLAR KOBELKO HITACHI DSB29. JINLING EXCAVATOR PARTSKeunggulan dari produk-produk diatas menggunakan komponen utama yang sudah banyak di pasaran sehingga memudahkan untuk pencarian Spare Parts, seperti;- Engine CUMMINS ( HYUNDAI, XGMA), MITSUBISHI ( HYUNDAI), YUCHAI ( XGMA XCMG, LIUGONG, CHANGLIN, SDLG) ETC- Main pump KAWASAKI ( HYUNDAI), GRUNDFOS & REXROTRH ( XGMA)- Travel Motor KAYABA ( HYUNDAI), Transmission ZF ( XGMA)Demikianlah informasi ini semoga dapat menjadi bahan pertimbangan Bapak dalam menentukan pembelianSpare parts alat-alat berat. Dan kami dengan senang hati sekali akan membantu anda apabila ada kebutuhan mengenai produk diatas ke nomor telepon kami di +6282123338987 atau +6281513177298 atau chek disitus kami WWW.AZTEKINDO.COM ","
              Pasar Asem Reges Lantai 2 ALO 2 AKS No.111-113            ",Jakarta Barat,DKI Jakarta,+62 815-1317-7298,None,None
cv lamtama sianturindo,"
                                    PREMIUM GOLD
                                ",Buldozer & Excavator,"
Menjual macam macam spareparts Truck Eaton Fuller Transimission Parts Fast Fuller Transmission Parts FAW Fast Fuller Transmission Parts Shacman Truck Parts CAMC Fast Fuller Transmission Parts Sinotruck Truck Parts Foton Truck Parts Foton Auman Truck Fast Fuller Transmission Parts Kenworth Truck Parts Wabco Brake Valve Parts Meritor Parts Bulldozer Dresser and Dressta Parts Bendix Valve Parts Bendix Kompresor Parts Dana Spicer Parts DAF Genuine Parts PACCAR Genuine Parts Volvo FH16 Parts, Menjual FKM Seal Oring : Parco, Parker, Kalrez Dupont, National Komatsu caterpillar Cummins VOLVO MACK  GEAR GEAR ","
              jln. raya cilincing no 20 , rt 015 / rw 016 . semper barat , cilincing jakarta utara            ",Jakarta utara,DKI Jakarta,+81 3-1001-1108,None,None
DUTA KHANSA MANDIRI,"
                                    PREMIUM GOLD
                                ",Buldozer & Excavator,"
              CV.  DUTA KHANSA MANDIRI menyediakan: Jasa KONTRAK SERIVICE  & Penjualan Sparepart Alat berat dari China, Jepang, Korea maupun UK & USA .  Dengan merek XGMA, LIUGONG, XCMG, CHANGLIN, WEICHAI, YUCHAI, CATERPILAR, KOMATSU, CATERPILLAR, HYUNDAI , DOOSAN, KOBELCO, HITACHI, LONKING, SDLG, SHANTUI, WEICHAI, YUCHAI, XINCHAI,TIANLY, SEM, KOHLER ENGINE, PERKINS, CUMMINS, TOYOTA , TCM, MITSUBISHI , BOULI , HANGCHA, PATRIA ,LOVOL, HELLY, CHANLIN, PUMP HYDRAULIC ALAT BERAT dll.CV.  DUTA KHANSA MANDIRI menyediakan: Jasa & Penjualan Sparepart FORKLIFT, ALAT BERAT, GENSET dan Engine  merek ISUZU, KOMATSU,CATERPILLAR, HITACHI,CUMMINS  , TCM, MITSUBISHI, WEICHAI, YUCHAI, FAW ENGINE ,NISSAN ,HINO  dll..CV.  DUTA KHANSA MANDIRI merupakan DISTRIBUTOR resmi penyalur Oli , MINYAK PELUMAS  , PELUMAS OLI  dengan Merek """"PanaOil""""""""PanaOil"""" merek Oli yang setara dengan oli kelas tinggi yang sudah beredar di Indonesia.Sedangkan Untntu Kebutuhan KUSUS ,  Mesin KAPAL MARINE  Kami juga menyedikan dengan merek  ''NUSA OIL'' Kami menyediakan dengan harga terbaik Kelebihan SPARE PARTS kami menggunakan komponen utama yang sudah banyak di pasaran sehingga memudahkan untuk pencarian Spare Parts, seperti;Bulldozer, Motor Grader, Wheel Loader, Vibratory Compactor, Tandem Vibratory Roller, Pneumatic Roller, Forklift1. XCMG ( Bulldozer, Motor Grader, Wheel Loader, Vibratory Compactor, Tandem Vibratory Roller, Pneumatic Roller, Forklift)2. LIUGONG ( Bulldozer, Grader, Wheel Loader, Vibratory Compactor, Tandem Vibratory Roller, Pneumatic Roller, Forklift)3. LONKING( Bulldozer, Grader, Wheel Loader, Vibratory Compactor, Tandem Vibratory Roller, Pneumatic Roller, Forklift)4. CHANGLIN ( Bulldozer, Grader, Wheel Loader, Vibratory Compactor, Tandem Vibratory Roller, Pneumatic Roller)5. SHANTUI ( Bulldozer, Grader, Wheel Loader, Excavator)6. CHENGONG ( Hydraulic Excavator, Mini Excavator, Skid Steer Loader, Wheel Loader)7. ZOOMLION ( Bulldozer, Grader, Wheel Loader, Excavator)8. TIANGONG  / SINOMACH ( Bulldozer, Grader, Wheel Loader, Excavator)9. SDLG ( Bulldozer, Grader, Wheel Loader)10. SANY ( Excavator, Wheel loader, Crane etc)11. YUTONG ( Bulldozer, Grader, Wheel Loader, Vibratory Compactor, Tandem Vibratory Roller, Pneumatic Roller,12. LUTONG ( Tandem, Compactor)13. LUYANG ( Tandem, Compactor)14. FAW SHACMAN HOWO SANY DONGFENG CHENGLONG DFLZ ( Truck)15. WEICHAI ( Engine for Marine and Industrial )16. YUCHAI ( Engine for Marine and Industrial )17. HYUNDAI ( Hydraulic Excavator, Mini Excavator, Skid Steer Loader, Wheel Loader)18. DOOSAN ( Hydraulic Excavator, Mini Excavator, Skid Steer Loader, Wheel Loader)19. VOLVO ( Hydraulic Excavator, Mini Excavator, Skid Steer Loader, Wheel Loader)20. GENSET PARTS ( CUMMINS PERKINS MITSHUBISHI MAN DEUTZ CATERPILLAR YANMAR VOLVOProduk Utama :1. Jual Baterai / Aki / Batteray Traction Untuk Forklift Electric2. Jual Sparepart Alat Berat LIUGONG, LONKING, XCMG, XGMA, SDLG ,HYUNDAI, CATERPILAR, HITACHI  ( WHEEL LOADER, EXCAVATOR, MOTOR GLADER, VIBRO, BULLDOZER, CATERPILAR).   3. Jual Engine Parts : Weichai, Yuchai, Perkins, Cummins, Mitsubishi, Isuzu, Cummins,Toyota dll4. Jual spareparts forklift , Forklift Sparepart : TCM, Mitsubishi, Toyota, Nichiyu Forklift dll5. Jual spare parts Genset , Sparepart: shinchai, shangchai, shanghai, Weichai, Cummins, Perkins, , caterpilar , Marine DLL./Attachment :1. FORK2. Extention FORKS, Sepatu FORK3. Bale Clamp, Paper Roll Clamp dllJual Aneka  ATTACHMENT :Type Baterai Traction, Ban / Tire / Tyre, Forks / Garpu forklift dan sarung fork, Bale Clamp & Attachment , Chain Lift lainnya.MENYEDIAKAN Jasa Perbaikan :- Overhaul Engine / Transmisi / General Overhaul Unit- Kontrak Maintenance / Kontrak Service - Repair alat berat  - Perbaikan forklift- Perbaikan Excavator- Perbaikan whell loader - Perbaikan Alat berat , dllCV. DUTA KHANSA sebagai perusahaan yang bergerak dibidang pengadaan barang dan jasa, kami menyediakan solusi  bisnis  inovatif  kepada perusahaan yang ingin menjadi mitra kami yang mana kami selalu mengutamakan mutu serta kepercayaan demi kelangsungan  bisnis yang harmonis dan berkelanjutan.Contact Us :Mobile      : 085285628186  Whatsapp : 085285628186      fax   Only : 021 7324196  ( only fax .  call before/ after  fax done )Email       : by Whatsap
PERWAKILAN  :
1. Pekalongan Wiradesa.  Smarang  Jawa Tengah
    Contact : HP/WA   081548065555./ 085285628186
2. Kota Bandung  Jawa Barat
    Contack  : HP/WA  081220096566.
HUBUNGI   PERWAKILAN KAMI TERDEKAT. ","
              Head Office :Jl.Dr Cipto Mangunkusumo no.37 Paninggilan Utara Ciledug TANGERANG. Fax ( Only ) : 021 7324196  HP / WA : 085285628186  Warehouse:Jl. Raya Taman Sari,  Asem Reges  Lantai 2  AKS: 52   JAKARTA.   Fax  ( Only ) : 021 7324196 HP / WA :   085285628186Perwakilan  :1. Pekalongan Wiradesa.  Jawa Tengah    Contact : HP/WA   081548065555. 0852856281862. Kota Bandung  Jawa Barat    Contack  : HP/WA  081220096566.HUBUNGI   PERWAKILAN KAMI TERDEKAT.              ","JAKARTA  & TANGERANG 085285628186, Cabang : BANDUNG (081220096566)  & PEKALONGAN (081548065555.) JATENG",DKI Jakarta,085285628186,None,None
