Name,Membership,Category,Description,Address,City,Province,telp1,telp2,telp3
CV. MEGASUKSES,"
                                    PREMIUM GOLD
                                ",Elektronik Konsumen,"
              Support industri, Industrial supplier. Menyediakan segala support industri, komponen electronics, IGBT Power Modules, Standard Parts, Spare Parts Mesin, Aksesoris fargo printer hdp 5000, YMCK Ribbon, Film Ribbon, cleaning kit dll. Interested, please call or send message via email Komponen elektronik: MITSUBISHI IPM DIPIPM Tyristor Module MOSFET Modules Darlington/ Transistor Module HVDIODE Modules IGBT Modules SANREX Thyristors IGBT Modules 3 Phase SCR 3 Phase Diode Diode Module Diode Bridge Thyristor Module Stud Tyristor Darlington Mosfet Triac IXYS POWER SEMICONDUCTOR MIDORI POTENTIO METERS SAKAE POT EUPEC Thyristors IGBT Modules Thyristor Module Diode Module Disc Tyristor Stud Tyristor SEMIKRON Thyristors IGBT Modules Thyristor Module Thyristor / Diode Modules Diode Bridge 3 phase Diode Module Disc Tyristor & Diode Stud Tyristor & Diode Darlington Mosfet FUJI ELECTRIC IGBT Modules PIM IGBT Modules 6-Pack IGBT Modules 4-Pack IGBT Modules 2-Pack IGBT Modules 1-Pack IGBT Modules IPM IGBT Discr TOSHIBA IGBT Module CRYDOM Solid State Relays SIEMENS Disc Thyristor IR / VISHAY IGBT Diode Thyristor Module Thyristor Diode Module Diode - Module Stud thyristor SCR - M NIHON Diode Module Diode Bridge Disc Thyristor GTO   Jika Anda berdomisili di Indonesia | Jakarta | Bandung | Bogor | Tangerang | bali | pekanbaru | yogyakarta | pontianak | banjarmasin | balik papan | bekasi | batam | semarang | surabaya | medan | banda aceh | makasar | palembang | padang | pontianak | cari IGBT| komponen elektronik | kami siap kirim ke kota anda, seluruh indonesia | cek harga | distributor | agen | terlengkap            ","
              Komplek Ruko San Fransisco, Blok A1 No 14, Depan Perum. Putri Tujuh, Batu Aji

Telp : 0778 3850407: WA 081283446344,  081276662006            ",Batam,Kepulauan Riau,+62 812-8344-6344,None,None
PT GRESINDO MAS UTAMA,"
                                    PREMIUM GOLD
                                ",Elektronik Konsumen,"

PT GRESINDO MAS UTAMA adalah perusahaan General Trading bergerak dibidang pengadaan barang dan jasa seperti Elektrikal, Mekanikal, instrument , automation dll.

 

Kami menyediakan kebutuhan pendukung industri seperti PLC, Inverter, Encoder, Tension systems, Pneumatic, Hydraulic, Sensor, Actuator, Valve, Clutch& brake, Cable, Lamps, dll.    

 

Ada banyak industri yang kami dukung seperti automotive industri, packaging industri, steel industri, Contractor, dll Dibawah ini adalah beberapa contoh produk yang dapat kami supply :      

 

PRODUK JEPANG : SUMITOMO, HITACHI, TAMAGAWA, SHIMPO, TAKENAKA, MITSUBISHI,  SUNTES, MINEBEA, THK, WATANABE, SHINKO, SHIMADEN, NISSEI, TERAL, SHOWA DENKI, TOSHIBA, TAIYO, YAMATAKE, SAKAI, TAKAHIRO, NMB, OGURA, ORIENTAL, SANYO DENKI ETC.    

 

PRODUK EROPA & USA : FLUKE, ENIDINE, MARSH BELLOFARM, VAISALA, BAUMULLER, SIEMENS, DWYER, JOHNSON CONTROL, HAMMOND VALVE, SPIRAX SARCO, WEST INSTRUMENT, EATON, ORTLINGHAUS, WARNER ELECTRIC, WICHITA, TWIFLEX, SCHMIDTZ, etc.    

 

Untuk produk dan harga dapat menghubungi kontak marketing kami dibawah ini :
Kontak : Arief N
Mobile  : 0853 1002 5656
E-mail  : ariefgmu@gmail.com
 ","
              Jl. Kelapa Puan 26 AK6/25 Gading Serpong 15810 Tangerang            ",Tangerang,Banten,085310025656,None,None
PD KING PLASTIK,"
                                    PREMIUM GOLD
                                ",Elektronik Konsumen,"
Produksi berbagai macam produk  extrusion antara lain media MBBR / kaldnes, sedotan  dan Tali Rafia berbagai macam pilihan dan warna ( hitam, abu2, merah, biru, hijau, kuning, pink, ungu, putih, coklatt) roll/ gelondongan 40 - 50kg dan kemasan roll kecil sesuai permintaan antara 3 ons s/ d 1 kg melayani penjualan kiloan ( karungan) maupun yang sudah dipacking sesuai permintaan.. Cocok bagi anda yang masih mencari peluang usaha home industri, kami juga menyediakan mesin gulung tali, perakitan mesin extrusion, mesin tali rafia dan mesin sedotan. mesin penghasil sedotan, tali rafia, dll dgn harga bersaing
Kami menerima pesanan produk khusus (costum profil extrusion) seperti profil2, hollow, pipa, price tag dll            ","
              Jl. H Joan No. 46 Pondok Jagung, Graha Raya, Bintaro, Serpong            ",Tangerang,Banten,+62 851-0072-0039,None,None
PT. DWIYUDHA JAYA MANDIRI,"
                                    PREMIUM GOLD
                                ",Elektronik Konsumen,"
              Kami adalah Perusahaan Trading dan Importir yang bergerak dalam bidang Mesin High Frequency, Mesin Welding ( Penyambung) Plastik, Mesin pembuat bahan Map Plastik, ATK, Mesin Pembuat Kosmetik, Pasta Gigi, Balon, kolam Plastik, Kantong kain sintetis ( Cooton bag) , Tas Plastik, Dus Plastik, Box Plastik makanan ringan/ kue, Mainan anak, Mesin Emboss Sepatu, Sandal, dan lain sebagainya, berikut Spare part dan Jasa Perbaikan service, Belt Convayor Khusus untuk makanan dan Pabrik Semen, Rotary Joint ,Dll Distributor plastik PVC Sheet/ lembaran dari tebal 0, 50 - 5 mm warna transparant, hijau, biru dll. Mesin-Mesin Pembuatan/ Penyambungan semua bahan dari Plastik dan sejenisnya. Semua mesin yang kami jual mendapatkan garansi dan after sales service selama 6 bulan.            ","
              Ruko perum Banjar Wijaya blok B1 no 15, Jl. KH Hasyim Ashari, Cipondoh            ",Tangerang,Banten,+62 877-7700-0488,+62 816-1970-534,None
PT Biruni Geo Pratama,"
                                    PREMIUM GOLD
                                ",Elektronik Konsumen,"
Tahun 2007 kami memulai usaha dibidang penjualan alat survey dan pemetaan seperti GPS, Total Station, Theodolite,echo sunder, water pass, Laser distance meter dan alat pendukung lainnya seperti software dan peta digital. Tahun 2008 kami mulai ekspansi dengan memasarkan  teleskop dan binocular. Kami berusaha memberikan total solusi dibidang survey dan pemetaan, kami tidak hanya menjual dengan harga terbaik tetapi kami juga memberikan layanan support seperti konsultasi dan training pemakaian alat.
 
Didukung tenaga dibidang survey specialist ( Geodetic Engineer), kami berusaha memberikan solusi masalah-masalah teknis dibidang survey dan pemetaan. Karena membuat peta bukan sekedar menarik meteran tapi banyak sekali faktor-faktor yang perlu dipertimbangkan seperti  transformasi koordinat dan proyeksi.Saat ini kami juga melayani Jasa service, Kalibrasi dan rental alat survey dan Jasa Survey teristris dan pemetaan udara 
 
Visi dan Misi kami :
 


Menjadi mitra yang sinergi  bagi Perusahaan atau perorangan yang membutuhkan alat survey dan pemetaan.
Memajukan dunia survey dan pemetaan di Indonesia, dengan menyediakan alat yang bermutu dan didukung support teknis yang benar.
Mampu bersaing menghadapi era ekonomi global, dengan menjadi perusahaan yang bisa berskala nasional.


 
 
Apa kelebihan kami
 


Kami ditunjuk sebagai reseller resmi untuk memasarkan alat survey merk : Leica, Trimble, Nikon, Spectra,Topcon, Geomax.
Tahun 2009 kami ditunjuk authorized dealer untuk produk Teleskop dan binocular merk Celestron
Tahun 2012 kami ditunjuk sebagai authorized dealer untuk Produk GPS merk TOMTOM
Tahun 2016 kami ditunjuk untuk memasarkan Drone Merk DJI dan UAV Fixwing

 ","
              Mall WTC Matahari Serpong Lantai 2 blok S20 Tangerang
021- 53153871  021-7410545 Fax 021-7410064
Email : info@biruni.co.id  http://www.biruni.co.id
SMS/WA/Call : +6281298737575            ",Tangerang Selatan,Banten,+62 812-9873-7575,None,None
SURVINDO . CV,"
                                    PREMIUM GOLD
                                ",Elektronik Konsumen,"
Anda dapat menghubungi kami di :

RUKO WISMA HARAPAN BLOK E1-NO.34 Jl. Regensi 2, Gembor, Periuk, TANGERANG 15131, Banten - Indonesia

Telepon :

( 021 ) 2943 3824

Handphone & WA :

0896-1574-0924

E-mail :cv.survindo@yahoo.co.id
cv.survindo@gmail.com
Account Bank :
BCA, Mandiri, BNI, BRI ","
              RUKO WISMA HARAPAN BLOK E1-NO. 34 Jl. Regensi 2, Gembor, Periuk, Tangerang.             ",TANGERANG,Banten,+62 896-1574-0924,+62 812-8855-0107,None
CV. AIRMAS TEKNIK,"
                                    PREMIUM GOLD
                                ",Elektronik Konsumen,"
CV. AIRMAS TEKNIK
PERUSAHAAN YANG BERDIRI SEJAK 12 NOVEMBER 2012 YANG BERGERAK DALAM BIDANG :

SUPPLY DIESEL GENSET SPAREPART
PANEL ELECTRIC
MAINTENANCE SERVICE MECHANICAL ELECTRIC
REPAIR AND REWINDING GENERATOR / INDUCTION MOTOR
SALE AND RENTAL DIESEL GENSET
JUAL BELI DAN SEWA UNIT GENSET

Supply Diesel Genset 10-1500 KVA, Untuk kebutuhan industri, proyek, gedung, rumah sakit, perhotelan, perkantoran, rumahan, restoran, cafe, kampus dan kebutuhan anda lainnya.Merk-merk genset yang kami supply adalah:

MITSUBISHI
CATERPILLAR
ISUZU
KOMATSU
DEUTZ
YANMAR
DENYO
KUBOTA
CUMMINS
MERCEDES BENZ
MWM
MAN
PERKINS
LOVOL
FOTON
-DLL.

CV. AIRMAS TEKNIK, MELAYANI PENJUALAN GENSET SECOND HAND DAN PEMBELIAN SEBAGAI BERIKUT 1. JUAL GENSET SECOND HAND CONDITION 80%2. SEWA GENSET UNTUK PROJECT 10-1500 KVA3. TERIMA TUKAR TAMBAH GENSET BEKAS, CAPACITY 10 KVA S/D 1500 KVA 4. TERIMA GENSET BEKAS BERCAPACITY MULAI DARI 10 KVA S/D 1500 KVA MELAYANI MAINTENANCE SERVICE BERKALA DAN OVER HAUL. - OVERHAUL - TOP OVERHAUL- GENERAL OVERHAUL - MAYOR OVERHAUL- SERVICE BERKALA INFORMASI LEBIH LANJUT DAPAT MENGHUBUNGI KAMI. Sebuah hubungan Business dapat berlangsung lama karena kepercayaan dari dua belah pihak, disini kami sebagai pihak seller, akan memenuhi semua kewajiban kami dengan sebaik-baiknya tanpa ada maksud sedikitpun untuk merugikan pihak buyers, karena kami percaya bahwa hubungan baik adalah kunci dari sebuah Business yang sukses.CV. AIRMAS TEKNIK MEMILIKI REKANAN DAN HUBUNGAN KERJA DENGAN BANYAK CLIENT YANG SAMPAI SEKARANG MASIH BERJALAN DENGAN ERAT. KARENA CV. AIRMAS TEKNIK MEMILIKI SDM YANG BERMUTU, KEPERCAYAAN DAN CAPABILITY YANG SELALU DIJAGA UNTUK MELAYANI CLIENT SEHINGGA JALINAN DAN HUBUNGAN KERJA TERUS BERLANGSUNGSebuah Kepercayaan dan Hubungan didalam bisnis akan tetap terjalin apabila pihak-pihak yang terlibat didalamnya bisa saling PERCAYA, MENJAGA dan PROFESIONAL. Salam Sejahtera, CV. AIRMAS TEKNIK            ","
              Jl. Raya Perancis No. 88A RT. 01/09 Kel. jatimulya, Kec. Kosambi, Kab. Tangerang            ",Kab. Tangerang,Banten,+62 812-9516-6610,None,None
PT. BEN GOLAN BERKARYA,"
PREMIUM RUBY
",Elektronik Konsumen,"
Selamat Datang di Website PT. Ben Golan Berkarya. Kami merupakan perusahaan yang bergerak dalam industri Alat Proteksi Diri dan Keamanan, Alat Pertahanan Diri, Eye Protection, Face Protection, First Aid Kit, Alat Detector, Hearing Protection, Masker, Rompi, Helmet, Fire Extinguisher, Marka Jalan, Safety Shoes, Marine Equipment, Safety Sign, Head Protection, Wearpack, Sarung Tangan, EEBD (Emergency Escape Breathing Escape), Eye Wash, Body Harnes, GPS DAN NAVIGASI, Material Handling, dll.Kami Adalah Perusahaan Berkembang Yang Melayani Penjualan Secara Eceran Dan Grosir Ke Seluruh Indonesia. Menyediakan Segala Perlengkapan Untuk Keselamatan Kerja (Safety Equipment) Dan Perlengkapan Perkapalan (Marine). Kami Juga Menerima Pesanan Khusus Untuk Seragam Kerja,Pdh/Pdl Dan Menerima Pesanan Khusus Kabel Tray.

MEDAN:
Jl. Gunung Krakatau No.83 Glugur Darat II Kec. Medan Timur - Medan Sumatera Utara 20238
 
JAKARTA:
MGK Kemayoran Lantai GF Blok A3 No.2 Jalan Angkasa Kav.B6 Kota Baru Bandar Kemayoran, Jakarta Pusat
 
BALI:
Simpang 6, Jl.Pulau Rembulan No 15 Denpasar - Bali  ","
              Jl. Gunung Krakatau No.83 Glugur Darat II Kec. Medan Timur - Medan            ",Medan,Sumatera Utara,+62 811-909-805,None,None
Multi Control Indonesia,"
                                    PREMIUM GOLD
                                ",Elektronik Konsumen,"
Multi Control Indonesia adalah perusahaan yang bergerak di bidang penjualan kebutuhan industri, untuk semua jenis industri seperti textile, plastik, makanan & minuman, obat, pengolahan kayu, farmasi dan lain-lainnya, serta menjual berbagai kebutuhan untuk trainer pendidikan. Ada pun product-product yang dijual antara lain seperti Frequency Inverter ( VFD), frequency inverter, AC Drives, frequency converters, frequency changers, adjustable speed drives (ASD), adjustable frequency drives (AFD), variable frequency drives (VFD), variable speed drives (VSD), Soft Starters, Soft Stop, Soft Starters for AC Motor, Motor Starters,  Motor Soft Starters, EMI filter, Input EMI Filters, Output EMI Filters, AC Choke, AC Reactor, Input AC Choke， Output AC Choke， Input AC Reactor, Output AC Reactor, DC Choke, DC Reactor, Input DC Choke, Output DC Reactor, Input DC Reactor, HMI, Human Machine Interface,PLC，Programmable Logic Controller, Servo Drive, Servo Motor, Servo Motor & Drive, Servo Motor & Drive, Dioda Module, Darlington, IGBT, Transistor Module, IPM Module, Rectifier Bridge, SCR,GTO & Dioda, Mosfet,Fanuc part, Elevator Board,Fuse, Melt Pressure transmitter, Melt Pressure tranducer, Pressure Sensor,Melt Pressure gauge,Level Transmitter,Differential Pressure transmitter,Mud Pressure Transmitter,Instrument,Diaphragm pressure gauge,Temperature Transmitter, segala model jenis sensor. Propeller flow meter,Ultrasonic Water meter,magnetic flow meter,Gas turbin meter,Radar level meter dan bekerja sama dengan beberapa merk terkenal seperti 

ABB, SIEMENS, DANFOSS, VACON, SEW, LENZE, PETER ELECTRONIC, LEISTER, WATT DRIVE, KEB, BONFIGLIOLI, NORD, CAG ELECTRIC MACHINERY, INTECNO, SYCOTEC, KB ELECTRONICS,  TDE MACNO SPA, GEFRAN, CONTROL TECHNIQUES, PEPPERL FUCHS, GRUNDFOS, VEM MOTORS, BR INDUSTRI-ELEKTRONIK, RK ROSE+KRIEGER, CARLO GAVAZZI, LEROY SOMER, VERLINDE, TRANSTECNO, STAHL CRANE SYSTEMS GMBH, MIYACHI, DEMAG CRANES COMPONENTS, ABM, ROSSI, COGNITO QUAM, GE, AIRTECNICS, Delta, Teco, Toshiba, Mitsubishi, fuji, Yaskawa, Hitachi, Omron, Panasonic, HYUNDAI, LS/LG

Tujuan utama kami adalah untuk menyediakan kebutuhan sarana industri yang tepat dan lengkap dengan layanan yang komprehensif kepada pelanggan, tidak hanya sumber daya saham tetapi juga dukungan teknis dan keahlian teknik. ","
              Villa Payung Indah B 27            ",Semarang,Jawa Tengah,6585225548633,None,None
GLOS -GREEN LEAVES ORCHID SALATIGA,"
                                    PREMIUM GOLD
                                ",Elektronik Konsumen,"
GLOS, Green Leaves Orchid Salatiga, Kami bergerak dibidang kebun pembibitan dan pengembangan tanaman anggrek. Kami menyediakan berbagai jenis dan ukuran anggrek, hybrid/ mericlone hasil produksi kami atau import. Contoh beberapa jenis yang tersedia: Dendrobium, Phalaenopsis, Vanda, Oncidium, Cattleya, Brassia, Degarmoara, Zygopetalum dan lainnya. Selain itu kami juga memasarkan beberapa sarana pertanian seperti: Pot tray, Pot trai, Fibroot tray, bermacam-macam Paranet, net/ jaring peneduh, lokal/ import, insect/screennet, plastik UV, penjepit plastik uv/springclip, plastikclip, spacnum moss, pot transparan/lunak, terpal plastik khusus dan lainnya ","
              Sinoman Tempel III/235            ",Salatiga,Jawa Tengah,+62 811-298-163,+62 815-7837-6322,None
PT. Bintang Makmur Wiramandiri,"
PREMIUM RUBY
",Elektronik Konsumen,"
PT. BINTANG MAKMUR WIRAMANDIRIAdalah perusahaan yang bergerak di bidang Jasa Kontraktor dan PerdaganganJasa Kontraktor meluputi Jasa Sipil (Renovasi dan New Building Hotel, Rumah, Kantor, Apartemen dan lainya)Jasa Non Sipil/Fabrikasi (Pembuatan Conveyor semua tipe Conveyor) dan Jasa Maitenance Mesin skup factory maupun office. Sedangkan untuk Bidang PerdaganganMeliputi Perdagangan Cutting Tools, seperti Pisau Bubut, Milling, Matabor, Endmill, Bearing dan lainyaPT. Bintang Makmur Mandiri Menyediakan juga mesin - mesin untuk kebutuhan Melting Furnace/Mesin Peleburan Aluminium dan menyediakan barang - barang kebutuhan sparepart mesinyang berhubungan dengan melting furnace. Pemegang Brand tunggal Strikowestofen German# mesin tungku peleburan aluminium, wadah peleburan ","
              Jl. Raya Setu No.147 Cibitung Bekasi            ",Bekasi,Jawa Barat,+62 813-1758-9536,None,None
PT. Kreasi Mandiri Perkasa,"
                                    PREMIUM GOLD
                                ",Elektronik Konsumen,"
PT Kreasi Mandiri Perkasa, adalah perusahaan yang berbasis cable, tepatnya supplier kabel, didirikan oleh orang orang yang ahli dan handal di bidangnya yang sudah berkecimpung di dunia perkabelan selama hampir 20 tahun. dan selalu mengutamakan kualitas mutu produk, pelayanan dan service yang bermutu dan memuaskan bagi costumer kami. Kami menyediakan kabel Power, kabel telp, kabel data, kabel instrument, kabel screen , kabel tahan api ( fire resistant cable) , kabel tahan panas ( heat resistance cable) , dan kabel kabel lainnya dengan merk merk terkemuka seperti : Supreme, Kabelmetal, Kabelindo, Jembo, Tranka kabel, Extrana, Eterna, Sutrado, Draka, Belden, IMC, Delta Cable, Top cable, dll. Kami selalu berusaha melayani konsumen-konsumen kami dengan sangat baik, harga bersaing, produk yang berkwalitas serta proses pengiriman yang tepat waktu, bagi kami adalah kewajiban dalam menjalankan kegiatan usaha kami. Produk yang kami perdagangkan selalu mengedepankan kualitas serta harga yang kompetitif, dengan berbagai macam pilihan produk seperti : * CABLE MARINE : yang digunakan untuk 1. Power and Control Cables 2. Power and Control Cables with copper wire braiding 3. Instrumentation, control and telecommunication cables 4. Instrumentation, control and telecommunication cable with individual shield 5. Fire resistant power and control cable with copper wire braiding 6. Fire resistant instrumentation, control and telecommunication cables 7. Fiber Optict Cable * Electric Cable / Kabel Listrik / Kabel Darat merk JEMBO, KABELINDO, EXTRANA, SUPREME, METAL, ETERNA, EXTRANA. Dengan berbagai ukuran dan macam kabel NYA, NYAF, NYM, NYY, NYFGbY / NYRGbY / NYBY, NYMHY, NYYHY, NYCY, - BC, ACC, AAAC, ACSR, YSLY, LIYCY, dll - Power Cables - Telecommunication Cable - Instrument & Signal Cables dan - Control Cables. Hubungi kami ; * Sales Marketing - Tn. Andi Tri Handoko ( mobile 085693518615) WhatApp Use - Tn. Budi Noval - Nn. Ria Innaka. "" Sesuai dengan Moto Perusahaan Kami."" Kami mengutamakan Kepuasan konsumen, kami selalu mencoba memberikan produk – produk Berstandar Nasional dan Internasional yang dapat diandalkan dengan harga yang bersaing. ","
              Jl. H. Iming No. 93 RT 003 RW 017 Beji - Depok 16421            ",Depok,Jawa Barat,+62 812-8906-9987,None,None
CV. ALDANA SEJAHTERA,"
                                    PREMIUM GOLD
                                ",Elektronik Konsumen,"
CV. ALDANA SEJAHTERA
PERALATAN INSTRUMENT, ELECTRICAL, MECHANICAL, TOOLING, MEASUREMENT 
( PERALATAN UKUR) SOLDERING & DESOLDERING 
 
CV. ALDANA SEJAHTERA
Ruko Kawasan Niaga Citra Grand Blok R.7 No. 30 
Jl. Raya Alternatif Cibubur Km.4 Cibubur 17435, 
Phone : 021-22813460 ; Fax : 021-84598635Email : aldana.sejahtera@gmail.comWhatsApp : 0878 7304 1438 ; 0856 9498 2722
 
Kirimlah inquiry Anda ke email kami : aldana.sejahtera@gmail.com, dengan senang hati kami akan melayani anda hingga anda mendapatkan produk-produk yang dibutuhkan. Kami akan berusaha sebaik-baiknya untuk memberikan pelayanan terbaik kami, baik dalam hal customer service, bantuan teknis, pricing maupun delivery time yang tepat waktu hingga layanan purna jual. Semoga pelayanan kami dapat membantu Anda dalam menjamin kelangsungan produksi dan perkembangan perusahaan Anda. ","
              Ruko Kawasan Niaga Citra Grand Blok R7 No. 30 ; Jl. Raya Alternatif Cibubur Km.4, Cibubur 17435            ",Cibubur,Jawa Barat,+62 878-7304-1438,None,None
TOKO JAYA MAKMUR AC ,"
                                    PREMIUM GOLD
                                ",Elektronik Konsumen,"
SPESIALIS PENDINGIN UDARA, Authorized Dealer Daikin Bekasi - Indonesia  Bila Bapak  Dan ibu memerlukan keterangan tentang pendigin udara merk DAIKIN bisa hub Tim Marketing Kami di  021 8267 8000 021 8835 0157 021 8267 1183 021 8267 1317  WA 0811 9966 48 WA 0852 1223 1306  0878 8936 5116 (XL), 0856 9503 3096 (IM3), 0851 0133 1100 (AS) 0851 0279 8797 (AS), 0852 1223 1306  (AS), 0811 99 66 48 ( Halo)  Miss Widia, Miss Monic, Mr Fepy ","
              Jl Ra Kartini No 24 Dpn RM Cibiuk Atau Sebelah Soto Kudus, BEKASI            ",Bekasi,Jawa Barat,+62 852-1223-1306,None,None
CV. SAMUDERA TEKNIKINDO SELARAS,"
                                    PREMIUM GOLD
                                ",Elektronik Konsumen,"
CV SAMUDERA TEKNIKINDO SELARAS merupakan perusahaan yang bergerak dibidang general trading (General Supplier) dengan 2 (dua) divisi yaitu Perbaikan / Maintenance machine Industri khusus Electrical dan Import product part machine. 
CV SAMUDERA TEKNIKINDO SELARAS memiliki kualitas yang handal dan harga yang sangat ekonomis dan cocok untuk industries dan semua pabrik manufacturing. Adapun merk yang kami supply, diantaranya : Omron, Mitutoyo, Keyence, Yokogawa, SMC, Nagano Keiki, Panasonic, Hanyoung, LG / LS, Fuji Electric, Mitsubishi, Hanyound, Yamatake / Azbil, Klar Stern, Taffware, Panasonic, Hitachi, Siemens, Emerson, Taiyo Parker, Sipik, Shinko, Idec, Sanyo Denki / Dyna Ace, NMB, Daito / Fanuc, NTN, THK, Swan, Oriental Motor, CDK, Luyang, Sick, Bando V-Belt, Yamamoto, Steins, dan masih banyak produk lainnya dari berbagai merk yang kami sediakan, mulai  dari China, Jepang, Taiwan, Korea dan Produk Europa lainnya.
Untuk informasi dan pemesanan silahkan hubungi kami :
CV SAMUDERA TEKNIKINDO SELARAS
Jl. Tarum Barat 2, Ruko Pasar Bersih B-7 (Pintu 11) Kawasan Industri Jababeka II, Jayamukti, Cikarang, Bekasi - Jawa Barat
Phone : 081287602917 // 081219415790 (Call / WA)
Tlp : +62 21 2945 3721 // +62 21 2945 3722
Email : samuderateknikindo@yahoo.com
Website : www.samuderateknikindo.co.id ","
              Office : Jl. Tarum Barat 2, Ruko Pasar Bersih B-7 (Pintu 11) Kawasan Industri Jababeka II, Jayamukti, Cikarang, Bekasi - Jawa Barat ",Cikarang,Jawa Barat,+62 812-1941-5790,None,None
ANEKA DAYA INDONESIA,"
                                    PREMIUM GOLD
                                ",Elektronik Konsumen,"
              Perusahaan ini telah berdiri sejak tahun 2010 dan telah ikut berkiprah dalam kancah kelistrikan di Indonesia.kami menyediakan barang dan jasa, sebagai sebuah perusahaan yang bergerak di bidang supplier dan contractor electrical kami selalu mengutamakan kepuasan costumer jangan ragu untu menghubungi kami, kami akan bantu anda dalam menemukan alat-alat electric yang anda butuhkan. adapun produk yang kami stock sbb: 1. RELAY.. SEPAM 1000+ ( MG) , SPAJ, SPAS, SPAM, SPAU, RTXP18 ( ABB) LFAA101, MICOM 122, 124, 921, MBCH, MCGG, MLLG, MVAX, MVTR, MVAA, KCGG ( AREVA / ALSTHOM) 2. POWER SUPPLAY DAN RELAY IDEC 3. TRANSFORMER DAN KUBIKAL 20KV-70KV 4. JOINTING DAN TERMINATING ( RAYCHEM, 3M, CELLPAC) 5. KABEL ( SUPRIME, TRANGKA, KABEL METAL, KABELINDO) 6. MCB, MCCB, ACB, GCB, ( MG, ABB, GE, AEG, 7. CT DAN VT 20KV - 150KV.( SADTEM, TRAFINDO, MG) 8. PEKARJAAN PEMASANGN INSTALASI GEDUNG DAN PABRIK, ..            ","
              Jalan Matematika IV No 28 Kel Jatikramat Kec Jatiasih            ",Bekasi,Jawa Barat,+81 93-229-3332,None,None
PANATELINDO INTICOM. CV,"
                                    PREMIUM GOLD
                                ",Elektronik Konsumen,"
Penjelasan Ringkas PANATELINDO INTICOM adalah :Distributor PABX, Telephone, Distributor cctv, distributor mesin Absensi Finger Print dan Access Control.Panatelindo INTICOM adalah perusahaan pemasok terkemuka Panasonic, NEC, LG-Ericsson yang menyediakan produk-produk telekomunikasi dan layanan untuk rumah, bisnis dan kebutuhan pribadi. Didirikan pada tahun 1998, Panatelindo terus memberikan solusi di industri telekomunikasi untuk industri, pasar komersial dan konsumer melalui tim kami yang berpengalaman, Pusat Service, dan jaringan luas Penjualan eceran dan grosir dan saluran pemasaran, seperti Toko Retail, saluran Pasar Modern , e-commerce dan Business to Business ( B2B) saluran. Kami menyambut semua pertanyaan yang berkaitan dengan kebutuhan telekomunikasi kantor Anda seperti Key telepon dan sistem PABX, Auto Atendant dan sistem Mesin Penjawab, telepon sistem perekaman suara ( voice logger) , memanggil sistem penagihan dll Selain itu, kami juga menyediakan sistem keamanan seperti CCTV, sistem akses pintu, sistem alarm, sistem interkom pintu dll Sebagai integrator sistem dan penyedia solusi ICT, kami menyediakan one stop solution untuk semua pelanggan kami. Kami bangga memiliki banyak pelanggan kami memperlakukan kami sebagai mitra bisnis jangka panjang mereka. Kami percaya kami tidak pernah berkompromi pada kualitas dan pelanggan terjamin kepuasan setiap waktu adalah kesuksesan utama kami .Dengan Panasonic PABX, NEC PABX SYSTEM DAN LG PABX SISTEM menjadi begitu dekat dan akrab dengan kehidupan kita.   Panasonic, NEC dan LG-Ericsson mudahkan kita dengan Teknologi. Adapun produk dan solusi yang kami tawarkan meliputi : - PABX system - Call Center Solution - IVR ( Interactive Voice Respond ) - Voice Mail System - Voice Logger / Telephone Recording System - Billing Software atau Call Accounting Software - LAN Infrastucture - Security System : IP Camera dan Analog camera , Finger print / access control. Beberapa merk dan tipe PABX yang kami support a.l : PANASONIC KX-TDA 30/ 100/ 200/ 600 Panasonic IP PABX KX-TDE 100/ 200/ 600 Panasonic ACD Server KX-NCV 200 for call center Panasonic KX-TDN 1232 Panasonic KX-TD 500 Panasonic KX-T 336 Panasonic KX-TEB308, TES824, TEM824 TYPE PABX NEC TERBARU: PABX NEC SL100, PABX NEC SV8100, PABX NEC SV8300, PABX NEC SV8500 Untuk informasi lebih jelas hubungi : Hot line : 08777 910 7257Hp/Wa:  0852 893 88205 Office : 021-8816449 email : Panatelindo@gmail.com Produk / Jasa Utama Menjual: PABX Billing SoftwareAssesoris PABX dll Apapun keperluan anda akan Perangkat PABX Billing software dan Lain lain kami siap mambantu : Perangkat PABX : Panasonic PABX Billing software : Dynamite V4.25, Dynamite budgetingMatrix 5, Matrix 8, Matrix Budgeting, Matrix FO ( for hotel motel ) Matrix Enterprise ( for Multisite PBX ) Assesoris : Voice conference phone Digital Recording System, Automatic Attendant, Voice Mail System Call Centre ","
              RUKO MITRA BEKASI BLOK B NO.12 JL. IR. H. JUANDA 151 (RAMAYANA TERMINAL BEKASI) DUREN JAYA-BEKASI TIMUR Telp.(021)8816449  Hp/WA  0852-893-88205      HP 085-883-911-900            ",BEKASI,Jawa Barat,+62 852-8938-8205,None,None
PT Pilar Media Nusantara,"
                                    PREMIUM GOLD
                                ",Elektronik Konsumen,"
              PT. PILAR MEDIA NUSANTARA PROFILE :Kami adalah Perusahaan yang bergerak dalam bidang Pengembangan Multimedia , desain dan penjualan System : CATV SYSTEM - SMATV SYSTEM - MATV SYSTEM - TV KABEL.Produk Kami Meliputi : Perangkat Headend MATV / Studio TV Kabel / Headend CATV , Perangkat RF Distribusi Back Bound , Perangkat Jaringan Indoor / Outdoor dan Instrumentasi System MATV - TV KABEL. Selain Produk tersebut kami juga dapat menyediakan produk yang lebih spesifik/ khusus MATV - CATV - TV KABEL sesuai dengan permintaaan pelanggan . Kami menjual beragam perangkat System MATV - CATV - TV KABEL dengan kwalitas produk yang Handal dan terjangkau.Produk System yang kami jual antara lain Merk : IKUSI - ALCAD -PACIFIC - ZINWELL - WINERSAT - PRO-X - FOBETMOC - PREVAIL - MATRIX - FALCOM - NIN - SQ - DLL .Jika anda tertarik dengan produk kami , anda dapat menghubungi kami untuk mendapatkan informasi yang lebih lengkap. Kami akan dengan senang hati menjalin kerjasama yang berkesinambungan dengan anda di masa yang akan datang .            ","
              Jl.Kemangsari Raya No.12 Jatikramat - Jatiasih - BEKASI             ",Bekasi,Jawa Barat,+62 857-7671-9099,None,None
PT. Gewinn Gold Hotama,"
                                    PREMIUM GOLD
                                ",Elektronik Konsumen,"
              PT Gewinn Gold Hotama adalah perusahaan manufaktur yang bergerak di bidang produk elektronik berupa timbangan digital untuk mengukur berat produk dengan menggunakan merk “ Gewinn” dan dirancang oleh para ahlinya. Scoupe business perusahaan kami adalah timbangan digital untuk penjualan, service, spare part, kontrak servis, kalibrasi-tera, kebutuhan pabrik, kontrol & sistem, software program & penimbangan, modifikasi. Kami spesialisasi dalam pengukuran berat ( weighing accuration) dengan sistem yang akurat dan standar premium.            ","
              Jl. Raya Rengasbandung, Ds. Kosambi, Kp. Ceger RT 001/001, Cikarang Timur            ",Bekasi,Jawa Barat,081218741279,085210042931,08129929738
"AVODAMITRA INDOTECH, CV","
PREMIUM RUBY
",Elektronik Konsumen,"
              TIMBANGAN DIGITAL / WEIGHING SCALE : Jembatan Timbang , Conveyor Belt scale , Bagging Scale , Batching scale , AMP Scale , Batching plant scale , Floor Scale , Bench Scale , Timbangan hewan , Timbangan sapi , Timbangan emas , hand pallet scale , pocket scale , loadcell , waterproof scale BEST BRAND ; USA , EUROPE , JAPAN , KOREA , CHINA , TAIWAN , INDONESIA PROGRAM APLIKASI TIMBANGAN Program jembatan timbang , AMP , Batching plant , Chek weigher , belt scale , industrial automation MELAYANI SERVICE SEMUA MERK DAN TERA METROLOGY LEGAL TOTAL INDUSTRIAL MACHINERY : Stones Crusher Plant, Batching Plant , Bagging Scale , Conveyor Check Weigher , Conveyor belt scale , Aspalt mixing plant INDUSTRIAL AUTOMATION ; Electrical and control panel touch sceen , programable , database INDUSTRIAL INSTRUMENT Floow control, Temperatur control , Mouisture control TOTAL Weighing Solution and Automation            ","
              OFFICE 1 / WORKSHOP : Jl. Pranti Semampir RT 10 / RW 04, Samping Perum OASIS Village, Sedati, Sidoarjo 61253OFFICE 2 : Jl. Gunung Anyar Tengah No. 58A, Surabaya 60294 , Telp           ;  081357505788 081331599789Email        ;  avodamitra@yahoo.com            ",Sidoarjo,Jawa Timur,+62 813-5750-5788,+62 813-3159-9789,None
Surabaya Cool,"
PREMIUM RUBY
",Elektronik Konsumen,"
              CV. Surabaya Cool adalah global supplier untuk produk tube cleaning systems, industrial vacuums, cooling tower maintenance systems, dry steam sanitation solutions, descaling systems, coil cleaning products, hose & pipe cleaning systems, dan lain-lainSurabaya Cool berdiri sejak 2010 sebagai authorized distributor dari GOODWAY USA. Solusi inovatif Goodway Indonesia, digerakkan oleh teknologi digunakan oleh kontraktor, insinyur, dan profesional pemeliharaan di seluruh dunia untuk melakukan tugas pemeliharaan rutin lebih cepat, lebih mudah, lebih aman, dan dengan lebih banyak efisiensi.Surabaya Cool menyediakan

GOODWAY HVAC TUBE CLEANER
GOODWAY CHILLER TUBE CLEANER
INDUSTRIAL VACCUM EQUIPMENT
AMERICAN AIR FILTER|AAF
ALCO VALVE
THERMOSTAT
COMPRESSOR
INDUSTRIAL VACUUM ACCESORIES
SPAREPARTS PENDINGIN
PIGS
Grindres
Sparepart Komatsu

Surabaya Cool menjual Teknologi Goodway memproduksi produk-produk pemeliharaan industri khusus untuk beragam pasar termasuk HVAC, Energi, Maritim, Manufaktur dan Produksi Makanan dan Minuman. Produk-produk Goodway Indonesia telah digunakan oleh fasilitas dan personil pemeliharaan pabrik di seluruh dunia untuk pemeliharaan sistem HVAC, mesin pabrik, pembersihan bahan berbahaya, pembersihan permukaan dan sanitasi, dan kebutuhan pemeliharaan industri penting lainnya. Selain itu kami merupakan distributor untuk JAPAN AIR FILTER. Japan Air Filter (JAF),MERUPAKAN Produk & Solusi Pemurnian Udara yang DI PAKAI luas di seluruh dunia.            ","
              Jl. Wiguna Tengah IX No. 25, Gunung Anyar, Surabaya            ",Surabaya,Jawa Timur,+62 812-3316-8461,None,None
CV. JATIM TRONIK - Surabaya - Jawa Timur - Indonesia,"
PREMIUM BLUE ONYX
",Elektronik Konsumen,"
CV. JATIM TRONIK, merupakan salah satu perusahaan Supplier Timbangan dan Perlengkapannya, dengan bidang-bidang usaha sebagai berikut : 1) Menjual Segala Jenis Timbangan Elektronik dan Timbangan Mekanik. 2) Menjual Timbangan Truk / Timbangan Jembatan, Timbangan Ternak, Timbangan Lantai (Platform), Timbangan Analytic, Timbangan Duduk, Timbangan Portable, Timbangan Pocket. 3) Menjual Indicator, Load Cell, Weighing System ( Hopper, Batching, dan Bagging). 4) Menjual Accessories Timbangan, Personal Computer, Software Timbangan Jembatan, Printer. 5) Menerima Service, Reparasi, Instalasi, Modifikasi Segala Jenis / Merk Timbangan. 6) Melayani Konsultasi Permasalahan Timbangan dan Perlengkapannya. 7) Fabrikasi Konstruksi Timbangan, Pembuatan Pondasi Timbangan, dan Rumah Timbangan. 8) Melayani Jasa Tera Baru dan Tera Ulang,  Jasa Kalibrasi, Sertifikasi UTTP (Ukuran Takaran Timbangan dan Perlengkapannya) ","
              Jl. Raya Merak No.53 Rewwin Waru            ",Surabaya - Sidoarjo,Jawa Timur,+62 856-0856-2121,+62 813-3090-9696,None
ABP Mandiri,"
PREMIUM BLUE ONYX
",Elektronik Konsumen,"
              Abp Mandiri berdiri pada tahun 2005. Perusahaan Kami bergerak dalam produksi logam khususnya untuk spare part sepeda motor. seperti begasi, tutup mesin, setir, planger, pedal rem, paha rem, dll. untuk saat ini, pangsa pasar kami meliputi wilayah jawa, jakarta, bali, kalimantan dll.            ","
              Jl. Kol. Sugiono Ngingas Selatan No. 14B            ",Rt. 03 Rw. 01 Waru Sidoarjo,Jawa Timur,+62 857-3164-0001,+62 812-3276-743,None
CV. MULYA SCALE,"
                                    PREMIUM GOLD
                                ",Elektronik Konsumen,"
              Perusahaan kami bergerak dalam bidang Spesialist Industri, Import, Supply dan Jasa Service Timbangan Elektronik / Digital untuk semua merk dan type Timbangan Digital / Truck Scale / Jembatan Timbang dengan berbagai macam merk, type dan kapasitas, Kami menjual berbagai macam dan merk Timbangan, Indikator dan Load Cell dari kapasitas kecil ( Lab) sampai besar ( Jembatan Timbang) sesuai dengan kebutuhan Industri. Kami juga melayani service / repair timbangan berbagai merk dan berbagai kapasitas terutama JEMBATAN TIMBANG. Dengan didukung oleh tenaga professional yang spesialis dan berpengalaman di bidang timbangan. Kami akan memberikan pelayanan dengan baik, Pengalaman kami telah terbukti dalam hal pelayanan customer, baik di kota Surabaya, Jawa Timur, dan kota besar lainnya di seluruh Indone 1. Timbangan Laboratory : Analytical Balance, Balance Scale, Micro Balance 2. Timbangan Produksi : Simple Weighing, Counting Scale, Pricing Scale 3. Timbangan Produksi : Platform Bench Scale, Hybrid Scale, Pallet Scale 4. Timbangan Gudang : Floor Scale, Crane Scale, Forklift Scale 5. Timbangan Truk : Pitless Type, Pit Type, Shallow Pit Type 6. Timbangan Sistim : Batching Scale, Hopper Scale, Filling Scale 7. Timbangan Mesin : Conveyors Scale, Check Weighing, Tank Scale 8. Part : Loadcell, Indicator, Juction Box, Extenal Display 9. Aksesoris : Mounting, Software, Printer 10. Dan Lain - Lain Menjual / Menerima SErvice / Tera segala merkTimbangan, Indikator serta loadcell dari kapasitas sampai besar( timbangan laborat sampai jembatan timbang) . AND - HOSSE-L - ZEMIC - AVERY - SONIC - EXCELLENT - GSC - CAS - UScell - GREAT SCALE - KELI - KUBOTA - CELTRON - PT - TEDEA - GRAINS - PRESICA - UWE - CARDINAL - HBM - VISHAY - USCELL - VMC - TOLEDO - SARTORIUS DLL HARGA BERSAING...BUKTIKAN ! ! ! ! ! ! CV. MULYA SCALE JL. LARANGAN KENJERAN SURABAYA 085100848948 - 081231634657 EMAIL : mulyascale@yahoo.co.ikd            ","
              Jl. Larangan III/22 - KENJERAN - SURABAYA            ",SURABAYA,Jawa Timur,+62 812-3163-4657,None,None
CV DUTA SENTOSA DANJAYA,"
                                    PREMIUM GOLD
                                ",Elektronik Konsumen,"
              CV. DUTA SENTOSA DANJAYA merupakan perusahaan yang bergerak dibidang digital weighing scale.Kami Melayani :- Pembuatan jembatan timbang (spesialist pengadaan jembatan timbang baru)- Service jembatan timbang segala merk- Tera ulang /tera baru jembatan timbang- Modifikasi jembatan timbang- Sparepart jembatan timbang ,loadcell ,indikator,juncion box dll- Supplier berbagai jenis timbangan (floor scale, animal scale, begging scale, palet scale, analitical scale dan lain-lain.Merk Indikator yang kami sediakan antara lain :AND, GSC, CAS KOREA, EVERY WEIGHT TRONIK, SONIC, DLL.LOADCELL : KUBOTA BMLS, AND, PT, MK CELL, ZEMIC, KELLI, CAS, FLINTEC, EVERY, TEDEA, DLL.TIMBANGAN DIGITAL , LOAD CELL , TENSION LOADCELL, COMPRESSION / CANISTER LOADCELL, SHEAR BEAM LOADCELL, SINGLE POINT LOADCELL, BENDING TYPE, SPECIAL LOADCELL FOR TANK AND HOPPER, LOADCELL BERGARANSI, WEIGHING INDICATOR , BENCH SCALE, FLOORSCALE , BAGGING SYSTEM, FILLING SYSTEM , CAS KOREA , BERDAGANG DAN SERVIS JEMBATAN TIMBANG , AUTOMATION SYSTEM, WEIGHING CONVEYER, CHECK WEIGHER, TRUCKSCALE dan masih banyak produk lainnya.Kami juga melayani indent loadcell bilamana tidak terdapat di pasaranDikerjakan dengan tenaga berpengalaman di bidang pembuatan jembatan timbang untuk menghasilkan jembatan timbang yg  berkualitas dan akurat.            ","
              Griya Permata Gedangan Blok L2-32, Gedangan Sidoarjo, Jawa Timur, Indonesia.            ",Sidoarjo,Jawa Timur,+62 812-1610-4087,+62 857-8515-2105,+62 812-3570-304
Selatan Jaya Plastik Surabaya,"
                                    PREMIUM GOLD
                                ",Elektronik Konsumen,"
Selatan Jaya Merupakan Distributor Plastik Di Surabaya, Kami jual harga grosir produk Barang Plastik, Barang Perlengkapan Makan minum, Perlengkapan Mandi, Perlengkapan masak Dapur, alat kebersihan, Perlengkapan Rumah Tangga, Produk Pecah Belah Dll. 
Hubungi Kami : 
SELATAN JAYA PLASTIK 
0313520648 / 0313542351 / 081331351580
Songoyudan 31b, Surabaya Surabaya Jawa Timur , Indonesia

Produk Melamin, Stainless Steel, Alumunium, Merk Pabrik Napolly, Tms, Ag, Ks, Kaisha, Ikimura, Maspion, Lion Star, Calista, Olympia, Produk China, Dll
 
Kategori Produk Yang Kami Jual
 
Perlengkapan Ruang Tamu:
Kursi Plastik, Meja, Lemari, Keset, Karpet, Sapu, Pel Gagang, Sekrop Plastik, Asbak Melamin.
 
Perlengkapan Di Ruang Makan:
Keranjang Plastik Industri Krat, Sendok, Garpu, Piring, Mangkok, Toples Plastik, Mug, Gelas, Cangkir, Teko, Ceret, Lunch Box, Tempat Sendok, Tempat Sambal, Tutup Sayur Segi, Tutup Sayur Bulat, Jumbo Tras, Eskan, Thermos, Rantang, Wakul, Ompreng, Sealware, Water Jug, Baki, Rantang Catering.
 
Perlengkapan Dapur:
Wajan Alumunium, Kompor Hock, Panci, Kuali, Priuk, Pisau , Rice Cooker, Mixer, Magic Com, Blender, Magic Jar, Rice Bucket, Tudung Saji, Tempat Nasi, Dandang, Oven, Serbet, Industri Krat, Rak Piring, Tampa, Nampan, Niru, Baki, Erus, Eros, Entong, Sutil, Kitchen Set, Panggangan, Sumbu Kompor, Pressure Cooker
 
Perlengkapan Kamar Mandi:
Tempat Sabun, Bak Bayi, Ember, Timba, Baskom, Waskom, Tong Air, Gayung, Kaca Pretty, Gentong, Jirigen.
 
Perlengkapan Kamar:
Gantungan Baju, Hanger, Jepit Baju.
 
Perlengkapan Rumah Tangga:
Keranjang Pakaian, Rak Sepatu, Keranjang Sampah, Pot Bunga, Kursi Taman, Kursi Anak, Kursi Makan, Kursi Bakso, Celengan, Tikar, Kemucing, Container, Bola, Big Boxer, Saringan, Tandon.
 
  ","
              surabaya            ",surabaya,Jawa Timur,+62 813-3135-1580,None,None
CV. CIPTA INDO  TEKNIK,"
                                    PREMIUM GOLD
                                ",Elektronik Konsumen,"
              CV.CIPTA  INDO  TEKNIK Bergerak Di Bidang SUPPLIER Timbangan Digital,Kami Juga Melayani Service Timbangan Digital & Mekanik Segala Merk.Jenis Produk Yang Kami Jual :1.Jembatan Timbang  ( Truck Scale )2.Timbangan Lantai   ( Floor Scale   )3.Timbangan Gantung  ( Crane Scale )4.Timbangan Pallet      ( Handpallet Scale )5.Timbangan Duduk    ( Bench Scale   )6.Timbangan Analitik   ( Analitychal Scale )7.Timbangan Meja      ( Weighing Scale )8.Loadcell 9.Indicator10.Junction Box 11.Spare Part Dll.Percayakan Kebutuhan Timbangan Digital Anda Kepada Kami Serta Bergaransi PastiUntuk Informasi : Hubungi CV.CIPTA INDO TEKNIK Jl.Manukan Bhakti IV / 1 Blok 20 i No.1Tandes - Surabaya HP.081263893601 WA : 081252277588Fax.031.5631015Email : ciptaindoteknik75@yahoo.co.id            ","
              Jl.Manukan Bhakti IV /1 Blok 20 i No 1Tandes - Surabaya            ",Surabaya,Jawa Timur,+81 263-89-3601,None,None
Sumber Jaya Surabaya,"
                                    PREMIUM GOLD
                                ",Elektronik Konsumen,"
              Sumber Jaya Surabaya adalah yang menjual berbagai macam barang sesuai dengan kebutuhan kita seperti aki kendaraan, rumah , lampu ,pengadaan Projek Solar cell, dll baik secara eceran maupun grosir. Adapun kami bergerak dibidang : - ACCU = Menjual berbagai macam aki Kendaraan mobil dan sepeda motor/ aki alat berat, aki moge, aki Genset, aki forklif, aki UPS, aki mainan anak, aki kapal, aki Solar cell, battery industri dengan berbagai macam Type & Merk yang berkualitas & bergaransi. Selain itu kami juga menerima atau membeli Aki bekas/ rusak anda dengan harga yang tinggi.-Paket Solar cell = PJU Solar cell, Solar Home Sytem (SHS) , PLTS terpusat , Lampu Taman Tenaga Surya , Pompa Air Tenaga Surya , Genset Tenaga MAtahari, Solar charge Controller (BCR) , Box Panel , dll-Pengadaan dan service UPS (Uninterruptible Power Supply)=Kami menyediakan berbagai macam merk UPS seperti : Laplace, Ica, Vektor , Socomex, dll) dan menerima service ups dan ganti battery  - Property & Bahan Bangunan Menjadi agen property bagi anda yang hendak membeli maupun menjual rumah. Juga menjual Tandon air beton dengan harga murah. Serta kami membuka cabang khusus untuk membangun serta merenovasi rumah atau bangunan ( kontraktor) dengan sistem pembayaran per periode. - Solar cell ( Energi Terbarukan) Penyedia macam-macam kebutuhan projek Solar cell di Nusatara Indonesia , Seperti Projek PJU tenaga Surya, Solar Home System ( SHS) , Projek Solar Panel Terpusat . - Kontraktor Mekanikal elektrikal Menyediakan Jasa ME untuk keperluan Kantor , Mall, PAbrik, Bandara, Gedung , ruko, toko, maupun rumah tangga. - Dan masih banyak lagi bidang-bidang lain yang kami bisa tawarkan untuk anda. Anda bisa mengklik "" Info Perusahaan"" , "" Katalog Produk"" , "" Penawaran Dagang"" dan "" Hubungi Kami"" untuk melihat isi dan informasi lain dari situs Sumber JAya Surabaya.            ","
              Jalan Medokan Ayu MA1- H14, Medokan Ayu, Rungkut.- No.telp Marketing : (0823 3549 3766 Kantor), (0822.444.54.123 Fara), (081.369.202.202 Candra)  ",Surabaya,Jawa Timur,+62 822-4445-4123,None,None
CV. Flindex Kreasindo Utama,"
                                    PREMIUM GOLD
                                ",Elektronik Konsumen,"
Selamat Datang di Website CV. Flindex Kreasindo Utama. Kami merupakan perusahaan yang berdiri sejak tahun 2020 bergerak dalam bidang penyediaan berbagai macam komponen elektrikal dan jasa pembuatan panel istrik.  Kami berada di Ruko Segi 8 Blok A-815 Surabaya. Temukan berbagai produk terbaik kami (komponen elektrikal) dengan kualitas dan harga jual terbaik yang bisa Anda dapatkan. ","
              Jln. Pattimura, Ruko Segi 8 Blok A-815 Surabaya, Jawa Timur, Indonesia            ",SURABAYA,Jawa Timur,+62 819-1108-1358,None,None
Mitra Usaha Mandiri CV,"
                                    PREMIUM GOLD
                                ",Elektronik Konsumen,"
Kami adalah perusahaan produsen dan penyalur barang-barang keperluan industri dan rumah tangga, diantaranya :
- Pengolahan air bersih dan air minum diantaranya : filter air bersih, filter air PAM, filter air sumur, filter air sungai, filter air danau, filter air limbah, filter softener, filter demineraliser, filter besi dan mangan, filter demin TDS = 0, filter penjernih air rumah tangga, filter RO alkalin, filter kolam renang, mixed bed filter, filter ultra filtrasi dan lain-lain.
- Filter Media, diantaranya : Pasir silika Bangka, pasir silika Lampung, pasir silika Tuban, pasir silika Rembang, gravel silika, batu silika, tepung silika, pasir aktif, resin kation, resin anion, resin softener, resin mixed bed, resin Purolite, resin amberlite, resin dowex, resin lewatit, karbon aktif AXO, karbon aktif KSH, karbon aktif powder, karbon aktif granular, karbon aktif tempurung kelapa, karbon aktif batu bara, karbon aktif premium, karbon aktif davao, karbon aktif Haycarb, antrasit filter media lokal, antrasit filter media import, ferrolite, manganese green sand, zeolit dan manganese green sand plus. 
- Mendesain Dan Merakit Pembuatan Air Demin Dari Bahan Abaku Air Laut, Air Payau, Air Tawar Dll.
- Mendisain Dan Merakit Pengolahan Air Baku Menjadi Air Minum Sehat Dengan Kualifikasi Tertentu, Seperti Air Alkali (Ph 8), Air Anti Oksidan, Air Murni (Tds)Kami menyediakan Mesin Ro Air Laut, Mesin Ro Air Payau, Mesin Desalinasi Air Laut, Mesin Penyulingan Air Laut, Mesin Pengolah Air Laut Menjadi Air Tawar, Mesin Swromesin Ro Murah, Jual Pasir Silika Murah, Agen Pasir Silika, Distributor Pasir Silika. ","
              Jl. Pucang Anom no. 22, Surabaya             ",Surabaya,Jawa Timur,+62 812-3459-0404,+62 822-3333-4224,None
PT.YAMASU-SURABAYA,"
                                    PREMIUM GOLD
                                ",Elektronik Konsumen,"
PT. Yamasu adalah perusahaan distribusi industri solusi teknik untuk basis klien yang substansial di industri otomotif, kedirgantaraan, kelautan dan umum. Sejak tahun 1975, Yakin Maju telah mendorong produktivitas dan efisiensi dengan memberikan solusi dalam proses pembuatan presisi. Portofolio beragam produk kami terdiri dari alat pemotong, mesin, peralatan mesin dan peralatan metrologi berteknologi tinggi yang bersumber dari seluruh dunia dengan cermat. Produk dan layanan Yakin Maju melayani baik perusahaan besar maupun bengkel kecil.
 Dengan 5 cabang utama di Jakarta, Cikarang, Bandung, Semarang dan Surabaya, kami dapat memberikan saran teknis, pemecahan masalah, dan layanan perbaikan kepada pelanggan, pengiriman tepat waktu, dan kunjungan di lokasi untuk memahami kebutuhan dan tantangan khusus Anda. 
 Untuk melayani kebutuhan pelanggan kami yang luas dan terus berkembang, kami terus berupaya memperluas portofolio produk dan kemampuan teknis kami ","
              Pertokoan Aneka Graha Asri, Jl. Ngagel 179-183 Kav. 19, Ngagel, Wonokromo, Kota SBY, Jawa Timur 60246            ",surabaya,Jawa Timur,+62 813-6412-6451,None,None
ANSHELL PLASTIC & PACKAGING,"
                                    PREMIUM GOLD
                                ",Elektronik Konsumen,"
Selamat Datang di Website PT Anshell Jaya. Kami merupakan perusahaan yang berdiri sejak 2013 bergerak dalam industri Botol Kosmetik, Botol Minuman Dan Minyak Goreng, Botol Minuman , Botol Farmasi, Aneka toples PET, Botol Pupuk Pertanian. Kami berada di Jl Ruko Kingstwon KK-2 Citra Raya. Temukan berbagai produk terbaik kami (Kemasan Botol, botol minuman, botol pupuk, plastik PET, botol kosmetik, Botol murah) dengan kualitas dan harga jual terbaik yang bisa Anda dapatkan. ","
              Ruko Kingstown KK-02 Citraraya            ",Surabaya,Jawa Timur,+62 851-0058-2398,None,None
PT. Sumber Arum Abadi,"
                                    PREMIUM GOLD
                                ",Elektronik Konsumen,"
              Anda butuh alat laboratorium dan reagents microbiology, segera hubungi Perusahan kami"" . PT. SUMBER ARUM ABADI adalah distributor atau subdistributor supplier importir resmi Indonesia yang bergerak dibidang alat Laboratorium dan Microbiology di Surabaya Jawa Timur Indonesia , Dengan Merek Sebagai berikut : acumedia from neogen corp USA, merck KGaA Germany, sigma aldrich USA, waters For HPLC Ireland, ridacount, copan italy, biooscientific, difco, atago, bd, bbl, memmert, hirayama, atago, thermo scientific, thermolyne, funke gerber germany, warring, hach usa, olympus, seedburo, all american, vwr, sibata, horiba, uetech, yellowline, wildco, takemura, ATCC gibson laboratories Inc., As-One, pyrex, brand, biohit, axygen scientific, AZ Taiwan, boeco germany, gast vacuum pump, optika italy Microscope, motic Microscope, interscience france, hettich, and balance Japan, Ohaus Balances and Scale USA, mettler toledo balance USA, presica balance taiwan, kern balances germany, eppendorf, testo, velp scientifica, KNF neuberger, nabertherm vaccuum Pumps Germany, advantec toyo kaisha Ltd. Japan, kett Science And Sensing USA, eppendorf jerman, hanna instrument, IKA, hanil centrifuge taiwan, kern balances germany, GFL water still USA, acumedia, biogen, seward, wildco, haws, seward uk, witega germany, microessential, yazumi, neofilm neogen usa, pobel water stills spain, parafilm m bemis company inc. usa, sanita-kun japan, spectrum instruments australia, analytik jena germany, funke gerber germany, organomation usa, gibertini italy, stat fax 4200 microplate reader, stat fax 4700 microwell reader, automated elisa analyzer iea, labomed in. usa, deltatrak usa, miccroessentiallab usa dll Produk / Jasa Utama Distributor, importir, Agent Resmi ACUMEDIA NEOGEN CORPORATION USA, SEWARD UK, WITEGA BERLIN GERMANY DLL sbb: NEOGEN CORPORATION USA DI INDONESIA PT. Sumber Arum Abadi authorized Distributor of the complete line of food safety diagnostic product manufactured by NEOGEN CORPORATION, LANSING MI, USA COMPANY di Indonesia. Produk NEOGEN yang kami tawarkan untuk keperluan laboratorium antara lain, ACUMEDIA Dehydrated Culture Media, Mycotoxin Test kit, Genaral Microbiology Test Kits, Foodborne Pathogen Test Kits, Food Alergen Test Kits, Food Adulterant Test Kits, Sanitation Test Kits, Drug Residue Test Kits, Natural Toxin Test Kits, Speciation Test Kits, Pesticide Residue Test Kits, Sulfite Residue Test Kits Aplikasi produk ini dapat digunakan untuk industri makanan dan minuman, farmasi, klinis, universitas, sekolah dan banyak lagi. Neogen NeoFilm USA Distributor, importir, agent, dealer resmi di indonesia produk Neofilm Neogen USA untuk Rapid Test For Microbiology. Produk Neofilm yang kami tawarkan sudah AOAC Approval untuk keperluan laboratorium anda di antaranya adalah sbb: Item No. Product 6620 NeoFilm for Aerobic Count 6625 NeoFilm for Rapid Aerobic Count 6630 NeoFilm for Coliform Count 6635 NeoFilm for E. coli / Coliform Count 6640 NeoFilm for Yeast and Mold Count 6645 NeoFilm for Staphylococcus aureus Count. SEWARD INDONESIA PT. Sumber Arum Abadi Distributor resmi indonesia stomacher 80, stomacher 400 circulator, stomacher 3500, stomacher bags, stomacher accessories made in Seward UK Inggris Kualitas terjamin untuk standard laboratorium di Indonesia. ALL AMERICAN USA DI INDONESIA PT. Sumber Arum Abadi adalah supplier, subdisdistributor, distributor, agent, importir resmi all American USA di Indonesia produknya meliputi : Pressure Canner/Cookers | Sterilizers | Automatic Can Sealers, all American USA 25x, all American USA 50x, all American USA 75x, spare part dll. MEMMERT INDONESIA PT. Sumber Arum Abadi supplier, agent, importir ,distributor, subdistributor resmi produk memmert di Indonesia. Produk memmert: Oven, Incubator, Water Bath, Humidity Chamber, CO2 Incubator, Oil Bath, Water Bath, Environmental Chamber dll. HACH INDONESIA PT. Sumber Arum Abadi supplier, agent, importir ,distributor, subdistributor hach indonesia Specialist Water Analysis di Indonesia hach untuk keperluan analisa air minum, air limbah dan lingkungan antara lain: pH Meter, DO, COD, BOD, Organic, TSS, Non-Organic dll. SANITA-KUN JAPAN DI INDONESIA Importir, distributor, subdistributor resmi di indonesia produk SANITA-KUN Japan Rapid Test For Microbiology. Produk SANITA-KUN yang kami tawarkan untuk keperluan laboratorium di antaranya: 1. Aerobic Count, 100 sheet/pk Sanita-Kun 2. Coliform, 100 sheet/pk Sanita-kun 3. Staphylococcus aureus, 100 sheet/pk Sanita-kun 4. E.coli/Coliform, 100 sheet/pk Sanita-Kun 5. Salmonella, 100 sheet/pk Sanita-Kun 6. Aerobic Count rapid test, 100 sheet/pk Sanita-kun 7. Yeast & Mold Rapid test, 100 sheet/pk Sanita-Kun GIBERTINI ITALY DI INDONESIA, PT. SUMBER ARUM ABADI ADALAH IMPORTIR, DISTRIBUTOR, AGENT, SUPPLIER RESMI TIMBANGAN GIBERTINI resmi di indonesia Produknya diantaranya ELECTRONIC BALANCES FOR OENOLOGY, INDUSTRIAL AND PAINTS YANG COCOK UNTUK LAB ANDA KARENA KUALITAS DAN AKURASI YANG HANDALSBB: Analytical Scales Toploading Scales Moisture Scales Micro Scales Yeast Counter Hydrostatic Scales Electronic distilling units Thermostatic baths Oenological analyzer Densimeters High precision piece-counting scales and platforms Scales to be used in hazardous environments ORGANOMATION USA DI INDONESIA. PT. Sumber Arum Abadi adalah distributor, importir, AGENT, SUPPLIER resmi Organimation Usa DI INDONESIA yang diantaranya produknya untuk tes nitrogren evaporator yang sangat berkualitas dan bermutu tinggi typenya sbb: Nitrogen Evaporators N-EVAP Product Line MULTIVAP Product Line MICROVAP Product Line Solvent Evaporators S-EVAP-KD Product Line S-EVAP-RB Product Line Solvent Extractors ROT-X-TRACT-L ROT-X-TRACT-S ROT-X-TRACT-LC Laboratory Chillers LABOMED INC. USA DI INDONESIA, PT. Sumber Arum Abadi adalah distributor, importir, agent, supplier, penjual resmi Labomed Inc. Usa DI INDONESIA yang diantaranya produknya adalah Spectrophotometer UV-Vis yang sangat berkualitas dan bermutu tinggi sangat ideal untuk laboratorium Anda baik lab Industri, perguruan tinggi, rumah sakit, dinas pemerintah dll typenya sbb: UV-Vis Spectrophotometer, Microscopes, Digital cameras for microscopes, cuvette, medical diagnostic product YAZUMI INDONESIA PT. Sumber Arum Abadi supplier, agent, importir ,distributor, subdistributor resmi produk YAZUMI miskroscope, microskop China untuk Lab Sekolah, Lab Industri, Lab Rumah Sakit dan Instansi Pemerintah Baik Yang Binoculair maupun Monoculair atau yang diconnect/ dihubungkan dengan CCD Camera, PC atau Labtop dll OHAUS INDONESIA PT. Sumber Arum Abadi supplier, agent, importir ,distributor, subdistributor resmi OHAUS di Indonesia. OHAUS adalah produsen timbangan asal Amerika Serikat USA. Produk OHAUS yang kami jual adalah: Moisture Balance, Precision Balance, Analytical Balance dan macam-macam timbangan lainnya. dengan harga terjangkau dan kualitas yang tidak diragukan lagi. VELP INDONESIA PT. Sumber Arum Abadi supplier, agent, importir ,distributor, subdistributor resmi VELP di Indonesia. VELP adalah produsen alat laboratorium asal Itali. Produk VELP yang kami jual adalah: Magnetic Stirrer, Vortex Mixer, Overhead Stirrer, BOD Incubator, JLT Flocculator: JLT 4 , Flocculator JLT 6, Kjeldahl Distillation Unit: UDK129, UDK139, UDK149, UDK159, UDK 169, Digestion Unit : DK6, DK6/48, DK8, DK20, DK20/26, DK42/26 dan banyak lagi. LEMARI ASAM ATAU FUMEHOOD INDONESIA PT. Sumber Arum Abadi Distributor resmi fumehood/ fume hood atau lemari asam, enkas, dry oven, colony counter, Laminar, rotator, shaker, magnetic stirer lokal indonesia kualitas internasional bahan berkualitas standard untuk laboratorium industri, rumah sakit, dinas-dinas pemerintah, sekolah, universitas dll MICRO ESSENTIAL INDONESIA PT. Sumber Arum Abadi Adalah supplier, subdistributor, agent, importir, distributor resmi produk micro essential dari USA di indonesia, Selama lebih dari 75 tahun Mikro Esensial Laboratorium, Inc telah memproduksi produk pHydrion digunakan untuk mengukur pH, kemanjuran solusi sanitasi, standar pH buffer dan kit khusus berbagai tes WITEGA LABORATORIEN INDONESIA PT. Sumber Arum Abadi Adalah , Distributor, agent, importir, distributor resmi witega berlin Germany di Indonesia. Produknya meliputi sintesis laboratorium komponen organik sintetik, bahan aktif, bahan kimia dan zat referensi, pembuatan stabil isotop-ditandai senyawa DeltaTRAK USA di INDONESIA PT. Sumber Arum Abadi adalah distributor, agent, importir resmi DeltaTRAK USA di Indonesia. Produk DeltaTRAK USA diantaranya adalah USB Loggers Data Loggers, Chart Recorders, Thermometers, ColdTRAK, TTI, Wireless, Bacteria Testing, Shelf Life, Thermal Labels, ISFET pH Meters, Safety Products, Timers yang semuanya produknya berkualitas cocok untuk lab industri, pemerintah, Universitas, sekolah dll IKA GERMANY IN INDONESIA PT. Sumber Arum Abadi adalah supplier, subdisdistributor, distributor, agent, importir resmi IKA GERMANY di indonesia diantara produknya adalah mixing, heating, distilling and crushing applications. IKA has gained a leading position in the world market with its innovative magnetic stirrers, mixers, overhead stirrers, shakers, homogenizers, mills, rotary evaporators, calorimeters, laboratory reactors and specially developed software for laboratory and analysis applications yang cocok untuk kebutuhan laboratorium Anda. HANNA INSTRUMENTS IN INDONESIA PT. Sumber Arum Abadi adalah supplier, subdisdistributor, distributor, agent, importir resmi HANNA USA di indonesia diantara produknya adalah : Checker HC , Chemical Test Kits , pH Meters, pH/ORP Meters, Ion Selective, pH/ORP/ISE/Meters, Conductivity/TDS , Digital Refractometers , Dissolved Oxygen, Multiparameter , Fertigation Systems , Titration Systems , Chemical Oxygen Demand, Photometers , Turbidity , Temperature , Relative Humidity , Magnetic Stirrers , Mini Panel Controllers , Process Instrumentation , Dosing Pumps , Lux Meters , Reagents, Solutions , Accessories , Hanna Sanitation Systems POBEL WATER STILLS SPAIN DI INDONESIA PT. Sumber Arum Abadi adalah supplier, subdisdistributor, distributor, agent, importir resmi POBEL WATER STILLS SPAIN di Indonesia Produknya diantaranya : Water Stills, DESA TANK, Water Stills, DESA, Water Stills, Model 704, Water Stills, Model 710, Water Stills, Model 720, Water Stills, Model 804, Water Stills, Model 811, Water Stills HYDRO, Water Stills SERI BIHYDRO Parafilm Bemis Company, Inc. USA PT. Sumber Arum Abadi adalah supplier, subdisdistributor, distributor, agent, importir resmi Parafilm M Bemis Company Inc.USA di Indonesia, Produksi tape self sealing yang sudah bertahun-tahun dipecaya untuk aplikasi laboratorium klinis dan industri tersedia dalam model roll sbb: 2″ x 250′ | #PM992 4″ x 125′ | #PM996 20″ x 50′ | #PM998 4″ x 250′ | #PM999 OPTIKA ITALY DI INDONESIA OPTIKA didistribusikan , penjual, supplier, subdistributor, importir oleh PT.SAA. OPTIKA Mikroskop adalah divisi mikroskop optik sebuah perusahaan yang didirikan lebih dari 30 tahun yang lalu sebagai aktor kunci dalam bidang instrumentasi ilmiah. Sebuah tim lebih dari 40 orang di 4 lokasi Eropa bekerja pada pengembangan model baru, produksi, kontrol kualitas, pasokan dan layanan purna jual. Sebuah jaringan distributor lokal meluas ke pengguna akhir keunggulan OPTIKA dalam kualitas, inovasi, harga yang kompetitif dan bantuan. OPTIKA Mikroskop menawarkan lebih dari 80 model mikroskop yang berbeda, dengan aksesoris penuh, untuk bidang yang paling beragam dari mikroskop optik. Sebuah pasar yang menantang, yang OPTIKA Mikroskop pendekatan dengan profesionalitas dan komitmen. FUNKE GERBER GERMANY DI INDONESIA Funke gerber GERMANY adalah Member of German Machinery and Plant Manufacturers Association, yang memproduksi alat-alat laboratorium khususnya spesialis untuk tes atau analisa susu/milk analysis dan analisa bir/alkohol/beer analysis yang sangat berkualitas tinggi karena Funke-Dr.N.Gerber Labortechnik GmbH berdiri sejak tahun 1904, sangat cocok digunakan untuk laboratorium di perguruaan tinggi, industri, dinas-dinas pemerintah, BUMN dll. produknya diantaranya colony star 8500, cryostar I, Fermento flash, Lacto star, lacto flash analyzer, nova safety, ph4440 conductivity ph redox, super nova centrifuge, waterbath wb 436 dll            ","
              Ruko Graha Indah Blok B No.4 Kec.GayunganJl. Gayung Kebonsari            ",Surabaya,Jawa Timur,+62 851-0060-5225,+62 812-3203-447,+62 811-3638-517
SURABAYA GEMILANG,"
                                    PREMIUM GOLD
                                ",Elektronik Konsumen,"
Sejahtera Gemilang Surabaya merupakan Perusahaan yang konsen di Bidang :

PABX PANASONIC
CCTV
IP CAM
FAX
Billing System

Kami melayani Service :

PABX
Service CCTV
Service Fax
Pemasangan, Setting dan Program, Bongkar-Pasang Ulang dan Lain Sebagainya


-----
Hubungi Kontak Kami Sekarang untuk Dapatkan Penawaran Terbaik dan Harga Bersaing (CALL/WHATSAPP)
• Phone : 0812-3425-6389 (Amar Hasan)
• e-Mail : pabxgemilang@yahoo.com
• Website : www.JualPabxCctv.com
 ","
              • Head Office : Jln. Gayungan III No. 14, Surabaya, Jawa Timur, Indonesia• Phone : 0812-3425-6389 (Call or WhatsApp)            ",SURABAYA,Jawa Timur,+62 812-3425-6389,None,None
AGRO LAWU INTERNATIONAL,"
                                    PREMIUM GOLD
                                ",Elektronik Konsumen,"
              AGRO LAWU INTERNATIONAL adalah, komunitas kelompok petani talas satoimo/ talas jepang/ talas safira/ talas Tasa atau bahasa latinnya adalah "" Colocasia Esculenta var Antiquarum "" . AGRO LAWU INTERNATIONAL telah memiliki kebun bibit inti dan kebun plasma. AGRO LAWU INTERNATIONAL juga menyediakan tenaga trampil dan berpengalaman dalam bidang budidaya tanaman talas Satoimo/ Talas Jepang. Budi daya talas satoimo ini telah ditekuni sejak tahun 2005 hingga sekarang dengan wilayah penanaman di wilayah P. Jawa, Bali, Sulawesi, Sumatera dan Kalimantan. Pelatihan pembuatan kompos organik merupakan kegiatan rutin dilakukan dan di aplikasikan kelapangan oleh Agro Lawu International. Alamat : AGRO LAWU INTERNATIONAL Kelurahan Sarangan, Kecamatan Plaosan, Kabupaten Magetan. Jatim. Alamat pelatihan : Jl. Raya Sukanagalih no. 88 Hanjawar-Cimacan Jawa Barat 43255 Faks : ( 0263) 2950101 Contact person : 0813 867 42828 ( Bp. Andi)            ","
              Lara Sati, Kelurahan Sarangan RT/RW - 06/01  Kecamatan Plaosan  Kabupaten Magetan            ",Magetan,Jawa Timur,+62 813-8674-2828,None,None
PT. ALFAN  MECHATRONICS  INNOVATION,"
                                    PREMIUM GOLD
                                ",Elektronik Konsumen,"
PT. ALFAN MECHATRONIS INNOVATION - Malang
perusahaan yang bergerak di bidang mekanikal – elektrikal - plumbing dan  landscape
menerima  jasa mulai dari survey, perencanaan, perancangan, konsultan, estimator, penyusunan RAB, manufaktur, serta pelaksana instalasi
lokasi :
komplek Ruko Grand Hanan blok. A. no.1
alamat :
PT. Alfan Mechatronik Inovasi – Malangjl. Raya Mayjend Sungkono km.4komplek Ruko Grand Hanan, blok A, no.1lokasi:di depan seberang GOR Ken Arok,
Buring – Kedung Kandang, Malang 65132
info profil lengkap :
FACEBOOK : @ KURSUS ELEKTRONIK INDUSTRI MALANG, https://www.facebook.com/alfan.mechatronics.3
INSTAGRAM :
@ALFAN IMAWAN, https://www.instagram.com/alfan_mechatronics_innovation/
e-mail: alfanelektronik@ gmail.com telp: 0341 7500033 kantor085 736 077 434 admin0821 4359 7967 mobile ","
              Komplek Ruko Grand Hannan blok A1, Jl. Raya Mayjend Sungkono km3,lokasi :  seberang jalan berhadapan GOR Ken Arok,Buring - Kedung kandang Malang            ",Malang,Jawa Timur,+62 821-4359-7967,None,None
Barista,"
                                    PREMIUM GOLD
                                ",Elektronik Konsumen,"
              Menjual kopi terbaik retail maupun partai, Kopi mentah, kopi sangrai, bubuk kopi, Blend, salah satu kopi terbaik didunia yang dipersembahkan oleh Indonesia ( kopi Luwak Single Origin Arabika Robusta Liberica excelsa Special tersedia dari Gayo, Mandailing, Lintong, Sidikalang, Bengkulu, Jambi, Dolok Sanggul, Lampung, Jawa Priangan, Jawa Jampit, Jawa Kayumas, Jawa Blawan, Jawa Pancoer, Jawa Karlos, Arjuno, Jawa Sindoro Sumbing, Jawa Dampit, Jawa Rengganis, Jawa Gondoarum, Bali Kintamani, Bali Pupuan, Sambas, Toraja, Kalosi, Sapan, Marinding, Bittuang, Enrekang, Bajawa Flores, Mangggarai, Kupang, Sumbawa, Papua Wamena Baliem Paniai Gayo : medium smooth body, sweet & spicy artinya kekentalan yg pas dengan tipe rasa “ Exotic taste ” yakni cita rasa perpaduan rempah dan buah-buahan. Lintong : full-bodied, soft acidity, hints of fresh herbs & spices , yakni berkarakter kental dengan keasaman yg lembut dan Rasa yg terkesan mirip sayuran. Mandheling : deep full body, earthy with bittersweet chocolate, yakni karakter kopi dengan kekentalan yg agak deep, aroma khas seperti kopi yg lama disimpan ( uniknya mandheling ) dan cita rasa cokelat pada ujung ketika selesai menengguk kopi. Sumatra – intense flavor, with cocoa, earth and tobacco notes Java – good, heavy body, with a lasting finish and herbaceous notes Bali – sweeter than other Indonesian coffees, with nut and citrus notes Sulawesi – good sweetness and body, with warm spice note Toraja Marinding : Excellent aroma and flavor, balance body and acidity, Caramel hints and long finish Flores  - heavy body, sweetness, chocolate, and tobacco notes Papua -  heavy body, chocolate, earth, and spicy finish  Berikut daftar 11 kopi premium Indonesia # Kopi Gayo - Ciri: full bodied, Kekentalan bagus dan keasaman seimbang, rasa cokelat, rasa rempah kompleks, good aftertaste # Kopi Mandailing ( Mandheling) - Ciri: Kekentalan lebih ringan dibanding gayo, keasaman seimbang, rasa cokelat cocoa, tembakau, asap, tanah, dan kayu. # Kopi Lintong - Ciri: Kekentalan bagus, keasaman medium keatas, rasa buah-sayur dengan rasa akhir manis. # Kopi Jawa ( Java) - Ciri: Aroma bagus, kekentalan dan keasaman medium, rasa seimbang dengan rasa akhir herbal dan rempah ringan # Kopi Priangan ( Preanger) - Ciri: Kekentalan dan keasaman medium ringan, rasa dominan gula jawa / sugar browning, short acidity hints of lemony-strawberry # Kopi Toraja - Ciri: Rasa harum bunga floral, keasaman lebih tinggi ( sweet tomatoes, berry-raisin) , lezat, caramel, sweet corn # Kopi Kalosi - Ciri: Kekentalan bagus, keasaman rendah, rasa cokelat dengan sedikit kesan jeruk, rasa tertinggal sedang, tidak mudah dilupakan # Kopi Bali Kintamani - Ciri: kekentalan dan keasaman medium ringan, ada rasa jeruk ( citrus) buah matang pohon dan floral menyenangkan. Short aftertaste, rasa tertinggal cepat # Kopi Flores Bajawa - Ciri: Kekentalan tinggi dan keasaman rendah, rasa cokelat dan vanili dengan karamel alamiah # Kopi Baliem/ Wamena - Ciri: Kekentalan tinggi, keasaman tinggi, balance, rasa cokelat dengan sentuhan tembakau sedikit vanilli, sedikit lemon, aroma kuat, rasa yg kuat, long aftertaste, rasa tertinggal lama. # Kopi Luwak - Lokasi: Sumatera Utara, Sumatera Selatan, Jawa Tengah, Jawa Timur, Bali, dan Tana Toraja. Pengiriman ke Jawa, Sumatera, Kalimantan, Sulawesi, Irian Jaya, Papua, Makassar, Bali, Lombok, Mataram, Jakarta, Surabaya, Medan, Bandung, Pekanbaru, Riau, Bangka, Belitung, Banjarmasin, Sampit, Palangkaraya, Balikpapan, Samarinda, Sampit, Kerinci, Padang, Banten, Tangerang, Cirebon, Cimahi, Manado, Menado, Maluku, Ambon, Pangkalan Bun, Jambi, Padang, Aceh, Batam, Bintan, Nusa Dua, Pangkal Pinang, Tanjung Pinang, Ternate, Biak, Fakfak, Madura, Sampang, Sambas, Bangkalan, Semarang, Salatiga, Sidoarjo, Ngawi, Solo, Kediri, Tarakan, Mojokerto, Denpasar, Kuta, Palembang, Lampung, Kupang, Brebes, Jogjakarta, Yogyakarta, Solo, Salatiga, Malang, Jember, Blitar, Jombang, Banyuwangi, Martapura, Magelang. Aek Kanopan, Arga Makmur, Arosuka, Balige, Banda Aceh, Bandar Lampung, Bagansiapiapi, Baganbatu, Bandar Seri Bintan, Bangkinang, Bangko, Banyuasin, Batam, Baturaja, Batusangkar, Bengkalis, Bengkulu, Binjai, Bintuhan, Bireuen, Blambangan Umpu, Blangpidie, Blang Kejeren, Bukittinggi, Calang, Curup, Daik, Dolok Marawa, Dumai, Gedong Tataan, Gunung Sitoli, Gunung Sugih, Gunung Tua, Idi Rayeuk, Indralaya, Jambi, Jantho, Kabanjahe, Kalianda, Karang Baru, Tinggi, Kayu Agung, Kepahiang, Kisaran, Koba, Kota Agung, Kotabumi, Kota Pinang, Kuala Tungkal, Kutacane, Lahat, Lahomi, Langsa, Lhokseumawe, Lhoksukon, Limapuluh, Liwa, Lotu, Lubuk Basung, Bendaharo, Linggau, Pakam, Sikaping, Manggar, Manna, Martapura, Medan, Menggala, Mentok, Metro, Meulaboh, Meureude, Muara Aman, Muara Bulian, Muara Bungo, Muara Dua, Muara Enim, Muara Sabak, Muara Tebo, Muaro Sijunjung, Mukomuko, Padang, Padang Aro, Padang Panjang, Padang Sidempuan, Pagaralam, Painan, Palembang, Pandan, Pangkalan Kerinci, Pangkal Pinang, Panguruan, Panyabungan, Pariaman, Parit Malintang, Pasir Pengarayan, Payakumbuh, Pekanbaru, Pematang Siantar, Prabumulih, Pringsewu, Pulau Punjung, Ranai, Rantau Prapat Raya, Rengat, Sabang, Salak, Sarila, Sarolangun, Sawahlunto, Sei Rampah, Sekayu, Selat Panjang, Sengeti, Siak Sri Indrapura, Sibolga, Sibuhuan, Sidikalang, Sigli, Simpang Ampek, Simpang Tiga Redelong, Sinabang, Singkil, Sipirok, Solok, Stabat, Subulussalam, Sukadana, Suka Makmue, Sungailiat, Sungai Penuh, Takengon, Tais, Tanjung Balai ( Sumatera Utara) , Tanjung Balai Karimun ( Kepulauan Riau) , Tanjung Enim, Tanjung Pandan, Tanjung Pinang, Tapaktuan, Tarempa, Tarutung, Tebing Tinggi ( Sumatera Utara) , Teluk Dalam, Teluk Kuantan, Tembilahan, Toboal, Tuapejat, Ujung Tanjung            ","
              OperasionalBuka Senin - Sabtu 10.00 - 17.00 / Open Monday - Saturday 10am - 5pm | Tutup  Minggu dan Hari Libur Nasional / Closed Sunday and Public Holiday |House Of Coffee @Barista_ID +6281231259116 | Griya Kebraon Barat 13 CD no. 17 Surabaya (Samping Menara Masjid Madina Luhur)            ",Surabaya,Jawa Timur,+62 812-3125-9116,None,None
Jaya Makmur Abadi,"
PREMIUM RUBY
",Elektronik Konsumen,"
Jaya Makmur Abadi kami bergerak dibidang  Electrical Equipment .
Kami berikan pelayanan dan penawaran terbaik 
Beberapa Produk yang kami sediakan:


Stabilizer Matsuyama
UPS (Uninterruptible Power Supply) ICA dan PROLINK
Kabel Supreme
Macam macam lampu bohlam
Produk Schneider (MCB, Contractor, MCCB, dll) 
Chain Lube Rexco 
Pipa Conduit Clipsal
Switch Hub
Lampu Sorot, dan macam macam lampu lain
Kabel Listrik
dan lain lain.



Harga bisa menghubungi kami melalui WA atau TelponTelp/WA: 085100319097
Email: jayamakmur.abadimdo@gmail.com

 WORKSHOP:
W   Jl. A A Maramis No. 180 Kelurahan Paniki Bawah Kecamatan Mapanget
Manado, Sulawesi Utara ","
              Jl. A A Maramis No. 180 Kelurahan Paniki Bawah Kecamatan Mapanget            ",Manado,Kalimantan Barat,+62 851-0031-9097,None,None
DEPOT SAFETY,"
                                    PREMIUM GOLD
                                ",Elektronik Konsumen,"
              c/o. PT. Citra Total Proteksindo 
Bergerak di bidang Keselamatan dan Kesehatan Kerja [ PJK3 ] Bidang Proteksi Kebakaran. Bidang Kegiatan : Pemasangan dan Perawatan Proteksi Kebakaran meliputi Alat Pemadam Api Ringan (APAR), Instalasi Deteksi Alarm, Hydrant System, Sprinkler System dan System Pemadam Otomatik Integrated.
*ALAT PEMADAM API* Pengecekan, perawatan, servis dan isi ulang, Alat Pemadam Api Kebakaran ( APAR ) dengan berbagai macam merk antara lain : Alat Pemadam Api MAXGUARD, Yamato, Gunnebo, SERVVO, ARINDO, INDOKA, VIKING, PYROMAX, APPRON, CHUBB, STARVVO, VULCAN, FIROTECT, ALPINDO, GUARDALL, PROTECT, dll. Dengan segala jenis media racun api yang digunakan, seperti : ABC POWDER, BC POWDER, HCFC 123, HALOTRON, NAF P IV, CARBON DIOXIDE CO2, BUSA AB, FAOM LIQUID ( AFFF ), Vulcan AF 21, AF 31 (WATER BASED), AF 11, dll. 
Dengan berbagai type, seperti : Portable, Trolly ( Pakai Roda) & Thermatic System, dengan harga yang kompetitif, ekonomis, bergaransi dan jaminan kualitas yang baik sesuai kebutuhan anda, melayani antar jemput atau layanan ditempat Anda.
*FIRE ALARM SYSTEM*
Jasa Pemasangan Baru Instalasi Fire Alarm System dan Jasa Pengecekan Teknis, Perawatan (Maintenance) Fire Alarm System, dengan berbagai macam merk antara lain : APPRON, HOOSEKI, HORINGLIH, HONGCHANG, NOTIFIER, dll.
*FIRE HYDRANT SYSTEM*
Jasa Pemasangan Baru Instalasi Fire Hydrant System dan Jasa Pengecekan Teknis, Perawatan (Maintenance) Fire Hydrant System, dengan berbagai macam merk antara lain : Fire Hydrant APPRON, VENUS, X-FIRE, HOOSEKI, GUNNEBO, ZEKI, OZEKI, ALPINDO, FIROTECT, dll.
*FIRE SPRINKLER SYSTEM*
Jasa Pemasangan Baru Instalasi Fire Sprinkler System dan Jasa Pengecekan Teknis, Perawatan (Maintenance) Fire Sprinkler System, dengan berbagai macam merk antara lain : Fire Sprinkler APPRON, TYCO, SHILLA, NATIONAL, VIKING, dll.
*FIRE INSTALATION SYSTEM*
Jasa Pemasangan Baru Instalasi Fire System dan Jasa Pengecekan Teknis, Perawatan (Maintenance) Fire System, dengan berbagai macam jenis fire system antara lain :  FIRE FOAM SYSTEM, NOVEC 1230 KIDDE, NOVEC 1230 EDWARD, FM 200, CO2 FIRE SYSTEM, FIRE WATER SYSTEM, FIRE DETECTION SYSTEM, HYGOOD, KIDDE SERIES, TYCO, NATIONAL, SYSTEM SENSOR, HONEYWELL, FENWAL, dll.
*VISI DAN MISI*
Menjadi perusahaan keamanan yang terdepan dalam bidang Suplier Alat Proteksi Keamanan dan Service serta instalatir segala macam peralatan keamanan bidang proteksi kebakaran. Memberikan nilai kepuasan terbaik bagi pelanggan melalui harga terbaik, kompetitif, produk dan pelayanan berkwalitas serta garansi yang panjang terjamin mutu produk yg berkelas. ","
              Jl. Sugeng Jeroni No. 72  Yogyakarta            ",Jogja,Daerah Istimewa Yogyakarta,+62 811-2508-699,None,None
PT. JOGJA MITRA PANEL,"
                                    PREMIUM GOLD
                                ",Elektronik Konsumen,"
PT JOGJA MITRA PANEL adalah Perusahaan yang bergerak di Bidang Penyedia Jasa Pelayanan Teknik & Pengadaan Barang dengan cakupan wilayah layanan di seluruh Indonesia khususnya Mechanical dan Electrical Panel.Kami berdiri pada tahun 2014 dengan badan hukum berdasarkan Akta pendirian Perseroan Terbatas, yang menyediakan total solution untuk teknik terutama Panel Listrik. Kami bertekat untuk menjadi Perusahaan Jasa yang terdepan dalam Bidang Teknik dengan selalu memberikan solusi inovatif bagi pekerjaan yang kami laksanakan dengan mengutamakan kepuasan mitra kami.Produk-produk kami meliputi :1. Panel LV (Low Voltage)2. Panel MV (Medium Voltage)Produk / Jasa Utama Menjual : LV Cubicle (Low Voltage Cubicle)1. Capasitor Bank Panel kapasitor umumnya terdiri dari Incoming Panel dan Panel Kapasitor itu sendiri.Panel Incoming Kapasitor terdiri : - ACB, MCCB, LBS.Panel Kapasitor terdiri :- MCCB, FUSE.- kontaktor kapasitor.- Kapasitor.- PFC (Power Factor Regulator).Panel Kapasitor yang Kami Supply memakai produk GAE, VISHAY ESTA ROEDERSTEIN (GERMAN), CIRCUTOR (SPANYOL), Dll.2. LVMDP (Low Voltage Main Distribution Panel) atau PUTR Panel.Panel Distribusi utama ini terdiri dari beberapa komponen untuk beban Distribusi. Panel LVMDP terdiri dari panel Incoming Dan panel Outgoing untuk pendistribusiannya. Panel Incoming terdiri :- ACB up to 6300A.- MCCB up to 1600A dengan Motorize atau dengan Rotary Handle.- Menggunakan metering (Analog Metering / Digital Metering) dan beberapa Aksesories sesuai permintaan.Panel Outgoing terdiri :- MCCB up to 6300A.- MCB up to 125A.Produk yang kami gunakan adalah SCHNEIDER, ABB, Siemens, Chint, Dll.3. LVSDP (Low Voltage Sub Distribution Panel) Panel LVSDP adalah Panel Distribusi kecil yang sumbernya dari Panel LVMDP dan Outgoingnya langsung ke Beban.Design Panel ini adalah Wallmounting atau Terpasang di Dinding Tembok. Incoming dan Outgoing Panel LVSDP ini terdapat dalam 1 Panel. Panel LVSDP terdiri :- MCCB (Incoming).- MCB, ELCB, RCBO (Outgoing).- Metering (Analog/ Digital) dan Aksesories seperti Lampu RST.Produk yang kami gunakan adalah SCHNEIDER, ABB, Siemens, Chint, Dll.4. MCC Panel (Motor Control Center). Panel MCC merupakan tempat pengontrolan operasi motor listrik yang terdiri dari Incoming Panel dan Outgoing Panel. Pengontrolan motor Listrik kami sediakan 2 Mode yaitu Auto dan Manual. Operasi secara Auto kami sediakan terminal untuk bisa di koneksikan ke mode Remote (PLC / DCS) dan Operasi secara Manual yaitu pengoperasian di lokal panel menggunakan tombol Start / RUN dan Stop pada Panel serta tersedia Indikator Lamp Untuk Motor Start, Stop, dan Trip. Panel Incoming terdiri :- ACB up to 6300A.- MCCB up to 1600A dengan Motorize atau dengan Rotary Handle.- Menggunakan metering (Analog Metering / Digital Metering) dan beberapa assesories sesuai permintaan.Panel Outgoing terdiri :- MCCB/ MPCB.- Kontactor. - TOR (Thermal Overload relay).Produk yang kami gunakan adalah SCHNEIDER, ABB, Siemens, Chint, Dll.5. ATS dan AMF Panel ATS (Automatic Transfer Switch) Panel ATS adalah Panel Pemindah Beban yng terdiri dari 2 Incoming. Ada 2 mode Operasi untuk Panel ATS yaitu AUTO dan MANUAL. Mode Auto Memakai Relay atau MODULE dan untuk Mode Manual Memakai COS (Change Over Switch). AMF (Automatic Main Failure) Alat ini berfungsi untuk menyalakan mesin genset jika beban yang di layani kehilangan sumber energy listrik utama/PLN. Untuk panel ini dalam operasinya memakai module AMF. Dalam Aplikasinya Panel ATS dan AMF terdapat dalam 1 panel sehingga fungsi panel bisa menyalakan genset secara otomatis dan memeindahkan beban secara oromatis juga. Panel ATS/AMF terdiri :- ACB up to 6300A.- MCCB up to 1600A dengan Motorize dan dengan Rotary Handel di tambahkan kontaktor untuk kapasitas kecil.- Module ATS/ AMF.- Menggunakan metering (Analog Metering/ Digital Metering) dan beberapa Aksesories sesuai permintaan. Produk yang kami gunakan adalah SCHNEIDER, ABB, Siemens, Chint, Dll. Untuk Module kami menggunakan Deep sea, Lovato, Dll.6. Panel Synchrone Panel Shynchrone berfungsi untuk mensinkronkan Incoming beberapa Genset atau mensinkronkan beberapa genset dengan PLN. Dengan bantuan Module Synchron sehingga sinkron panel bisa beoperasi secara otomatis. Panel Synchrone terdiri :- ACB up to 6300A.- Module Synchrone.- Menggunakan metering (Analog Metering / Digital Metering) dan beberapa Aksesories sesuai permintaan.Produk yang kami gunakan adalah SCHNEIDER, ABB, Siemens, Chint, Dll. Untuk Module kami menggunakan Deep Sea, Lovato, Woodward, Dll.7. AC / DC Distribution Board AC / DC Distribution board adalah sebagai panel penerima daya / power dari transformer (Main) dan atau dari Battery atau UPS dan mendistribusikan power tersebut lebih lanjut ke peralatan electrical.  Design Panel ini Incoming dan Outgoing menjadi 1 panel type Free standing Panel. Panel AC/ DC terdiri :- MCCB- MCB- Menggunakan metering (Analog Metering / Digital Metering) dan beberapa Aksesories sesuai permintaan.Produk yang kami gunakan adalah SCHNEIDER, ABB, Siemens, Chint, Dll.= > MV Cubicle (Medium Voltage Cubicle)1. SM6 Cubicle Panel tegangan menengah (Medium Voltage) disediaan oleh PLN, dan biasanya menjadi tanggung jawab PLN, yang disebut dengan cubicle PLN, yang menghubungkan  jaringan  tegangan menengah PLN dengan cubice gedung. Panel ini terdiri dari 3 macam, yaitu cubicle incoming, metering dan cubicle outgoing.  Panel MV yang lainnya biasanya disebut dengan cubicle pelanggan, yang menghubungan dari panel MV ( cubicle PLN) dengan Trafo. Kami menjual berbagai tipe product SM6 seperti :- IM switch- QM Fused Switch Combination- PM Fused Switch- DM Single Isolation Disconectable SF6 type Circuit Breaker- Dll.Kontak Person : Bapak Saiful AnamEmail : jogja.mitra.panel@gmail.com atau sales@jogjamitrapanel.comHP : 0813-2147-3122 ","
              Jln. Piyungan Prambanan Km 2.5 No. 23 Bantul Yogyakarta, Jawa Tengah, Indonesia            ",BANTUL,Daerah Istimewa Yogyakarta,+62 813-2147-3122,None,None
Citra Karya Teknik,"
PREMIUM RUBY
",Elektronik Konsumen,"
              Kami adalah perusahaan instalasi peralatan sekuriti seperti CCTV, Access control, Guard Tour System dll. Kami menjual berbagai peralatan keamanan mulai dari jual cctv panasonic jakarta, pintu pagar otomatis jakarta, jual guard tour system, jual mesin absen fingerprint terlengkap, jual barrier gate, Jual alarm system jakarta. Telp 021 690 8242 / 0855 750 6333
Mobile/WA 0855 750 6333 ","
              Ruko Taman Buaya Blok B1 No. 27-28-29 Telp 021 690 8242 / 0855 750 6333Mobile/WA 0855 750 6333Jln. Bandengan UtaraJakarta Barat            ",Jakarta,DKI Jakarta,+62 855-7506-333,+62 816-1970-579,+62 811-9566-465
PT . JE Indonesia   ( Distributor & Service ),"
PREMIUM RUBY
",Elektronik Konsumen,"
              PT. JE Indonesia ( Distributor & Service) Glodok Lindeteves Trade Center Ground Floor GF2 A23 No. 1 Jl. Hayam Wuruk 127 Jakarta 11180 Tel : 021-62311149 ( hunting) Fax : 021-62311148 Email : sales@ jakartaelectric.com            ","
              Gedung LTC Glodok. Ground Floor GF2 A23 No. 1 - Jl. Hayam Wuruk 127 - Jakarta            ",Jakarta,DKI Jakarta,None,None,None
PT Yasindo Jaya Bersama,"
PREMIUM RUBY
",Elektronik Konsumen,"
              TOOLS │ TECHNICAL │ WORKSHOP │ MACHINERY │ GENERAL EQUIPMENT SUPPLIES            ","
              Ruko permata ancol,blok L no 12, Jl RE Martadinata ,pademangan-jakut 14420 ",Jakarta Utara,DKI Jakarta,+62 813-3713-2383,None,None
PT.SURRAMA TRIDAYA MANDIRI,"
PREMIUM BLUE ONYX
",Elektronik Konsumen,"
Surrama Tridaya Mandiri adalah Kontrol & Instrumentasi perusahaan memberikan kualitas produk dan layanan kepada industri. Filosofi kami adalah untuk bekerja dalam kemitraan dengan kami pelanggan untuk memastikan bahwa kami memberikan solusi yang tepat untuk memenuhi kebutuhan Anda kebutuhan bisnis. Kami menawarkan berbagai produk kepada pelanggan kami. Ini adalah tujuan kami untuk memastikan bahwa Anda diberikan saran terbaik untuk membantu Anda memilih solusi yang tepat atau jasa untuk memungkinkan Anda untuk melakukan kegiatan bisnis Anda efektif dan efisien. pelanggan kami berhak permintaan kualitas tinggi, harga terbaik dan waktu respon segera. Oleh karena itu Kami menempatkan penekanan yang sangat tinggi pada tidak hanya memenuhi tuntutan ini tetapi juga pada penyediaan penekanan kuat pada layanan pelanggan dan customer care. Pada Kontrol STM kami berkomitmen untuk melayani kebutuhan pelanggan kami di atas semua pertimbangan lain. Kami percaya bahwa rumus untuk keberhasilan bisnis kami secara langsung terkait dengan keberhasilan kami bisnis pelanggan. 
Kontrol STM ' Pelanggan Charter'
• Pelanggan adalah yang paling penting orang di kantor kami.• Pelanggan tidak tergantung pada kita; kita tergantung padanya.• Pelanggan tidak gangguan terhadap pekerjaan kami, ia adalah tujuan itu. Dia melakukan kita nikmat dengan memberikan kita kesempatan untuk memecahkan masalahnya.• Konsumen bukanlah seseorang untuk berdebat atau sesuai dengan akal. Tidak ada yang pernah memenangkan argumen dengan pelanggan.• Pelanggan harus dibuat merasa seolah-olah mereka adalah orang-orang yang paling penting di dunia kita. Perhatian pribadi kami kepada pelanggan kami melebihi yang dari pesaing lainnya.For More Info Contact Us :PT. Surrama Tridaya MandiriCiti Square Business Park Blok E No. 6Jl. Peta Selatan RT 010 RW 001, Kalideres, Kalideres, Jakarta Barat, DKI Jakarta, Indonesia 11840Telp    : +62-21-22520556 (Hunting)Fax     : +62-21-22526597 ","
              Citi Square Business Park Blok E No. 6 Jl. Peta Selatan RT 010 RW 001, Kalideres            ",Jakarta Barat,DKI Jakarta,+62 878-8572-0277,None,None
"PT. ADI RAYA MANDIRI ( Agent, Distributors, Stockist )","
                                    PREMIUM GOLD
                                ",Elektronik Konsumen,"
              PT. ADI RAYA MANDIRI adalah perusahaan yang berkembang sangat pesat dalam bidang Industrial Automation System dan Electrical Components, Kami mampu memenuhi semua kebutuhan industri yang ada di Indonesia untuk pengadaan spare part produksi dan juga alat alat penunjang kerja lainnya seperti dibawah ini  :MAJOR BRANDS WE DEAL WITH :ABBBAUMULLERDANFOSSDELTAEMERSONFUJI ELECTRICHITACHIHYUNDAILENZELSISMITSUBISHISCHNEIDERSIEMENSOMRONPANASONICTOSHIBAYASKAWAHUMAN MACHINE INTERFACE ( HMI ) :FUJI PODHAKKOHITECH BEIJERKINCOPRO-FACEWEINTEKSIEMENSDELTAOMRONPANASONICXINJECLUTCH AND BRAKES :COREMOMAYRMIKI PULLEYMITSUBISHINIIKAOGURASHINKO SINFONIASUNTESROTEXTRUE ENGINEWARNERROTARY NCODERS :HEIDENHAINKOYONIDEC NEMICONOMRONSUMTAKTAMAGAWA SEIKIREPTEKELDYNAPARSENSORS :AUTONICSAZBIL-YAMATAKEIFM EFECTORIPFKEYENCEKFPSKOYOOMRONPEPPERL+FUCHSRIKEN OPTECHSUNX PANASONICTURCKMEASURING INSTRUMENTS :AIKOHIMADAMITUTOYOTEMPERATURE CONTROLLERS :ASAHI KEIKIEMKOFUJI ELECTRICOMRONRKC INSTRUMENTSHINKO TECHNOSTOHOTOKYPNEUMATIC & HYDRAULICS :AIRTACCHANTOCKDKOGANEIKURODA-PARKERNACHI FUJIKOSHITACO-AZBILTAIYOROSSYUKEN kami siap untuk menjadi yang terbaik dalam mendukung semua kebutuhan produksi Anda dan menjadi salah satu mitra Anda yang terpercaya sebagai pemasok.Kami bersedia untuk menjadi salah satu pemasok terbaik Anda dan menjadi No.1 di Indonesia.Keuntungan dari pelayanan kami adalah sbb:

Harga yang kami tawarkan lebih bersaing Mutu dan keaslian barang terjamin
Barang dapat kami kirim sesuai dengan tanggal kebutuhan
Kemudahan dalam pembayaran

Untuk harga dan stok silahkan hubungi kami: PT. ADI RAYA MANDIRIJl. Pinang Raya No. 70 Pondok LabuJakarta Selatan 12450 IndonesiaTelp : 6221-7663747-29042880Fax : 6221-7510595Office Mobile : 08128143578 E-mail: adirama@indo.net.idE-mail: adirayamandiri@yahoo.co.idE-mail: ptadirayamandiri@yahoo.co.idHubungi sales kami :Lina : 081219744882Dani : 081310878688Maya : 081288840351Anie : 081318713253            ","
              Jl. Pinang Raya No.70 Pondok Labu Cilandak            ",Jakarta Selatan,DKI Jakarta,+62 813-1087-8688,None,None
pt.inti karya karisma,"
                                    PREMIUM GOLD
                                ",Elektronik Konsumen,"
              PT.INTI KARYA KARISMA adalah suatu perusahaan dagang yang berkembang sangat pesat, khususnya dalam bidang penyediaan barang dan alat - alat untuk kebutuhan industri yang ada di Indonesia, meliputi bidang Valev - Valev, Automation System dan Electrical Components Seperti : PNEUMATIC & HYDRAULICS : SMC, KOGANEI, CKD, KURODA, TAIYO, TACO, ROSS, AIRTAC, TOYOOKI, AUTOGIKEN, DAIKIN, UCHIDA, YUKEN, NOK F- TEC, FUJIKURA, JUNRON, MARUHA, NACHI, SHINDENGEN, MAC, ERACON ( NEW ERA ) PISCO, KONDOH, FOTEK, CHANTO, PNEUMAX, SANG- A, MAC, NUMATICS, MYOTOKU, AURORA CONVUM, KONAN, FUJI SEIKI, KINGSTON, JUNRON, KCC, YPC, BIMBA, FABCO- AIR Etc. CLUTCH & BRAKE ELECTROMAGNETIC : OGURA, SHINKO, OSAKI DENGYOSA, SUNTES, MITSUBISHI, AIRFLEK, PLANOX, MIKKI PULLEY, STROMAG, GUMMI, FAWICK, EATON, AUTOGARD, STEARN, ORTLINGHAUS, SIME, BINDER, COREMO, ANTEC, PINTS BAMAG, WARNER, MAYR, AIR CHAMP ELECTRIC & MOTOR : MITSUBISHI, YASKAWA, FUJI ELECTRIC, HITACHI, TOSHIBA, NIKKI DENSO, TSUKASA, TAMAGAWA SEIKI, NISSEI, OGURA, OMRON, RORZE, SANYO DENKI, SAWAMURA, TAMAGAWA SEIKI, ORIENTAL, VEXTA, PANASONIC, YAMATAKE, SHINKO, SHIMPO, NIDEC, MIKI PULLEY, ITOH, MAKISHINKO, TSUBAKI, PATLITE, USHIO, IDEC IZUMI, HANYOUNG, PHILIPS, OSRAM, TOYO FAN, TDK, KOINO, ALPS, NIKKAI ( NKK ) SENSOR & CONTROLS : OMRON, SUNX, SHINKO, KEYENCE, RIKEN, NATIONAL, YAMATAKE, SEEKA, HONEYWELL, IFM, KOYO, EUROTHERM, PEPPERL+ FUCHS, BALLUFF, PILZ, SICK, TURCK, DATASENSOR, TAKENAKA, IDEC IZUMI, KOINO, TOYO , NIPPON AUTOMATION POWER SUPPLIES : COSEL, NEMIC LAMBDA, OMRON, MATSUSHITA, MEAN WELL, ASTEC, MURR, SPELLMAN, ZENTRO, XP Power Supplies COOLANT PUMP : MITSUBISHI, NIPPON OIL PUMP, FUJI ELECTRIC, TERAL TROCHOID PUMP : NIPPON OIL PUMP, FUJI, MITSUBISHI BEARING : THK, IKO, NSK, NB, NMB, EZO, KURODA, SAMICK, HIWIN, NTN Etc TEMPERATURE CONTROL : RKC, TOHO, SHIMADEN, FUJI ELECTRIC, HONEYWELL, ASAHI KEIKI, YOKOGAWA, AMETEK, DYWER, TESCOM, SHIMAX, OPTEK Keuntungan dari pelayanan kami adalah sbb: Untuk permintaan penawaran harga silahkan e- mail ke : PT.INTI KARYA KARISMA Hp : 081286783132, 081218651189 Tlp : 021- 50408997 E- mail : pt.intikaryakarisma@ yahoo.co.id            ","
              Mega Glodok Kemayoran            ",Jakarta,DKI Jakarta,+62 812-8678-3132,None,None
CV. GMS Pusatnya Timbangan Nagata Tlp. 0811-8686-598,"
                                    PREMIUM GOLD
                                ",Elektronik Konsumen,"
Kami perusahaan Distributor timbangan NAGATA dan yang bergerak dibidang penjualan timbangan NAGATA di Indonesia,Produk kami berupa timbangan NAGATA digital dan timbangan  NAGATA jarum mulai dari timbangan meja, timbangan duduk, timbangan gantung dan timbangan lantai. Selain melayani penjualan timbangan kami juga melayani jasa service timbangan digital, service timbangan jarum, service jembatan timbang, service timbangan mobil, penjualan sparepart timbangan(Load cell & Indikator timbangan), kalibrasi timbangan & tera timbangan(Sertifikasi Timbangan) penjualan batu timbangan, anak timbangan dan kami PASTI berikan : 1. Harga Lebih Murah + Discount Tambahan Yang Menarik 2. Timbangan Yang Berkualitas 3. Gratis Biaya Pengiriman 4. Jaminan/Garansi Perusahaan kami didukung oleh teknisi - teknisi handal dan berpengalaman dibidangnya,Costumer kami ada diberbagai kota dan provinsi diseluruh Indonesia Untuk memenuhi kebutuhan dan menemukan solusi timbangan anda segera hubungi kami : Tlp.    0811-8686-598, 021-225-87-150Hp.    0812-1006-7998 WA.   0812-1006-7998 E-mail : cvgms@yahoo.com ","
              Jl. Pedongkelen Belakang No. 138 Kapuk,Cengkareng Jakarta Barat - 11720  Tlp. 0811-8686-598, 021-225-87-150            ",Cengkareng - Jakarta Barat,DKI Jakarta,+62 812-1006-7998,None,None
CV. GMS. Distributor Timbangan Digital Tlp. 0811-8686-598,"
                                    PREMIUM GOLD
                                ",Elektronik Konsumen,"
Kami perusahaan yang bergerak dibidang penjualan timbangan digital di indonesia antara lain : Timbangan NAGATA, Timbangan EXCELLENT,  Timbangan SONIC, Timbangan GSC, Timbangan HENHERR, Timbangan ALEXA, Timbangan VIBRA SHINKO DENSHI, Timbangan JADEVER, Timbangan CAS, Timbangan FUJITSU, Timbangan AND dan merk lain sesuai dengan permintaan.  Produk kami berupa timbangan Digital/Eletrik maupun timbangan Mekanik/Jarum mulai dari analytical balances sampai dengan Truck scales.  Selain melayani penjualan timbangan digital, timbangan elektrik, timbangan jarum/mekanik kami juga melayani jasa service timbangan digital, service timbangan elektrik, service jembatan timbang, service timbangan mobil, penjualan sparepart timbangan(Load cell & Indikator timbangan), kalibrasi timbangan & tera timbangan(Sertifikasi Timbangan) penjualan batu timbangan, anak timbangan dan kami PASTI berikan :  1. Harga Lebih Murah + Discount Tambahan Yang Menarik  2. Timbangan Yang Berkualitas  3. Gratis Biaya Pengiriman  4. Jaminan/Garansi  Perusahaan kami didukung oleh teknisi - teknisi handal dan berpengalaman dibidangnya,Costumer kami ada diberbagai kota dan provinsi diseluruh Indonesia  Untuk memenuhi kebutuhan dan menemukan solusi timbangan anda segera hubungi kami :  Tlp.    021-22587150, 0811-8686-598  Hp.    0812-1006-7998  WA.   0812-1006-7998  Pin BB : E3CF8E9D E-mail : cvgms@yahoo.com ","
              Jl. Pedongkelan Belakang No. 138 Kapuk Cengkareng Jakarta Barat - 11720 Tlp. 021-22587150            ",Cengkareng - Jakarta Barat,DKI Jakarta,+62 812-1006-7998,None,None
CV. REVIANES UTAMA INDOJAYA,"
                                    PREMIUM GOLD
                                ",Elektronik Konsumen,"
""Price is what you pay, Value is what you get…” 
About Us
Cv. Revianes Utama Indojaya was established on 2008, specialising in supplies of Machinery’s, Power Plants, Hydraulics, Pneumatics, Mining, Tools - Equipment & Industrial's Spare Parts.  
 
Over time Revianes expanded into being a Procurement Service Provider for companies who seek to work with suppliers who are able to supply a wide range of industrial products of various brands.
 
Services both the Marine and Industrial Industries with an extensive range of spare parts / machinery / equipments receiving full support from all the major manufacturers in U.S.A., UK, Germany, China, Japan, Korea and Singapore.
 
And also assure fast response to any customer’s requirement and we take full responsibility for the goods from the time of ordering until delivered to our customer’s site.
 
Our products went through a process of  Quality  Control as well as Warranty Control from the producer.
 
Whatever you needs, our knowledge in this field will ensure your requirement will be handled efficiently at the most competitive price.
 
We are committed to ensure and deliver quality products and services in meeting our valued customers’ requirements and expectation with our service that is second to none.
 
Value Added Services
• Able to supply obsoleted parts of various brands
 
Company Values
• Integrity
• Professionalism
• Respect
• Determination
• Discipline
 
Why choose Revianes ?
We offer you a complete service, starting from the preparation of our offer up to the delivery.  The process is simplified and easy for you to comprehend.  These are the advantages you enjoy when you choose Revianes.
 
We aim to build long term associations with our customers and will not go for short term gains.  If we are favoured with a trial order it will give us a chance to show you the level of service and personal attention that Revaines offers. Many of our customers that joined us in the late 2008’s are still with us today.  Keep In Touch !
 
Contact Us
Cv. Revianes Utama Indojaya
📍 Jl. Pegangsaan Dua, Gading Arcadia Blok H No. 6, Kelapa Gading - Jakarta Utara 14250 (Operasional Office)📍 Jl. Asemka Raya No. 168, Pinangsia - Jakarta Barat 11110 (Warehouse)
📞 021 4607381 
📲 0812 183 88833 
📧 REVIANES@YAHOO.COM
 
 
Because there are a lot of maker with the business, please talk once by all means. 
We’re always interested in new projects, big or small.  
Please don’t hesitate to get in touch with us regarding your  project.
 
Customer service 24 hours a day, 365 days a year. Quick response within 24 hours. ","
              Jl. Pegangsaan Dua, Gading Arcadia Blok H No. 6, Kelapa Gading - Jakarta Utara 14250            ",Jakarta Utara,DKI Jakarta,+62 812-1838-8833,None,None
Supra Karya Mandiri,"
                                    PREMIUM GOLD
                                ",Elektronik Konsumen,"
              cv supra karya mandiri adalah perusahaan yang bergerak dibidang pengadaan barang dan jasa untuk kebutuhan mesin mesin las co2 mig, tig argon, stick smaw dengan merk merk handal seperti PANASONIC, OTC,MAC,NAKAMA, cnr,daesung, helvi dan yang lainnya perahu karet, ban renang double dan single, banana boat, perahu rafting, helm, dayung dan keperluan untuk repasi/ repair perahu karet dan ban renang seperti lem PVC, lem hypalon, pembersih lem/ liquid glue cleaner, dan kebutuhan industri khususnya alat-alat tehnik seperti : selang single untuk gas lpg/ achythelene, oksigen, selang double untuk gas lpg/ achethelene, mesin-mesin las stick/ SMAW/ MMA portabel inverter dc120A, 160A, 200A, 315A, 400A, mesin las tig inveter 160A, 200A, 315A, 500A mesin las co2 inveter 350A, 500A, mesin las thyristor tig/ co2/ SMAW dengan merk: PANASONIC KR350II, PANASONIC KR500II, PANASONIC WP300,NAKAMA, NICHIA-JAPAN AC TRANSFORMER, TEHNICA, NORITECH , CHINA, OTC , welding cable SUPERFLEX , TEHNICA, BLACK CHINA, PAINT MARKER MARKAL USA thermomelt stick, B pain stick, Dalo marker, kedok las automatic made in swizzerland, LENCO, WELDCRAFT TIG ACCECORIES, DRIIL SHARPENER pengasah mata bor DRILLDOCTOR USA 350/ 300X, 500X, 750X, MIG GUN PANASONIC, REGULATOR CROWN PANASONIC fcr226, 2503, 803 FOR CO2, FOR ARGON NEW CROWN FR-1, REGULATOR LPG, ACY, OKSIGEN, UNILIGTH, TUNGSTEN RED , GREEN, COLLET , COLLET BODY, selang oksigen acythelene, single doubel, heating torch chiyoda. untuk info lebih lanjut mohon hubungi: miss Annie hp. 081316496477 atau robert hp: 08118682122 telp.021-6451105 fax 021-6451093 email : suprakaryamandiri@gmail.com kami juga menerima perbaikan/ repair untuk perahu karet dan ban renang berbahan PVC dan hypalon"" "" kami juga menerima perbaikan mesin las berbagai merk: panasonic, miller, lincoln engine, cnr, daesung, tehnica, weldteco, SAF, essab, fronius, hillman, shyuan, WIM, dragon, Nichia, daichi, MAC japan etc"".            ","
              jalan pademangan raya 8 no.13 pademangan timur             ",jakarta utara,DKI Jakarta,+81 3-1066-0744,None,None
Sarana global telecom,"
                                    PREMIUM GOLD
                                ",Elektronik Konsumen,"
PT.Sarana Global Telecom adalah perusahaan yang bergerak di bidang pengandaan alat-alat telekomunikasi, Networking, jasa instalasi dan menjual ME ( battery,UPS,Rektifier Panel dan lain lain ) Perusahaan kami banyak menangani perusahaan, perkantoran, hotel dan menjalin kerjasama dengan kontraktor Telkom, Indosat, Icont+, Telkomsel, Lintasarta, Pertamina, Pegascom, dan Lain - Lain,  Berikut ini produk yang kami tawarkan adalah:  - FIBER OPTIK  ( FTTH , ODC, Pedestal,ODP, Spliter, OTB/ODF, Closure,Patchcord dan etc, )- RACK SYSTEM ( 19"" Rack Server Indoor, Wallmounted Rack, Outdoor Cabinet or Customize )- TESTING EQUIPMENT ( Splicing, OTDR, Power meter, OLS, OFI, Laser FO, Etc )- ACCESS SOLUTION ( L2 switch, Media conferter, SFP, Multyplexer , Etc )- POWER SYSTEM ( Battery kering, UPS, Rectifier, Inverter, Etc )- Jasa Installasi UTP, Fiber Optic, CCTV- Jasa Splicing FO Dan Jasa Terminasi FO- Maintenance UPS, jasa Instalasi Battery UPSUntuk pengadaan alat-alat Telekomunikasi tersebut, kami telah menjalin hubungan yang luas dengan para Agen dan Distributor dengan berbagai merek alat-alat tersebut. Prinsip kami adalah memberikan solusi yang terbaik dan tepat yang sesuai dengan kebutuhan, dengan kualitas yang baik serta harga yang ekonomis. Kerana bagi kami kepercayaan dan kepuasan pelanggan adalah suatu aset utama yang dapat memberikan kontribusi sangat besar bagi kemajuan perusahaan kami. Kami Support Merk :Fiber optik & UTP  : Litech, Fiberlink, NWC, 3M , Netvile, PAZ, AMP, Panduit,                      Systimex, Draka, Suprim, Jembo, Furukawa, CCSI.Battery             : Vision, Rocket, PowerUPS                : Riello Aros , Gtec, Gamatech, UPS GamaRectifier            : Exicom, AEG  ","
              Ruko Botanic Junction Blok H8 No 28 . Jl. Meruya selatan No.48 Jakarta Barat            ",Jakarta Barat,DKI Jakarta,+62 817-6076-091,+62 813-8756-9927,None
* * CV. GARUDA MAS JAYA* *,"
                                    PREMIUM GOLD
                                ",Elektronik Konsumen,"
CV. GARUDA MAS JAYA  Kami Melayani Penjualan, Jasa Service, Kalibrasi, Tera, Tera Ulang oleh dinas metrologi( Sertifikasi) Berbagai Merk Timbangan. Produk kami berupa Timbangan Mekanik, Digital, Batu Timbangan,Sparepart,Accesories Timbangan sesuai dengan kebutuhan & Pengadaan Alat Uji Kemetrologian. Untuk memenuhi kebutuhan dan menemukan solusi timbangan anda segera hubungi kami : CV.GARUDA MAS JAYAAlamat : Pedongkelan Belakang No.09B Cengkareng, Jakarta Barat 11720 Phone / WA : 0813.8031.4948 - 0878.0433.9042E-mail : cvgmj123@yahoo.com  Web : www.loadcelltimbanganmurah.com  -  www.jualloadcellmurah.com Kami PASTI memberikan DISCOUNT dan GARANSI. B U K T I K A N ! ! ! ! ! ! ! ! ! ! ! ! ! ! !            ","
              Jl. Pedongkelan Belakang No. 09B Cengkareng, Jakarta Barat  11720            ",Jakarta Barat,DKI Jakarta,+62 813-8031-4948,None,None
PT.DIVA RAYA PERKASA,"
                                    PREMIUM GOLD
                                ",Elektronik Konsumen,"
PT. DIVA RAYA PERKASA, Adalah suatu perusahaan dagang yang berkembang sangat pesat, khususnya dalam bidang penyediaan barang dan alat - alat untuk kebutuhan industri yang ada di Indonesia, meliputi bidang Automation System dan Electrical Components Seperti : AUTOMATION SYSTEM :

ABB
ALLEN BRADLEY
DELTA
FATEK
FUJI ELECTRIC
HITACHI
KOYO
MITSUBISHI
OMRON
PANASONIC
SCHNEIDER
SIEMENS
YASKAWA

PNEUMATIC & HYDRAULICS :

SMC
KOGANEI
CKD
KURODA
PARKER
TAIYO-PARKER
AZBIL-TACO
ROSS
AIRTAC
TOYOOKI
AUTOGIKEN
DAIKIN
YUKEN-KOGYO
NOK F-TEC
FUJIKURA
JUNRON
MARUHA
NACHI-FUJIKOSHI
SHINDENGEN
MAC VALVE
ERACON
PISCO
KONDOH
CHANTO
NUMATICS
CONVUM-MYOTOKU
KONAN ELECTRIC

ELECTROMAGNETIC CLUTCH & BRAKE :

OGURA
SHINKO-SINFONIA
OSAKI-DENGYOSA
SANYO-SHOJI
SUNTES
MITSUBISHI
AIRFLEK
MIKKI-PULLEY
STROMAG
GUMMI
FAWICK
EATON
AUTOGARD
STEARN
ORTLINGHAUS
COREMO
WARNER
MAYR
AIR-CHAM

ELECTRIC & MOTOR :

MITSUBISHI
YASKAWA
FUJI ELECTRIC
HITACHI
TOSHIBA
NIKKI-DENSO
TSUKASA
TAMAGAWA-SEIKI
NISSEI-GTR
OMRON
RORZE 
SANYO-DENKI
SAWAMURA
ORIENTAL-MOTOR
VEXTA
PANASONIC
YAMATAKE
NIDEC
SHIMPO
MIKI-PULLEY
ITOH-DENKI
MAKISHINKO
TSUBAKI
PATLITE
USHIO
IDEC
IZUMI
HANYOUNG
TOYO-FAN
TDK=LAMBDA
KOINO

SENSOR & CONTROLS :

KEYENCE
OMRON
PANASONIC-SUNX
RIKEN-OPTECH
AZBIL-YAMATAKE
SEEKA-TAKENAKA
HONEYWELL
IFM-EFECTOR
IPF SENSOR
KOYO
EUROTHERM-SCHNEIDER
PEPPERL+ FUCHS
BALLUFF
PILZ
SICK
TURCK
DATASENSOR
IDEC-IZUMI

POWER SUPPLIES :

COSEL
NEMIC-LAMBDA
OMRON
PULS
MEAN-WELL
MURR
POWER-0NE
XP

COOLANT PUMP :

NIPPON OIL PUMP
FUJI ELECTRIC
TERAL KYOKUTO

Keuntungan dari pelayanan kami adalah sbb:

Barang yang kami supply mutu dan keaslianya terjamin Harga yang kami
tawarkan lebih bersaing Barang dapat kami kirim sesuai dengan tanggal
kebutuhan Kemudahan dalam pembayaran

Untuk harga dan stok silahkan hubungi kami di bawah ini:PT. DIVA RAYA PERKASAJl. R.S. Fatmawati No. 72 Taman Pondok LabuLantai 1 Blok B 28 Jakarta 12450 IndonesiaTelp: 6221-22768077 - 29040751Mobile : 081398524121Mobile : 081210115225E-mail: divarayaperkasa@indo.net.idE-mail: divarayaperkasa@gmail.comMarketing  :Septianie : 081210115225Wawan : 081315896337Satria : 081398524121            ","
              Jl. R.S Fatmawati No.72 Taman Pondok Labu Lt.1 Blok B 28-29            ",Jakarta Selatan,DKI Jakarta,081210115225,None,None
PT. Total Abadi Solusindo ( Authorized Distributor & General Contractor ),"
                                    PREMIUM GOLD
                                ",Elektronik Konsumen,"
              PT. Total Abadi Solusindo adalah Perusahaan yang bergerak di bidang Industrial Automation System & Electrical Component, instruments juga Controls. Perusahaan kami mampu memenuhi semua kebutuhan Industri baik dalam segi penjualan maupun pelayanan. SUPPORT BRAND & ALL MANUFACTURE: AC INVERTER DRIVES : YASKAWA ALLEN BRADLEY ABB MITSUBISHI SIEMENS OMRON SCHNEIDER HITACHI TOSHIBA LS/ LG HYUNDAI PANASONIC SUMITOMO FUJI ELECTRIC LENZE EMERSON FISHER DELTA DANFOSS SANYO DENKI SUOER TECO VACON BOSCH REXROTH EATON KEB AKAO UNICO INVT EWM KACO QUICK CUTES SANKEN BALDOR WELGEN SUNFAR XANTREX PLASMA VICTRON MECHRON ERGUS GENIUS WELDMAN INVERTEK SMA LAMA RCHE TEK-DRIVE PROMAC MIYACHI NOVA ELECTRIC SEW WINNER TAIYO SOLARMAX TELEMECANIQUE THERMAL ARC BRECON WEG ORIENTAL VEXTA NISSEI NORD SANTERNO PARKER SSD IMO PLC ( Programmable Logic Controllers ) : MITSUBISHI OMRON ABB ALLEN BRADLEY SIEMENS IDEC SCHNEIDER KOYO KEYENCE HITECH HITACHI FOXBORO FATEK LS/ LG DELTA NAIS GEFRAN FINDER GE FANUC NATIONAL YOKOGAWA PANASONIC MATSUSHITA UNITRONICS FUJI ELECTRIC TELEMECANIQUE AKIRA HAMILTON MONITOR / HMI ( Human Machine Interface ) : PROFACE WEINTEK HITECH HAKKO KINCO WECON ALLEN BRADLEY MITSUBISHI OMRON SCHNEIDER SIEMENS HITACHI YASKAWA ABB GE FANUC DELTA M2i BEIJER PEPPERL+ FUCHS EATON CIMON FATEK MAPLE SYSTEM KRONO TECH XYCOM ADVANTECH PARKER WEINVIEW PANASONIC RS AUTOMATION - RS OEMAX AU OPTRONICS UNITRONICS TEMPERATURE CONTROLLER : AZBIL YAMATAKE OMRON IFM RKC EUROTHERM SHINKO SICK SIKA FOX E+ E REX TOHO TOKY FUJI ELECTRIC MURR EMKO BETA WEST OMEGA JUMO HYODA TURCK ETAC DELTA FOTEK SUNIL S IRCO SIGMA BAUMER FLUKE WATLOW YAMARI COMARK NAGANO GOSSEN FENWALL FUJITA FI NETEK BURKERT SINYEI AUTONICS SIEMENS MILTRONICS SHIMADEN KERONICS ASHCROFT HANYOUNG SHENG MA ROSEMOUNT HONEYWELL HENGSTLER DATASENSOR SAGINOMIYA SPIRAX SARCO SENSORTRONICS WIKA ENDRESS+ HAUSER SHINKO TECHNOS SANYO TEDEA-HUNTLEIGHT DANFOSS HAYASHI GENERAL INSTRUMENT SANWOH TAKAMISAWA TIPPKEMPER KROHNE WEICHI SENSOR & CONTROL : AZBIL YAMATAKE IFM SICK TURCK OPTEX TAKEX TAKENAKA SUNX GEMS SENSOR IDEC TOKY NAIS KOYO HONEYWELL KEYENCE WECO NAIS PARKER KONICS DATASEN SOR KFPS GEFRAN JOHNSON CONTROLS AUTONICS ANLY DANAHER CIKACHI MICROSWITCH WILLIAM CONTROLS SENSORTRONICS DOTECH TELCO SEEKA INFRA FOTEK LEUZE TOKYO SENSOR RIKEN BAUMER BINDER SENTEC FUTRON SUMTAK BANNER HOKUYO SUNGHO BALLUFF VISOLUX HANYOUNG UB SEIKI SCHUTER ROSEMOUNT AECO NGK DATALOGIC PULSOTRONICS ORION HEIDENHAIN MET ROL DENSO NATIONAL KANSAI WENGLOR OMEGA WATLOW TIPPKEMPER KOMORI FUTEK TELEM ECANIQUE ELTROTEC VIGOR HAMILTON PEPPERL+ FUCHS DATA HARVEST MICRO DETECTOR CONTRINEX TEDEA HUNTLEIGHT SINYEI E+ E ELEKTRONIK KROHNE SIEMENS SCHNEIDER ORION LEUZE ALLEN BRADLEY CARLO GAVAZZI OMRON FUJI ELECTRIC DATALOGIC ROTARY ENCODER & COUNTER : NIDEC NEMICON KOYO TAMAGAWA TAMAGAWA SEIKI SUMTAK HEIDENHAIN OMRON KUBLER HENGSTLER IKA WEST LS MECAPION TOK FUTEK MAHR REP VERTEX TAKEDA THOMAS DEUBLIN SAKURA HAYASHI KASH IYAMA FULLER SHOWA GIKEN DUF-NORTON FUJI SEIKI WILLIAM CONTROL MTL NSD PEPPERL+ FUCHS VISOLUX IFM HUBNER LIKA AVTRON ELCIS TURCK BAUMER ELTRA BALLUFF HOHNER EMETA JDA BEI TEKEL FOTEK DYNAPAR RAYTEC NORTHSTAR SICK EDWARDS STEGMANN DA NAHER PRESSURE & FLOWMETER : FUJI ELECTRIC DWYER KROM SCHRODER MARSH BELLOFRAM SHIMPO IMADA VDO ENERPAC POLYFLEX HERCULES KEM TOSHIBA FLOMEC TURB O ABB NAGANO FUTRON ROSEMOUNT KONICS VEGA GEMS SENSOR KOBOLD ENDRESS+ HAUSER HONEYWELL AB IFM JUMO WIKA SICK OMEGA SUNIL TURCK FUTEK HYODA MARSH A NCHOR BAUMER FISHER NORGREN ASCHROFT OPTEX FA DANFOSS REXPOWER YOSHITAKE HUNTLEIGHT KURTZ SAGINOMIYA SUGINO ASAHI OSAKA TAIYO-HERION TELEMECANIQUE PARKER FINETEK ADTEK EMA LUTRON NOSHOK ADTECH KE LLER K-TEK BARTON SIGNET SCHNEIDER TAKUWA KERONICS SIEMENS-MOORE PENN JOHNSON AIGO MAGNETROL YTC DITECH E+ E MILTRONICS NIPPON ELECTRIC BURKERT TOKICO NITTO TOKYO KEISO ELSTER CROWN NIAGARA KEM-KUEPPERS NUFLO VORTEK ULTRASONIC PEACOCK VEGA BAR WATER METER & TESTER : HANNA WATERFLO BBE B GBX YUKO ASAHI ITRON FUZHOU HORIBA AMICO BOSCO BMETE R TACO EUTECH SHINJU B' BRAND B-METERS KENT SCHLUMBERGER SAPPEL EESIFLO INVENSYS MEINECKE HELLIGE LA MOTTE AQUA METRO FLUKE CHAMPION SONY TREND HI-LO BAKER ASKER HIOKI FUJI SEIKI TOGOSHI ATTONIC TECLOCK DELTA TOYOSEIKI TACHOMETERS : ONO-SOKKI LINE SEIKI HENGSTLER WEST SHIMPO FEMA LUTRON AVTRON KURAMOTO KADOGUCHI SANWA PROV A/ TES RHEINTACHO DYNALCO SANPOMETER PNEUMATIC-HYDRAULICS-PUMPS-VALVE : SMC SUNTES KOGANEI NOP ( NIPPON OIL PUMP ) TERAL TAIYO CKD DAIKIN YUKEN AIRTAC TOYOOKI YTC TACO HITACHI KONAN CHANTO FESTO PISCO ROTORK NORGREN NEW ERA NOK F-TEC AURORA PARKER/ KURODA ASCO ROSS DUNGS JUFAN DELTRON HINAKA NITTO KOYO CR YPC TPC C & C VESTA VERSA WABCO SANKO WATTS AIRTEC HAFNER CONVUM MINDMAN HERCULES SUMITO MO FUJIKURA HUMPHREY NUMATICS UB SEIKI JOUCOMATIC NIHON SEIKI FUJI SEIKI REXROTH EATON NACHI BOSCH RIKEN OGURA BALDOR KAYABA ENERPAC TOKIMEC HO RIUCHI NIHON SPINDLE MAC HERION YPL BIFOLD KANEKO KEIHIN HONEYWELL TOHO TOYO ULVAC ASAHI BANJO ARGUS FABCO ISUKA MAXON ROTEX SHOWA HIROSE YAMATO JOHNSON THOMPSON WEC O SAMSON PASCAL KOSMEK SPIRAX SARCO BODIN EBARA HONDA MARCH KOKEN HANIL SANWA VOGEL ORION FINDER TERADA UC HIDA STUART WILDEN YANMAR ZENITH KOMATSU MITSUBA DAISHIN MONOFLO SIEMENS SUN TEC EBARA POWER CLUTCH & BRAKE : OGURA OSAKI DENYOSHA SHINPONIA SUNTES TSUBAKI MIKI PULLEY MITSUBISHI EATON YASKAWA REXROTH NIIKA TRANTEX MATRIX LENZE NEKEN AIR CHAMP WARNER AIRFLEX CAMCO STROMAG KEB SANYO PLANOX POWER SUPPLY AC-DC CONVERTER : MEANWELL COSEL FINE SUNTRONIX SANYO DENKI OMRON ALLEN BRADLEY SIEMENS TDK-LAMBDA NEMIC LAMBDA IDEC IDEC IZUMI MURR SANKI UNIPOWER METRONIX SANKEN ETA RAFFLES KIKUSUI POWER-ONE PULS EMERSON AEC ARTESYN GOSSEN YAMADA XP FUJI ELECTRIC ITOH LA MARCHE TAPE DISPENSER : ELM YAESU STROBOSCOPE : SHIMPO POKAI MONARCH INSTRUMENT FLUKE LANDTEK APEX MICROSCOPE : OLYMPUS MEIJI KYOWA LEICA INDUCTION MOTOR - SERVO MOTOR - GEAR MOTOR - AC-DC MOTOR & AIR MOTOR : TOSHIBA SIEMENS HITACHI MITSUBISHI YASKAWA LENZE SUMITOMO TSUBAKI YOKOGAW A ALLEN BRADLEY TAMAGAWA STEGMANN CEM SHANGYANG PANASONIC FUJI ELECTRIC ABB HONEYWELL SHINANO ORIENTAL BARCOL-AIR TMEIC SKK SIGMA SEW GTR B ALDOR SNT TVT HORZ BAUER NISSEI SITI XAJONG BISON FLENDER YASKOW TRAMEC DINA MIC TSUKASA BODINE SPG WEG KEB AEG TECO TOYO VDO DAEWO BENTLY ENERPAC GAST H AMILTON RELIANCE FENNER MIKI PULLY SAWAMURA VEXTA HIGEN RORZE ELECTROL SHINKO BAUMULLER ELCO LS MARATHON BOSCH TELEMECANIQUE METRONIX NIDEC TAIYO GLOBE VIBRATOR MOTOR : URAS ADK QUANTUM ITAVIBRAS AVITEQ YASKAWA AEG TRM TORCH VIMEC VIBTEC SIG NAL LIGHTS : PATLITE M-SYSTEM WATANABE AUTONICS HANYOUNG ARROW SHINHO ADTECH SAFETY RELAY : PILZ IDEC IZUMI LEUZE RIKEN AB SIEMENS OMRON SCHNEIDER MITSUBISHI ABB SICK PHOENIX IFM EATON CROUZET EUCHNER HENGSTLER RS COMPONENTS KEYENCEE ALTECH MAUSER PANASONICS WEIDMULLER HONGFA PEPPERL+ FUCHS WENGLOR MURR FARNELL FINDER HITECH MTL INSTRUMENT ZIPPSWITCH FESTO GE CARLO GAVAZZI TAKEX LS FUJI OLGEN SANYU OKITA SUNGHO WILMAR TOKY TOKIN FUJITSU HON EYWELL NATIONAL TOYO SEIKI MATSUSHITA KRAUS & NAIMER FOTEK FINE SUNTRONIX GEMS GRINDING WHEEL : NORITAKE NRS KOYO FUJI MIURA MIWA ANCHOR MITSUI UNTER NORTON Keuntungan dari Pelayanan Kami adalah sbb : - Harga yang kami tawarkan lebih bersaing. - Stock yang cukup lengkap. - Kualitas dan keaslian barang terjamin / Asli dan Brand New - Barang dapat kami kirim sesuai dengan tanggal kebutuhan - Untuk Barang yang membutuhkan import/ indent dari luar, kami memiliki waktu pengiriman lebih cepat. - Kemudahan dalam pembayaran. - Engineering yang handal Untuk Permintaan Penawaran Harga & Stock Silahkan Hubungi Team' S Sales kami Dibawah ini : 
Marketing :1. Yadi. Mobile : + 62-81297691617
Phone : 021 – 80808849 Ext.208
2. Ahmad Sudarman.
Mobile : + 62-81282819147
Phone : 021 – 80808849 Ext.209PT. TOTAL ABADI SOLUSINDO
Authorized Distributor & Energy Management ContractorJl.Dr.Krt Radjiman Widyodiningrat Ruko D'Arcade Blok A19D’Mansion Jatinegara Indah Central Bussiness Park, Pulo Jahe, Cakung , Jakarta Timur 13930Phone   : +62-21-80808849 |Fax.  +62-21-80808848Email   : info@totalabadisolusindo.co.idEmail   : sales@totalabadisolusindo.co.idWeb     : www.totalabadisolusindo.comSUPPORT ALL BRAND & ALL MANUFACTURE :
|INVERTER|PLC|HMI|SOFT STARTER|AC SERVO|SENSOR & CONTROLLER|POWER SUPPLY|CIRCUIT BREAKER & CONNECTOR|TACHOMETER|FILTER|BATTERY CHARGER||ENCODER & COUNTER|SCALE & INDICATOR||FLOW METER|TESTER|WATER METER|SIGNAL LAMP|SAFETY RELAY|LOADCELL|FAN & BLOWER|INSTRUMENTS|GENSET||MODULE|VALVE|PUMP|PNEUMATIC & HYDRAULIC|PRESSURE TRANSMITTER|CLUTCH & BRAKE|ELECTRIC MOTOR|SHOCK ABSORBER|GRINDING WHELL|PANEL|PIPE|CABLE|
  ","
              Jl.Dr.Krt Radjiman Widyodiningrat Ruko D'Arcade Blok A19Jatinegara Indah Central Bussiness Park, Pulo Jahe, Cakung , Jakarta Timur 13930            ",DKI Jakarta,DKI Jakarta,+81 297-69-1617,None,None
CV. VITO MULTILINDO,"
                                    PREMIUM GOLD
                                ",Elektronik Konsumen,"
Halo Customers ! ! , terima kasih menjumpai account kami, anda membuka website yang tepat untuk mencari barang-barang unik untuk dibeli atau diperdagangkan kembali, disini anda akan menemui barang - barang yang laris diperdagangkan silahkan melihat poduk - produk terlaris kami. dan jangan ragu untuk menghubungi kami jika anda berminat untuk membeli, anda juga berpeluang untuk menjadi agen kami, yang pasti anda akan mendapatkan peluang bisnis yang terbaik dan menyenangkan, Siapapun anda, kami siap melayani dengan senang hati, kepuasan konsumen tujuan utama kami, Salam sukses dari kami untuk anda, Tuhan memberkati !
 
 
BELANJA VIA SMS : KETIK : (Nama anda, nama barang , jumlah barang , alamat lengkap , no.Telepon / Hand Phone) . Contoh : (Winda , Super Mop , 2 , Jl. Sawo No.12 Fatmawati Jakarta, 021798833 , 0817-822 516) KIRIM SMS KE : 0811-9830-522
Nanti akan ada  jawaban , jumlah nominal yang harus di transfer dan nomer rekening untuk transfer pembayaran. 
 
UNTUK PELAYANAN YANG LEBIH CEPAT, SILAHKAN MENGHUBUNGI KAMI LANGSUNG VIA TELEPHONE DI 021-43922804-5, 90655131, 
AVAILABLE CONTACT ON : WHATSAPP AND LINE ( 0811 - 9830- 522) 
Jam kerja : 09.00 WIB - 17.00 WIB SENIN S.D JUMAT 09.00 WIB - 15.00 WIB SABTU ( Minggu & Hari Raya Tutup ) .
 
 
********PENTING********
Semua informasi yang ada di Web kami up date. Dilarang Meng copy gambar dan keterangan product dari kami. tanpa izin Terima kasih . PERUSAHAAN TERPERCAYA RESMI TERDAFTAR DENGAN : SIUP, TDP & telah PKP TIPS BELANJA AMAN ON LINE , ( Terutama untuk anda di luar Jakarta ) : - Pastikan telpon yang anda tuju adalah nomer fixed line telkom, dan ada nomer fax , bukan hanya nomer HP saja. - Pastikan selalu ada yang menjawab. - UNTUK WILAYAH JAKARTA Mintalah pembayaran COD , ( barang datang baru dibayar ) , tanpa embel - embel harus transfer DP lebih dulu. - Pastikan alamat kantor tervalidasi / benar . - Jika pembayaran harus transfer karena jarak anda jauh, mintalah no rekening Bank atas nama perusahaan. - Setelah pengiriman barang lewat expedisi mintalah nomer resi kiriman sebagai bukti barang telah terkirim. - Mintalah Faktur / Invoice resmi dengan kop perusahaan, ini penting karena akan dibutuhkan dikemudian hari. - Berhati-hatilah kepada penjual yang mengatas namakan perusahaan PT/ CV orang lain ( usaha abal-abal) , dengan kamuflase sebagai penyalur produk, dengan motif lempar tanggung jawab karena usaha mereka sebenarnya tidak terdaftar badan hukum resmi, pastikan rekening transfer bank sesuai dengan nama perusahaan, bukan pribadi. JANGAN SAMPAI ANDA TERTIPU BELI PADA KAMI PASTI AMAN DAN NYAMAN ...! ! "" Kami bangga dapat melayani dengan baik dan professional "" Perusahaan kami memiliki semua syarat di atas , belanja anda aman bersama dengan kami,Terima kasih .
  ","
              JL. A. Lagoa Terusan C1 , RT002 RW02  No.10 , Koja Jakarta Utara - Tanjung Priok            ",Jakarta Utara,DKI Jakarta,085714451151,None,None
PT. TOTAL ABADI SOLUSINDO ( Authorized Distributor & General Contractor ),"
                                    PREMIUM GOLD
                                ",Elektronik Konsumen,"
              PT. Total Abadi Solusindo adalah Perusahaan yang bergerak di bidang Industrial Automation System & Electrical Component, instruments juga Controls. Perusahaan kami mampu memenuhi semua kebutuhan Industri baik dalam segi penjualan maupun pelayanan.SUPPORT BRAND & ALL MANUFACTURE:AC INVERTER DRIVES : YASKAWA ALLEN BRADLEY ABB MITSUBISHI SIEMENS OMRON SCHNEIDER HITACHI TOSHIBA LS/ LG HYUNDAI PANASONIC SUMITOMO FUJI ELECTRIC LENZE EMERSON FISHER DELTA DANFOSS SANYO DENKI TECO VACON BOSCH REXROTH BALDOR WELGEN SUNFAR XANTREX PLASMA VICTRON MECHRON ERGUS GENIUS WELDMAN INVERTEK SMA LAMA RCHE TEK-DRIVE TAIYO SOLARMAX TELEMECANIQUE THERMAL ARC BRECON WEG ORIENTAL VEXTA NISSEI NORD SANTERNO PARKER SSD IMO, DLLPLC ( Programmable Logic Controllers ) :MITSUBISHI OMRON ABB ALLEN BRADLEY SIEMENS IDEC SCHNEIDER KOYO KEYENCE HITECH HITACHI FOXBORO FATEK LS/ LG DELTA NAIS GEFRAN FINDER GE FANUC NATIONAL YOKOGAWA PANASONIC MATSUSHITA UNITRONICS FUJI ELECTRIC TELEMECANIQUE AKIRA HAMILTON MONITOR / HMI ( Human Machine Interface ) : PROFACE WEINTEK HITECH HAKKO KINCO WECON ALLEN BRADLEY MITSUBISHI OMRON SCHNEIDER SIEMENS HITACHI YASKAWA ABB GE FANUC DELTA M2i BEIJER PEPPERL+ FUCHS EATON CIMON UNITRONICS TEMPERATURECONTROLLER : AZBIL YAMATAKE OMRON IFM RKC FOX E+ E REX TOHO TOKY FUJI ELECTRIC TEDEA-HUNTLEIGHT DANFOSS HAYASHI GENERAL INSTRUMENT SANWOH IDEC TOKY NAIS KOYO SEIKI SUMTAK HEIDENHAIN OMRON KUBLER HENGSTLER IKA WEST LS MECAPION TOK FUTEK MAHR ELCIS TURCK BAUMER ELTRA BALLUFF HOHNER EMETA JDA BEI TEKEL FOTEK DYNAPAR RAYTEC NORTHSTAR SICK EDWARDS STEGMANN DA NAHERPRESSURE & FLOWMETER : FUJI ELECTRIC DWYER KROM FLOMEC TURB O ABB NAGANO MARSH A NCHOR BAUMER FISHER NORGREN ASCHROFT OPTEX FA DANFOSS REXPOWER SUGINO ASAHI OSAKA JOHNSON AIGO MAGNETROL YTC PEACOCK VEGA BAR WATER METER & TESTER : HANNA WATERFLO BBE B GBX YUKO ASAHI ITRON FUZHOU TECLOCK DELTA TOYO SEIKITACHOMETERS :ONO-SOKKI LINE SEIKI HENGSTLER WEST SHIMPO FEMA LUTRON AVTRON KURAMOTO KADOGUCHI SANWA PROV A/ TES RHEINTACHO DYNALCO SANPOMETER PNEUMATIC-HYDRAULICS-PUMPS-VALVE : SMC SUNTES KOGANEI NOP ( NIPPON OIL PUMP ) TERAL TOYOOKI YTC TACO HITACHI KONAN CHANTO FESTO PISCO ROTORK NORGREN NEW ERA NOK F-TEC AURORA PARKER/ KURODA ASCO ROSS DUNGS JUFAN DELTRON HINAKA NITTO KOYO CR YPC TPC C & C VESTA VERSA WABCO SANKO WATTS AIRTEC HAFNER NIHON SPINDLE MAC HERION YPL BIFOLD KANEKO KEIHIN HONEYWELL TOHO TOYO ULVAC ASAHI BANJO ARGUS FABCO ISUKA MAXON ROTEX SHOWA HIROSE YAMATO JOHNSON THOMPSON KEB SANYO PLANOXPOWER SUPPLY AC-DC CONVERTER :MEANWELL COSEL FINE SUNTRONIX SANYO DENKI OMRON ALLEN BRADLEY SIEMENS TDK-LAMBDA NEMIC LAMBDA ETA RAFFLES KIKUSUI LAMARCHE TAPE DISPENSER : ELM YAESU STROBOSCOPE : SHIMPO POKAI MONARCH INSTRUMENT FLUKE LANDTEK APEX MICROSCOPE : OLYMPUS MEIJI KYOWA LEICA INDUCTION MOTOR - SERVO MOTOR - GEAR MOTOR - AC-DC MOTOR & AIR MOTOR : TOSHIBA SIEMENS HITACHI MITSUBISHI YASKAWA LENZE SUMITOMO TSUBAKI YOKOGAW A ALLEN BRADLEY TAMAGAWA STEGMANN CEM SHANGYANG PANASONIC FUJI ELECTRIC ABB HONEYWELL FLENDER YASKOW TRAMEC DINA MIC TSUKASA BODINE SPG WEG KEB AEG TECO TOYO VDO DAEWO BENTLY NIDEC TAIYO GLOBEVIBRATOR MOTOR : URAS ADK QUANTUM ITAVIBRAS AVITEQ VIBTEC SIGN AL LIGHTS : PATLITE M-SYSTEM WATANABE AUTONICS SAFETY RELAY : PILZ IDEC IZUMI LEUZE RIKEN AB SIEMENS OMRON SCHNEIDER MITSUBISHI ABB SICK PHOENIX IFM EATON HENGSTLER PANASONICS FUCHS WENGLOR MURR FARNELL OKITA SUNGHO WILMAR TOKY TOKIN FUJITSU HON EYWELL NATIONAL TOYO SEIKI MATSUSHITA KRAUS & NAIMER FOTEK FINE SUNTRONIX GEMSGRINDING WHEEL : NORITAKE NRS KOYO FUJI MIURA MIWA ANCHOR MITSUI UNTER NORTON FAN ( Blower ) : SANYO DENKI ACE NMB TERAL FUJI TOYO YUMO ONISHU KDK NYB MZ SHAWA CHAMPION RAMFAN VISTAR JOUNING TOSHIBA HITACHI KOKI ECHO MITSUBISHI TAIYO/SAKURA NIDEC DELUXE DELTA NEU.Keuntungan dari Pelayanan Kami adalah sbb :- Harga yang kami tawarkan lebih bersaing.- Stock yang cukup lengkap.- Kualitas dan keaslian barang terjamin / Asli dan Brand New- Barang dapat kami kirim sesuai dengan tanggal kebutuhan- Untuk Barang yang membutuhkan import/ indent dari luar, kami memiliki waktu pengiriman lebih cepat.- Kemudahan dalam pembayaran.- Engineering yang handalUntuk Permintaan Penawaran Harga & Stock Silahkan Hubungi Team Sales kami Dibawah ini :Pemasaran :Yadi Mobile : + 62-81297691617Email : yadi@ totalabadisolusindo.co.idMulyadiMobile : + 621-80808849 Ext.208Email: mulyadi@totalabadisolusindo.co.idPT. TOTAL ABADI SOLUSINDOD'Arcade Blok A19 Business Center Jatinegara IndahJl. Dr. Krt Radjiman Widyoningrat, Cakung, Jakarta TimurEmail : info@ totalabadisolusindo.co.idEmail : sales@totalabadisolusindo.co.idWeb : www.totalabadisolusindo.com            ","
              D'Arcade Blok A19 Business Center Jatinegara IndahJl. Dr. Krt Radjiman Widyoningrat, Cakung, Jakarta Timur  ",Jakarta Timur,DKI Jakarta,+81 297-69-1617,None,None
Nael Computer,"
                                    PREMIUM GOLD
                                ",Elektronik Konsumen,"
              Nael Computer Adalah Salah Satu toko  jual komputer di mangga dua. kami menjual Notebook HP,Lenovo.A,pc lenovo.hp,asus,dell.Server HP.Server IBM,Server DELL.Network,switch hp,switch ATEN,dan accesoris lainn ya            ","
              Pusat Elektronik Harco Mangga Dua Plaza Lantai 2 Blok B No.132-133Kontak toko : 021-62203489\whatssap      : 081317240187.Jln.Mangga Dua Raya-Jakarta            ",Jakarta,DKI Jakarta,+62 813-1724-0187,None,None
PT ANDALAN BANGUN SEJAHTERA,"
                                    PREMIUM GOLD
                                ",Elektronik Konsumen,"
              Penjelasan Ringkas : PT. ANDALAN BANGUN SEJAHTERA Jl. Sumur Batu Raya no. 1 Kemayoran Jakarta Pusat Indonesia - 10640 Telp : 021 - 42803207, 4227517 Fax : 021 - 42803208 Contact Person : Marketing : email : sales@andalanbangun.com Marketing : Bpk Juni Mobile : +62811 198 0702 Kami menyediakan alat-alat laboratorium & Intrument untuk berbagai keperluan dan kebutuhan dari berbagai merek alat-alat laboratorium berupa: Microbiology, Chemical and Reagent, Laboratory and Scientific Equipment, Medical Equipment, dan Glassware. Product : HACH, MEMMERT, OHAUS, KETT, KERN, TAKEMURA, EPPENDORF, BOECO, JULABO, CORNING, AXYGEN, PYREX, IWAKI, WHATMAN, SOCOREX, BRAND, IKA, ADVANTEC, DIFCO, MERCK CHEMICAL, SIGMA ALDRICH, DURAN, LOVIBOND, INTERSCIENCE, SEWARD, HETTICH, METTLER TOLEDO, ALL AMERICAN, ATAGO, AZ Instrument, BROOKFIELD, CRITERION, EXTECH, FUNKE GERBER, GEMMY, GFL, GILSON, HANNA, HIRAYAMA, RION, USBECK, GOSSELIN, DAIHAN LABTECH, THERMOSSCEINTIFIC, etc., • GENERAL LAB PRODUCT : BEAKERS - Plastic Beaker - Glass Beaker BOTTLES - Aspirator Bottle - BOD Bottle - Round Bottle - Media Bottle - Reagent Bottle - Sample Bottle - Serum Bottle - Specimen Bottle - Universal Bottle - Wash Bottle CRUCIBLES - Porcelain Crucibles - Silica Crucibles - Platinum Crucibles - Crucible Tong DESICATORS - Desiccators ( Non-Vacuum) - Desiccators ( Vacuum) FUNNELS - Powder Funnels - Utility Funnels - Buchner Funnels - Separating Funnels FLASKS - Baffled Shake Flask - Conical Flask - Dewar Flask - Distillation Flask - Filtering Flask - Flat Bottom Flask - Iodine Flask - Kjeldahl Flask - Round Bottom Flask - Tissue Culture Flask - Volumetric Flask MEASURING CYLINDERS - Plastic Measuring Cyclinder - Glass Measuring Cyclinder PIPETTES - Pasteur Pipette - Transfer Pipette - Measuring Pipette - Volumetric Pipette - Micropipette - Pipette Filler TUBES & VIALS - Capillary Tubes - Centrifuge Tubes - Cryo Tubes - Culture Test Tubes - Durham Tubes - Nessler Tubes - Specimen Tubes - Test Tubes - Scintillation Vials - Others Vials TUBING & CONNECTORS - Tubing Connectors - Rubber Tubing - Silicone Tubing - Teflon Tubing STOPPERS - Cork Stopper - Rubber Stopper - Silicone Stopper - Steristopper - Teflon Stopper SYRINGES - Plastic Syringes - Glass Syringes - Micro Syringes - Syringe Filters PETRI DISHES - Plastic Petri Dish - Glass Petri Dish - Moisture Dish BURETTES - Glass Burettes - Automatic Burretes - Bottle-Top Burettes - Micro Burretes FILTER PAPERS & MEMBRANCES - Cellulose Filters - Glass Microfiber Filters - Membrane Filters INDICATOR PAPERS - Litmus Papers - Cobalt Chloride Paper - pH Paper - Universal Indicator Paper MEASURING INSTRUMENTS - Micrometers - Internal & External Calipers - Vernier Calipers - Thickness Gauges BALANCES & SCALES - Pocket Balances - School Balances - Precision Balances - Analytical Balances - Moisture Balances - Spring Scales - Platform Scales - Hanging Scales METER - pH Meters - EC & TDS Meters - ORP Meters - Combo Meters - DO Meters - COD Meters - Photometers - Turbidity Meters - Lux Meter - Moisture Meters THERMOMETER & THERMO-HYGRO - Laboratory Thermometers - Dial Thermometers - Medical Thermometers - Max-Min Thermometer - Wall Thermometers - Infrared Thermometers - Digital Thermometers - Thermocoupe Thermometers - Thermo-Hygrometers - Data Loggers CENTRIFUGES - Small Centrifuges - Hematocrit Centrifuge - Microlitre Centrifuges - Benchtop Centrifuges - Floorstanding Centrifuges CRUSHING INSTRUMENTS - Blenders - Grinders - Homogenizers - Stomachers - Test Sieves STERILIZERS - Glass Bead Sterilizer - Steam Sterilizer - Sterilizing Tube - Sterilizer Accessories OVENS - Universal Ovens - Vacuum Ovens INCUBATORS - Precision Incubator - Cooled Incubator - CO2 Incubator - BOD Incubator - Shaking Incubator LABORATORY BATHS - Oil Bath - Sand Bath - Shaking Water Bath - Ultrasonic Cleaner Bath - Water Bath HEATING INSTRUMENTS - Bunsen Burners - Dry Block Heaters - Heating Mantles - Hot Plates MIXING INSTRUMENTS - Magnetic Stirrers - Overhead Stirrers - Shakers ROTARY EVAPORATORS - Vertical Type - Diagonal Type MICROSCOPES - Monocular Microscopes - Binocular Microscopes - Stereo Microscopes - Microscope Glass Slides - Microscope Cover Slips - Prepared Microscope Slides REFRACTOMETERS - Brix Refractometers - Digital Brix Refractometers - Salinity Refractometers - Digital Salinity Refractometer - Honey Refractometer VISCOMETERS - U-Tube Viscometers - Rotational Viscometers WATER PURIFICATION SYSTEMS - Water Distiller - Water Deionizer OTHERS • Air Analysis • Air Cleaning • Airflow Meters • Animal Care • Apparel • Aquametry • Asphalt • Atomic Absorption • Autoclaves • Bacon Bombs • Bags • Balances • Barometers • Beakers • Blenders • Blood Collection • BOD • Boiling Chips • Borescopes • Bottles • Bottletop Dispensers • Buchner Funnels • Burets • Burners • Calculators • Calipers • Calorimeters • Centrif uge Tubes • Centrifuges • Centrifugeware • Chemicals • Chlorine Analyzers • Chlorine Meters • Clamps & Supports • Cleaning • Clinical Analysis • COD • Colorimeters • Conductivity • Conductivity Meters • Controllers • Counters • Crucibles • Crushing • Cryogenics • Cultur e Media • Culture Tubes • Cuvettes • Cylinders • Dairy Testing • Deionization / Distillation • Desiccators • Discontinued items • Dispensers & Pipetters • Dissolved Oxygen • Dri-Baths • Drug Testing • Dry Baths • Drying Ovens • Educational Products • Electrochemistry • Emergency Equipment • Environmental Chambers • Evaporating Dishes • Extraction Equipment • Extraction Thimbles • Filtration • FisherBrand • Flame Photometers • Flash Point • Flasks • Flocculators • Flowmeters • Fluorimeters • Food Analysis • Food Processing • Freezers • Fume Hoods • Funnels • Furnaces • Furniture • Gas Chromatography • Gas Regulators • General Laboratory • Glassware • Glassware Dryers • Glove Boxes • Gloves • Graduated Cylinders • Hardness Testers • Haws • Health Care • Heating • Heating Blocks • Heating Elements • Heating Mantles • Heating Tapes/ Mats/ Blankets • Histology • Homogenizers • Hot Plates & Stirrers • Humidity • Hydrometers • Hygrometers • Ice Makers • Imhoff Cones • Incubators • Information • ISE • Jars • Karl Fischer Titrators • Kneader • Lab Jacks • Labeling • Laboratory Reactors • Les • Life Science • Light Meters • Liquid Handling • Magnetic Stirrers • Magnets • Materials Testing • Medical Products • Melting Point • Microscopes • Milk Testing • Mixing • Moisture Analyzers • Mortars and Pestles • Multiparameter Meters • Multiwell Plates • Organizers • ORP • Ovens • PCR/ Life Science • Penetrometers • Petri Dishes • Petroleum Testing • pH Buffer Standards • pH Controllers • pH Electrodes • pH Meters & Testers • pH Transmitters • Photometers • Pipet Fillers • Pipet Washers • Pipets • Pipettes • Pipetting • Pitchers • Plastic Labware • Plumbing Fixtures • Polarimeters • Porcelain ware • Pressure Meters • Process Instrumentation • Pumps • Pumps & Dispensers • Pyrometers • Racks • Recorders • Refractometers • Refrigerators & Freezers • Reverse Osmosis Information • Rheology • Rockers • Rotary Evaporators • Rotators • Rubber Stoppers • Rubber Tubing • Safety • Sample Handling • Sample Preparation • Separatory Funnels • Serum Vial Seals • Serum Vial Stoppers • Serum Vials • Shakers • Sieves and Shakers • Siphons & Pumps • Slide Warmers • Soil Sampling • Soil Testing • Solutions • Sound Meters • Soxhlet Extractors • Specimen Containers • Spectrophotometers • Standards • Steam Baths • Sterilizers • Stir Bars • Stirring • Stirring Hot Plates • Stirring Plates • Stoppers • Tachometers • TDS Testers • Teflon Labware • Temperature & Humidity • Test Papers • Test Tube Racks • Test Tubes • Thermal Cyclers • Thermistor Products • Thermocouples • Thermometers • Thermoreactors • Timers and Stopwatches • Titrators • Tools • Trays • Tube Racks • Tubing • Turbidity Meters • Ultrasonic Cleaners • Vacuum Pumps • Vials • Videos • Viscosity • Vortex Mixers • Vwr • Water Baths • Water Chillers • Water Purification • Water Testing • Weather • Weights dan Kebutuhan instrument pendukung Laboratorium            ","
              JL. Sumur Batu No.1 RT.01 - RW.06 Kel.Sumur Batu - Kec.. Kemayoran            ",Jakarta Pusat,DKI Jakarta,+62 811-1980-702,None,None
PT DIVA RAYA PERKASA,"
                                    PREMIUM GOLD
                                ",Elektronik Konsumen,"
PT DIVA RAYA PERKASA adalah perusahaan General Trading dan fokus pada kebutuhan industri di seluruh Indonesia. perusahaan kami berkembang sangat pesat dan mampu memenuhi kebutuhan industri dalam bidang Automation System dan Electrical Component juga Instruments seperti:
 
ABB
ACE
AIKOH
AIRTAC
AIRTEC
ALISH
APEX DYNAMIC
ASCO
AUTONICS
AZBIL TACO
AZBIL YAMATAKE
BALLUFF
BANNER
BAUMER
BAUMULLER
BECKHOFF
CHANTO
CHELIC
CHINO
CKD
COSEL
DANFOSS
DAIKIN HYDRAULIC
DELTA
DELIXI
DEUBLIN
DIGITECH
DUNGS
DYWER
ELSTEIN
EMKO
ENDRESS+HAUSER
ENIDINE
EMERSON
ERO ELECTRONIC
ETA POWER SUPPLY
EUROTHERM
FANUC
FATEK
FENWALL
FESTO
FINE SUNTRONIX
FRECON
FUJI ELECTRIC
FUJIKURAFUJI SEIKI
IAI
IDEC IZUMI
IFM EFECTOR
IPF
ITOH DENKI
HAKKO MONITOUCH
HBM
HENGSTLER
HITACHI
HITECH BEIJER
HNC ELECTRIC
HOHNER
HONEST
HONEYWELL
HONGJIN
KEYENCE
KHK GEAR
KINCO
KOGANEI
KONDOH
KOYO ELECTRONIC
KROMSCHRODER
KURODA PARKER
LENZE
LEUZE
LINE SEIKI
LS
MAGNESCALE
MARSH BELLOFRAM
MEAN WELL
MICROSONIC
MIDORI
MIGHTY COUPLING
MIKI PULLEY
MITSUBISHI ELECTRIC
MITUTOYO
MOCHUAN INVERTER
M-SYSTEM
MTL-EATON
MYOTOKU
NACHI FUJIKOSHI
NMB
NIIKA
NIDEC NEMICON
NISSEI GTR
NKE
NIPPON OIL PUMP
NSD
OKUMA
OGURA CLUTCH BRAKE
OILES BEARING
OMRON AUTOMATION
ONO-SOKKI
OPTEX
ORIENTAL MOTOR
OSAKI DENGYOSHA
PANASONIC
PATLITE
PEACOCK
PEPPERL+FUCHS
PERMA-TORK
PHOENIX CONTACT
PIL ULTRASONIC SENSOR
PILZ
POWER GENEX
PRO-FACE SCHNEIDER
PULS
REP ENCODER
RKC INSTRUMENT
RIKEN OPTECH
ROSEMOUNT
ROSS
RS COMPONENTS
SAN-ACE
SAMKO-SANKEN
SANYO DENKI
SANYU
SANKI
SANKYO
SANYO DENK
SCHNEIDER ELECTRIC
SHIMADEN
SHIMPO INSTRUMENTS
SHINKO TECHNOS
SHINKO SINFONIA
SMC
SICK
SIEMENS
STONKER
SUMTAK HEIDENHAIN
SUNON FAN
SUNTEC
SUNTES
SUNX PANASONIC
TAIYO
TAMAGAWA SEIKI
TEKEL
TERAL
TAKEX
TAKIGEN
TDK-LAMBDA
TEDEA HUNTLEIGH
TOHNICHI
TOHO
TOKICO
TOSHIBA
TOSOKU
TOYO FAN
TSUBAKI EMERSON
TURCK
UNIPULSE
ULVAC
URAS MURAKAMI
WABCO
WATANABE ELECTRIC
WECO
WECON
WEIDMULLER
WEINTEK EASYVIEW
WENGLOR
XINJE
YAESU
YASKAWA ELECTRIC
YOKOGAWA
YTC-ROTORK
YUKEN KOGYO
 
Untuk harga dan stok barang hubungi kami di bawah ini:
 
PT. DIVA RAYA PERKASA
Jl. R.S. Fatmawati No. 72 Taman Pondok Labu
Lantai 1 Blok B.28 Jakarta 12450 Indonesia
Telp: 6221-2276 8077 - 2904 0751
Fax: 6221-2765 0034
HP: 081210115225
E-mail: divarayaperkasa@indo.net.id
E-mail: divarayaperkasa@gmail.com
E-mail: divarayaperkasapt@gmail.com
E-mail: salescrs@indo.net.id
 
Sales Dept :
Septianie : 081210115225
Dani Ari : 081290362374
Wawan : 089653312669
Rany : 081386710925
Satria : 081398524121
Sinta : 081386725125 ","
              Jl. RS Fatmawati No.72 Taman Pondok Labu Lt.1 Blok B.28 Cilandak 12450 Jakarta Selatan Indonesia            ",JAKARTA SELATAN,DKI Jakarta,+62 812-9036-2374,None,None
PT Dunia Jaya Aircon,"
                                    PREMIUM GOLD
                                ",Elektronik Konsumen,"
              DUNIA JAYA AIRCON Kami selaku Specialist Air Conditioner dan Refrigeration Sparepart dari "" DUNIA JAYA AIRCON"" yang bergerak dibidang pendingin, baik Unit AC, Service dan Jasa Pemasangan ( AC cassette, split, split duct, floor standing, portable, celling, air curten, dll ) Dengan merk antara lain : ( Panasonic, Daikin, LG, Samsung, Sharp, Toshiba, Gree, Dast, Changhong, dll ) Maupun Sparepart AC ( compressor Panasonic, Kulhtron, Copeland, danfoss Maneurop, Bristol, Kirby, Tecumseh, semihermatic, daikin, Mitsubishi, , Vacum Pump value, Vacuum Pump Robinair, Jet cleaner Kyowa, Steam Starwash, Cuper tube, dll ) Untuk pengisian berupa ( Freon R22 Refrigerant, R22 Genetron, R22 Dupont, R410A Refrigerant, R410A Genetron, R410 Dupont, R407C Refrigerant, R407C Genetron, R407C Dupont, R404A Refrigerant, R404A Dupont, R404A Genetron, R134A Klea, R134 Refrigerant, R134 Dupont, R417 Dupont, R11 Refrigerant, R141b Refrigerant, R123 Dupont, dll )            ","
              Jl. Hayam Wuruk 127, Gedung LTC Glodok lantai UG blok B9 no. 5            ",Jakarta Barat,DKI Jakarta,+62 812-9177-6799,None,None
PT. ADI RAYA MANDIRI,"
                                    PREMIUM GOLD
                                ",Elektronik Konsumen,"
PT. ADI RAYA MANDIRI, berkembang sangat pesat sebagai perusahaan yang bergerak dalam bidang Industrial Automation System dan Electrical Components. perusahaan kami menjual dan medistribusikan barang barang spare part dan alat - alat untuk kebutuhan industri yang ada di Indonesia, meliputi bidang Automation System dan Electrical Components Pneumatic Hydraulic dan juga Controls System Seperti :AGENT :

OPTEX
TRAFAG
WATANABE ELECTRIC
PULS
AXE PANEL METER

AUTOMATION SYSTEM :

ALLEN BRADLEY
ABB
BECKHOFF
DANFOSS
DELTA
FUJI ELECTRIC
GE FANUC
HITACHI
EMERSON
LENZE
LS
OMRON
PANASONIC
SCHNEIDER
SIEMENS
TECO
TOSHIBA
YASKAWA

POWDER CLUTCH & BRAKES :

MITSUBISHI
OGURA
OSAKI-DENGYOSA
SUNTES SHINKO-SINFONIA
MIKKI-PULLEY
COREMO
WARNER
MAYR
HYDRAULIC

PNEUMATIC & HYDRAULICS :

SMC
KOGANEI
CKD
KURODA
TAIYO
TACO
ROSS
AIRTAC
DAIKIN
YUKEN
NOK F-TEC
NACHI-FUJIKOSHI
MAC VALVE
ERACON
NEW-ERA
PISCO
CHANTO
MYOTOKU

ELECTRICAL MOTORS:

MITSUBISHI
YASKAWA
FUJI-ELECTRIC
HITACHI
LG/LS
TOSHIBA
NIKKI-DENSO
TAMAGAWA SEIKI
NISSEI
RORZE
SANYO-DENKI
SAWAMURA
ORIENTAL-MOTOR
VEXTA MOTOR
PANASONIC
SHINKO
SHIMPO
NIDEC-NEMICON
IDEC-IZUMI

SENSOR & CONTROL DEVICE :

OMRON
PANASONIC-SUNX
KEYENCE
RIKEN-OPTECH
YAMATAKE-AZBIL
SEEKA-TAKEX
TAKENAKA-PULNIX
KOYO
EUROTHERM
OPTEX
PEPPERL+FUCHS
PILZ
SICK
TURCK
IDEC-IZUMI
PIL
IPF

POWER SUPPLIES DC - AC CONVERTER : 

COSEL
NEMIC-LAMBDA
FINE-SUNTRONIX 
OMRON
MEANWELL
MURR
PULS
XP

TEMPERATURE CONTROLLER :

RKC INSTRUMENT
TOHO
SHIMADEN
SHINKO TECHNOS
FUJI ELECTRIC
HONEYWELL
ASAHI-KEIKI
ALISH
KEYANG
YOKOGAWA
DWYER
EMKO
TAIE

Keuntungan dari pelayanan kami adalah sbb:

Harga yang kami tawarkan lebih bersaing
Mutu dan keaslian barang terjamin
Barang dapat kami kirim sesuai dengan tanggal kebutuhan
Kemudahan dalam pembayaran

Untuk permintaan penawaran harga hubungi kami dibawah ini :PT. ADI RAYA MANDIRIJl. Pinang Raya No.70 Pondok LabuJakarta Selatan 12450 IndonesiaTelp: 6221-7663747 - 29042880Fax: 6221-7510595E-mail: adirama@indo.net.idE-mail: adirayamandiri@yahoo.co.idE-mail: ptadirayamandiri@yahoo.co.idHubungi sales kami:
Lina:  081219744882
Dani: 081310878688
Maya: 081288840351
Anie : 081318713253 ","
              Jl. Pinang Raya No.70 Pondok Labu            ",Jakarta Selatan,DKI Jakarta,+62 813-1087-8688,None,None
CV. KASHELARA,"
                                    PREMIUM GOLD
                                ",Elektronik Konsumen,"
              COMPANY OVERVIEW CV. Kashelara merupakan perusahaan yang berbadan hukum, yang terdaftar sebagai perusahaan persekutuan komanditer dan disahkan oleh kepala kantor Pelayanan Terpadu Kota Surakarta Drs. Toto Amanto, MM. Perusahaan yang berdiri pada tanggal 17 Maret 2011, dengan nomor surat izin usaha 510.41/ 0614/ PK/ VI/ 2011, dengan SK PEM-1177 / WPJ.32 / KP.0503/ 2011 kepala pelayanan dirjen pajak, dengan nomor NPWP 31.295.251.8-526.000 CV. Kashelara merupakan perusahaan yang bergerak dalam bidang Nuclear Service and Maintenance, dan pengadaan barang-barang yang berhubungan dengan kebutuhan alat-alat nuklir khususnya masalah proteksi radiasi dan uji tak rusak. CV. Kashelara melayani jasa pengurusan ijin alat dan bahan yang berhubungan dengan pemanfaatan nuklir baik berupa bahan nuklir seperti sumber isotop atau alat alat nuklir seperti Mesin X-Ray Bagasi, Diagnostik, kamera Gamma Ray, dan yang lainnya. Kami menjadi jembatan yang mempermudah anda dalam menguruskan ijin di Badan Pengawas Tenaga Nuklir ( BAPETEN) berupa pemanfaatan alat-alat tersebut, Ijin ekspor-impor, dan ijin pengalihan, serta ijin perpanjangan dan yang lainnya. Kami siapkan semua prosedur dan syarat syarat yang dibutuhkan agar alat dan bahan tersebut segera dapat dioperasikan/ digunakan tepat waktu. Selain itu kami juga melayani jasa kalibrasi alat ukur radiasi berupa jasa kalibrasi surveymeter, jasa kalibrasi pendose, jasa kalibrasi pocket dosimeter, evaluasi TLD Badge baik untuk gamma, X-ray, maupun neutron, compliant test kamera gamma dan yang lainnya dimana saat ini kami bekerja sama dengan Badan Tenaga Nuklir Nasional ( BATAN) selaku Badan Pelaksana Nuklir yang legal di Indonesia sekaligus Laboratorium yang sudah terakreditasi oleh Komite Akreditasi Nasional ( KAN) dan Lembaga-lembaga akreditasi lainnya baik dari dalam dan luar negeri. Semua kegitan tersebut pengurusannya kami lakukan dan selesaikan di Jakarta sehingga untuk mempermudah anda dalam pengurusan anda tinggal mengirimkan dokumen atau barang yang terkait dengan pekerjaan yang anda minta ke kami sehingga hal tersebut akan mempermudah anda dan yang pasti anda bisa memangkas biaya transportasi bagi yang berdomisi wilayah kerja jauh dari Jakarta lebih-lebih di Luar Jawa. Selain jasa kami juga melakukan trading atau penjualan berupa alat-alat dosimeter personal dan area seperti penjualan survey meter, shielding Pb, Penjualan pendose, long tong, kontainer isotop, TLD Badge Harshaw, TLD Badge BARC, dll. Kami tidak pernah membatasi diri pada merk tertentu karena kami meyakini setiap instansi atau perusahaan memiliki seleranya masing-masing terhadap produk-produk tertentu dan kami akan berusaha memenuhi semua keingina pelanggan kami secara maksimal sejauh kemampuan kami yang bisa kami lakukan. CV. Kashelara siap membantu perusahaan anda dan senantiasa meningkatkan kemampuan, untuk memberikan pelayanan yang terbaik bagi customer kami. Adapun Produk Usaha Kami : A. Perdagangan Alat-Alat Proteksi Radiasi, meliputi: ü Surveymeter ü TLD ü Pendose ü Shielding Pb B. Jasa Pengurusan Ijin Alat Radiasi BAPETEN, meliputi: ü Ijin Impor ü Ijin Pengalihan ü Ijin Pemanfaatan ü Perpanjangan Ijin C. Jasa lain-lain, meliputi: ü Kalibrasi Alat Ukur Radiasi ü Sertifikasi Bebas Radiasi ü Analisis Radioaktif Bahan ü Analisis Bebas Kontaminasi ü Pengolahan Limbah Radioaktif ü Uji kebocoran dan tes Usap ü Uji kesesuaian Kamera Radiografi dan Pesawat Sinar X ü Survey dan Analisis NORM dan TENORM ü Jasa Konsultasi Migas Demikian sekilas tentang profile perusahaan kami, atas perhatian dan kerjasamanya kami ucapkan terima kasih.            ","
              Gg. Rincik No. 45A, RT. 01, RW. 04, Kel. Kota Bambu Utara, Kec. Palmerah            ",Jakarta Barat,DKI Jakarta,+62 858-6190-0600,None,None
PT BUANA LANGGENG CIPTA,"
                                    PREMIUM GOLD
                                ",Elektronik Konsumen,"
PT. BUANA LANGGENG CIPTA, berdiri sejak tahun 1991 dengan Akte Pendirian No.18, Tanggal 2 April 2004 Notaris & PPAT Dradjat Darmadji, SH aktivitas utama kami adalah perusahaan perdagangan yang menyediakan kebutuhan barang bagi Industri yang ada di Indonesia/ Dalam maupun Luar Negeri meliputi bidang Automation System dan Electrical Components. PNEUMATIC & HYDRAULICS : SMC, KOGANEI, CKD, KURODA, TAIYO, TACO, ROSS, AIRTAC, TOYOOKI, AUTOGIKEN, DAIKIN, UCHIDA, YUKEN, NOK F-TEC, FUJIKURA, JUNRON, MARUHA, NACHI, SHINDENGEN, MAC, ERACON ( NEW ERA) PISCO, KONDOH, FOTEK, CHANTO, PNEUMAX, SANG-A, MAC, NUMATICS, MYOTOKU, AURORA, CONVUM, KONAN, FUJI SEIKI, KINGSTON, JUNRON, KCC, YPC, BIMBA, FABCO-AIR, KOCSIS, TOMOE, Etc. ELECTRIC & MOTOR : MITSUBISHI, YASKAWA, FUJI ELECTRIC, HITACHI, TOSHIBA, NIKKI DENSO, TSUKASA, TAMAGAWA SEIKI, NISSEI, OGURA, OMRON, RORZE, SANYO DENKI, SAWAMURA, TAMAGAWA SEIKI, ORIENTAL, VEXTA, PANASONIC, YAMATAKE, SHINKO, SHIMPO, NIDEC, MIKI PULLEY, ITOH, MAKISHINKO, TSUBAKI, PATLITE, USHIO, IDEC IZUMI, HANYOUNG, PHILIPS, OSRAM, TOYO FAN, TDK, KOINO, ALPS, NIKKAI ( NKK) , NEMICON, SOCOMEC, Etc. SENSOR & CONTROL : OMRON, SUNX, SHINKO, KEYENCE, RIKEN, NATIONAL, YAMATAKE, SEEKA, HONEYWELL, IFM, KOYO, PEPPERL+ FUCHS, BALLUFF, PILZ, SICK, TURCK, DATASENSOR, TAKEX, IDEC IZUMI, KOINO, Etc. INSTRUMENTS : EXTECH, HAWKEYE, TEKEL, MORITEX. POWER SUPPLIES : COSEL, NEMIC LAMBDA, OMRON, MATSUSHITA, MEAN WELL, ASTEC. BEARING : THK, IKO, NSK, NB, NMB, EZO, KURODA, SAMICK, HIWIN, NTN. SPRING : KSSC COUPLING : STROMAG, TB WOODS, FLENDER, LOVEJOY, FENNER. TOOL : KANETEC, KAKUTA, GOODHAND, ENDO, RELUX, JS CLAMP, JACMOR. HOIST : INGERSOLL RAND, JD NEUHAUS, ENDO. BELTING : OPTIBELT, BANDO, DELCO REMY, MITSUBOSHI, DAYCO, CONTITECH. Karena seiring dengan waktu dan perkembangan yang begitu pesat maka kami mencoba untuk memasarkan secara online berbagai Produk dan Merk di bidang Safety, Teknik, Electronic, Survey, Sirene, Laboratory, dLL. Tujuannya agar market kami dapat menjangkau seluruh wilayah Indonesia. Toko online kami berkomitmen mengedepankan Pelayanan yang maksimal dengan melakukan efisiensi waktu, dan biaya, sehingga para konsumen tidak perlu lagi "" memusingkan diri "" dalam pemesanan barang. Anda pesan, harga deal, kami antar barang anda. Kami juga menyediakan alat alat untuk keperluan Survey dan Laboratorium seperti: Total Station, Auto Level, Theodolite, Lasermeter pengukur Jarak, Teropong/ Binocullar, Nightvision, Kompas, Altimeter, Anemometer, Weather Station, Lux Meter, Thermometer Hygrometer dst dengan ditunjang merek-merek yang sudah terkenal di dunia survey seperti : TOPCON, SOKKIA, NIKON, SOUTH, HORIZON, LEICA, GARMIN, SUUNTO, BRUNTON, LUTRON, SMART SENSOR, DAVIS, LUTRON, SANFIX, PCE, SANWA, TENMARS, PCE, SEW, PROTEK, AZ INSTRUMENT, SIRINE, ATTEN, OWON, DEKKO, AMPROBE, ATAGO dan lain-lain. PT BUANA LANGGENG CIPTA terus berupaya melakukan perbaikan dan penyempurnaan diri sebagai Wujud Partisipasi aktif untuk memajukan Industri di berbagai bidang di Indonesia dengan “ Kwalitas dan Harga terbaik” Silahkan lihat berbagai keperluan yang menunjang pekerjaan Anda. Kami selalu berusaha mencantumkan Produk selengkap mungkin dengan harga yang terbaru dan terbaik. Namun karena beberapa sebab tidak semua Produk dapat ditampilkan semua dan kadangkala Hargapun tidak sesuai dengan Harga saat ini, karenanya Anda tidak perlu sungkan untuk menghubungi kami via Telephon, SMS ataupun Email, Staff kami akan dengan senang hati melayani Anda.
Hub   : 021 63858772
Email : jubaedi0505@gmail.com ","
              Jl. Thalib III Baru No. 16 - Krukut, Taman Sari, Jakarta Barat 11140.
Email. bulaci@hotmail.com
Email. jubaedi0505@gmail.com            ",Jakarta Barat,DKI Jakarta,None,None,None
LARISSA TECHNOLOGY,"
                                    PREMIUM GOLD
                                ",Elektronik Konsumen,"
              PERALATAN INSTRUMENT, ELECTRICAL, MECHANICAL, TOOLING, MEASUREMENT ( PERALATAN UKUR) LARISSA TECHNOLOGY Jl. Raya Alternatif Cibubur Km.4 Cibubur 17435, Cibubur - Indonesia Nomer Telpon : +62 21 22813460 Nomer Telpon : 085101297366 ; 087873041438 Nomer Faks : + 62 21 84598635 Email : larissa.technology@gmail.com Contact Person : Tn. Antoni Mobile : 085694982722 ( Im3)            ","
              Jln. Raya Alternatif Cibubur KM. 4            ",Cibubur,DKI Jakarta,None,None,None
UNIQUE CARPET & DECORATION,"
                                    PREMIUM GOLD
                                ",Elektronik Konsumen,"
              Unique Carpet & Deco bergerak dalam bidang Distribusi dan pengerjaan proyek karpet & bahan Dekorasi / interior . Produk yang kami tawarkan seperti : 1. Handmade Natural Carpet ( Wooden Carpet, Natural Fiber Carpet) 2. Carpet roll / Carpet Tile 3. Wooden Flooring / Laminated Flooring Parquet - Vinyl Flooring 4. Wallpaper / Wallcovering 5. Vinyl Carpet, Carpet Tile, Carpet Pile 6. Carpet Industry 7. Handmade Acrylic/ Wool Carpet 8. Rumput Sintetis 9. Rubber Paving ( For Playground, Jogging Track) 10. PVC Placemat / Table mat 11. Window Blinds - Gordyn - Awning 12. Yoga Accessories 13. etc. Kami menerima pesanan secara retail maupun project. For More Information please contact us: UNIQUE CARPET & DECORATION Jl. Danau Sunter Utara Blok G.3 No 17 Sunter Agung – Jakarta Utara Telp: 021-6400584 – 085100313760 Fax : 021-6400584 Email : uniquecarpetdeco@ yahoo.com or a.uniquecarpet@ yahoo.com Website: www.uniquecarpetdeco.com Hp : 087770350275 / 081290225888 Pin BB : 5703AA0D Whatsapp : 087788286801 Carpet - Wall to wall Carpet - Tile Carpet - Event Vinyl Laminate - Flooring Anti-Fatigue & Doormat Artificial Grass Wallpaper Roller Blinds Vertical Blinds Horizontal Blinds Accessories Karpet project, Karpet Roll, Karpet tile, Karpet hand tufted custom, Karpet acrylic, Karpet karet, Karpet vinyl, Karpet kantor, Karpet hotel, Karpet restaurant, Karpet pameran, Karpet rumah, Karpet Ruang tidur, Karpet ruang tamu, Karpet dapur, Karpet gudang, Karpet pesawat, Karpet container, Karpet kapal ferry, Karpet karoseri, Karpet kereta api, Karpet bus, Karpet rumah sakit, Karpet mushola, Karpet lapangan olahraga Keset doormat, Keset nomad, Keset 3M, Keset mie / bihun, Keset anti slip Handmade natural carpet, Karpet natural, Karpet anyaman, Karpet sisal, Karpet serat, Karpet abaca, Karpet banana fiber, Karpet seagrass, Karpet wool, Karpet cotton, Karpet raffia, Parket kayu, Wooden parquet, Lantai kayu Rumput sintetis, Rumput plastik, Rumput pvc, Karpet rumput List kayu, List parket, List dinding, List vinyl, List pvc Wallpaper kantor / office, Wallpaper rumah , Wallpaper polos , Wallpaper motif, Wallpaper vinyl , Wallpaper nonwoven, Wallpaper bunga, Wallpaper kayu, Wallpaper batu , Wallpaper anyaman, Wallpaper korea, Wallpaper Sangetsu, Wallpaper Lily color, Wallpaper Exselect, Wallpaper Reserve 1000, Wallpaper fine 1000 Placemat pvc, Placemat anyaman, Placemat hotel, Placemat restoran, Placemat café Amenities hotel Gordyn , Krey, Vertical blind, Horizontal blind, Roman shade, Awning Yoga mat, Yoga towel, Yoga props, Yoga ball, Yoga block, Yoga clothing, Yoga accessories            ","
              Jl. Danau Sunter Utara Blok G 3 Kav No 17, Sunter Agung, Jakarta Utara 14350            ",Jakarta Utara,DKI Jakarta,+62 877-8828-6801,None,None
Bumi Raya Electric,"
                                    PREMIUM GOLD
                                ",Elektronik Konsumen,"
Bumi Raya Electric adalah suplier dengan bisnis dasar di bidang Electrikal dan Mekanikal untuk Sambungan Rumah ( SR) / Tegangan Rendah ( TR) dan Tegangan Menengah ( TM) , Sambungan Udara/ Bawah tanah. Jointing / Sambungan Kabel, Terminating/ Terminasi/ Terminal, Insulating, Splicing, Heatshrink, Double Tape, Cable Accessories Dll.
Kami memiliki komitmen untuk selalu menjunjung tinggi kepuasan pelanggan dengan menyuplai barang-barang berkualitas, harga kompetitif dan waktu penyediaan yang cepat.Informasi Produk & Order Hubungi kami:BUMI RAYA ELECTRICOffice : Kenari JAYA Lantai. 1 No. 27 Jl. Salemba RayaPhone : 02131924055Mobile : 08569888727 // 081288559956 ( Call/WA)Email: bumiraya.electric@gmail.com ","
              Kenari JAYA Lantai. 1 No. 27 Jl. Salemba Raya            ",Jakarta Pusat,DKI Jakarta,+62 812-8855-9956,None,None
PT. Arya Pancarindo Perkasa,"
                                    PREMIUM GOLD
                                ",Elektronik Konsumen,"
              Kami PT. Arya Pancarindo Perkasa ( APP) adalah perusahaan yang bergerak dalam bidang general trading, supplier, distributor tunggal resmi bel otomatis sekolah ( BOS) untuk sekolah-sekolah, pabrik, instansi dan tempat-tempat yang memerlukan tingkat kedisiplinan "" ON TIME"" . Audio Sound Sistim merupakan keahlian utama dari perusahaan kami, yang telah berdiri sejak tahun 2008, PT.APP adalah perusahaan yang resmi yang memiliki Akte Notaris Perusahaan, Surat Keputusan Kementrian Hukum dan HAM RI, Domisili Perusahaan, NPWP, SIUP, TDP dan PKP di Kantor Pajak dan Rekening Perusahaan. Dan hingga saat ini sudah lebih dari 500 client yang telah menjalin kerjasama dengan kami. Bukan hanya mensuply tapi juga kami dapat melakukan instalasi / pemasangan yang didukung tenaga-tenaga yang handal dan profesional di bidangnya. Penyediaan alat dan Instalasi yang dapat disediakan oleh perusahaan kami adalah sbb : 1. Audio Sistim di gedung, sekolah, pabrik, gudang, mall, tempat wisata, apartement, mesjid, instansi baik pemerintah maupun swasta. 2. Audio Selektor + pendukungnya. 3. LCD Projector + perangkatnya 4. CCTV 5. Instalasi Listrik di Pabrik dan Perumahan. 6. Smoke dan Heat Detector 7. Car Call 8. Paging System Dalam memperluas bidang USAHA PT. Arya Pancarindo Perkasa, sejak tahun 2013, kami merambah di bidang "" Pembangunan"" dalam bidang Konstruksi Sipil dan juga pengadaan dalam bidang Electrical Development. Adapun cakupan nya adalah : - Perencanaan - Design dan Gambar - Konstruksi - Renovasi Juga kami menyediakan "" Design Interior"" sebagai pelengkap di Bidang Konstruksi Sipil. Untuk Electrical Development yang dapat kami lakukan seperti misalnya : menggabungkan mesin Alarm dengan Bel Timer otomatis di suatu pabrik dengan tambahan alat yang disebut Alarm Mixer Detection. Untuk Informasi lebih lanjut dapat menghubungi : Office : ( 021) 7975465  Hp : 081219450524 WA : 085697946499            ","
              Jl. Warung Jati Timur Raya no. 69Hp : 081219450524 WA : 085697946499            ",Jakarta Selatan,DKI Jakarta,+62 856-9794-6499,None,None
Axia Prima Sejahtera,"
                                    PREMIUM GOLD
                                ",Elektronik Konsumen,"
              PT. Axia Prima Sejahtera, adalah perusahaan yang berada di Indonesia yang bergerak dalam bidang sistem keamanan/ perlengkapan & produk berteknologi yang berkualitas tinggi, dapat dipercaya dan berstandard kelas dunia. Dimana penyedia produk kami adalah beberapa negara besar yang unggul dalam bidang sistem keamanan & produk perlengkapan seperti Jerman, Amerika, Canada, Denmark, Korsel, RRC, Jepang & Taiwan. Jika anda membutuhkan sistem keamanan atau solusi teknologi untuk perusahaan, kami akan memberikan saran dan membantu anda dalam perencanaan, konsultasi, penyediaan, instalasi, pelatihan, 24 jam dan 7 hari dalam seminggu untuk dukungan pelayanan purna jual berdasarkan kontrak pemeliharaan dan layanan telepon. Permasalahan anda dalam sistem keamanan dan produk teknologi akan ditanggapi secepatnya oleh tim ahli dan teknisi profesional yang telah berpengalaman lebih dari 10 tahun yang telah menerima pelatihan baik didalam maupun luar negeri. Kami menyediakan sistem keamanan dan produk berteknologi dengan standard tinggi dan manajemen perencanaan untuk instansi pemerintahaan, sektor swasta maupun perorangan."" "" "" Sebagai; distributor, disain, konsultan, penjualan, instalasi, perawatan, jasa dibidang Sistem Keamanan serta perlengkapan keamanan ( Security System & Security Equipment ) "" "" ""Distributor Resmi untuk Produk Keamanan Siemens Jerman dan Indonesia Distributor resmi untuk Produk CCTV Pelco AmerikaContact : Name : F. Heru Sukrisna, S.SI Email : axiasejahtera@axia.co.id, heru.krisna@axia.co.id Email Sales Manager : winarkodanang@axia.co.idEmail Sales Engineer : billy.gumilar@axia.co.id , akhmad@axia.co.id.Telephone : 021 - 7661187, 021 - 7502301, 021 - 98561299Mobile : 0811 8067 877Fax : 021 - 7590 8764Facebook : Axia Security Systems,Twitter : @axiasecuritysys            ","
              Plaza Karinda Blok B1 No. 14, Jl. Karang Tengah Raya, Lebak Bulus,            ",Jakarta Selatan,DKI Jakarta,+62 811-8067-877,None,None
BINA JAYA PLASTIK || SABLON PLASTIK PRINTING MURAH JAKARTA,"
                                    PREMIUM GOLD
                                ",Elektronik Konsumen,"
PERUSAHAAN KAMI DI BIDANG CETAK KANTONG PLASTIK PRINT TEMPAT CETAK KANTONG PLASTIK PRINT PLASTIK PLASTIK POLOS PLASTIK HP, PLASTIK SUPERMARKET PLASTIK TOKO BAJU PLASTIK TALI PRESS PLASTIK POND OVAL, PLASTIK GAGANG PLASTIK KRESEK PLASTIK MURAH PLASTIK BIBIT TANAMAN PLASTIK , BERKUALITAS PLASTIK, POLYBAG PLASTIK BIBIT TANAMAN PLASTIK SAMPAH CETAK PLASTIK HD, CETAK PLASTIK PE PLASTIK WARNA TAS SPUNBOND PLASTIK SOFTHANDLE PLASTIK DISTRO, PLASTIK UNTUK DISTRO, PLASTIK KANTONG BAJU, PLASTIK PEMBUNGKUS BAJU, PLASTIK UNTUK BUNGKUS BAJU, PLASTIK HP, PLASTIK alamat Alamat : Jl. Jelambar Indraloka 5, No 1875, Jakarta BaraNomer Handphon / WA. 081280163911/ 081229367057 Atas Nama : Bpk, Egi Suprianto / Bpk, Anton . naik kearah jakarta jabrat behenti di samping Halte "" Busway Indosiar"" tanya tukang ojek minta alamat ke indraloka 5, kurang lebih biaya buat ngojek Rp. 10.000, - atau hubungi kontak kami nanti kami jemput depan Halte Indosiar. UNTUK PEMESANAN MINIMAL ORDER 5000 PCS/ LEMBAR DP 50% DARI NOMINAL JUMBLAH UANG PEMESENAN KANTONG PLASTIK CETAK / BUAT LOGO tas plastik sablon tas plastik cetak tas plastik printing tas plastik logo CETAK SABLON PLASTIK CETAK MODEL PLONG, CETAK SABLON MODEL PLASTIK TALI PRES, CETAK SABLON MODEL CETAK SABLON PLASTIK KRESEK, CETAK SABLON MODEL PLASTIK BELANJA, CETAK SABLON MODEL PLASTIK PLONG TENGAH, CETAK SABLON, MODEL PLASTIK OVAL, TENGAH, CETAK SABLON MODEL PLASTIK BOLONG TENGAH, PLASTIK BURAM, PLASTIK TRANPARAN, PLASTIK MODEL JCO, PLASTIK BENING, PLASTIK KACA, PLASTIK MODEL ALFA, PLASTIK MODEL INDOMART, PLASTIK LLDPE, PLASTIK HD WARNA MERAH, PLASTIK WARNA HITAM, PLASTIK WARNA KUNING, PLASTIK WARNA IJO, PLASTIK WARNA BIRU, PLASTIK WARNA CREM, PLASTIK KRESEK, TAS PROMOSI, PLASTIK MODEL KEMASAN SAYURAN, PLASTIK PE PLASTIK HD PLASTIK UNTUK BENIH PADI BENIH KANGKUNG BENIH CABE PLASTIK PUPUK PLASTIK UKURAN CASTEM / KASTEM UKURAN SMAL UKURAN SMOL UKURAN PLASTIK A4 UKURAN A3 CETAK PLASTIK TENG TENG PLASTIK TENG TENGAN CETAK PLASTIK MODEL TALIPRES PLASTIK KEMASAN CETAK LAMINASI CETAK SEPARASI 8 WARNA 10 WARNA CETAK KANTONG PLASTIK, KANTONG PLASTIK, PRINTING PLASTIK, SABLON PLASTIK, SHOPPING BAG, POLYBAG, LAUNDRY BAG, KANTONG KRESEK, SUPERMARKET BAG, SUPPLIER PLASTIK, DISTRIBUTOR PLASTIK, KANTONG KRESEK, PLASTIK KRESEK, POLY BAG, KANTONG BELANJA, TOKO PLASTIK, PRODUKSI PLASTIK, PERCETAKAN KANTONG PLASTIK, PERCETAKAN PLASTIK, PLASTIK HD, PLASTIK PE, PLASTIK OPP, PLASTIK PP, PLASTIK LAUNDRY, ROTOGRAVURE BINAJAYA PLASTIK. Perusahaan Kami bergerak dibidang jasa promosi, percetakan dan sablon sejak tahun 2000 dan sudah melayani ratusan konsumen dari berbagai wilayah di indonesia. BINAJAYA PLASTIK. MELAYANI PESANAN ANDA DALAM BIDANG PROMOSI DAN BIDANG KEPERLUAN KANTONG PLASTIK BUAT USAHA ANDA. SEGERA HUBUNGI KONTAK KAMI SEKARANG JUGA SEDIA PLASTIK CETAK LOGO PESENAN KONSUMEN menerima pesenan kantong shoping bags plastik dengan model variasi unik-unik menerima partai kecil dan partai besar dan mutu kualitas terjamin bagus dan kami juga bisa membuatkan edit logo nya sampai yang bagus model unik juga jenis plastik CETAK KANTONG PLASTIK, KANTONG PLASTIK, PRINTING PLASTIK, SABLON PLASTIK, SHOPPING BAG, POLYBAG, LAUNDRY BAG, KANTONG KRESEK, SUPERMARKET BAG, SUPPLIER PLASTIK, DISTRIBUTOR PLASTIK, KANTONG KRESEK, PLASTIK KRESEK, POLY BAG, KANTONG BELANJA, TOKO PLASTIK, PRODUKSI PLASTIK, PERCETAKAN KANTONG PLASTIK, PERCETAKAN PLASTIK, PLASTIK HD, PLASTIK PE, PLASTIK OPP, PLASTIK PP, PLASTIK LAUNDRY, ROTOGRAVURE contoh ukuran plastik redi stok oval tanpa lipat samping uk.L16 x P24, . HD oval 032. uk.L20 x P30, . HD oval 032. uk.L25 x P35, . HD oval 0 32. uk.L30 x P39, . HD oval 032. oval pake lipat sampng uk.L43/ L35 x P40, . HD oval 035 uk.L43/ L35 x P48, . HD oval 04 uk.L55/ L45 x P48, . HD oval 05. model oval tanpa lipet samping uk. L20 x P27, . HD model oval tanpa lipet samping 035. uk. L25 x P35, . HD model oval tanpa lipet samping 035. uk. L30 x P30, . HD model oval tanpa lipet samping 004. uk. L30 x P35, . HD model oval tanpa lipet samping 004. uk. L30 x P37, . HD model oval tanpa lipet samping 004. uk. L30 x P40, . HD model oval tanpa lipet samping 004. uk. L35 x P35, . HD model oval tanpa lipet samping 004. uk. L35 x P37, . HD model oval tanpa lipet samping 004. uk. L35 x P40, . HD model oval tanpa lipet samping 004. uk. L35 x P45, . HD model oval tanpa lipet samping 004. uk. L35 x P50, . HD model oval tanpa lipet samping 005. uk. L40 x P40, . HD model oval tanpa lipet samping 005. uk. L40 x P45, . HD model oval tanpa lipet samping 005. uk. L45 x P45, . HD model oval tanpa lipet samping 006.. model oval lipet samping uk.L26/ L20 x P27, . HD model oval lipet samping 035. uk.L32/ L25 x P35, . HD model oval lipet samping 035. uk.L40/ L30 x P30, . HD model oval lipet samping 004. uk.L40/ L30 x P35, . HD model oval lipet samping 004. uk.L40/ L30 x P37, . HD model oval lipet samping 004. uk.L40/ L30 x P40, . HD model oval lipet samping 004. uk.L45/ L35 x P35, . HD model oval lipet samping 004. uk.L45/ L35 x P37, . HD model oval lipet samping 004. uk.L45/ L35 x P40, . HD model oval lipet samping 004. uk.L45/ L35 x P45, . HD model oval lipet samping 004. uk.L45/ L35 x P50, . HD model oval lipet samping 005. uk.L45/ L40 x P40, . HD model oval lipet samping 005. uk.L50/ L40 x P45, . HD model oval lipet samping 005. uk.L55/ L45 x P45, . HD model oval lipet samping 006.. model tali pres uk.L26/ L20 x P27, . HD Talipres 035. uk.L32/ L25 x P35, . H D Talipres 035. uk.L40/ L30 x P30, . HD Talipres 004. uk.L40/ L30 x P35, . HD Talipres 004. uk.L40/ L30 x P37, . HD Talipres 004. uk.L40/ L30 x P40, . HD Talipres 004. uk.L45/ L35 x P35, . HD Talipres 004. uk.L45/ L35 x P37, . HD Talipres 004. uk.L45/ L35 x P40, . HD Talipres 004. uk.L45/ L35 x P45, . HD Talipres 004. uk.L45/ L35 x P50, . HD Talipres 005. uk.L45/ L40 x P40, . HD Talipres 005. uk.L50/ L40 x P45, . HD Talipres 005. uk.L55/ L45 x P45, . HD Talipres 006.. model singlet uk.L27/ L15 x P35, . HD singlet 03. uk.L29/ L17 x P36, . HD singlet 03. uk.L36/ L24 x P38, . HD singlet 03. uk.L40/ L28 x P48, . HD singlet 0 3. uk.L49/ L35 x P55, . HD singlet 035. uk.L60/ L40 x P60, . HD singlet 037. uk.L65/ L45 x P65, . HD singlet 04. uk.L70/ L50 x P75, . HD singlet 045.. ini ukuran plastik tebal 05 harus di pesen khusus pake minim order. model oval tanpa lipat plastik tebal uk. L16 x P24, . HD oval 05. uk. L20 x P30, . HD oval 05. uk. L25 x P35, . HD oval 05. uk. L30 x P39, . HD oval 05. uk. L43/ L35 x P40, . HD oval 05. uk. L43/ L35 x P48, . HD oval 05. uk. L55/ L45 x P48, . HD oval 05.. plastik tali press uk. L26/ L20 x P27, . HD Talipres 05. uk. L32/ L25 x P35, . H D Talipres 05. uk. L38/ L30 x P37, . HD Talipres 05. uk. L43/ L35 x P39, . HD Talipres 05. uk. L45/ L35 x P48, . HD Talipres 05. uk. L50/ L40 x P48, . HD Talipres 05.. Plastik singlet uk. L27/ L15 x P35, . HD singlet 05. uk. L29/ L17 x P36, . HD singlet 05. uk. L36/ L24 x P38, . HD singlet 05. uk. L40/ L28 x P48, . HD singlet 05. uk. L49/ L35 x P55, . HD singlet 05. uk. L60/ L40 x P60, . HD singlet 05. uk. L65/ L45 x P65, . HD singlet 05. uk. L70/ L50 x P75, . HD singlet 05.. plastik klip obat ukuran redi stok uk. L3 x P5. plastik klip uk. L4 x P6. plastik klip uk. L5 x P8. plastik klip uk. L6 x P10. plastik klip uk. L7 x P10. plastik klip uk. L8 x P10. plastik klip uk. L8, 7 x P13. plastik klip uk. L10 x P15. plastik klip uk. L11 x P17. plastik klip uk. L12 x P20. plastik klip uk. L16 x P20. plastik klip uk. L20 x P30. plastik klip uk. L25 x P35. plastik klip uk. L30 x P40. plastik klip uk. L35 x P41. plastik klip. UKURAN MODEL OVAL PLASTIK KLIP OBAT JENIS PE BENING REDI STOK Uk 25x35 + 7 04 Uk 28x36 + 7 04 Uk 30x38 + 7 05 Uk 30x40 + 7 06 Uk 35x40 + 7 07, -. jenis plastik pp tipis harga 26000/ kg mini pesen 1ball berat 25kg uk. L10 x P15 tebal 04 uk. L10 x P20 tebal 04 uk. L12 x P25 tebal 04 uk. L15 x P30 tebal 04 uk. L20 x P30 tebal 04 uk. L20 x P35 tebal 04 uk. L20 x P40 tebal 04 uk. L25 x P35 tebal 04 uk. L25 x P45 tebal 04 uk. L28 x P40 tebal 04 uk. L28 x P45 tebal 04 uk. L30 x P45 tebal 04 uk. L30 x P50 tebal 04 uk. L35 x P50 tebal 04 uk. L38 x P55 tebal 04 uk. L40 x P60 tebal 04 uk. L45 x P65 tebal 04 uk. L50 x P75 tebal 04 uk. L60 x P100, tebal 04. jenis plastik pp tebal kripik uk. L12 x P25 tebal 08 plastik kripik uk. L15 x P30 tebal 08 plastik kripik uk. L15 x P20 tebal 08 plastik kripik uk. L20 x P35 tebal 08 plastik kripik. jenis Plastik OPP uk. L10 X P25: tebal 0.03 mm uk. L10.5 x P18: tebal 0.03 mm uk. L10.5 x P25: tebal 0.03 mm uk. L11 x P15: tebal 0.03 mm uk. L11 x P18: tebal 0.03 mm uk. L11 x P25: tebal 0.03 mm uk. L11.5 x P25: tebal 0.03 mm uk. L12 x P15: tebal 0.03 mm uk. L12 x P25: tebal 0.03 mm uk. L12.5 x P25: tebal 0.03 mm uk. L13 x P15: tebal 0.03 mm uk. L13 x P18: tebal 0.03 mm uk. L13 x P25: tebal 0.03 mm uk. L13.5 x P25: tebal 0.03 mm uk. L14 x P18: tebal 0.03 mm uk. L14 x P25: tebal 0.03 mm uk. L14.5 x P25: tebal 0.03 mm uk. L15 x P25: tebal 0.03 mm uk. L15.5 x P18: tebal 0.03 mm uk. L16 x P25: tebal 0.03 mm uk. L16.5 x P25: tebal 0.03 mm uk. L17 x P25: tebal 0.03 mm uk. L17.5 x P25: tebal 0.03 mm uk. L18 x P25: tebal 0.03 mm uk. L18.5 x P25: tebal 0.03 mm uk. L19 x P25: tebal 0.03 mm uk. L19.5 x P25: tebal 0.03 mm uk. L20 x P30: tebal 0.03 mm uk. L20.5 x P30: tebal 0.03 mm uk. L21 x P30: tebal 0.03 mm uk. L21.5 x P30: tebal 0.03 mm uk. L22 x P30: tebal 0.03 mm uk. L22.5 x P30: tebal 0.03 mm uk. L23 x P30: tebal 0.03 mm uk. L23 x P35: tebal 0.03 mm uk. L24 x P35: tebal 0.03 mm uk. L6 x P15: tebal 0.03 mm uk. L7 x P15: tebal 0.03 mm uk. L7 x P25: tebal 0.03 mm uk. L7.5 x P25: tebal 0.03 mm uk. L8 x P25: tebal 0.03 mm uk. L8.5 x P15: tebal 0.03 mm uk. L8.5 x P25: tebal 0.03 mm uk. L9 x P15: tebal 0.03 mm uk. L9.5 x P25: tebal 0.03 mm. UKURAN KARUNG BERAS. 45 x 75 Karung beras susu 25KG 40 x 70 Karung beras susu 20KG 50 x 75 Karung beras susu 40KG 56 x 90 Karung beras susu 50KG 60 x 100 Karung beras susu 70KG 60 x 90 Karung beras susu 60KG 75 x 115 Karung beras susu 100KG 35 x 53 Karung beras susu 10KG 47 x 70 Karung beras susu 20KG. HARGA CALL / SMS / BBM KONTAK KAMI AGAR KAMI BISA MEMBANTU DALAM PESANAN YANG ANDA PESAN. ukuran plastik polybag plastik tanaman minim pesen 25kg, 1bal harga 25000/ kg uk. 48/ 24x50 tebal 10 mcrn plastik tanaman warna hitam uk. 40/ 20x40 tebal 10 mcrn plastik tanaman warna hitam uk. 36/ 18x35 tebal 10 mcrn plastik tanaman warna hitam uk. 32/ 16x30 tebal 10 mcrn plastik tanaman warna hitam uk. 26/ 13x25 tebal 10 mcrn plastik tanaman warna hitam uk. 20/ 10x20 tebal 05 mcrn plastik tanaman warna hitam uk. 16/ 8x15 tebal 05 mcrn plastik tanaman warna hitam. uk. ukuran; Plastik OPP Kiloan Plastik OPP Kiloan Ukuran : Sesuai dengan permintaan Ketebalan : Sesuai dengan permintaan Kemasan : 1: Roll minim berat: 75 kg Untuk ukuran umum, harga per kg adalah @ Rp 55.000, / kg-.. PLASTIK BUAH Plastik Buah 25 cm x 35 cm Ukuran : 25 cm x 35 cm ( 2kg) Kemasan : 6 Roll Plastik Buah 30 cm x 40 cm Ukuran : 30 cm x 40 cm ( 2kg) Kemasan : 6 Roll = = = = = = = = = = = = = = = = = = = HDPE 10 cm x 20 cm Ukuran : 10 cm x 20 cm Ketebalan : 0.03 mm Warna : Putih transparan Kemasan : 25 kg Rp. 32 500.00 Banyaknya: HDPE 12 cm x 25 cm Ukuran : 12 cm x 25 cm Ketebalan : 0.03 mm Warna : Putih transparan Kemasan : 25 kg Rp. 32 000.00 Banyaknya: . HDPE 120 cm x 180 cm Ukuran : 120 cm x 180 cm Ketebalan : 0.03 mm Warna : Putih transparan Kemasan : 25 kg Rp. 34 500.00 Banyaknya: HDPE 15 cm x 30 cm Ukuran : 15 cm x 30 cm Ketebalan : 0.03 mm Warna : Putih transparan Kemasan : 25 kg Rp. 32 000.00 Banyaknya: . Produk Kami | Kami menyediakan Plastik Klip, Ziplock Bag, Plastik HD, Plastik PP, Plastik Sampah, Plastik Cor, Plastik Bibit, Plastik Obat, Plastik Transparant, Plastik Klip, Klip Plastik, Ziplock Bags, Zipper Plastik Bags, plastic zipper bags, zipper plastic bags Kelebihan produk kami ( Plastik Klip, Klip Plastik, Ziplock Bags, Zipper Plastik Bags ) Produk kami ( Plastik Klip, Klip Plastik, Ziplock Bags, Zipper Plastik Bags, plastic zipper bags, zipper plastic bags HDPE 20 cm x 35 cm Ukuran : 20 cm x 35 cm Ketebalan : 0.03 mm Warna : Putih transparan Kemasan : 25 kg Rp. 32 000.00 Banyaknya: . HDPE 30 cm x 40 cm Ukuran : 30 cm x 45 cm Ketebalan : 0.03 mm Warna : Putih transparan Kemasan : 25 kg Rp. 32 000.00 Banyaknya: . HDPE 30 cm x 45 cm Ukuran : 30 cm x 45 cm Ketebalan : 0.03 mm Warna : Putih transparan Kemasan : 25 kg Rp. 32 000.00 Banyaknya: . HDPE 35 cm x 50 cm Ukuran : 35 cm x 50 cm Ketebalan : 0.03 mm Warna : Putih transparan Kemasan : 25 kg Rp. 32 000.00 Banyaknya: . plastik klip ukurannya 4 x 6 cm 5 x 8 6 x 10 7 x 10 8, 7 x 13 10 x 15 11 x 17 12 x 20 16 x 25 20 x 30 25 x 35 30 x 40 selain ukuran tersebut bisa juga dipesan. HDPE 40 cm x 60 cm Ukuran : 40 cm x 60 cm Ketebalan : 0.03 mm Warna : Putih transparan Kemasan : 25 kg Rp. 32 000.00 Banyaknya: . HDPE 50 cm x 75 cm Ukuran : 50 cm x 75 cm Ketebalan : 0.03 mm Warna : Putih transparan Kemasan : 25 kg Rp. 32 000.00 Banyaknya: . HDPE 50 cm x 75 cm Ukuran : 50 cm x 75 cm Ketebalan : 0.03 mm Warna : Putih transparan Kemasan : 25 kg Rp. 32 000.00 Banyaknya: . HDPE 50 cm x 75 cm Ukuran : 50 cm x 75 cm Ketebalan : 0.05 mm Warna : Putih transparan Kemasan : 25 kg Rp. 32 000.00 Banyaknya: HDPE 60 cm x 100 cm Ukuran : 60 cm x 100 cm Ketebalan : 0.03 mm Warna : Putih transparan Kemasan : 25 kg Rp. 32 000.00 Banyaknya: HDPE 60 cm x 100 cm Ukuran : 60 cm x 100 cm Ketebalan : 0.05 mm Warna : Putih transparan Kemasan : 25 kg Rp. 32 000.00 Banyaknya: HDPE 75 cm x 130 cm Ukuran : 75 cm x 130 cm Ketebalan : 0.05 mm Warna : Putih transparan Kemasan : 25 kg Rp. 34 500.00 Banyaknya: HDPE 75 cm x 130 cm Ukuran : 75 cm x 130 cm Ketebalan : 0.03 mm Warna : Putih transparan Kemasan : 25 kg Rp. 32 000.00 Banyaknya: HDPE 80 cm x 120 cm Ukuran : 80 cm x 120 cm Ketebalan : 0.03 mm Warna : Putih transparan Kemasan : 25 kg Rp. 34 500.00 Banyaknya: HDPE 90 cm x 120 cm Ukuran : 90 cm x 120 cm Ketebalan : 0.03 mm Warna : Putih transparan Kemasan : 25 kg Rp. 34 500.00 Banyaknya: = = = = = = = = = = = = = = = = = = = = = = = = = = = Kantong Plastik 15 cm x 25 cm Ukuran : 15 cm/ 25 cm x 25 cm Ketebalan : 0.03 mm Warna : Hitam Jumlah lembar : + 260 lembar / kg Kemasan : 25 kg Rp. 685 000.00 Banyaknya: Kantong Plastik 15 cm x 25 cm Ukuran : 15 cm/ 25 cm x 25 cm Ketebalan : 0.03 mm Warna : Putih Jumlah lembar : + 260 lembar / kg Kemasan : 25 kg Rp. 760 000.00 Banyaknya: Kantong Plastik 17 cm x 30 cm Ukuran : 17 cm/ 28 cm x 30 cm Ketebalan : 0.03 mm Warna : Putih Jumlah lembar : + 225 lembar / kg Kemasan : 25 kg Rp. 760 000.00 Banyaknya: Kantong Plastik 17 cm x 30 cm Ukuran : 17 cm/ 28 cm x 30 cm Ketebalan : 0.03 mm Warna : Merah Jumlah lembar : + 225lembar / kg Kemasan : 25 kg Rp. 686 000.00 Banyaknya: Kantong Plastik 17 cm x 30 cm Ukuran : 17 cm/ 28 cm x 30 cm Ketebalan : 0.03 mm Warna : Hitam Jumlah lembar : + 225 lembar / kg Kemasan : 25 kg Rp. 685 000.00 Banyaknya: Kantong Plastik 24 cm x 40 cm Ukuran : 24 cm/ 37cm x 40 cm Ketebalan : 0.03 mm Warna : Putih Jumlah lembar : + 148 lembar / kg Kemasan : 25 kg Rp. 760 000.00 Banyaknya: Kantong Plastik 24 cm x 40 cm Ukuran : 24 cm/ 37 cm x 40 cm Ketebalan : 0.03 mm Warna : Merah Jumlah lembar : + 148 lembar / kg Kemasan : 25 kg Rp. 686 000.00 Banyaknya: Kantong Plastik 24 cm x 40 cm Ukuran : 24 cm/ 37 cm x 40 cm Ketebalan : 0.03 mm Warna : Hitam Jumlah lembar : + 148 lembar / kg Kemasan : 25 kg Rp. 585 000.00 Banyaknya: Kantong Plastik 28 cm x 48 cm Ukuran : 28 cm/ 42 cm x 48 cm Ketebalan : 0.03 mm Warna : Putih Jumlah lembar : + 92 lembar / kg Kemasan : 25 kg Rp. 760 000.00 Banyaknya: Kantong Plastik 28 cm x 48 cm Ukuran : 28 cm / 42 cm x 48 cm Ketebalan : 0.03 mm Warna : Merah Jumlah lembar : + 92 lembar / kg Kemasan : 25 kg Rp. 686 000.00 Banyaknya: Kantong Plastik 28 cm x 48 cm Ukuran : 28 cm/ 42 cm x 48 cm Ketebalan : 0.03 mm Warna : Hitam Jumlah lembar : + 92 lembar / kg Kemasan : 25 kg Rp. 585 000.00 Banyaknya: Kantong Plastik 35 cm x 55 cm Ukuran : 35 cm/ 53 cm x 55 cm Ketebalan : 0.03 mm Warna : Putih Jumlah lembar : + 56 lembar / kg Kemasan : 25 kg Rp. 760 000.00 Banyaknya: Kantong Plastik 35 cm x 55 cm Ukuran : 35 cm/ 53 cm x 55 cm Ketebalan : 0.03 mm Warna : Merah Jumlah lembar : + 56 lembar / kg Kemasan : 25 kg Rp. 600 000.00 Banyaknya: Kantong Plastik 40 cm x 60 cm Ukuran : 40 cm/ 60 cm x 60 cm Ketebalan : 0.04 mm Warna : Putih Jumlah lembar : + 46 lembar / kg Kemasan : 25 kg Rp. 660 000.00 Banyaknya: Kantong Plastik 40 cm x 60 cm Ukuran : 40 cm/ 60 cm x 60 cm Ketebalan : 0.04 mm Warna : Merah Jumlah lembar : + 46 lembar / kg Kemasan : 25 kg Rp. 586 000.00 Banyaknya: Kantong Plastik 40 cm x 60 cm Ukuran : 40 cm/ 60 cm x 60 cm Ketebalan : 0.04 mm Warna : Hitam Jumlah lembar : + 46 lembar / kg Kemasan : 25 kg Rp. 485 000.00 Banyaknya: Kantong Plastik 50 cm x 75 cm Ukuran : 50 cm/ 76 cm x 75 cm Ketebalan : 0.08 mm Warna : Putih Jumlah lembar : + 22 lembar / kg Kemasan : 25 kg Rp. 670 000.00 Banyaknya: Kantong Plastik 50 cm x 75 cm Ukuran : 50 cm/ 76 cm x 75 cm Ketebalan : 0.08 mm Warna : Hitam Jumlah lembar : + 22 lembar / kg Kemasan : 25 kg Rp. 500 000.00 Banyaknya: Kantong Plastik 50 cm x 75 cm Ukuran : 50 cm/ 76 cm x 75 cm Ketebalan : 0.08 mm Warna : Merah Jumlah lembar : + 22 lembar / kg Kemasan : 25 kg Rp. 600 000.00 Banyaknya: = = = = = = = = = = = = = = = = = = = = = = = = Styrofoam Kemasan : Gabus Kecil Quantity : 100 pack Minimal Order 1 Packing : 1000 pieces Rp. 450 000.00 Banyaknya: Styrofoam Kemasan : Gabus Besar Quantity : 100 pack Minimal Order 1 Packing : 1000 pieces Rp. 550 000.00 Banyaknya: Styrofoam Kemasan : Gabus Sekat Quantity : 100 pack Minimal Order 1 Packing : 1000 pieces Rp. 550 000.00 Banyaknya: Styrofoam Kemasan : HB Quantity : 200 pack Minimal Order 1 Packing : 2000 pieces Rp. 560 000.00 Banyaknya: Styrofoam Kemasan : MO Quantity : 100 pack Minimal Order 1 Packing : 1000 pieces Rp. 420 000.00 Banyaknya: Styrofoam Kemasan : M2 Quantity : 250 pack Minimal Order 1 Packing : 2500 pieces Rp. 560 000.00 Banyaknya: Styrofoam Kemasan : P6 Quantity : 250 pack Minimal Order 1 Packing : 2500 pieces Rp. 580 000.00 Banyaknya: Styrofoam Kemasan : P75 Quantity : 250 pack Minimal Order 1 Packing : 2500 pieces Rp. 630 000.00 Banyaknya: Styrofoam Kemasan : P9 Quantity : 100 pack Minimal Order 1 Packing : 1000 pieces Rp. 850 000.00 Banyaknya: Styrofoam Kemasan : TR3 Quantity : 250 pack Minimal Order 1 Packing : 2500 pieces Rp. 750 000.00 Banyaknya: ukuran plastik polybag plastik tanaman minim pesen 25kg 1bal harga 25000/ kg uk. 48/ 24x50 tebal 10 mcrn plastik tanaman warna hitam uk. 40/ 20x40 tebal 10 mcrn plastik tanaman warna hitam uk. 36/ 18x35 tebal 10 mcrn plastik tanaman warna hitam uk. 32/ 16x30 tebal 10 mcrn plastik tanaman warna hitam uk. 26/ 13x25 tebal 10 mcrn plastik tanaman warna hitam uk. 20/ 10x20 tebal 05 mcrn plastik tanaman warna hitam uk. 16/ 8x15 tebal 05 mcrn plastik tanaman warna hitam HD PE PP OPP LLDPE oxium degradabel jenis plastik HD SINGLET HD SOFHENDEL HD OVAL PE SINGLET PE SOFHENDEL PE OVAL jenis plastik super market careffurr plastik alfa plastik superrindo HD singlet oxium degradabel jenis plastik super market PE singlet jenis plastik super market oxium degradabel singlet jenis plastik obat plastik klip cetak plastik printing plastik sablon plastik prin shoping bags plastik boutiq plastik promosi plastik kebutuhan kantor plastik shoping bags plastik gudang plastik super plastik polibag plastik tanaman plastik pupuk plastik beras plastik kripik plastik corr bangunan plastik onderdil mobil onder motor plastik toko baju plastik kebutuhan rumah sakit plastik kebutuhan akupuntur plastik bungkus pakan burung plastik bungkus sayuran organik kualitas unggul DLL Anda bisa mengklik "" Info Perusahaan "" , "" Katalog Produk "" dan "" Hubungi Kami "" untuk melihat isi dan informasi lain dari situs cetak plastik printing plastik sablon plastik prin shoping bags plastik boutiq plastik promosi plastik kebutuhan kantor plastik shoping bags plastik gudang plastik super plastik polibag plastik tanaman pupuk plastik beras plastik kripik plastik cor. TOKO CETAK KANTONG PLASTIK Perusahaan kami lebih memfokuskan jenis produk pada shopping bag plastik, akan tetapi kami juga menerima order jenis produk yang lain. Harga sablon plastik yang kami tawarkan selain relatif murah dan juga dapat dinegosiasikan kembali. Perusahaan kami selalu berusaha menjaga hubungan baik dengan para klien dan langganan, sehingga menjadi suatu kesepakatan bahwa kepercayaan anda kepada kami adalah suatu asset yang sangat berharga bagi kami. dan tidak ternilai harganya. Segera hubungi kontak kami segera mudah cukup hubungi kami melalui telphone anda sekarang juga dan anda akan mendapatkan jawabannya bersama kami. salam sukses binajayaplastik@ yahoo.com info web : info@ binajayaplastik.com ","
              Jl. Jelambar Indraloka Gang 5 No 1875, Jakarta Barat            ",Jakarta Barat,DKI Jakarta,+62 812-8016-3911,None,None
Sumber Berkat Abadi,"
                                    PREMIUM GOLD
                                ",Elektronik Konsumen,"
SUMBER BERKAT ABADI
Kami Specialist menyediakan :
 
1. Auto Synchronous Generator
= Woodward, Smartgen, ComAp, Datakom
Speed Control & Actuator
= Woodward, GAC, Segma, Cummins
 
2. Battery Charger
= BAE, SEG, Smartgen BAC, CSS, Aspire, Datakom SMPS & Firetrol
 
3. AVR
= Stamford, Leroy Somer, Marrelli, Mecc Alte, Taiyo, Basler, Caterpillar, OEM
 
4. VDO Gauge & VDO Sender
 
5. Turbocharger
= Holset, Garrett, KMP, Perkins, IHI, Mitsubishi, Caterpillar
 
6. Relay Protection, Overcurrent, Overvoltage & Trafo
= Broyce Control & SEG
 
7. Solenoid & MPU
= Woodward, HEL, Deutz, Kubota, DENSO, OEM
 
8. Stater Motor & Alternator
= Bosch, Mahle, Iskra, Delco Remy, Hitachi, OEM
COS
= Smartgen & Kyoritsu
 
9. Fuse MV
= SIBA, Bussmann, Schneider, Siemens
 
10. Spare Parts Generator
= Cummins, Komatsu, Perkins, Deutz, Caterpillar, Yanmar & Kubota
 
11. Undercarriage Excavator
 
12. Potensiometer, Dioda, Switch, Connector
= Vishay Spectrol, Bourns
 
HP / WA : 08788-24-000-19
Bpk. Sonny Pranata ","
              Jl. Pintu Air 3 No. 25-C Pasar Baru            ",Jakarta Pusat,DKI Jakarta,,,
CV.CENTRAL ASIA TEKNIK,"
                                    PREMIUM GOLD
                                ",Elektronik Konsumen,"
              Perusahaan dagang khusus alat2 teknik : Tools, Hardware, Heavy Duty, Machinery, Safety Equipment, Technical Supplier GENERAL SUPPLIER Distributor For STANLEY, Stanley Hand Tools, Stanley measuaring tools, Stanley laser tools, Q-Light, Stanley tools, SUN& RUN, SIMPLEX, YAMANOTE, JASON, SUN RUN, OPT, PANDA, HILTY, TECHWAY, HEYCO, RIDGID, TOKU, TEKIRO, TOMECO, ELORA, DEKKO, GEDORE, PROCUT, DeFelsko, ATA, BOSUN, FUJIYAMA, TOMECO, VESSEL, H& L, FLAG, PICUS, NETUREN, BULLOCK, MULTIPRO, SELLERY, MAKITA, BOSCH, MAKTEC, HITACHI, WEST LAKE, FIRMAN, TIGER, GENERAL, MISAKA, YAMAWA, YAMAMOTO, JIANG CHAI, ASTRAKOERA, MIKAWA, HONDA, MULTI EQUIPMENT, GreenPower, NOVELTEC. Perusahaan dagang khusus alat2 teknik : Tools, Hardware, COSMEC, REX, WEKA, MCC, Dragon, BALDUL.Aneka mesin Trafo las, Stabilizer, Genset, Pompa air, Pemadam api. Viking, Hoseky..dll atau kunjungi kami di http: / / indonetwork.co.id/ central_ asia_ teknik www.stanleytools.com ( Untuk PRoduct Stanley, Sebutkan no part nya untuk mengetahui harganya) NITTO, Delvo, MEDO, Tigon, ASADA, Hydrovane, Makishinko, Takeda, Nippon Sharyo, PACIFIC, AIRMAN, Sohken, GASBOY, HUSKY, FUKUDA, SMC , SHIYUAN, Swan, Starke. Serta alat2 konstruksi seperti Bar bender dan Bar Cutter buatan Jepang, Cina dan Korea            ","
              LTC Glodok Lantai GF 1 Blok B19 No.8Jl.Hayam Wuruk No.127JAKARTA BARAT            ",Jakarta,DKI Jakarta,+62 811-9958-228,None,None
CV. JAYA PERKASA ELECTRIC ,"
                                    PREMIUM GOLD
                                ",Elektronik Konsumen,"
JAYA PERKASA ELECTRIC
is electricals and technics Trading Company. Its can supply any brand with local and international. We are estabilished since 2007 years ago.
We always keep about Quality and Service
With more than 10 years of experience in electricals and engineering equipment, JAPEC (Jaya Perkasa Electric) understand needs of the industry in electricals and engineering tools and market needs in general.
GOOD PARTS .... GOOD PRICE .... GOOD DELIVERYPHONE : +62-812-8404-9473EMAIL : jaya_perkasa_electric@yahoo.comWhatapps : +62-812-8404-9473 ","
              Branch Office :  Kedoya Raya No. 8i Kedoya Jakarta 11520
            ",Jakarta,DKI Jakarta,+62 812-8404-9473,None,None
 PT BIMATAMA TEKNIK,"
                                    PREMIUM GOLD
                                ",Elektronik Konsumen,"
BIMATAMA TEKNIK adalah perusahaan suplier barang-barang mechanical electrical.
Termasuk didalamnya semua barang dan jasa yang berkaitan dengan mechanical electrical.
 
Kami melayani perusahaan-perusahaan, kantor, pabrik, supermarket, pendidikan, gereja, bank, koperasi, asuransi, hingga home user atau pengguna di rumah.
Kami membantu mereka memberikan solusi dibidang mechanical electrical, menyediakan barang-barang mechanical electrical yang berkualitas, bergaransi, dengan harga terbaik.
 
Semenjak berdiri tahun 2001, hingga saat ini, kami telah dipercaya untuk bekerja sama dengan berbagai produsen produk-produk elektrik.
Client kami tersebut memberikan dukungan sepenuhnya terhadap produk-produk yang dijual melalui bimatama.com. Dukungan yang diberikan berupa garansi terhadap produk, maupun harga yang bersaing. Produk-produk yang kami jual antara lain:
1. AC
2. Kabel
3. Genset dan Sparepart
4. MCB/ MCCB
5.Power Outlet / stop contact
6.Switch/ Saklar
7.Pipa-pipa
8. dll
Di bimatama.com kami berusaha menyajikan informasi produk selengkap mungkin untuk Anda, semua hanya sejauh satu klik saja.
Karena kami menyadari lalu lintas dalam kota yang semakin padat, waktu Anda yang sangat berharga, dan beberapa daerah di Indonesia yang hingga saat ini kesulitan memperoleh informasi mengenai produk-produk komputer yang berkualitas.
Bila ada informasi yang masih Anda perlukan yang tidak tercantum disini, silahkan hubungi kami.
Kami selalu berusaha memberikan pelayanan yang terbaik untuk setiap pelanggan kami. Semua produk yang kami jual, mendapat dukungan garansi yang jelas dari para vendor produk yang bersangkutan.
Jadi tidak perlu kuatir mengenai garansi produk kami, karena beberapa vendor bahkan mempunyai jaringan service yang cukup luas.
Mereka mempunyai service center dibeberapa kota besar di Indonesia, jika ada kerusakan, Anda bisa membawa produk tersebut ke service center terdekat dari kota Anda.
Jika Anda mengalami kesulitan untuk mengurus garansi suatu produk, kami akan tetap membantu Anda. Jangan ragu untuk memberikan informasi kepada kami, bila memang Anda mengalami kesulitan untuk mengoperasikan suatu produk tertentu.
Kami berusaha memberikan informasi selengkap mungkin untuk semua produk.
Namun, ada banyak produk yang tidak bisa kami tampilkan disini.
Disamping itu harga barang yang sangat fluktuatif, karena kebanyakan adalah produk import, membuat kami tidak selalu dapat mencantumkan harga yang tepat. Dalam hal ini, kami juga berusaha memberikan harga seakurat mungkin.
Namun, karena banyaknya jumlah barang, masih ada peluang bahwa harga yang tercantum sudah tidak sesuai lagi.
Jadi, untuk mendapatkan harga terbaik, jangan ragu untuk menghubungi kami.
Lihat dihalaman Contact Us. Supaya kami dapat memberikan pelayanan yang terbaik, kami terbuka terhadap saran dan masukan dari Anda. ","
              JL. Gading Griya Lestari Blok E3 No 1, Sukapura Cilincing Jakarta Utara            ",Jakarta Utara,DKI Jakarta,+62 812-8386-6664,081213047095,None
HARAPAN ANAK JAYA,"
                                    PREMIUM GOLD
                                ",Elektronik Konsumen,"
HARAPAN ANAK JAYA Adalah salah satu perusahaan yang bergerak sebagai general supplier , Vacuum Cleaner, Apparel, Shoe Cover, Head Cover, Hood, Sleeve Protector, Apron, Vinyl Glove, Nitrile Glove, Latex Gloves, Welding Glove, Fitter Glove, Cotton Glove. Air Monitor, Mass Monitor, Particle Counter, compuflow thermoanemometer, Static Control, Wrist Straps, Heel and Toe Grounders, Work surface monitor, Floor Mat, Static Charge Meters, Surface Test Kit, Ionizing Air Gun, Ionizing Air Blower, Static Control Spray Cryogenics, Dewar Flasks, Tempering Beakers, Cryobiological Inventory System, Retrieval Device, Canister Storage System, Insulated Containers, Cryo Tube, Vial Freezing Container, Benchtop Chiller, Labtop Cooler, Cryo Glove, Apron Density : Specific Gravity Cup, Pycnometer, Digital Specific Gravity Meters, Gay-Lussac Bottles, Digital Density & Specific Gravity Meter Desiccators: Electronic Desiccators, Static Free Desiccators, Ultra Low RH Desiccators Cabinet, Desiccants, Alumina Silicate, anhydrous calcium Sulfate Dispensers, Repetitive Bottletop Dispenser, Precision Digital Dispensers Electrical : Motor Rotation Testers, Electrical Circuit Analyzers, Voltage/ Continuity Tester, Analog Tester, Clamp Meter, Voltage and Current Recorder, Milliohm Meter, Digital Micro Ohmmeter, Digital Megohmmeter, Ground Resistance Tester, Resistance Test Kit, Gauss Tesla Meters, Clamp Power Meter, Leakage Tester, Digital Multimeter, Precision Multimeter, Power Quality Analyzer, Oscilloscope, Fiber Optic Power Meters, LAN Cable Tester, Ground Resistance Tester, Inverter, Battery Charger. Electrophoresis, Gel Runner, Gel Systems, Electrophoretic Blotting Systems, Vertical Gel System, Gel Casting, Comb, Spacers, Gel Wrap Gasket, Glass Plates, Casting clamps, Gel Imaging Documentation, Ultraviolet Lamp, Gel Grying System Filter Membranes, Agarose, Molecular Weight Markers, Environmental Chambers, Dehumidifiers, Humidity Controllers Evaporator : Digital Rotary Evaporator System, Compact Rotary Evaporator, Centrifugal Solvent Evaporator System, Evaporator & Concentrator, O-rac system Extraction, Fat Analysis System, Extraction and Analytical Glassware Fermentation, Modular Fermentation Start up Kit, Pre-Packaged Systems, Fermentation Accessories, Antifoam Meter, CO2 meter, Flow Filtration System, Filtration, Disposal Filterware, Sampling Capsule, shaker, Centrifuge Filter, Stirred Cells, Dialysis Tube, Filter Paper, Filter Mesh, Filter Device, Vacuum pressure Pump, Pressure Filtration, membranes, Syringe Filter Holder, Water Filtration Elements, Compact Filtration System, Compressed Air Purification from Ultrafilter, Prefilter, Dryer, Microfilter, Activated carbon Fitting : Chromatography, Compression Fittings, Luer Fitting, Pipe Fitting, Quick Disconnect Fitting, Sanitary Fitting, Barbed Fittings Flame Photometer Flowmeter, Acrylic Flowmeters, Laboratory Flowmeter, Dual Scale Flowmeter, Spring Flowmeter, Piston and Vane Flowmeter, Mechanical Bellows Flowmeters, Gas / Liquid Flowmeter, Tokico, Tut Hill, Tokyo Keiso, Magnaught, Water Flowmeter, Ultrasonic Flowmeter, Area Flow Controller, Gas Mass Flow Transmitters, Thermal Gas Flow Controllers, Volumetric Flowmeter, Differential Pressure Gas Flowmeter, High Accuracy Turbine meters, Turbine Flowmeter, insertion Turbine Flowmeters, Accumulators, Gear Flowmeter, High Viscosity Flowmeter, Digital Flowmeter, Magnetic Flowmeter, Paddle Wheel Flowmeter.

HARAPAN ANAK JAYA
Gd. Lindeteves Trade Centre ( LTC) Lt 2 Blok C.43 No 21. Jakarta Barat.
www.harapananakjaya.com
ptharapananakjaya@gmail.com
saleshaj@hotmail.com
021-3596-9127
0857-7584-5308
0813-8148-3316
0821-1291-5338
0859-5914-3221
Jenri Anto Simatupang Sianturi
 ","
              JL. Hayam wuruk No.127 Glodok, Jakarta BaratGedung Lindeteves Trade Center (LTC)LT.2 Blok C.43 No.21            ",Jakarta,DKI Jakarta,+81 3-8148-3316,085775845308,+82 11-291-5338
PT.Tam Multi Karya,"
                                    PREMIUM GOLD
                                ",Elektronik Konsumen,"
              Auto Sanitary/alat kebersihan/perlengkapan marine/silicone drum heater/solenoid valve/solenoid valve for laundry/signal lamp rafi/DENJET series/ect            ","
              Glodok CityBlok BKS no.064 lantai 3Jakarta 11120            ",jakarta barat,DKI Jakarta,+62 815-8449-2503,None,None
Kamarmandiku.com,"
                                    PREMIUM GOLD
                                ",Elektronik Konsumen,"
              Apakah Anda Sedang mencari Perlengkapan- peralatan kamar mandi serta dapur yang berkualitas dan bergaransi? .Kini telah hadir Kamar Mandiku.com, yang akan membantu anda menemukan perlengkapan kamar mandi yang lengkap dan dengan model yang terbaru.Dengan Dukungan dari produk terkenal serta terpercaya Seperti: Roca bathroom, Teka,Midea, Grohe,Toto, American Standard, Wilo, Bold, Biotaff, Taff, Biofil, Hitachi, Sanei, Chrysolite, Meridian, Wika, Solahart, Honeywell, Daalderop, Penguin ,Tecnogas Waterco, Profil Tank, Grohe, Crestial, 3M, Edwards, Broco, Wasser, Toclas, Yamaha, samsung, yale dll.Kamar Mandiku.com akan membantu mewujudkan semua mimpi anda. Kemudahan transaksi serta harga yang kompetitif menjadikan pelayanan kami berbeda dengan toko lain pada umumnya. MOTTO : "" Tinggal klik barang langsung dikirim"" . Begitu mudahnya ! ! . Sehingga anda akan menghemat waktu yang berharga serta uang yang tidak sedikit untuk berburu perlengkapan kamar mandi yang anda inginkan. Kamar Mandiku.com juga memberikan gratis desain kamar mandi, gratis pemasangan serta gratis jasa pengiriman. Trade in ( tukar Tambah ) , Jasa Renovasi serta dukungan instalasi. Dengan pengalaman lebih dari 9 tahun, kamar mandiku.com telah melayani seluruh konsumen di Indonesia, bahkan mancanegara seperti malaysia & Brunai. Kejujuran serta tanggung jawab menjadi modal utama kami untuk terus maju & berkembang. Disertai dukungan sistem informasi yang canggih kami siapkan untuk memberikan Pelayanan terbaik kami. Nikmati dan temukan apa yang sedang anda cari, hubungi kami jika ada yang mungkin menjadi pertanyaan, 24 jam kami akan menjawab segala pertanyaan dan masukan anda. Akhir kata senang bisa berkenalan dengan anda semua. Selamat berbelanja, harapan kami anda akan senang dengan pelayanan kami. Salam Sukses            ","
              Rukan Niaga Boulevard  Metland  menteng blok i1 No.26  Raya Bekasi Km.26 Jakarta Timur            ",DKI Jakarta,DKI Jakarta,+62 811-1185-538,None,None
Aneka Jasa Solusindo.,"
                                    PREMIUM GOLD
                                ",Elektronik Konsumen,"
Aneka Jasa Solusindo adalah perusahaan yang bergerak dalam bidang Pengadaan sarana alat-alat telekomunikasi, supplier-Electrical Arus lemah dan jasa instalasinya. Perusahaan kami banyak menangani Perusahaan, Perhotelan, Perkantoran, dan kerja sama dengan para kontaraktor. Untuk pengadaan alat2 komunikasi tersebut, kami telah-membangun hubungan yang luas dengan para Agen dan Distributor dari berbagai merk alat2 komunikasi , Dengan merk2 sebagai berikut:
Adapun produk yang kami tawarkan meliputi :
- PABX system - Call Center - IVR ( Interactive Voice Respond ) - Voice Mail System - Digital Telephone Recording atau Voice Logger - Billing Software atau Call Accounting Software - LAN Infrastucture - Security System spt : IP Camera dan Analog camera , Finger print/ access control.
Prinsip kami untuk setiap client adalah selalu memberikan solusi yang terbaik dengan memberikan produk yang tepat guna serta ekonomis. Kami percaya kepuasan pelanggan adalah merupakan salah satu aset utama yang dapat memberikan kontribusi sangat besar bagi pertumbuhan dan kemajuan perusahaan kami. Beberapa produk yang kami pasarkan meliputi beberapa merk seperti :
-PABX system Panasonic , NEC , Siemens, LG , Alcatel , Avaya, Nortel, Transtel.
-Automatic Attendant System
-Voice Mail dan IVR system merk Integra Voicel Logger / Telephone Recording System merk Zibosoft
-Matrix Call Center atau Contact Center
-Billing software atau Call Accounting merk Matrix
-Intercom Sistem, RS-Nurse Calling Sistem
-Solusi LAN Infrastructure meliputi beberapa merk : AMP, Belden, Panduit, Allied,       Telesyn, Nortel, Cisco, Rosenberger, Systimax dll. Beberapa produk lainnya.
-MATRIX CALL ACCOUNTING atau Billing Software versi standart dan Billing software versi budgeting MATRIX TAPI for Call Center Aplication Telephone, Voice Recording atau Voice Logger MATRIX dan Zibosoft Telephone Voice , Recording Multisuns TCR 1000 Auto Attendant Merk YOSIN VOICE MAIL PC Base, Merk Integra Beberapa merk dan tipe PABX yang kami support a.l : PANASONIC IP PABX KX-TDA 30/ 100/ 200/ 600 Panasonic IP PABX KX-TDE 100/ 200 Panasonic ACD Server KX-NCV 200 for call center Panasonic KX-TD 1232 Panasonic KX-TD 500 Panasonic KX-T 336 Panasonic KX-T 192 NITSUKO DXZ 600 Nitsuko NICE 288 NEC ASPILA TOPAZ NEC ASPILA EX NORTEL BCM 50/ 100/ 200/ 400 Nortel Meridian 1 OPTION 11/ 51/ 61 ALCATEL LUCENT Serie OXO dan OXE SIEMENS HICOM 130/ 150/ 300 HYPATH 1120/ 1130/ 1150/ 1190 / 3000/ 4000 TRANSTEL HYBREX TDS 600 tipe TDS 40/ 160/ 320/ 640/ 1280 LG NORTEL Aria SOHO dan IP LDK PABX / Key Telephone Sistem: PANASONIC, NEC, TOSHIBA, SIEMEN, AVAYA, NORTEL DLL IP-Camera/ CCTV Sistem: SANYO, PANASONIC, TELVIEW, VIVOTEK, BOSH, DLL. Sound Sistem & Public Addres: TOA, BOSH, INTER-M, RAMSA DLL Software Billing sistem Under Windows: MATRIX, DINAMIT, FIRAMID, DLL Auto Attandant / Voice Processing sistem: ADFEX, YOSIN, VODATRACT, MULTISAN, DLL. Acces Control / Finger Print Sistem: ROGER, CARD NETIC, ALBOX, VIRDI, DLL Fire Alarm / Burglar Alarm sistem : NITTAN, APRON, HOOSEKI, BOSH, NOHMI dll .
Dengan hubungan yg luas tersebut, maka kami siap membantu Anda dalam memenuhi segala kebutuhan alat2 komunikasi dan perangkat lain2nya baik untuk PABRIK, HOTEL RUMAH SAKIT, BANK, SHOPPING CENTER, MALL DLL MENJADI MITRA ANDA ADALAH SUATU KEBANGAAN BAGI KAMI. Jika anda ingin informasi lebih lanjut silahkan hubungi kami , Atau kunjungi Show Room kami di: WTC Mangga Dua Mall Lantai Upper Ground A26 Telp. (021)30017933, Fax.( 021) 30017933 . Hp. 0812-8829-9858, 0816.1816087 (Iwan) ","
              WTC Mangga Dua Lt.Upper Ground A26Hp. 0812-8829-9858, 0816.1816087 (Iwan)            ",Jakarta- Pusat,DKI Jakarta,+62 816-1816-087,None,None
Sumber Logam,"
                                    PREMIUM GOLD
                                ",Elektronik Konsumen,"
              Sumber Logam adalah perusahaan memproduksi barang-barang jadi Logam, yang berlokasi di Jakarta, Indonesia. Didirikan pada tahun 1972, Dengan main produk alat-alat dapur seperti serok, kompor gas , kompor briket batubara, panci, dandang, saucepan dan lain-lain; Disamping itu juga memproduk produk barang-barang menunjang kebersihan di property seperty dusbin dan barang barang-promosi lainya.Didukung dengan mesin-mesin semi otomatis dan mesin-mesin full otomatis, sehingga bisa menghasilkan produk dengan harga kompetitif dan kualitas yang terbaik. Anda bisa membrowsing company Website kami di www.sumberlogam.com atau menghubungi kami melalui telpon/ email di admin@ sumberlogam.com, Others daerah Contact customer service sumber Logam 24            ","
              Jalan Pesing Kapuk poglar no 27, kel kedaung kali Angke, kec Cengkareng RT/RW 01/01            ",Jakarta Barat,DKI Jakarta,+62 815-9211-555,None,None
Karya Mandiri Instrument Indonesia,"
                                    PREMIUM GOLD
                                ",Elektronik Konsumen,"
Karya Mandiri Instrument Indonesia adalah supplier peralatan laboratorium baik eletronik maupun mekanik, serta berbagai macam instrument measurement, dengan didukung dari berbagai macam merk dari negara negara Eropa, US, dan beberapa negara di Asia seperti Korea, Japan dan Taiwan. Instrument yang kami sediakan seperti : Anemometer, Analitical Balance, Spectrophotometer, pHmeter, Laser survey, Micropipette, Peristaltic Pump, Flame photometer, Water bath heating cooling, Colorimeter, Water Strirer, Viscometer. Freezers, Refractometer, Polarimeter, Sound Level meter, Tachometer. Dll Kami juga menerima jasa service( Repair alat laboratorium/instrument, alat ukur, Alat kesehatan) dan kalibrasi untuk peralatan laboratorium sesuai kemampuan kami.Info Produk dan Order Hubungi :Mobile : 081294124885 // 085778084789 // 085104387311Email   : karyamandiriinstrument@yahoo.comWebsite : www. karyamandiri-instrument.com ","
              Jl.Cilangkap Baru,Griya Amar Ma'Ruf No 2A,cilangkap-Cipayung Jakarta Timurr            ",Jakarta Timur,DKI Jakarta,+62 812-9412-4885,None,None
