Name,Membership,Category,Description,Address,City,Province,telp1,telp2,telp3
UD. SIDO MUMBUL,"
                                    PREMIUM GOLD
                                ",Sedot Wc,"
              UD. SIDO MUMBULPerusahaan kami bergerak di bidang distribusi barang pecah belah / bolo pecah, plastik rumah tangga, peralatan / alat dapur ( kitchen wares) dan kebersihan ( cleaning equipments) , perlengkapan rumah tangga ( house wares / home appliances) dan kebutuhan industri ( industrial wares) lebih dari 30 tahun di Pasar Turi, Surabaya. Kami menjual barang-barang produksi lokal dan impor seperti barang-barang aluminium, kaca, plastik, stainless steel, perkakas, dll. dengan harga dan kuantiti partai ( grosir) untuk dijual kembali ( reseller price).Beberapa merek barang yang kami jual adalah Hock, Lion Star, Maspion, Global Eagle, Green Leaf, Dian Sari, Owl Plast, Technoplast, Bull Star dan masih banyak lagi. Untuk informasi lebih lengkap bisa dilihat pada halaman Katalog Produk kami atau bisa langsung datang ke kantor kami pada hari Senin - Sabtu pada pukul 10: 00 - 17: 00 WIB di jalan Dupak 63, kompleks pertokoan Mutiara Dupak C-22, Surabaya.  Dengan dukungan supplier lokal dan nasional, kami siap untuk memenuhi kebutuhan usaha anda. Kontak kami segera untuk berbisnis dengan kami.Kami juga melayani kebutuhan hotel, rumah sakit, cafe, restoran & katering.Untuk pemesanan produk dapat dilakukan via telepon, short message service ( SMS) , Yahoo! Messenger, Blackberry Messenger ( BBM) dengan sistem pembayaran cash ( transfer bank / kontan) . Pembayaran dapat dilakukan setelah mendapat konfirmasi dari kami atas ketersediaan jumlah produk yang dibutuhkan. Apabila anda serius, dimohon untuk tidak mengirimkan e-mail kepada kami tanpa melakukan konfirmasi terlebih dahulu.  Tersedia kualitas produk biasa, menarik, murah, kuat dan berkualitas tergantung merk dan kebutuhan. Untuk area surabaya kami dapat mengirim, untuk konsumen luar kota dan luar pulau dapat dikirim lewat ekspedisi yang telah disepakati bersama. JAKARTA - BANDUNG - YOGYAKARTA - MAGELANG - SOLO - DENPASAR - SEMARANG - MALANG - SURABAYA - BANYUWANGI - PASURUAN - PROBOLINGGO - JEMBER - PRABUMULIH - MEDAN - JAMBI - PEKANBARU - MAKASSAR - BALIKPAPAN - PONTIANAK - BANJARMASIN - BATAM - PALEMBANG - LAMPUNG - SAMARINDA - PADANG - MATARAM - KALABAHI - MANADO - JAMBI - ACEH - PANGKALAN BUN - KUALA PEMBUANG - BATU LICIN - SAUMLAKI - TUAL - GORONTALO - TANJUNG SELOR - TOLI TOLI - AMBON - BATAM - PANGKALPINANG - WAINGAPU - WAIKABUBAK - KUPANG - ATAMBUA - DILI - PALU - SAMPANG - BANGKALAN - SUMENEP - JAYAPURA - SORONG - BIAK - MANOKWARI - MERAUKE - BAU BAU - TERNATE - TOBELO - KENDARI UD. SIDO MUMBUL - Jln. Dupak 63 / Pertokoan Mutiara Dupak C-22, (031) 5469330 / 081938685700, Surabaya. PIN BBM = 7C5F4B40 / 5B69FFC6 / 228B81D4 WA = +6282143438684 LINE = herry.sutanto E-mail = ud_sido_mumbul@yahoo.com / herrychenzhongqiang@gmail.com Jam Kerja = Senin - Sabtu 10:00 - 17:00 WIB, Hari Minggu / Besar Libur            ","
              Jln. Dupak 63 / Pertokoan Mutiara Dupak C-22, (031) 546-9330 / 0819-3868-5700, Surabaya.
PIN BBM = 7C5F4B40 / 5B69FFC6
WA = 0821-4343-8684
LINE = herry.sutanto            ",Surabaya,Jawa Timur,+62 814-3438-684,None,None
PT. Indonesia Bersih Rapi,"
PREMIUM RUBY
",Sedot Wc,"
              ""PRAKATA""PT. INDONESIA BERSIH RAPI,  merupakan perusahaan perseroan terbatas, bergerak dalam Jasa perawatan taman, jasa kebersihan, dan jasa office boy/girl didirikan pada tahun 2019 yang sebelumnya bernama C. JAYA SANTIKAH yang didirikan pada tahn 1997 di JAWA TIMUR.AREA PERAWATAN TAMAN, JASA KEBERSIHAN/CLEANING SERVICE DAN OFFICE BOY GIRL SBB :1. Perkantoran2. Perumahan3. Mall4. Hotel5. Rumah sakit6. Sekolahan7. Bandara8. Stasiun9. Perbenkan10. Restorandan lainnya            ","
              Jl. Daan Mogot KM19 Smart Market Daan Mogot Blok B Nomor 05            ",Jakarta Barat,DKI Jakarta,+62 812-8998-071,+62 811-1833-992,08118457755
PT. JAYA UTAMA SANTIKAH,"
PREMIUM RUBY
",Sedot Wc,"
PT. Jaya Utama Santikah adalah perusahaan Perseroan terbatas yang bergerak dibidang Perdagangan Umum dan Jasa. Perusahaan kami telah berdiri sejak 1997 di Jawa Timur dengan nama CV. Jaya Santikah, dan ditahun 2008 kami telah berkembang menjadi PT. Jaya Utama Santikah dan kami sekarang memiliki kantor di Jakarta.
 
Sesuai dengan moto kami yaitu membantu akan kebutuhan dalam bidang Jasa Perawatan Kebersihan dan Keindahan pada setiap lingkungan yang dibutuhkan. Seperti halnya yang kami tawarkan Jasa Kebersihan Gedung, Jasa Perawatan Taman Jakarta semua hal itu tentunya dibutuhkan sebuah management khusus agar kegiatan yang berjalan sesuai dengan apa yang diharapkan.
 
Dan kami menyadari tidak semua kantor atau gedung memiliki management khusus kebersihan dan perawatan seperti ini, dan pastinya untuk membentuk management ini juga dibutuhkan sumber daya yang profesional dan memahami setiap langkah apa saja yang harus dilakukan. Dan semua tahap itu tentunya membutuhkan proses yang panjang, untuk mempersingkat waktu dan meminimakan pembiayaan dalam memenuhi kebutuhan perawatan kebersihan kami siap membantu Anda dalam jasa penyedia cleaning service, jasa cleaning service terbaik, jasa perawatan taman Jakarta, jasa kebersihan gedung, jasa kurir antar barang dan distributor alat cleaning service sebagai produk perdagangan kami. ","
              Jl. Daan Mogot KM19 Kebon Besar Batuceper, kota Tanggerng,             ",Smart Market Daan Mogot Blok B No. 5,DKI Jakarta,+62 811-1833-992,+62 812-8998-071,None
