Name,Membership,Category,Description,Address,City,Province,telp1,telp2,telp3
PT Apases,"
                                    PREMIUM GOLD
                                ",Perlengkapan Alat Berat,"
              PT Apases merupakan perusahaan yang fokus di bidang penjualan pompa dan alat pendukungnya. Kami memiliki persediaan barang yang sangat cukup dan dimbangi dengan teknisi yang handal.Pelanggan kami berasal dari berbagai kalangan industri, galangan kapal, gedung tinggi, mall, shopping center, kolam renang umum maupun pribadi termasuk rumah tangga.Pompa yang kami supply dipakai untuk air tawar, air laut, lumpur, bahan kimia, minyak bakar, minyak goreng, oli , solar. Pompa pompa tersebut digerakkan oleh elektro motor 220V, 380V, 440V dan mesin diesel Alat pendukung pompa yang kami sediakan meliputi Cooling Tower, Sand Filter, Carbon Filter, Cartridge Filter, Electric Motor, Pressure Tank, Pressure Switch, Pressure Gauge (Manometer), Hydrophore Tank Spring Mounting, Rubber Mounting, Kontrol Panel DOL / Star Delta / VSD / Inverter, berbagai macam Valve, Electrode, WLC, Float Switch (Air / Minyak) , Flow Switch, Float Valve (Pelampung Air).Lokasi kami berada dalam kawasan industri tunas 2 , masuk Pos Satpam Kawasan Tunas 2 dan belok kiri pada simpang pertama. Kami tunggu kedatangan anda            ","
              Kawasan Industri Tunas 2 Type 2E Batam Center            ",Batam,Kepulauan Riau,+62 878-9401-3000,None,None
CV Bangkit Jaya Sealindo,"
PREMIUM RUBY
",Perlengkapan Alat Berat,"
              CV Bangkit Jaya Sealindo adalah suppier Mechanical Seal yang sudah berpengalaman dalam dunia ini.Kami spesialis dalam pembuatan MECHANICAL SEAL dan Seal custom lainnya, dapat membuat Mechanical Saeal / Seal sesuai contoh dan sesuai request yang diinginkan.            ","
              Komplek Ruko Kosambi Megah Blok A/34 kelurahan Jati Mulya Kecamatan kosambi kabupaten Tanggerang Banten 15211            ",Tanggerang,Banten,+81 3-5300-5500,None,None
PT. DUTA UTAMA SENJAYA,"
                                    PREMIUM GOLD
                                ",Perlengkapan Alat Berat,"
PT DUTA UTAMA SENJAYA Hp. 08128065385, WA. 087876638891, Telp: 0254570530, Fax: 0254570601, Email: sales@dutatop.co.id;barkah@dutatop.co.id, Dept. Spare Part Solution: www.dutatop.co.id, Dept. Energy solution: www.energysaverid.com  is a trading company which provides Mechanical, Electrical and Instrument spare parts and specializes supply to Industries: Steel Mills, Petrochemical Factories, Power Plants, Oil and Gas Industries, Sugar Refineries, etc.
 
PT DUTS has been existing and experienced since 1996 in serving the industries throughout Indonesia. Located in Cilegon, a hundred kilometers west of Jakarta, we have been truly committed to our service to build our business relationship with customers.
 
Mr. Ir. H. Sutopo Raharjo is the founder and Director of the company. He started his career in 1986 by joining a supply company specializing in hardware products of mechanical & electrical parts. Ten years later he established PT DUTS with a mission of giving quick service and growing successfully in business activities with other parties. 
 
Comprising a team which consists of 10 employees, PT DUTS has developed itself and served its customers with reliable and efficient products supplied by globally reputable manufacturers. ","
              Komp. Arga Baja Pura, Jl. Arga Patuha Blok D5/19 Grogol            ",Cilegon,Banten,+62 817-0703-575,None,None
PT. ASIA TEKNIK KREASINDO,"
                                    PREMIUM GOLD
                                ",Perlengkapan Alat Berat,"
Kami Bergerak dibidang kebutuhan industri specialis hydraulic, Pneumatic dan General Supplier. Produk Kami : * Hydraulic Hose * Industrial Hose * Pneumatic Part * Hydraulic Part  Dengan harga terbaik dikelasnya, produk berkualitas dan berGARANSI, memberikan solusi dan masukan untuk setiap permasalahan dibidangnya dengan teknikal support ahli dibidangnya. ","
              Jl. Gatot Subroto KM.2 No.23 ( Depan Ruko Harmoni Cimone ) Kel.Cimone Kec.Karawaci, Tangerang - Banten - Indonesia             ",TANGERANG,Banten,085776189919,+81 29-292-8585,081911193393
PT. Restu Raya Abadi,"
                                    PREMIUM GOLD
                                ",Perlengkapan Alat Berat,"
              PT. Restu Raya Abadi adalah perusahaan yang berdiri sejak Tahun 2009. Bergerak dibidang Desain dan Manufacturing Hydraulic dan Pneumatic Sistem yang dapat diaplikasikan pada mesin-mesin industri, otomotif, pengeboran minyak dan gas maupun pada komponen alat-alat berat. Meliputi semua jenis hydraulic, Pnuematic dan acsesories pendukungnya seperti Manifol Block, Selenoid Valve, Reliet Value, maupun perakitan sistem Power Pack itu sendiri. Kami juga memiliki beberapa fasilitas produksi berupa Workshop yang lebih dari satu tempat dengan didukung alat-alat produksi yang memadai dan sumber daya manusia yang terampil dan ahli dibidangnya.            ","
              Office & Warehouse : Taman Royal 1 Ruko Mahoni Niaga No 70, Kel Tanah Tinggi, Kec. Tangerang/Workshop : LTC Glodok & Bayur Kali RT04/RW04, Desa Lebak Wangi, Kec. Sepatan Timur, TangerangFax : 02129238243            ",Tangerang,Banten,+62 813-1093-2456,None,None
ZULINDO JAYA MANDIRI,"
PREMIUM RUBY
",Perlengkapan Alat Berat,"
ZULINDO JAYA MANDIRI merupakan Perusahaan yang Siap Membantu Anda dalam Bidang :‚Ä¢ Penyediaan, Pemasangan dan Perawatan Filter AHU‚Ä¢ Pengadaan dan Perawatan berbagai Type AC‚Ä¢ Pengerjaan Konstruksi Besi, Aluminium, Stainless‚Ä¢ Kontraktor HV AC untuk Ruang Operasi, Ruang Isolasi dan Ruang CCSD (Pusat Sterilisasi)Dan telah Melayani Berbagai Instansi dan Perusahaan Ternama, Khususnya di Area Jawa Tengah. Beberapa diantaranya :‚Ä¢ RSUD KRMT WONGSONEGORO‚Ä¢ RSUD IR SUKARNO SUKOHARJO‚Ä¢ RSI KENDAL‚Ä¢ RS Kariadi‚Ä¢ RS Roemani‚Ä¢ RS Elisabeth‚Ä¢ Telkom‚Ä¢ PT Indofood‚Ä¢ Ciputra‚Ä¢ Perusahaan Farmasi dan Mall di SemarangUntuk diluar Jawa Tengah beberapa diantaranya :‚Ä¢ RS Bunda Lhoksumawe, Makasar dan Kalimantan.""Pelayanan Terbaik, Tepat, Efisien adalah Semangat Kami""-----Hubungi Kontak Kami Sekarang untuk Dapatkan Penawaran Terbaik dan Harga Bersaing (CALL/WHATSAPP).
‚Ä¢ Phone : 0813-2542-2349 (Peni Eka Prastyawati)
‚Ä¢ e-Mail : zulindo.jayamandiri@gmail.com‚Ä¢ Website : www.ZulindoFilterSemarang.com
 ","
              KANTOR PUSATüìç Jln. Condrokusumo Raya No. 21-D Bongsari Semarang BaratPHONE / WHATSAPP‚òéÔ∏è 0813-2542-2349‚Äî            ",SEMARANG,Jawa Tengah,+62 813-2542-2349,None,None
CV. Berlian Saka Perkasa Engineering,"
PREMIUM BLUE ONYX
",Perlengkapan Alat Berat,"
CV. BERLIAN SAKA PERKASA ENGINEERING berdiri pada tahun 2015 di Kota Semarang, Jawa Tengah. 
Kami menyediakan berbagai macam produk Sparepart Industri dengan harga terjangkau dan menawarkan solusi yang terbaik . Kami bergerak dalam bidang Seal & Rubber, Mechanical Seal, Gland Packing & Expansion Joint, Pump ,Hydraulic, Metal Working, dan Engine Part Refurbish.
Untuk semakin meningkatkan kinerja kami, kami selalu berorientasi pada kualitas layanan, mengevaluasi dan menjaga kualitas barang dan jasa, serta berusaha keras untuk memberikan solusi yang terbaik. Kami ingin mencapai Visi dan Misi perusahaan dengan cara yang terbaik dan terarah, membangun konsep, menyediakan kualitas produk dan jasa untuk  memenuhi kebutuhan pelanggan dengan harga yang bersaing, dan kami berkomitmen untuk layanan pengiriman tepat waktu.  .
Untuk informasi lebih lengkap segera hubungin kami di 

Contac US :
CV. BERLIAN SAKA PERKASA ENGINEERING
Sales Office: Jl. Ngesrep Barat Dalam IV No.31, Srondol Kulon, Banyumanik, Semarang 
Phone : 024-74740724
Mobile/WA : 0822 2661 7956
Website  : www.berliansakaperkasa.co.id
Email : sales-support1@berliansakaperkasa.com | sales@berliansakaperkasa.com
 ","
              Jl. Ngesrep Barat Dalam IV No.31, Srondol Kulon, Banyumanik, Semarang  ",Semarang,Jawa Tengah,+62 822-2661-7956,None,None
TOKO SEMARANG TEKNIK,"
                                    PREMIUM GOLD
                                ",Perlengkapan Alat Berat,"
Selamat datang di website TOKO SEMARANG TEKNIKEMAIL : SARANA_SMG@CBN.NET.IDemail : SEMARANGTEKNIK@CBN.NET.IDPT. Sarana Teknik adalah Perusahaan yang menjadi distributor resmi penjualan Produk Electric Motor, Gear Motor, Gear Reducer, Gear box, Industrial Pump, Copling, Pulley, Chain, Conveyor Chain, Belt Conveyor, Sprocket, transmisi tenaga mekanik, dll. Dengan penghargaan dari custumer akhirnya kami menjadi di kenal dengan Stokist pada product sebagai berikut : BALDOR MOTOR DODGE COUPLING - DODGE BEARING FALK COUPLING REXNORD COUPLING - REXNORD CHAIN ADDAX COUPLING , THOMAS, FENNER BELT COUPLING PULLEY , SIHI PUMP, KOSHIN GEAR PUMP, SOUTHERN CROSS PUMP, EBARA PUMP, FRANKLIN SUBMERSIBLE PUMP, KENFLO PUMP, BEARING, BANDO BELT, CONTINENTAL CONVEYOR BELT MARTIN, LINK BELT, HITACHI, MTK, NIKKEN, KHK, KTR, KB PENTA POWER, CUTES INVERTER, TOSHIBA INVERTER, DELTA INVERTER, KBMM, TECO MOTOR, SIEMENS MOTOR, YUEMA ELECTRIC MOTOR, TSUBAKI POWER HELICAL DRIVE REDUCER, KOP-FLEX, TB WOOD' S, FLENDER, NBK, KTR, MITSUBOSHI, CENTA, EBARA, MOTOVARIO , MOTOVARIO GEARBOX , MOTOVARIO INDONESIA , MOTOVARIO WORM GEAR , BONFIGLIOLI , BONFIGLIOLI INDONESIA , BONFIGLIOLI RIDUTTORI , BONFIGLIOLI GEARMOTOR, dll.Untuk informasi dan pemesanan Hubungi Kami :Head OfficeToko Semarang TeknikJl. Wonodri Sendang Raya No.15 A Semarang 50242Phone : ( 024 ) 356 6377 ( Hunting)Fax   : ( 024 ) 356 9019EMAIL : SARANA_SMG@CBN.NET.IDEmail : semarangteknik@cbn.net.id ","
              Jl. Wonodri Sendang Raya No.15 A Semarang 50242            ",Semarang,Jawa Tengah,+62 815-2260-1312,None,None
Multi Control Indonesia,"
                                    PREMIUM GOLD
                                ",Perlengkapan Alat Berat,"
Multi Control Indonesia adalah perusahaan yang bergerak di bidang penjualan kebutuhan industri, untuk semua jenis industri seperti textile, plastik, makanan & minuman, obat, pengolahan kayu, farmasi dan lain-lainnya, serta menjual berbagai kebutuhan untuk trainer pendidikan. Ada pun product-product yang dijual antara lain seperti Frequency Inverter ( VFD), frequency inverter, AC Drives, frequency converters, frequency changers, adjustable speed drives (ASD), adjustable frequency drives (AFD), variable frequency drives (VFD), variable speed drives (VSD), Soft Starters, Soft Stop, Soft Starters for AC Motor, Motor Starters,  Motor Soft Starters, EMI filter, Input EMI Filters, Output EMI Filters, AC Choke, AC Reactor, Input AC ChokeÔºå Output AC ChokeÔºå Input AC Reactor, Output AC Reactor, DC Choke, DC Reactor, Input DC Choke, Output DC Reactor, Input DC Reactor, HMI, Human Machine Interface,PLCÔºåProgrammable Logic Controller, Servo Drive, Servo Motor, Servo Motor & Drive, Servo Motor & Drive, Dioda Module, Darlington, IGBT, Transistor Module, IPM Module, Rectifier Bridge, SCR,GTO & Dioda, Mosfet,Fanuc part, Elevator Board,Fuse, Melt Pressure transmitter, Melt Pressure tranducer, Pressure Sensor,Melt Pressure gauge,Level Transmitter,Differential Pressure transmitter,Mud Pressure Transmitter,Instrument,Diaphragm pressure gauge,Temperature Transmitter, segala model jenis sensor. Propeller flow meter,Ultrasonic Water meter,magnetic flow meter,Gas turbin meter,Radar level meter dan bekerja sama dengan beberapa merk terkenal seperti 

ABB, SIEMENS, DANFOSS, VACON, SEW, LENZE, PETER ELECTRONIC, LEISTER, WATT DRIVE, KEB, BONFIGLIOLI, NORD, CAG ELECTRIC MACHINERY, INTECNO, SYCOTEC, KB ELECTRONICS,  TDE MACNO SPA, GEFRAN, CONTROL TECHNIQUES, PEPPERL FUCHS, GRUNDFOS, VEM MOTORS, BR INDUSTRI-ELEKTRONIK, RK ROSE+KRIEGER, CARLO GAVAZZI, LEROY SOMER, VERLINDE, TRANSTECNO, STAHL CRANE SYSTEMS GMBH, MIYACHI, DEMAG CRANES COMPONENTS, ABM, ROSSI, COGNITO QUAM, GE, AIRTECNICS, Delta, Teco, Toshiba, Mitsubishi, fuji, Yaskawa, Hitachi, Omron, Panasonic, HYUNDAI, LS/LG

Tujuan utama kami adalah untuk menyediakan kebutuhan sarana industri yang tepat dan lengkap dengan layanan yang komprehensif kepada pelanggan, tidak hanya sumber daya saham tetapi juga dukungan teknis dan keahlian teknik. ","
              Villa Payung Indah B 27            ",Semarang,Jawa Tengah,6585225548633,None,None
PT.SARANA TEKNIK GROUP,"
                                    PREMIUM GOLD
                                ",Perlengkapan Alat Berat,"
PT. SARANA TEKNIKJln. Wonodri Sendang Raya No. 15ATelp: 024 ‚Äì 3566377Email: sarana_smg@cbn.net.idWebsite: www.sarana-teknik.comJual: WIREMESH, MESIN CRUSHER, JAW CRUSHER, DAN UNIT CONVEYORProduk:BACKSTOP/CLUTCH BRAKE: Shinko Sinfonia, KEB, Mitsubishi, Osaka, Suntes, Airflex Eaton, Warner, dll.
RING BLOWER, TURBO BLOWER & ROOTS BLOWER Merk: Chuan Fan, Back Port, Ho-Hsing dan Showfou Produk INVERTER AC 1 Phase dan 3 Phase, Merk: LG/ LS, FUJI, HITACHI, CUTES, DELTA, TOSHIBA, SIEMENS, TECO, MITSUBISHI, ABB. DC Controller KB-Penta Power
Produk COMPRESSOR Merk: PUMA, PANTHER, JAGUAR, SWAN, dll.
Electric Motor: Baldor Electric motor, Explosion Prof motor BALDOR, Bonfiglioli electric motor, westcar electric motor, toyo electric motor, electrim electric motor, yuema electric motor, motovario electric motor, mitsibishi electric motor, quantum electric motor, Siemens electric motor, reliance electric motor, teco electric motor.
GEAR BOX & GEAR MOTORGear dan gear motor: Bonfiglioli Ridutori gear motor, Yuema gear motor, Mitshubishi gear motor, Motovario gear motor, Quantum gear motor, Reliance gear motor, Siemens gear motor, Teco gear motor, Flender gear motor, Omega Motori gear reducer.
Gear Box: FALK GEAR REDUCER REXNORD GEAR REDUCER FALK GEAR MOTOR REXNORD GEAR MOTOR FALK GEAR DRIVE DRIVES REXNORD DRIVE DRIVES REXNORD TABLE TOP CHAIN LINK BELT BEARING LINK BELT CHAIN TUNGLEE GEAR MOTOR
ALL BACKSTOP MERK: BACKSTOP FOR CONVEYOR, BACKSTOP MARLAN, BACKSTOP STIEBER, BACKSTOP RINGSPANN, BACKSTOP FORMSPRAG, BACKSTOP SAMBO, BACKSTOP MASTER, BACKSTOP TSUBAKI, ROSSI MOTORIDUTTORI, SITI, MAKISHINKO - GEAR BOX - GEAR MOTOR - GEAR REDUCER - GEAR BOXES KB1. BONFIGLIOLI RIDUTORI2. SEW3. FLENDER4. TSUBAKI5. YUEMA6. SOUTHERN CROSS7. SIHI PUMP9. DAVID BROWN10. TRANSMAX / OMEGA MOTORI11. MAKISHINKO
Electric / Induction Motor: TECO, TATUNG, LI-MING, ATT, FUKUTA. YUEMA. BALDOR, RELIANCE, ABB, SIEMENS, BONFIGLIOLI, ELEKTRIM, CANTONI,dll
DYNAMIC PLANETARI Merk Pump: ALFA LAVAL PUMP TORISHIMA SIHI PUMP, STERLING PUMP KSB PUMP APP PUMP LOWARA, CNP, GROUNFOS ORIENTAL KOSHIN EBARA, SHOWFU, KENFLO FRANKLIN, SOUTHERN CROSS
ALL COUPLING: Centa, Transfluid coupling, Dodge coupling, falk coupling, Fenner coupling, Flender coupling, addax coupling, IDD-FCL Coupling, KOPFLEX coupling, KTR coupling, LoveJoy coupling, Masterflex coupling, Mitsuboshi coupling, NBK coupling, Normex coupling, Rathi coupling, Rexnord coupling, Seisha coupling, TB WOOD' S coupling, Thomas coupling, Tsubaki coupling, Westcar coupling, Jointing
Universal jointing: KTR, Quantum, Sankyu Power Lock
Locking Bush: Quantum, Stand Word, Ring Feeder. Ringspann Backstop, Tsubaki Backstop
Flender: N-Eupex Coupling, Rupex Coupling, Bipex Coupling, Arpex Coupling, Zapex Coupling & Fludex Coupling.
RANTAI Chain: Link-Belt, AVE, Rexnord, Tsubaki, Fenner, Renold, DID, MTK. Table Top Chain Rexnord, & Cable Chain.
Taper Lock Timming Pulley & Pilot Bore Timming Pulley: Fenner Timming Pulley, Martin Timming Pulley, SIT Timiming Pulley, dan Timming Lokal Pilot Bore.
Cardan shaft: GWB cardan shaft, KKN cardan shaft, Quantum cardan Shaft, SanKyu cardan shaft, KHK stok Gear ( Rotary Joints Kao jyh )
Jointing: Ktr jointing, Quantum jointing, Sankyu jointing, Universal join. Merk LUX: Rotary Joints, Rotary Valve.
Universal Joint: Merk, Quantum, GWB, GKN, GMB, KYOWA, KTR, SANKYU,dll
Pump: Oriental Koshin pump, Southern Cross pump, Sterling Sihi pump, Torishima, Lowara, Ebara, CNP, Kenflo, dan Franklin Pump.
Material Handling: Cuan Fan Blower: Ring Blower, Turbo Blower & Root Blower.
Sprocket: MTK Sprocket, Tsubaki Sprocket, Renold.
Pulley: Fenner Pulley, Master Pro Pulley, NBK Pulley.
Conveyor belt: Link belt conveyor, Continental conveyor, Star Conveyor, Flexco conveyor, & Rock Trans.1. MITSUBISHI SUPERLINE MOTOR2. TRANSMAX MOTOR3. TOSHIBA INVETER4. DELTA INVETER5. TOP TEK INVERTER, INVERTER CUTES6. LG/ LS INVERTER7. YUEMA MOTOR, YUEMA GEAR MOTOR, YUEMA GEAR BOX, YUEMA GEAR PUMP8. EDDY CARRENT GEAR MOTOR + SPEED CONTROLLER TECO9. INVERTER DELTA10. SIEMENS MOTOR / SIEMENS FLENDERGEAR MOTOR / GEAR BOX
MERK QUANTUM: VIBRATOR MOTOR GEAR BOX REDUCER GEAR MOTOR GEAR BOX QUANTUM MASTER GEAR BOX POWER LOCK UNIVERSAL JOIN Type MA ( Single ) / MB ( Double )
Bearing: Fag bearing, SKF Bearing, NTN Bearing, INA Bearing, Iko bearing, dodge bearing, rexnord bearing, linkbelt bearing, morse bearing, seal master bearing, Timken bearing, nsk bearing.
PT. Sarana Teknik Group didirikan sejak Oktober 1998, Kami menjual:* COUPLING* RENOLD CONVEYOR CHAIN* TECO MOTOR* QUANTUM VIBRATOR MOTOR
Product yang kami jual: Electrik Motor AC Baldor, Ex.Proof Motor AC Baldor, Gear Box Baldor, DC Motor dan DC Control.
Product kami: BALDOR di INDONESIA untuk BALDOR AC MOTOR/ MOTORS BALDOR AC CONTROL BALDOR DC MOTOR/ MOTORS BALDOR DC CONTROL BALDOR EXPLOSION PROOF BALDOR EXPLOSION PROOF MOTOR/ MOTORS BALDOR GEAR MOTOR/ MOTOR ","
              Jl. Wonodri Sendang Raya no.15A            ",Semarang,Jawa Tengah,+62 815-2260-1312,None,None
PT RAZ ENERGI INDONESIA,"
PREMIUM RUBY
",Perlengkapan Alat Berat,"
PT RAZ ENERGI INDONESIAWe are an ENGINEERING - TRADING - CONSTRUCTION COMPANYOur Specialization are Instrument Control Electronics System ( ICE-System ), Mechanical - Electrical, Security System, Integration Data Center, Industrial Automation System, Cooling System, Renewable Energy, Fire Alarm, IT/TELECOMMUNICATION SYSTEM, Water Treatment and Instrumen Laboratorium.Since our establishment in 2013, we re passionate in bringing quality product and system for all our customers. Special for Electrical products trading and installation services range from low Voltage (LV), Medium Voltage (MV) and High Voltage (HV) Electrical power installations, electronic surveillance and security system and solution as well as renewable energy product and Solution.Our installations are deployed across many mission critical systems, including power distributions, surveillance and securty system and application in data centers, high rise buildings, off-shore oil rigs, on shore refineries and industrial plant . To ensure reliability, we partner with leading suppliers to deliver cutting edge technologies and future proof solutiion. Our strategic partnership with our principals allows for reliable products that warrants installations that work asdesigned.Our team combines expertise distilled from experience in working with stringent standard that meets international safety and reliability requirements, Our expertise allows for fit-for purpose solution that works effectively during each design lifetime. We commit in delivering quality product and solutions to ensure satisfaction for all our customers. Each of our installations is carefully designed to satisfy the best of expectation and serve each unique needs. We believe in delivering value to our customers that builds into lasting long term relationship.ION""to become one of the best system integrators, in the Mechanical, Electrical, Electronic and IT industries by sharing the resources in the trading, contracting, service, operation and maintenance business activities so that ""cooperative, competitive & constructive"" is delivered to our customers""OUR MISSIONDelivering best quality product taking care of every need in our services Engineering reliability into each solutionCOMMITED TO EXCELLENCEWe work hard to achieve stringent requirement of each our clients, and in the proccess, we were able to gain recognition in implementing international standard related to our activitiesPRODUCT & SERVICES-instrument control system-Mechanical-Electrical-Security System-HVAC & Cooling System-Instrument Laboratorium- Renewable EnergiMAIN SERVICES- Industrial Automation - Mechanical Maintenance & Repair- Electrical Testing & Commisioning System- Preventive Maintenance- Transformer Installaton & maintenancePLEASE CONTACT MEPHONE0811133345008158220333WWW.RAZENERGI.COM            ","
              Jl. Bukit Cinere Raya Dalam Kav. 7 No. 7 Kelurahan Gandul, Kecamatan Cinere, Depok - Jawa Barat 16512            ",Bekasi,Jawa Barat,+62 878-7690-9386,+62 811-8422-100,+62 877-7788-3897
CV. SAMUDERA TEKNIKINDO SELARAS,"
                                    PREMIUM GOLD
                                ",Perlengkapan Alat Berat,"
CV SAMUDERA TEKNIKINDO SELARAS merupakan perusahaan yang bergerak dibidang general trading (General Supplier) dengan 2 (dua) divisi yaitu Perbaikan / Maintenance machine Industri khusus Electrical dan Import product part machine. 
CV SAMUDERA TEKNIKINDO SELARAS memiliki kualitas yang handal dan harga yang sangat ekonomis dan cocok untuk industries dan semua pabrik manufacturing. Adapun merk yang kami supply, diantaranya : Omron, Mitutoyo, Keyence, Yokogawa, SMC, Nagano Keiki, Panasonic, Hanyoung, LG / LS, Fuji Electric, Mitsubishi, Hanyound, Yamatake / Azbil, Klar Stern, Taffware, Panasonic, Hitachi, Siemens, Emerson, Taiyo Parker, Sipik, Shinko, Idec, Sanyo Denki / Dyna Ace, NMB, Daito / Fanuc, NTN, THK, Swan, Oriental Motor, CDK, Luyang, Sick, Bando V-Belt, Yamamoto, Steins, dan masih banyak produk lainnya dari berbagai merk yang kami sediakan, mulai  dari China, Jepang, Taiwan, Korea dan Produk Europa lainnya.
Untuk informasi dan pemesanan silahkan hubungi kami :
CV SAMUDERA TEKNIKINDO SELARAS
Jl. Tarum Barat 2, Ruko Pasar Bersih B-7 (Pintu 11) Kawasan Industri Jababeka II, Jayamukti, Cikarang, Bekasi - Jawa Barat
Phone : 081287602917 // 081219415790 (Call / WA)
Tlp : +62 21 2945 3721 // +62 21 2945 3722
Email : samuderateknikindo@yahoo.com
Website : www.samuderateknikindo.co.id ","
              Office : Jl. Tarum Barat 2, Ruko Pasar Bersih B-7 (Pintu 11) Kawasan Industri Jababeka II, Jayamukti, Cikarang, Bekasi - Jawa Barat ",Cikarang,Jawa Barat,+62 812-1941-5790,None,None
CV. Fajar Trijaya Rubber,"
                                    PREMIUM GOLD
                                ",Perlengkapan Alat Berat,"
              FJT Rubber ( Fajar Trijaya Rubber) adalah perusahaan yg bermula dari pembuatan produk khusus berbahan Rubber ( karet). Kepuasan pelanggan adalah menjadi target kami dlm melayani rekanan kerja untuk menjaga kelanggengan perusahaan kami supaya terus maju dan berkembang. Perusahaan FJT Rubber berlokasi di Garut-Jawa Barat, telah berpengalaman dalam industri Rubber sejak tahun 1990 dengan tujuan memasarkan produk bermutu baik yg dapat dibentuk sesuai permintaan. Perusahaan FJT Rubber ingin menjadi partner anda yg bernilai dgn terus menerus memperbaiki kualitas produk dan service terhadap pelanggan dgn memperhatikan pengolahan material yg sesuai dgn standar produksi perusahaan kami. Peranan Rubber itu sendiri diberbagai aspek industri begitu luasnya masing2 memiliki fungsi serta karakteristik sbg penunjang komponen lainnya. Semua jenis Rubber memiliki karakteristik dasar tersendiri seperti : tahan terhadap bahan kimia, tahan terhadap panas, tahan pelumas/ oli, tahan gesek, tahan asam, tahan bensin, tahan ozon dan karakteristik lainnya sesuai dgn kebutuhan. Atas dasar kebutuhan tersebut diataslah, FJT Rubber dapat memproduksi jenis"" sparepart dari Rubber, bakelite, carbon, dan teflon sbg komponen industri atau teknik dgn standar atau kualitas terbaik. Salah satu fungsi dari karet yang paling sering dijumpai dalam kehidupan sehari-hari adalah penggunaan karet sebagai rubber/ karet seal, yang mengisi ruang antara dua permukaan rapat, umumnya untuk mencegah kebocoran antara dua sambungan. Para tenaga ahli mesin atau insinyur di bidang permesinan sangat memahami kapan dan di mana saja rubber/ karet seal itu dibutuhkan, dan mereka juga pasti akan memahami teknis dari pemasangannya baik dalam soal peletakan maupun ukuran yang tepat. Tetapi ada beberapa hal yang lain yang harus dipahami dalam masalah aplikasi dari rubber/ karet seal ini, yaitu dalam hal pemilihan jenis atau bahan baku dari karet itu sendiri sehingga mutu atau kualitas pada penggunaannya bisa optimal dan berguna seefektif mungkin. Dalam hal ini faktor terbesar dalam penentuan rubber/ karet seal ini adalah kondisi di mana akan dipakai atau diaplikasikan.Ada empat faktor yang harus diperhatikan oleh para teknisi dalam pengoperasian rubber/ karet seal yaitu sebagai berikut:- Fungsi dan ketahanan pada penggunaannya.- Kondisi panas atau suhu lingkungan pada saat digunakan.- Besarnya tekanan yang timbul pada saat dioperasikan.- Jenis bahan baku yang dibutuhkan, harus disesuaikan dengan kondisi dan suasana waktu dioperasikan. Seperti contohnya ketahanan terhadap bahan kimia tertentu , ketahanan terhadap gesekan dll. Selain empat faktor di atas kami juga membantu untuk memberikan saran dan solusi terhadap beberapa masalah lain seperti sebagai berikut:- Berapa biaya yang paling optimal untuk rubber/ karet seal.- Bagaimana rubber/ karet seal itu akan diproduksi dengan hasil yang paling optimal untuk disesuaikan dengan kegunaan kebutuhan pelanggan.- Berapa lama proses yang akan dibutuhkan untuk menyiapkan rubber/ karet seal tersebut.FJT Rubber dapat membantu para pelanggan dalam menentukan jenis atau bahan karet yang dipakai dan memformulasikannya sesuai dengan kebutuhan pelanggan.Selain itu kami juga siap membantu dalam pemilihan bentuk desain yang terbaik atau yang paling tepat sekaligus juga bisa memproduksi dalam waktu dan membutuhkan biaya seoptimal dan seefisien mungkin. Jika anda memiliki pertanyaan mengenai rubber/ karet seal baik dalam masalah komponen karet maupun dalam masalah kemampuan untuk memproduksinya silahkan menghubungi kami. Kami yakin bahwa kami akan dapat membantu Anda memperbaiki desain dan kinerja komponen Anda sambil menurunkan biaya produksi Anda. Dengan melakukan pemesanan kepada kami, maka secara tidak langsung, anda akan mendapatkan banyak benefit, beberapa diantaranya :1. Anda bisa mendapatkan produk dengan spesifikasi sesuai standar2. Efisien biaya karena harga tentu akan jauh lebih murah3. Efisien waktu karena waktu pemesanan s/ d kedatangan akan lebih cepat4. Efisien tenaga kerja anda tidak perlu repot mencari ke penjual sparepart5. kepuasan dan kenyamanan anda sebagai konsumenJika anda butuh penawaran harga silahkan kirim via E-mail / WA,Gambar Seal Mesin yang anda butuhkan disertai dimensi / ukuran yang lengkap.            ","
              Jl. Raya Cipanas, kp. Sindangsari Rt:04/Rw:08 Kel. Langensari, Kec Tarogong Kaler Kab. Garut, Jawa Barat            ",Garut,Jawa Barat,+62 821-3041-8575,None,None
Sarana Teknik Cikarang,"
                                    PREMIUM GOLD
                                ",Perlengkapan Alat Berat,"
              Sarana Teknik Menjual dan Stok Item Sbb :- Electric Motor : BALDOR, ELEKTRIM, SIEMENS, TECO, TATUNG, WEG- Gear Box : SEW, OMEGA MOTORI, BONFIGLIOLI, FALK, FENNER, MAKISHINKO, REVCO, SUMITOMO, TRANCYCLO- Roller Chain : FENNER, RENOLD, REXNORD, HITACHI, TSUBAKI, NIKKEN, DID- Inverter : TOSHIBA, LG, DELTA, SANCH, CUTES, TOPTEK, TEC - Coupling : FALK, FENNER, MITSUBOSHI, NBK, TB WOODS, LOVE JOY, NEUPEX FLENDER, TSUBAKI, SEISA- V Belt : BANDO, MITSUBOSHI, GATES, FENNER, OPTIBELT, CONTITECH- Belt Conveyor : STAR, CONTINENTAL, BANDO, HABASIT, PVC DISTRIBUTOR & STOCKIST SPARE PART INDUSTRIC- POWER TRANSMISSION: ELECTRIC MOTOR-GEARMOTOR-GEAR BOX- GEAR REDUCER- PUMP- COUPLING-COUPLING-ROLLER CHAIN -CONVEYOR CHAIN- CONVEYOR BELT-SPROCKET-PULLEY.DENGAN MERK: BALDOR-BONFIGLIOLI-MOTOVARIO-ELEKTRIM-FALKKAMI MENJUAL PRODUCT POWER TRANSMISSION : FENNER Shaft Mounted Speed Reducer, FENNER GEARBOX, FENNER GEARMOTOR, FENNER SMSR, FENNER PULLEY, FENNER BELT, BELT FENNER BALDOR Induction Motor, BALDOR MOTOR, MOTOR BALDOR, BALDOR EXPLOSION PROOF, BALDOR NEMA MOTOR, BALDOR IEC MOTOR RELIANCE ELECTRIC DODGE Gear Box, DODGE PILLOW BLOCK, DODGE D FLEX COUPLING, DODGE PAR FLEX COUPLING, DODGE GEAR COUPLING, DODGE GRID LIGN COUPLING, DODGE BEARING PENTA KB POWER DC Motor controllers RENOLD Product, RENOLD GEARBOX, RENOLD WORMGEAR, RENOLD ROLLER CHAIN, RENOLD CONVEYOR CHAIN, RENOLD MINING COVEYOR CHAIN FALK Coupling KOP FLEX Coupling RATHI Coupling FLENDER COUPLING ROTEX Coupling NORMEX Coupling THOMAS Coupling CENTA Coupling TB WOOD Coupling REXNORD OMEGA Coupling FENNER Tireflex Coupling NBK Miniature Coupling WESTCAR ROTOFLUID Coupling FLUIDOMAT Fluid Coupling RENOLD Chain MTK Chain LINK BELT Conveyor Chain CONTINENTAL Conveyor Belt STAR Conveyor Belt QUANTUM Cardan Shaft & Universal Joint KOSHIN Gear Pump Quantum Vibrator Motor Quantum Power Lock SAMBO Backstop MORSE Backstop Tsubaki Backstop            ","
              Rukan Simprug Plaza Blok A2 No 11 Jababeka (dekat stadion wibawa mukti)Fax : 021-89324530            ",Cikarang,Jawa Barat,+62 812-9491-737,None,None
CV. MITRAMANDIRI SEJAHTERA,"
                                    PREMIUM GOLD
                                ",Perlengkapan Alat Berat,"
              General Contractor & Suplier Sewage Treatment Plant, Waste Water Treatment, Chemical, Pumps Trading, Maintenance, Repairing, Control Panel, Plumbing, Well Drilling, Civil and Construction.            ","
              Komplek Griya Sakinah Blok A Nomor 4Jln. H.Arsad  RT./RW. 004/04 PedurenanKelurahan JatiluhurKecamatan JatiasihKota Bekasi            ",Bekasi,Jawa Barat,08111923939,None,None
CV. Globalindo Teknik Mandiri,"
                                    PREMIUM GOLD
                                ",Perlengkapan Alat Berat,"
CV GLOBALINDO TEKNIK MANDIRIKami merupakan Perusahaan yang bergerak dalam bidang Perdagangan umum, Pabrikasi Mesin, dll.VISI Menjadi dan membuat jaringan sumber distribusi mesin, elektronik, jasa yang dibutuhkan oleh konsumen (masyarakat umum).MISI ¬∞ Memberikan kepuasaan dalam pelayanan kepada konsumen/ customer. Selalu berusaha untuk menjadi yang terbaik dalam melakukan suatu hal yang baru agar kebutuhan konsumen/ customer bisa terpenuhi. ¬∞ Memberikan kinerja yang tepat waktu sesuai dengan yang dijanjikan dan yang diinginkan pihak konsumen/ customer.Dengan visi dan misi yang telah tercantum di atas anda boleh mempercayakan kepada kami untuk masalah kinerja kami. Pelayanan yang kami berikan kepada konsumen/ customer adalah menjadi hal utama yang kita Prioritaskan dan perhatikan. Menjaga kepercayaan customer itu adalah tanggung jawab kami untuk memberikan pelayanan/ service yang baik. Dengan dedikasi yang kita pelajari dari waktu ke waktu, kita akan selalu menjadi yang terbaik.CV Globalindo Teknik Mandiri terdiri dari beberapa divisi yang fokus dan spesialisasi di produk;- Mesin Marka Jalan dan Kelengkapannya : Mesin marka jalan thermopastic ¬∞ Mesin marka jalan coldplastic ( cat dingin) ¬∞ Mesin marka jalan screed ¬∞ Mesin marka jalan profile ¬∞ Mesin marka jalan sprayer coldplastic ¬∞ Mesin Preheater ( pengaduk cat thermoplastik) ¬∞ Mesin Penghapus Marka Jalan ¬∞ Cat Thermoplastik- Peralatan Test Teknik Sipil : Alat Testing Beton, Concrete, Testing Jembatan, Testing Asphal, Testing Aggregate, - Rambu Lalulintas - Rambu Pabrik - Rambu Kerja - Rambu Parkir - Lampu Lalulintas ( Traffic Light) - Delineator Post - Paku Jalan ( Road Stud) - Traffic Cone ( Rubber/ Plastic) - Cermin Lalulintas ( Safety Mirror) - Speed Gun - Road Barrier - Cat Thermoplastik - Glass Bead- Mesin Bor Tanah atau SAMPLING, Hand Auger dan Bor Pertambangan : Bor Biopori, Bor Tanah, Soil Auger, Bor Banka, Bor Gambut, Bor Bibit, Bor Jacro, Bor Power Rig, Bor Pile, Bor Sumur, Bor Pasir, Bor Nikel, Bor Timah, Bor Sawit, Hand Auger, Hole Digger Auger, Sampler Auger, Soil Sampler Tube, Double Ring Sampler / Infiltration, Soil Sampler, Soil Core Sampler, Soil Probes, Soil Auger & Sampling Kit, Sediment & Water Sampling, Bor Hole Preparation Kit, Bailers, Basic Hand Auger Set, Geotechnical Sampling & Testing, Professional Soil Sampling Kit, Soil Auger & Cor Sampling Kit, Peat Soil Auger Kit, Rain Gauge, Bor Spiral, Gouge auger set, Standard Hand Auger Set, Panci Penguapan, Gear down hole and Accessories Part: - Core Barrel Assy ( PQ3, HQ3, NQ3) dan parts - Inner Tube Assy - Inner Tube, Split, Outer Tube - Over shot Assy dan parts ( produk Australia dll) , Hoisting Plug, Head Assy - Cap Assy - Chasing Shoe Bit - Drill rods, Casing pipe PQ3 ( HWT) , HQ3, NQ3 ( Merk Sandvik ( dari Eropa) , Australia, Crown, Asahi) - Diamond Bits Impreg - Tungsten Bit - Threewing bit - PCD Bit - Reamer Bit - Surface Step Bit - Water Swivel - Core Lifter Case - Core Lifter - Stop Ring - Shut of Valve - Stabilizer Ring - Adaptor Coupling - Locking Coupling - Inner Tube Wrench - Cross Sub - Saver Sub - Tricone Bit - Lifting Dog - Latch, Drilling Mud: - Polymer - Bentonite ( Ausgel/ Stargel) - Hivis ( CR-650) - Austroll - Baraswell Engine: - FMC Been Pump- ALAT KLIMATOLOGI, METEOROLOGI, HIDROLOGI DAN GEOFISIKA : Fiber Glass MastCRM-10, Meteorological Probe ( Temperature and Humidity Sensor) , Sangkar Meteorologi Ukuran Besar ( Weather-Shelter) , Alat Ukur Curah Hujan Otomastis ( Rain Recorder Tipe Hellmann) , Psychrometer With Maximum and Minimum Thermometer + Holder, Counter Anemometer DR A MULLER, LUTRON AM4206M Anemometer, LUTRON ABH4224 Anemometer, Trotec T210 Thermohygrometer, Wind Run Counter Anemometer, Sunshine Duration - Sensor CSD3, Wind Sensor compact, First Class Wind Velocity Sensor, Weather and Thermal Radiation Shield - Compact, Weather and Thermal Radiation Shield, Sangkar Meteorologi, Tinta untuk Sample Charts, Panci Penguapan ( Evaporation Pan) , Weighing Precipitation Gauge, Sample Charts: Barograph, Thermograph, Hygrograph dan Thermo-Hygrograph- PERLENGKAPAN MALARIALOGI : Sangkar Nyamuk - Mosquito Box - Mosquito Breeder - Tempat Telur Nyamuk - Bio Assay Kit - Tempat Makanan Nyamuk - Box Pin - Pinning Block - Aspirator Nyamuk - Killing Jar - Plastic Box - Insect Cabinet - Insect Drawer- MESIN PERTANIAN : Mesin Pengolahan Gula Semut - Mesin Pengolahan Limbah Kayu - Mesin Pengolahan Tapioka Singkong - Mesin Pengolahan Pemotongan Ayam - Mesin Pengolahan Pakan Ternak - Mesin Pengolahan Melinjo - Mesin Pengolahan Mete - Mesin Pengolahan Sorgum / Hermada - Mesin Pengolahan Kakao / Coklat - Mesin Pengolahan Kacang - Mesin Pengolahan Cabe - Mesin Pengolahan Kemiri - Mesin Pengolahan Teh - Mesin Pengolahan Minyak Atsiri - Mesin Pengolahan Kopi - Mesin Pengolahan Karet - Mesin Pengolahan Kedelai / Soya - Mesin Pengolahan Tahu - Mesin Pengolahan Tempe - Mesin Pengolahan Jagung - Mesin Pengolahan Jeruk - Mesin Pengolahan Mie - Mesin Pengolahan Kompos - Mesin Pengolahan Sagu - Mesin Pengolahan Sabut Kelapa - Mesin Pengolahan Briket - Mesin Pengolahan Apel - Mesin Pengolahan Jarak - Mesin Pengolahan Padi - Mesin Pengolahan Sawit - Mesin Pengolahan Kentang - Mesin Pengolahan Bawang - Mesin Pengolahan Tanah / Soil - Mesin Pengolahan Tebu - Mesin Pengolahan Pupuk Organik - Mesin Pengolahan Emas / Ballmill / Glundung - Mesin Pengolahan Limbah - Mesin Pengolahan Sampah - Mesin Pengolahan Fiber - Mesin Pengolahan Makanan - Mesin Pengolahan Kripik - Mesin Pengolahan Dodol - Mesin Press Uang - Mesin Ethanol - Mesin Cetak Batako Pressn- Mesin Cetak Paving / Conblock - Mesin Cetak Batako Apung - Mesin Batako Hebel - Aplikasi Teknologi Resin - Alat Panen Sagu - Alat Panen Karet - Alat Panen Sawit - Ubinan ( Alat Analisis) - Green House - Pembuatan Batu Penyosok, Pembuatan Batu Penyosok- PELATIHAN : Teknik Pengolahan Minyak Atsiri ¬∞ Teknik Pengolahan Ethanol ¬∞ Teknik Pengolahan Tahu ¬∞ Teknik Pengolahan Jeruk ¬∞ Teknik Pengolahan Emas ¬∞ Teknik Pengolahan Tepung ¬∞ Teknik Pengolahan VCO ¬∞ Teknik Pengolahan Gula Jagung ¬∞ Teknik Pengolahan Gula Singkong / Cassava- PERLENGKAPAN JALAN RAYA : Rambu Lalulintas - Rambu Pabrik - Rambu Kerja - Rambu Parkir - Lampu Lalulintas ( Traffic Light) - Delineator Post - Paku Jalan ( Road Stud) - Traffic Cone ( Rubber/ Plastic) - Cermin Lalulintas ( Safety Mirror) - Speed Gun - Road Barrier - Cat Thermoplastik - Glass Bead - Mesin Marka Jalan - Mesin Preheater ( pengaduk cat thermoplastik) - Mesin Marka Jalan Profil - Mesin Marka Jalan Cold Plastic - Mesin Penghapus Marka Jalan - Concrete Cutter - Cover Blade - High Frequency Converter - Tamping Rammer - Plate Compactor Ride-On Trowels - Mechanical Engine Vibrator - Internal Vibrator - Concrete Power Trowel - Generator Engine - Electric Concrete Vibrator- SOIL & ASPHALT COMPACTION : Vibratory Rammer / Tamping Rammer - Single Direction and Reversible Vibratoy Plates - RIde-on Vibratory Roller - Double Drum Vibratory Rollers ( baby Roller)- DEMOLITON :Asphalt / Concrete Cutter /Diamond Cutting Blade - Gasoline Cut-off Saws - Drilling Hammers, Breaker Hammers - Gasoline Engine Breaker / Chisel Tools, Peralatan Geology, Peralatan Pengairan, Peralatan Survey dan Pemetaan, Alat Alat Teknik Civil, - Concrete Vibrator, - Plate Compator, - Vibro Roller, - Mesin Vacuum Jalan, - Tamping Rammer, - Concrete Mixer- FABRIKASI STEEL STRUCTURE : Beam, platform, ladder, handrail, insert plate, conduit pipe bending, and Container Basket - Pagar Besi, Meja Inspeksi, Meja Laboratorium, Lemari Besi, Lemari Kayu, Lemari Alumunium, pekerjaan besi / steel; stainless; alumunium, dll.- Fabrikasi Tenda, Tenda Pleton, Tenda Pengungsi, Tenda Pramuka, Tenda Dapur, Tenda PMI, Tenda Komando, Tenda Regu, Pergola, Awning, dll- ALAT PERTANIAN : Arboriculture and Holticulture Tools and Machinery - Soil Moisture - Soil Thermometer - Wood Moisture Meter - Thermohygrometer - Grain Moisture Meter - Soil pH Meter - Soil Salinity Meter - Pocket Penetrometer - Soil test kit - Soil Munsell Chart - Soil NPK Tester - Soil Auger - Dodos, Agrek Egrek, Alat Panen Kelapa Sawit - Sadap, Deres, Ember Karet, Emposan Tikus, Perangkap Tikus, Kandang Nyamuk - Peralatan tes concrete, jalan, beton, Hand Bor / Auger, Bucket Auger, One-Piece Auger, Soil Sampling Auger, Soil Core, Bor Tanah, Bor Banka, Bor Pertambangan, Bor Sample Tanah, Bor Gambut, Bor Sawah, Bor Kebun, Bor Biopori, Bor Resapan, Standard Penetration Test, Sample Extruder, Sample Extruder Electric, Dynamic Cone Penetrometer, Corps of Engineer Soil Surface Sampler, Dutch Cone Penetrometer, Plate Bearing Test Set, Field CBR Test Set, Proving Ring Penetrometer, TVA Penetrometer, Liquid Limit Test Set, Plastic Limit Test Set, Shrinkage Limit Test Set, Steel Augr Bucket Sludge Sampler Kit, Split Core Sampler, Extendible Core Sampler Kit, Soil Gas Vapor Probe, Sand / loose Sediment Probe, Sediment Sampler, Soil Sampler Tube, Soil Profiler, Peralatan Kehutanan, Mesin Pertanian, Alat Pertanian, Alat Peternakan, Dll.Address;Jl. Raya Johar No.26 rt.005 rw.004Kel.Cibadak, Kec.Tanah SarealKota Bogor 16161Contact Person;0812 1314 0604 (Abdullah)0813 1421 0880 (Nuswan)Office;0251-8329302E-mail;info@globalindoteknikmandiri.co.idLinks;globalindoteknikmandiri.co.idglobalindoteknikmandiri.comcarialat.comcarialat.co.idalatmarkajalan.combengkelpertanian.compabrikfurnitur.comfurniturelab.co.idbortambang.commesinhebel.com            ","
              Jl. Raya Johar No.26 rt.005 rw.004 Kel.Cibadak, Kec.Tanah Sareal Kota Bogor 16161            ",Bogor,Jawa Barat,+62 812-1314-0604,None,None
INSTRUMENT LINGKUNGAN,"
                                    PREMIUM GOLD
                                ",Perlengkapan Alat Berat,"
              Yth Pelanggan setia Instrument Lingkungan  khususnya bergerak dalam bidang Penjualan Alat Monitoring Lingkungan ( ENVIRONMENTAL, HEALTH, LABORATORY & SAFETY EQUIPMENT SUPPLY ) . Sebagai Sole Agen beberapa produk kami mensupply barang, melakukan Uji Fungsi/ Training, Kalibrasi dan juga melayani Service/ Perbaikan Alat yang kami jual. Pengalaman kami merupakan modal utama dalam mendistribusikan produk seperti : 1. ALAT TEST MAKANAN : FAKTOR FISIK, KIMIA, BIOLOGY 2. ALAT UJI KUALITAS AIR : FAKTOR FISIK, KIMIA, BIOLOGY 3. ALAT UKUR KUALITAS UDARA FAKTOR FISIK, KIMIA, BIOLOGY 4. ALAT UJI KUALITAS TANAH/ SOIL TEST KIT 5. ALAT LABORATORIUM 6. ALAT KESEHATAN Demikian informasi kami sampaikan Salam sukses Pando Susanto            ","
              Komplek ruko Sukmajaya no.35, Jalan Tole Iskandar - Depok            ",Depok,Jawa Barat,08118181225,None,None
PT HEXACHEM INDONESIA,"
                                    PREMIUM GOLD
                                ",Perlengkapan Alat Berat,"
              Chemical Trading & Industrial Cleaning Services            ","
              Kawasan Industri Jababeka I
Jln. Jababeka 2 Blok C No. 11 C
            ",Cikarang,Jawa Barat,+62 821-1122-3399,None,None
PT HASTA KARYA TEKNIK,"
                                    PREMIUM GOLD
                                ",Perlengkapan Alat Berat,"
              Kami bergerak di bidang Electrical, Mechanical dan Fabrikasi untuk kebutuhan industri. Bidang electrical meliputi Pembuatan panel distribusi, repair electrical part sampai dengan pembuatan sistem automation menggunakan plc dan HMI. Bidang Mechanical meliputi overhoul dan trouble shooting mesin industri seperti, milling cnc , bubut cnc, injection moulding, die casting dll. Maker mesin seperti Fanuc, moriseiki, takizawa, takamaz, okuma howa, enshu, toshiba, niigata, jsw, nissei , hitachi seiki dllJasa Pembuatan Spray Booth, Backing Oven, Conveyor, Maskig Jig Painting.            ","
              Jalan Raya Selang Jati No 56 RT 03 RW 03 Kampung Selang Jati Desa Wanajaya Kecamatan Cibitung Kabupaten Bekasi Jawa Barat Indonesia            ",Bekasi,Jawa Barat,+62 813-1580-2088,None,None
PT. Conductorjasa Suryapersada,"
PREMIUM RUBY
",Perlengkapan Alat Berat,"
Kami adalah salah satu produsen genset terkemuka di Indonesia. Genset yang diproduksi diantaranya Diesel Genset, dan Gas Genset. Selain itu, kami juga memproduksi berbagai macam panel electrical untuk memenuhi kebutuhan industri saat ini. ","
              Jl. Rungkut Industri IV no.18            ",Surabaya,Jawa Timur,+62 811-3191-700,None,None
PT. SEMERU INTI SUKSES,"
PREMIUM RUBY
",Perlengkapan Alat Berat,"
PT. Semeru Inti Sukses didirikan pada tahun 2012, merupakan salah satu perusahaan yang tergabung dalam kelompok usaha dari PT. Semeru Teknik yang telah berdiri sejak tahun 1978, untuk mendukung industri dan project ventilation di Indonesia. PT. Semeru Inti Sukses merupakan perusahaan importir dan distributor mesin industrial, fan, dan mesin pendukung peralatan industri untuk industri skala kecil, menengah, dan besar pada sektor pertanian, maritim, pertambangan, dan kehutanan. Hingga saat ini, kami melayani seluruh pelanggan yang tersebar di seluruh wilayah Indonesia. Kami merupakan pemegang merek ternama seperti Spectek, Takafan, dan masih banyak lainnya.Produk yang kami tawarkan memang spesialis di bidang industrial, building ventilation, marine blower, ducting in building, techincal supply, actuators, lifting tools, cooling tower, grill, dan lain-lain. Demi menunjang permintaan kebutuhan pelanggan serta layanan purna jual, kami memiliki distributor yang berada pada kota-kota besar lainnya di seluruh wilayah Indonesia, seperti Banjarmasin, Samarinda, Makasar, dan Kendari. Specialized in Building, Industrial Ventilation & Marine Blower Specialized Ducting in Industrial & Building :1. Air Compressor2. Aneka Grill3. Cooling Tower4. Lifting Tools / Hoist5. Noise, Shock & Vibration Control6. Safety Shoes7. Welding Machine / Mesin LasKANTOR PUSAT (SURABAYA)Jln. Raden Saleh No. 8 SurabayaT. 0315358158, 5358159 (Hunting) 5346212F. 0315358157E. sales@semeruintisukses.co.id, sales@semeruintisukses.com, sales@intisukses@gmail.comW. www.semeruintisukses.co.idBBM. 535A07A9WA. 081217922281LINE. sis_fan / 081217922261SMS. 081938590577KANTOR CABANG (SEMARANG)
Jln. MT. Haryono 728, SemarangHP. 087832073205, 085713747055E. salessemarang@semeruintisukses.co.idKANTOR CABANG (BANDUNG)CV. Bamboo Jaya TeknikJln. ABC Kompleks Ruko Banceuy Permai | Blok B3 No. 72 BandungT. 0224233605F. 0224235605E. bamboojayateknik@gmail.com ","
              KANTOR PUSAT (SURABAYA)üìç Jln. Raden Saleh No. 8 SurabayaKANTOR CABANG (SEMARANG)üìç Jln. MT. Haryono 728 SemarangKANTOR CABANG (BANDUNG)üìç Jln. ABC Kompleks Ruko Banceuy Permai | Blok B3 No. 72 Bandung‚Äî            ",SURABAYA,Jawa Timur,+62 817-9387-577,+62 812-1792-2281,None
CV. Artha Kharisma,"
PREMIUM BLUE ONYX
",Perlengkapan Alat Berat,"
Artha Kharisma adalah sebuah perusahaan yang bergerak di bidang jual beli dan jasa rental alat berat seperti Excavator, Bulldozer, Grader, Loader, Truck, Vibro, Crane, dan Truck. Semua alat berat kami sediakan dalam keadaan sehat dan siap untuk digunakan. Selain itu kami juga menyediakan berbagai tipe dan merk alat berat seperti Komatsu, Kobelco, Hitachi, Caterpillar, Sakai, Mitsubishi, Zoomlion, dan Kato. Untuk info lebih lanjut mengenai unit kami bisa langsung mengunjungi workshop kami di Jalan Sidotopo Kidul 61 Surabaya (Artha Kharisma) atau hubungi WA Kami di 0813-3181-2666 (Ibu Vivi) ","
              Jl. Sidotopo Kidul 61 Surabaya            ",Surabaya,Jawa Timur,+62 813-3181-2666,None,None
FOCUS MANDIRI PERDANA,"
                                    PREMIUM GOLD
                                ",Perlengkapan Alat Berat,"
Dear Costumer,
CV. FOCUS MANDIRI PERDANA sebagai perusahaan yang sedang berkembang bergerak di bidang JASA KONSTRUKSI SIPIL & MEKANIKAL ENGINEERING yang telah berbadan hukum dan berdomisili di Kota Surabaya. 
 
Sejalan dengan VISI dan MISI perusahaan dalam memberikan layanan, kami selalu berpegang pada asas manfaat yang optimal bagi pengguna jasa. Dengan didukung para profesional muda yang optimis, dinamis dan berkomitmen tinggi.
Bidang Kegiatan CV. FOCUS MANDIRI PERDANA :
A. Jasa Kontraktor Sipil Gedung
B. Jasa Konstruksi Baja
C. Jasa Perencana & Pengawasan
D. Jasa Fabrikasi & Instalasi Mekanikal Elektrikal Industri
 
Best Regards, 
 
CV. FOCUS MANDIRI PERDANA
Civil construction & mechanical engineering
Web : www.focus-contractor.com
Email : focus.mperdana@ gmail.com
 
Office : 
Jl. Manyar Tirtoasri I No. 4 Surabaya 60117
 
Telp. : 
031‚Äì 99445468
 
HOTLINE : 081 1334 9454
 
: kontraktor sipil surabaya | kontraktor surabaya | kontraktor mekanikal| kontraktor pergudangan | kontraktor gudang | konstruksi baja | jasa konstruksi | kontraktor rumah | kontraktor rumah surabaya | kontraktor perumahan | kontraktor ruko | kontraktor elektrikal | renovasi bangunan | renovasi gedung | jasa renovasi kantor | jasa renovasi | jasa renovasi rumah | jasa renovasi interior | jasa renovasi surabaya | jasa renovasi rumah surabaya | jasa bangun rumah surabaya | renovasi ruko | paving blok | konstruksi billboard | konstruksi neon box | konstruksi neon sign | konsultan perencana | desain interior | konsultan | desain lansekap | konsultan proyek | konsultan pengawas | desain | desain rumah | jasa desain | desain gedung | desain gudang | desain ruko | jasa pengurusan imb surabaya 
  ","
              Jl. Manyar Tirtoasri I No. 4 Surabaya            ",60117,Jawa Timur,+62 811-3349-454,None,None
KaryaJaya Filter,"
                                    PREMIUM GOLD
                                ",Perlengkapan Alat Berat,"
Karya Jaya Filter merupakan perusahaan general contractor dan supplier umum yang bergerak dibidang Air Pollution Specialist. Pekerjaan kami meliputi Design - Fabrikasi - supply - install - test - commission - maintenance dan service. Kami juga menyediakan berbagai macam Filter yang biasa digunakan untuk kebutuhan industri dengan berbagai jenis serta ukuran filter yang disesuaikan dengan permintaan. Adapun surat ini kami sampaikan sebagai perkenalan untuk perusahaan Bapak/ Ibu dalam memenuhi kebutuhan Perusahaan. Berikut beberapa Jenis Produk Karya Jaya Filter yang kami jual : 1. Dust Collector ; Pulse Jet Dust collector, Portable dust collector, Shaker dust collector etc. 2. Cyclone ; Cyclone Fabrication, Double Stage Cyclone-Fine Dust, Cyclone dust collector etc. 3. Scrubbers ; Vertical Counter Current Scrubber, Horizontal Mist Eliminator, Wet Scrubber, Horizontal BOC Scrubber etc. 4. Fans ; Belt Driven Axial Fan, Various Impeller Design, Centrifugal Fan, blower etc. 5. Ducting Hood and accessories ; Hood for Pharmaceutical Industries, Hood and Ducting for Rubber Industries, Rotary Valve, Ducting System, Program Logic Control etc. 6. Filter ; Filter bag, FBD Filter, Filter Press, Nylon Mesh Filter, Wire mesh, Air Filter, Hepa Filter, filter catridge dust collector, etc.( Material, Ukuran dan Bentuk kami sesuaikan dengan permintaan ) Demikian penjelasan dari kami. Jika ada hal yang ingin diketahui lebih lanjut silahkan Bapak/ Ibu hubungi kami. Atas kerjasama yang baik kami haturkan Terima Kasih. Hormat kami, Karyajaya Filter Pabrikan dust collector, supplier dust collector, jual dust collector, jual squen dust collector.Jual filter bag, jual filter press, jual cyclone, jual blower, jual centrifugal fan, jual hepa filter, jual medium filter, jual pre filter, jual scrubber, jual celenoid valve, jual pressure gauge, jual ducting, jual catridge dust collector, jual filter vacuum, jual filter air, jual filter udara, jual filter ahu, jual conveyor, jual bag cage, jual cage retainer, jual filter cage, jual filter hidrolik, jual filter separator, jual filter nomex etc. ","
              Jl Taman Menyanggong Asri 30 - Kletek             ",Surabaya,Jawa Timur,+81 235-86-8494,+82 19-619-8969,None
CV. GLOBAL  INTI  SOLUTION,"
                                    PREMIUM GOLD
                                ",Perlengkapan Alat Berat,"
SUPLIER ALAT PEMADAM KEBAKARAN DAN RESCUE  INFO : 0321 - 8492466  |  WA/ Call : 081 331 368 535 |  Email : globalintisolution@gmail.com  | www.globalintisolution.com ","
              PERUM PULO ASRI F/2JOMBANG - JATIM            ",JOMBANG,Jawa Timur,+62 813-3136-8535,None,None
KARYA CIPTA UTAMA - SURABAYA,"
                                    PREMIUM GOLD
                                ",Perlengkapan Alat Berat,"
              KAMI PERUSAHAAN DIBIDANG CLUTCH DISC , KOPLING , CLUTCH COVER , MATAHARI , BRAKE LINING , KAMPAS REM , BRAKE PAD , RUBBER BUSHING , GAS SPRING BAGASI , UNTUK KENDARAAN TRUCK , BUS DAN ALAT BERAT : SCANIA , VOLVO , RENAULT , DAF , MERCEDES BENZ , IVECO , HINO , NISSAN DIESEL , MITSUBISHI , ISUZU , TOYOTA , GOLDEN DRAGON , FAW , HOWO , SACHMAN , TRAILER. Phone : 0315452479 (hunting). Fax : 0315470023. 08123083338. (WA)081333060677 , (WA)081334402772.            ","
              JL.TIDAR 308-310 RUKO TIDAR MAS SQUARE BLOCK A-1 (depan pom bensin)            ",Surabaya,Jawa Timur,+81 3-3306-0677,None,None
CV DUTA PERKASA,"
                                    PREMIUM GOLD
                                ",Perlengkapan Alat Berat,"
CV. Duta Perkasa berpusat di Surabaya, Indonesia adalah Perusahaan yang bergerak di bidang Industrial Supply dan Solusi, produk Kami terdiri dari :
¬†
Electric Motor / Induction Motor, Vibrator Motor, Gear Motors / Speed Reducers, Gearbox, Couplings, Clutch and Brakes, Pumps, Inverters, Blowers, Variable Chain Hoist, Air Compressor, Lampu LED dan banyak lagi produk industrial lainnya.
¬†
Karena reputasi dan performance yang baik, kita dipercaya sebagai agen tunggal bersertifikat resmi oleh beberapa produsen industrial produk internasional.
¬†
Kami adalah Authorized Distributor (Ber-Sertifikat) dan Agen Stockist Terbesar di Jawa Timur untuk merek berikut ini:¬†
--------------------------------------------------------------------------------------------------------------------------
Motor¬†
[Brake Motor, Cast Iron Motor, Dual Speed Brake Motor Crane Motor, DC Motor, Eddy Current Motor, Eco-Drive Motor (Economic), Explosion Proof Electric Motor, High Voltage Induction Motor, High Temperature 300C Motor, Heavy Duty, High Efficiency Motor, Inverter Duty Motor, Medium/High Voltage Motor, Slip Ring Motor, Single Phase Motor, Single Phase Heavy Duty, Squirrel Cage Induction Motor, Torque Motor]
¬†
ABB - (www.abb.com)
Alliance Motori - (www.alliance-gear.com)
Marelli Motori - (www.marellimotori.com)¬†
Nerimotori
Sanli
Teco
Yuema Electric Motor
Liming
Siemens
-----------------------------------------------------------
Vibrator Motor
[Vibrator Motor, Concrete Vibrator Motor, Heavy Duty Vibrator Motor, Premium Vibrator Motor]
¬†
Italvibras G. Silingardi - (www.italvibras.it)
Alliance - (www.alliance-gear.com)Quantum S.r.l
-----------------------------------------------------------
Gear
[Compact Gearmotor, Worm Gearmotor, DC Gearmotor, Double Worm Gearmotor, Inline Helical Gearmotor, Parallel Shaft Mounted Gearmotor, Premium Helical¬† Gearmotor, Helical Bevel Gearmotor, Helical worm Gearmotor, Mini Helical Gearmotor, Mini Bevel Gearmotor, Mini Parallel Shaft Gearmotor, Variator Helical Gearmotor, Worm Gear Series, Mechanical Variator, Gearbox Series, Worm Gearbox, Industrial Gearbox,¬†Cycloidal & Planetary Gearbox, Right Angle Gearbox, Extruder Gearbox, Helical & Bevel Gearbox, Mini Helical Gearbox, Variator Series, Variator Foot Mounting, Variator Flange Mounting]
¬†
Transtecno The Modular Germotor - (www.transtecno.com)¬†
Guomao - (www.guomaoglobal.com)
Alliance - (www.alliance-gear.com)
¬†
Superior
Rossi Planetary
Liming
Transmax
Motovario
-----------------------------------------------------------
Pump
[Submersible Pump Series, Submersible Impeller Pump Series, Submersible Solid Handling Wastewater Pump, Submersible Borehole Pump, Submersible Self Arpiration Aerator Series, Stainless Steel Threaded Centrifugal Pump Series, Side Channel Blower High Flow, Slurry Pump, Self-Priming Pump, Borehole Pump Series, Boiler Water Supply Pump Series, Cast Iron Submersible Wastewater Pump Series, Double Suction Split Casing Pump, Dosing Pump Series, End Suction Centrifugal Pump Series, Fire Hydrant Pump, Horizontal Multistage Pump, Lobe Pump, Low Pressure Series, Root Blower Series, Turbo Blower, Thermail Oil Pump and Multistage Pump, Vertical Multistage Pump, Vertical In-Line Centrifugal Pump, Vertical Turbine Pump, Open Impeller Centrifugal Pump]
¬†
Tsurumi Pump - (www.tsurumipump.com)
Lowara Pump - (www.lowara.com)¬†
Flugo Pump
Durrex
CNP Pump
Speck Pumpen Pump
Ebara Pump
Southern Cross Pump
Torishima
AsiaDrive
Weir Minerals
A-Line
KSB Pump
SEKO
Milton Roy
----------------------------------------------------------
Gear Pump
[Gear Pump Series, Asphalt Pump, Low-Pressure Rotary Gear Pump]
¬†
Oriental Koshin - (www.koshin-ltd.jp)
Yuema Gear Pump
Intersigma
----------------------------------------------------------
Coupling
[Shaft Coupling, Jaw Flex, Elastomer Flex, Tyre Flex, Pin & Bush, Chain, Cone Flex, Rigid Coupling, Gear Flex, Grid-Polygear, Disc Coupling, Taperbush]
¬†
Mayr - (www.mayr.com)¬†
Superior Transmission - (www.superiortransmission.co.kr)
----------------------------------------------------------
Chain Hoist
[Electric Chain Hoist, Chain Block, Wire Rope Hoist]
¬†
Superior Transmission - (www.superiortransmission.co.kr)
----------------------------------------------------------
Clutch & Brake
[Safety Brake, Electromagnetic Clutch & Brake, Torque Limiters]
¬†
Mayr Power Transmission - (www.mayr.com)¬†
----------------------------------------------------------
LED Light
[LED High Bay, LED Tube Light]
¬†
Zumin LED - (www.zumin-led.com)
----------------------------------------------------------
Industrial Encoders
Scancon Industrial Encoders - (www.scancon.dk)
----------------------------------------------------------
Inverters
Cutes Corp - (www.cutes.com.tw)
ABB - (www.abb.com)
Toshiba
----------------------------------------------------------
Air Compressor
Bison Air Compressor

----------------------------------------------------------
¬†

Untuk informasi lengkap dan brosur produk bisa diunduh di situs resmi kami:¬†
www.dutaperkasa.com ","
              Jl. Margorejo Indah Blok C-511            ",Surabaya,Jawa Timur,0816525548,None,None
CV. AGRO INDUSTRI SURABAYA,"
                                    PREMIUM GOLD
                                ",Perlengkapan Alat Berat,"
CV. AGRO INDUSTRI adalah Manufaktur  Steel  Grating yang ada di Surabaya. Kami menyediakan Steel Grating dengan ukuran standart baik Serrated maupun Polos.
Kami dapat mengerjakan sesuai pesanan dengan Man Power yang cukup untuk mengejar Dead line Waktu Anda.
Berikut Penawaran kami :
1. Hot & Cold Insulation 2. Roofing 3. Fire proofing 4. Sound proofing 5. Duckting AC Adapun material yang kami supply :
 1. Hot Insulation : - Rockwool ( Roll, Lembar, Pipa ) - Glasswool ( Roll, Lembar ) - Ceramic Fiber ( Roll, Lembar ) - Calsium Silicate ( Lembar, Pipa ) - Asbestos
2. Cold Insulation : - Styrofoam ( Lembar, Pipa ) - Polyurethane ( Lembar, Pipa ) - Rubber Insulation ( Lembar, Pipa Merk : Armaflek & K-flek ) - Glasswool ( Roll, Lembar )
 3. Building Ins. : - Roofmesh - Glasswool ( Roll, Lembar ) - Aluminium Foil S/ S dan D/ S - Aluminium Tape - Spindle Pin
 4. AC Insulation : - Flexible Duct Isolasi / Non Isolasi - Glasswool ( Roll, Lembar ) - Metalizing Tape - Seng BJLS - Glasscloth - Spindle pin Glasswool ( Glass Wool) blanket: The blanket is suitable for acoustic and thermal insulation in tall building, also for refrigeration, air condition machinery room, etc., with properties of good flexibility and installation convenient.
Glasswool Board/ Block/ Slab: Fiberglass wool board is suitable for fireproof, acoustic and thermal insulation in tall building, also for refrigeration, air condition machinery room, etc., with properties of good load-bearing, light weight, low thermal conductivity, non-combustible and chemical stability. Glasswool Pipe Cover: Glasswool pipe covers are suitable for thermal insulation of steam lines, hot water or hot oil lines, also insulation for refrigerating lines.
Specifications: * Glasswool ( Glass Wool) blanket: o The blanket is suitable for acoustic and thermal insulation in tall building, also for refrigeration, air condition machinery room, etc., with properties of good flexibility and installation convenient. * Spec.:
 1. Resin bond content: 3 ~ 8 % *                                                                                                                                2. Density: 16 kg/ m3, 20 kg/ m3, 24 kg/ m3, 32 kg/ m3 *                                                                                     3. Thermal conductivity ( 705C) : 0.042 ~ 0.049 w/ m.k * Subject to density and thickness *                           4. Average acoustic absorptivity: 0.8 ~ 1.1 * Subject to density, thickness and frequency *                        5. Max. service temperature: 300C *                                                                                                                           6. Average fibre diameter: Features: * Availability: o Length x Width: 1200 X 600 mm / 2400 X 1200mm * Thickness: 25 ~ 100mm
 Glasswool Pipe Cover: + Glasswool pipe covers are suitable for thermal insulation of steam lines, hot water or hot oil lines, also insulation for refrigerating lines.                                                                        Spec.: + 1. Density: 48 ~ 96 kg/ m3 o 5. Max. service temperature: 300C o 2. Thermal conductivity ( GB/ T13350-92) : 0.045 ~ 0.032 o w/ m.k o 4. Average acoustic absorptivity: 0.8 ( 500-4000 HZ) o 5. Average fibre diameter: 4.0~ 6.0m o 6.
 Water repellent ( ) :
Best Regards
RAHMAT HIDAYAT AGRO INDUSTRI SURABAYA
PHONE  082129847777 , 082129846666
FAX. 0313980197
 
EMAIL: INDUSTRI2034@ GMAIL.COM  ","
              KAWASAN INDUSTRI GRESIK, JL. KIG SELATAN IV/NO.11 RANDUAGUNG, GRESIK            ",SURABAYA,Jawa Timur,+62 821-2984-7777,+62 821-2984-6666,None
"AAA TIRTA ALAM PERKASA, CV","
                                    PREMIUM GOLD
                                ",Perlengkapan Alat Berat,"
              TIRTA ALAM PERKASA berdiri sejak 1999 di Surabaya, sampai saat kami fokus pada penjualan Pompa, Mechanical Seal, Root Blower, Pressure Tank dan banyak produk terkait dengan Pompa System dan Kebutuhan Industri. Silahkan hubungi kami di 031-8781563 / 8710195 / 8709624 atau di Hp kami 0811-33-8018            ","
              Penjaringan Sari PS 1 J / 06            ",Surabaya,Jawa Timur,0811338018,None,None
UD. SIDO¬†MUMBUL,"
                                    PREMIUM GOLD
                                ",Perlengkapan Alat Berat,"
              UD. SIDO MUMBULPerusahaan kami bergerak di bidang distribusi barang pecah belah / bolo pecah, plastik rumah tangga, peralatan / alat dapur ( kitchen wares) dan kebersihan ( cleaning equipments) , perlengkapan rumah tangga ( house wares / home appliances) dan kebutuhan industri ( industrial wares) lebih dari 30 tahun di Pasar Turi, Surabaya. Kami menjual barang-barang produksi lokal dan impor seperti barang-barang aluminium, kaca, plastik, stainless steel, perkakas, dll. dengan harga dan kuantiti partai ( grosir) untuk dijual kembali ( reseller price).Beberapa merek barang yang kami jual adalah Hock, Lion Star, Maspion, Global Eagle, Green Leaf, Dian Sari, Owl Plast, Technoplast, Bull Star dan masih banyak lagi. Untuk informasi lebih lengkap bisa dilihat pada halaman Katalog Produk kami atau bisa langsung datang ke kantor kami pada hari Senin - Sabtu pada pukul 10: 00 - 17: 00 WIB di jalan Dupak 63, kompleks pertokoan Mutiara Dupak C-22, Surabaya. ¬†Dengan dukungan supplier lokal dan nasional, kami siap untuk memenuhi kebutuhan usaha anda. Kontak kami segera untuk berbisnis dengan kami.Kami juga melayani kebutuhan hotel, rumah sakit, cafe, restoran & katering.Untuk pemesanan produk dapat dilakukan via telepon, short message service ( SMS) , Yahoo! Messenger, Blackberry Messenger ( BBM) dengan sistem pembayaran cash ( transfer bank / kontan) . Pembayaran dapat dilakukan setelah mendapat konfirmasi dari kami atas ketersediaan jumlah produk yang dibutuhkan. Apabila anda serius, dimohon untuk tidak mengirimkan e-mail kepada kami tanpa melakukan konfirmasi terlebih dahulu. ¬†Tersedia kualitas produk biasa, menarik, murah, kuat dan berkualitas tergantung merk dan kebutuhan. Untuk area surabaya kami dapat mengirim, untuk konsumen luar kota dan luar pulau dapat dikirim lewat ekspedisi yang telah disepakati bersama. JAKARTA - BANDUNG - YOGYAKARTA - MAGELANG - SOLO - DENPASAR - SEMARANG - MALANG - SURABAYA - BANYUWANGI - PASURUAN - PROBOLINGGO - JEMBER - PRABUMULIH - MEDAN - JAMBI - PEKANBARU - MAKASSAR - BALIKPAPAN - PONTIANAK - BANJARMASIN - BATAM - PALEMBANG - LAMPUNG - SAMARINDA - PADANG - MATARAM - KALABAHI - MANADO - JAMBI - ACEH - PANGKALAN BUN - KUALA PEMBUANG - BATU LICIN - SAUMLAKI - TUAL - GORONTALO - TANJUNG SELOR - TOLI TOLI - AMBON - BATAM - PANGKALPINANG - WAINGAPU - WAIKABUBAK - KUPANG - ATAMBUA - DILI - PALU - SAMPANG - BANGKALAN - SUMENEP - JAYAPURA - SORONG - BIAK - MANOKWARI - MERAUKE - BAU BAU - TERNATE - TOBELO - KENDARI UD. SIDO MUMBUL - Jln. Dupak 63 / Pertokoan Mutiara Dupak C-22, (031) 5469330 / 081938685700, Surabaya. PIN BBM = 7C5F4B40 / 5B69FFC6 / 228B81D4 WA = +6282143438684 LINE = herry.sutanto E-mail = ud_sido_mumbul@yahoo.com / herrychenzhongqiang@gmail.com Jam Kerja = Senin - Sabtu 10:00 - 17:00 WIB, Hari Minggu / Besar Libur            ","
              Jln. Dupak 63 / Pertokoan Mutiara Dupak C-22, (031) 546-9330 / 0819-3868-5700, Surabaya.
PIN BBM = 7C5F4B40 / 5B69FFC6
WA = 0821-4343-8684
LINE = herry.sutanto            ",Surabaya,Jawa Timur,+62 814-3438-684,None,None
"Sumber Arum Abadi, PT","
                                    PREMIUM GOLD
                                ",Perlengkapan Alat Berat,"
OFFICE:
RUKO GRAHA INDAH BLOK B NO.4, 
JL.GAYUNG KEBONSARI - KEC.GAYUNGAN-SURABAYA 60235
Phone : +62-31-8284914, +62-085100605225, 085100974976 Fax.+62-31-8284955
Email : sumberarumabadi@gmail.com
"" CINTAILAH PRODUKSI DALAM NEGERI"" Ingin Beli produksi Lokal Indonesia Seperti Lemari Asam atau Fume hood Murah berkualitas Kami Ahlinya sudah puluhan Tahun Berpengalaman sebagai pemasok di Dinas-dinas Pemerintah, BUMN, Industri Swasta, LPPMHP, Dinas Perikanan, Dinas Lingkungan Hidup, Perusahan Air minum Negera, Perusahan Minyak Gorek, Pabrik Cold Storage, Pabrik Food Beverage dll perusahaan kami tidak hanya memproduksi lemari asam atau Fume Hood, Fumehood, tapi juga diantaranya Air shower, Colony Counter baik manual dan Digital, Enkas, dry Oven, Oven, Water Bath, Rotator, Neutralizer Bak, Neutralizer Lemari Asam, Rotator, Lemari Bahan Kimia, Degestion, Denetralisasi Water, Meja Lab, Rak lab, Laminar Air Flow, Semua Perkakas Laboratorium, Biohazard Safety Cabinet, Orbital Shaker Dll, Ukuran dan Bahan bisa sesuai pesanan Konsumen dengan MEREK EXCELLENT, Jika Anda butuh alat laboratorium dan bahan kimia produksi Impor, segera hubungi Perusahan kami "".PT. SUMBER ARUM ABADI
Berasal dari kata ‚ÄúSumber Arum‚Äù Artinya mata air di sekitar Perbatasan Antara Jateng & Jatim yang airnya jernih baunya harum/wangi(orang sekitar sering menyebut ‚Äúarum‚Äù) , sumber airnya melimpah walaupun untuk menghidupi masyarakat pada daerah-daerah di sekitarnya, maka Tujuan Didirikannya PT. Sumber Arum Abadi adalah untuk memberi penghidupan dan manfaat bagi orang banyak. ‚ÄúAbadi‚Äù artinya supaya usaha yang kami jalankan bisa Langgeng sepanjang Jaman dari generasi ke generasi.
Distributor, Agent, Supplier dan Importir Alat Lab dan Reagents yang berlokasi di Surabaya Jawa Timur yang melayani ke seluruh indonesia. Dengan Merek atau brand sbb : Acumedia dehydrated culture media dari neogen Corp. USA, merck KGaA Germany, sigma aldrich USA, waters For HPLC Ireland, ridacount, biooscientific, difco bbl, memmert, hirayama, atago, thermo scientific, thermolyne, funke gerber, warring, hach usa, olympus, all american, vwr glassware, uetech, yellowline, wildco, takemura, As-One, pyrex glassware, vitlab glassware, brand glassware, biohit, axygen scientific, boeco germany, gast vacuum pump, optika italy Microscope, nikon japan Microscope, interscience, hettich, and balance Japan, Ohaus Balances and Scale USA, mettler toledo balance USA, presica balance taiwan, kern balances germany, eppendorf, testo, velp scientifica, advantec toyo kaisha Ltd. Japan, kett , IKA germany, neogen, seward uk, witega germany, hanna instruments, micro essential usa, neofilm neogen usa, all american 25x 50x 75x usa, sanita-kun japan, pobel water stills spain, parafilm m bemis company inc. usa, elisa reader, stat fax, automated washer, analytik jena, eutech instrument, funke gerber germany, automated elisa analyzer IEA, hanna instruments, organomation usa, tka italy etc. ","
              Ruko Graha Indah Blok B No.4 Jl. Gayung Kebonsari            ",Surabaya,Jawa Timur,+62 851-0060-5225,+62 812-3203-447,+62 811-3638-517
COLOSSAL ART INDONESIA,"
                                    PREMIUM GOLD
                                ",Perlengkapan Alat Berat,"
CV. Colossal Art Indonesia
merupakan perusahaan kontraktor yang bergerak khusus pada design dan produksi Pekerjaan Kayu, Metal, Fiber, dan Kriya untuk menunjang skup proyek Interior ‚Äì Arsitektur, Pameran ‚Äì Eksebisi, Dekorasi, Fiber Modeling, Advertising, dan General Contractor. Dengan Sistem manajemen ter-integrasi dan terancana serta di tunjang dengan tenaga ahli di bidangnya pada tiap - tiap workshop produksi.
WORKSHOP PRODUKSI 
Untuk memastikan ketepatan delivery aplikasi konsep design, mulai tahun 2008 Colossal Art Indonesia membangun beberapa workshop independent yang terus berkembang yang khusus menangani aplikasi produksi proyek Interior ‚Äì Arsitektur, Pameran ‚Äì Eksebisi, Dekorasi, Fiber Modeling, Advertising, dan General Contractor. Dengan adanya supply chain management yang terintegrasi di harapkan dapat menghasilkan sebuah produk yang berkualitas dan harga yang bersaing sehingga menghasilkan Competitive Advantage yang durable.
Colossal Art Indonesia memiliki 4 workshop yang khusus menangani spesifikasi pekerjaan yang berbeda, yaitu :
1. Workshop Khusus Pekerjaan Kayu 
Workshop independent milik sendiri yang khusus menangani semua pekerjaan kayu, multiplek, MDF, PB, IB dan pekerjaan kayu lainnya, mulai dari fabrikasi hingga finishing ( HPL, Vinyl, Duco, Melamic, Digital Printing) dikerjakan di workshop ini. Di dukung dengan tenaga ‚Äì tenaga ahli di bidangnya dan peralatan yang memadai dan fasilitas gudang yang mencukupi sehingga di harapkan dapat mengaplikasikan design untuk produk kayu yang maksimal. Workshop ini untuk mensuport proyek Interior ‚Äì Arsitektur, Pameran ‚Äì Eksebisi, Dekorasi, Fiber Modeling, Advertising, dan General Contractor.
2. Workshop Khusus Pekerjaan Metal 
Workshop independent milik sendiri yang khusus menangani semua pekerjaan Besi, Stainless, Aluminium, ACP, Trust dan pekerjaan metal lainnya, mulai dari fabrikasi ( Cutting, Welding, Cor, Bubut, dll) hingga finishing ( Coating Powder, Spry coating, dll) dikerjakan di workshop ini. Di dukung dengan tenaga ‚Äì tenaga ahli di bidangnya dan peralatan yang memadai dan fasilitas gudang yang mencukupi sehingga di harapkan dapat mengaplikasikan design untuk produk metal yang maksimal. Workshop ini untuk mensuport proyek Interior ‚Äì Arsitektur, Pameran ‚Äì Eksebisi, Dekorasi, Fiber Modeling, Advertising, dan General Contractor.
3. Workshop Khusus Pekerjaan Fiber, Kaca dan Acrylic
Workshop independent milik sendiri yang khusus menangani semua pekerjaan Fiber, Kaca dan Acrylic, mulai dari fabrikasi & Modeling hingga finishing ( Cutting Laser, Emboss, Polin, Bevel, Gravir, dll) dikerjakan di workshop ini. Di dukung dengan tenaga ‚Äì tenaga ahli di bidangnya dan peralatan yang memadai dan fasilitas gudang yang mencukupi sehingga di harapkan dapat mengaplikasikan design untuk produk metal yang maksimal. Workshop ini untuk mensuport proyek Interior ‚Äì Arsitektur, Pameran ‚Äì Eksebisi, Dekorasi, Fiber Modeling, Advertising, dan General Contractor.
4. Workshop Khusus Pekerjaan Furnishing & Kriya 
Workshop independent milik sendiri yang khusus menangani semua pekerjaan Furnishing mulai dari Steyrofoam, kain, kulit, Corrugated, Baloon, craft, foam, dacron dikerjakan di workshop ini. Di dukung dengan tenaga ‚Äì tenaga ahli di bidangnya dan peralatan yang memadai dan fasilitas gudang yang mencukupi sehingga di harapkan dapat mengaplikasikan design untuk produk furnishing yang maksimal. Workshop ini untuk mensuport proyek Interior ‚Äì Arsitektur, Pameran ‚Äì Eksebisi, Dekorasi, dan General Contractor.
Dengan memiliki workshop produksi sendiri kami dapat memastikan kualitasnya. Kami sudah berdedikasi sejak 2008 menjadi sub kontraktor dari berbagai mitra konsultan interior dan arsitektur ternama di berbagai daerah di indonesia. Kami akan berikan solusi terbaik agar dapat bermanfaat bagi perkembangan dan kemajuan bersama. ","
              Jln Gunung Muria No.6 16/07 Krembung            ",Sidoarjo,Jawa Timur,+62 822-4005-0012,+62 822-3305-0020,None
PT. DIKATAMA PUTRA PERKASA,"
PREMIUM RUBY
",Perlengkapan Alat Berat,"
              PT. DIKATAMA PUTRA PERKASA adalah perusahaan General Trading dan General Enginering yang bergerak dibidang distributor CONVEYOR SYSTEM, DISTRIBUTOR BELT ( ESBELT, AMERAL, HABASIT, NANG) .Perusahaan ini juga menyediakan beberapa jenis DESIGN CONVEYOR yang diperlukan oleh perusahaan anda dalam pengadaan mesin operasional kerja.Dalam hal ini kami menawarkan beberapa katalog produk, diantaranya adalah :BELT CONVEYORFLATE CONVEYORROLLER CONVEYORCHAIN CONVEYORMESIN ANNEALINGBUCKET ELEVATOR CONVEYORRUBBER ROLLERRUBBER GOODS : RUBBER BUSTINGS, RING, SEALS, HOUSE HOLD GOODS.ENGINEERING WORK, dllUntuk lebih detail dan informasi lebih lanjut silahkan hubungi kami pada data berikut:DIKATAMA PUTRA PERKASATelp : 021-8759250fax  : 021-87909876ANDIKA PRATAMA( MARKETING)Tlp : (021) 8759250, 87911560HP : 0857 7878 9600Email : andika.rotari@ yahoo.co.id            ","
              Jl. Raya Bogor Kp.Kabendungan No.15 Km.39, RT.02/RW.02, Pabuaran, Cilodong, Kota Depok, Jawa Barat 16916            ",JAKARTA,Daerah Istimewa Yogyakarta,+62 857-7878-9600,+62 878-7878-9600,None
PT. SARANA TEKNIK,"
PREMIUM RUBY
",Perlengkapan Alat Berat,"
Selamat datang di website www.sarana-teknik.co.idemail : SARANAGROUP@CBN.NET.IDPT. Sarana Teknik berdiri sejak Oktober 1998 adalah Perusahaan yang menjadi distributor transmisi tenaga mekanik & produk motor listrik. Dengan penghargaan dari custumer akhir nya kami menjadi di kenal dengan Stokist pada product sebagai berikut : BALDOR MOTOR DODGE COUPLING - DODGE BEARING FALK COUPLING REXNORD COUPLING - REXNORD CHAIN ADDAX COUPLING , THOMAS, FENNER BELT COUPLING PULLEY , SIHI PUMP, KOSHIN GEAR PUMP, SOUTHERN CROSS PUMP, EBARA PUMP, FRANKLIN SUBMERSIBLE PUMP, KENFLO PUMP, BEARING, BANDO BELT, CONTINENTAL CONVEYOR BELT MARTIN, LINK BELT, HITACHI, MTK, NIKKEN, KHK, KTR, KB PENTA POWER, CUTES INVERTER, TOSHIBA INVERTER, DELTA INVERTER, KBMM, TECO MOTOR, SIEMENS MOTOR, YUEMA ELECTRIC MOTOR, TSUBAKI POWER HELICAL DRIVE REDUCER, KOP-FLEX, TB WOOD' S, FLENDER, NBK, KTR, MITSUBOSHI, CENTA, EBARA, MOTOVARIO , MOTOVARIO GEARBOX , MOTOVARIO INDONESIA , MOTOVARIO WORM GEAR , BONFIGLIOLI , BONFIGLIOLI INDONESIA , BONFIGLIOLI RIDUTTORI , BONFIGLIOLI GEARMOTOR, dll.Untuk informasi dan pemesanan Hubungi Kami :Head Office PT. Sarana TeknikKompleks Perkantoran Sunter Permai Blok B.11, Jl. Danau Sunter Utara Kav. K-2, Sunter Agung Jakarta 14350 IndonesiaPhone : ( 021) 651-9582 ( Hunting)Fax : ( 021) 65305868 ‚Äì 6400893Fax Bebas Pulsa : 0800-1-666-777Email : sarana@bit.net.id // saranateknik@cbn.net.idWebsite : www.sarana-teknik.comBranch OfficeA. CikarangSimprug Plaza Blok A2 No.11, JABABEKA 2 Cikarang - BekasiPhone : ( 021) 8932 4575, 8932 4587Fax   : ( 021) 8932 4530Email : sarana_ cikarang@ cbn.net.id // saranagroup@cbn.net.idAttn. BAPAK FARID ILHAMSYAHB. SurabayaRuko Sentra Tropodo Blok C-7 Jl. Raya Tropodo No. 115, Waru ‚Äì SurabayaPhone : ( 031) 8685823‚Äì24Fax   : ( 031) 8685825Email : sarana_ surabaya@cbn.net.id/ saranagroup@cbn.net.idAttn. BAPAK JUANDI/ NANANG ","
              Komplek Perkantoran Sunter Permai Blok B11 Jl. Danau Sunter Utara Kav. K-2 Sunter Agung TEL 6519682EMAIL : SARANAGROUP@CBN.NET.ID            ",Jakarta,DKI Jakarta,+62 815-1968-4035,None,None
PT. ARISCO MANDIRI,"
PREMIUM RUBY
",Perlengkapan Alat Berat,"
              Arisco menjual sparepart Komatsu, spareparts alat berat, jual komponen alat-alat berat seperti unit Komatsu Excavator. Komatsu Bulldozer, Komatsu Motorgrader, Komatsu Dump Truck, Komatsu Wheel Loader, dll. kami adalah distributor / stockist untuk pengadaan spare parts spareparts Komatsu seperti unit spareparts excavator, spareparts bulldozer, spareparts motorgrader, spareparts dumptruck, spareparts wheel loader, dan barang yang ditawarkan meliputi sparepart merk asli, sparepart genuine komatsu, sparepart oem komatsu, sparepart non genuine komatsu, sparepart replacement komatsu, untuk tipe unit komatsu meliputi :Excavator : PC75UU-2 PC78US-5 PC100-3 PC100-5 PC100-6 PC200-3 PC200-5 PC200-6 ( engine komatsu) PC200-6 ( engine cummins) PC200-7 PC200-8 PC300-5 PC300-6 PC300-7 PC300-8 PC350-6 PC350-7 PC350-8 PC400-5 PC400-6 PC400-7 PC400-8 PC410 PC450-7 PC450-8 PC800-7 PC1000 PC1250-7 PC1250-8RBulldozer : D31P D31P-18 D31PX-21 D31EX-21 D60E-8 D61EX-12 D61PX-12 D65E-8 D65EX-12 D65PC-12 D70LE D85ESS-2 D155A-1 D155A-2 D155A-3 D155A-5 D155A-6 D375A-2 D375A-3 D375A-5 D375A-6Motorgrader : GD200 GD300 GD400 GD405A-1 GD505A-2 GD510R-1 GD511A-1 GD600 GD605 GD625 GD705A-4Dump Truck : HD200 HD205 HD320 HD325-5 HD325-6 HD325-7R HD465-5 HD465-7 HD465-7R HD605-7 HD785-5 HD785-7 HM350 HM400 HM400-2RWheel Loader : WA100 WA120 WA120-3 WA180-1 WA180-3 WA200 WA200-3 WA250 WA250-3 WA300 WA300-3 WA320 WA320-3 WA350-3 WA380 WA380-3 WA400 WA420-1 WA420-3 WA470-3 WA500-1 WA500-3 WA600-1 WA600-3 WA700 WA800Merek unit specialist di pengadaan spareparts KOMATSU, untuk unit lainnya seperti jual Spareparts PERKINS, jual Spareparts YANMAR, jual Spareparts CATERPILLAR, jual Spareparts KOBELCO, jual Spareparts VOLVO.Dan untuk FORKLIFT merek KOMATSU, Spareparts TCM, Spareparts TOYOTA, Spareparts PATRIA. Berikut kategori product list untuk sparepart umum yang dijual. Dan tersedia untuk barang2 GENUINE, OEM atau Replacement Parts.Tipe Product yang kita jual sbb:‚Ä¢ ENGINE ( CRANKSHAFT - PISTON - RING PISTON - METAL SET - CON ROD[ STANG PISTON] - dll )‚Ä¢ TURBOCHARGER ( GARRET - HOLSET - IHI - SCWITHZER)‚Ä¢ MAIN PUMP ASS‚Äô Y‚Ä¢ FUEL INJECTION PUMP / CONTROL VALVE‚Ä¢ WATER PUMP‚Ä¢ GASKET KIT ( OVERHAUL )‚Ä¢ SERVICE KIT ( BOOM - BUCKET - ARM - HOIST ) / SEAL KIT / O-RING KIT‚Ä¢ OIL / FUEL FILTER / COROSION RESIST / WATER SEPARTOR‚Ä¢ UNDERCARIGE ( TRACK SHOE - IDLER - ROLLER - TRACK LINK - SPROCKET - TOOTH - dll )‚Ä¢ BEARING ( NTN - NSK - TIMKEN - SKF - dll )‚Ä¢ ELECTRIC ( CONTROL PANEL - WIRE HARNESS - SOLENOID - SWITCH - dll )‚Ä¢ ALTERNATOR / STARTING MOTOR / MOTOR GASHarga yang kami tawarkan sangatlah kompetitif. Untuk info lebih lanjut bisa menghubungi kami langsung.            ","
              Taman Sari Raya Komp. Ruko 56 no.91Jakarta Barat            ",Jakarta Barat,DKI Jakarta,+62 878-2851-4000,None,None
PT Gecko Indonesia,"
PREMIUM RUBY
",Perlengkapan Alat Berat,"
              Liquid and Air HandlingIndustrial Equipment Engineering ContractorService and Maintenance HVACUntuk pembelian atau pemesanan bisa menghubungi nomor telepon 021-29557452,
Inge    : 0816719556 / 081586477069 ","
              Menara Rajawali, Level 7-1Jl. DR Ide Anak Agung Gde AgungKawasan Mega KuninganJakarta Selatan | Contact : 0816719556             ",Jakarta Selatan,DKI Jakarta,+62 816-719-556,None,None
CV. AIR MAS,"
PREMIUM RUBY
",Perlengkapan Alat Berat,"
              Air Mas merupakan Perusahaan Dagang, Importir dan Supplier untuk kebutuhan Industri seperti : Valve, Pipa, Flange, Fitting, Instrument, Spare Part Boiler dan Pneumatic. Dengan berbekal pengalaman yang cukup lama, kami berkomitmen untuk memberikan solusi, cepat delivery tepat waktu, penyediaan barang lengkap dan pelayanan cepat.Untuk Informasi Lebih Lanjut Hubungi :
CV. AIR MASJl. Pejagalan I No. 55 RT 013 RW 003 Pekojan, Tambora, Jakarta Barat
021 - 6983 7055 / 6902 4270811918080 0811915050 081311178080www.airmas55.com ","
              JL. Pejagalan I no. 55 RT 013 RW 003 Pekojan Tambora Jakarta0811918080 0811915050 081311178080             ",Jakarta,DKI Jakarta,+62 811-918-080,None,None
PT. TERMINAL KARYA CIPTA EMAS,"
PREMIUM BLUE ONYX
",Perlengkapan Alat Berat,"
PT Terminal Karya Cipta Emas merupakan sebuah jawaban dari kebutuhan akan kualitas dan kecepatan layanan terhadap pelanggan. Komitmen kami adalah memberikan pelayanan yang terbaik dengan kualitas harga dan term pembayaran yang bersaing. Besar harapan kami perusahaan Anda dapat menjadi mitra kerja kami selanjutnya. Informasi lebih lanjut Hendri: 08128554742 hendri781@gmail.com For Gasketing & Insulating Product contact Sholahudin: 085710574852 sholahudin_82@yahoo.co.id ","
              HARCO GLODOK, Lt 2 Blok C 59 . Jl Hayam Wuruk No. 2 - 5 Mangga Besar, Kota Tua, Tamansari, Jakarta Barat, DKI Jakarta            ",JAKARTA BARAT,DKI Jakarta,+62 812-8554-742,+81 3-8518-2838,None
PT. Bina Pertiwi,"
PREMIUM BLUE ONYX
",Perlengkapan Alat Berat,"
PT BINA PERTIWICALL : 082116688533 / 081219572050 (WA)PT Bina Pertiwi (BP) didirikan pada 15 November 1976, fokus di bidang Agriculture, Material handling, Power and Energy, dan Construction. Dimiliki sepenuhnya oleh PT United Tractors Tbk (UT) yang juga merupakan bagian dari PT Astra Internasional, Tbk. Serta didukung oleh karyawan yang berkompeten dan tim manajemen yang solid, kami hadir di seluruh Indonesia melalui kantor cabang dan perwakilan yang siap melayani anda.
 
Bina Pertiwi selalu berusaha memberikan pelayanan terbaik dengan meningkatkan jangkauan dan kemampuan untuk memenuhi permintaan pelanggan melalui ketersediaan suku cadang, jasa perbaikan dan jasa perawatan yang ditangani oleh mekanik yang bersertifikat serta dilengkapi dengan pelatihan operator.
 
Bina Pertiwi juga memiliki komitmen untuk terus melakukan perbaikan demi memberikan solusi terbaik bagi para pelanggan.PT Bina PertiwiJl. Raya Bekasi KM. 22, Jakarta 13910PIC : CHRIS HP : 081219572050 / 082116688533 ","
              Jl. Raya Bekasi KM. 22, Jakarta 13910            ",Jakarta Timur,DKI Jakarta,+62 812-1957-2050,None,None
Rabotti Indonesia,"
PREMIUM BLUE ONYX
",Perlengkapan Alat Berat,"
              RABOTTI INDONESIA estabilished in 2000 working on Fuel Injection Pump Sector, serving fuel injection pump repair service, provided the most compherensive sparepart in indonesia, also most reliable and experience company in Indonesia.GET IN TOUCHYenyen - 08129479990Jl. Taman sari Raya No. 55a, RT7 RW6 Taman Sari, Jakarta Baratwww.rabottiindonesia.com            ","
              Taman sari raya no 55aJakarta 11150            ",KOTA JAKARTA BARAT,DKI Jakarta,+62 812-9479-990,None,None
PT.SURRAMA TRIDAYA MANDIRI,"
PREMIUM BLUE ONYX
",Perlengkapan Alat Berat,"
Surrama Tridaya Mandiri adalah Kontrol & Instrumentasi perusahaan memberikan kualitas produk dan layanan kepada industri. Filosofi kami adalah untuk bekerja dalam kemitraan dengan kami pelanggan untuk memastikan bahwa kami memberikan solusi yang tepat untuk memenuhi kebutuhan Anda kebutuhan bisnis. Kami menawarkan berbagai produk kepada pelanggan kami. Ini adalah tujuan kami untuk memastikan bahwa Anda diberikan saran terbaik untuk membantu Anda memilih solusi yang tepat atau jasa untuk memungkinkan Anda untuk melakukan kegiatan bisnis Anda efektif dan efisien. pelanggan kami berhak permintaan kualitas tinggi, harga terbaik dan waktu respon segera. Oleh karena itu Kami menempatkan penekanan yang sangat tinggi pada tidak hanya memenuhi tuntutan ini tetapi juga pada penyediaan penekanan kuat pada layanan pelanggan dan customer care. Pada Kontrol STM kami berkomitmen untuk melayani kebutuhan pelanggan kami di atas semua pertimbangan lain. Kami percaya bahwa rumus untuk keberhasilan bisnis kami secara langsung terkait dengan keberhasilan kami bisnis pelanggan. 
Kontrol STM ' Pelanggan Charter'
‚Ä¢ Pelanggan adalah yang paling penting orang di kantor kami.‚Ä¢ Pelanggan tidak tergantung pada kita; kita tergantung padanya.‚Ä¢ Pelanggan tidak gangguan terhadap pekerjaan kami, ia adalah tujuan itu. Dia melakukan kita nikmat dengan memberikan kita kesempatan untuk memecahkan masalahnya.‚Ä¢ Konsumen bukanlah seseorang untuk berdebat atau sesuai dengan akal. Tidak ada yang pernah memenangkan argumen dengan pelanggan.‚Ä¢ Pelanggan harus dibuat merasa seolah-olah mereka adalah orang-orang yang paling penting di dunia kita. Perhatian pribadi kami kepada pelanggan kami melebihi yang dari pesaing lainnya.For More Info Contact Us :PT. Surrama Tridaya MandiriCiti Square Business Park Blok E No. 6Jl. Peta Selatan RT 010 RW 001, Kalideres, Kalideres, Jakarta Barat, DKI Jakarta, Indonesia 11840Telp    : +62-21-22520556 (Hunting)Fax     : +62-21-22526597 ","
              Citi Square Business Park Blok E No. 6 Jl. Peta Selatan RT 010 RW 001, Kalideres            ",Jakarta Barat,DKI Jakarta,+62 878-8572-0277,None,None
TEKNIK MANDIRI,"
PREMIUM BLUE ONYX
",Perlengkapan Alat Berat,"
Teknik Mandiri adalah sebuah perusahaan yang khusus memfokuskan diri dalam memenuhi kebutuhan industri,Rumah tangga,Proyek dan Automotive di bidang produk mechanical, electrical,handtools,welding,safety,dan Lifting pneumatic Equipment  Visi: Menjadi yang terbaik di antara yang terbaik.  Misi: Menjadikan Teknik Mandiri sebagai partner Industry, Rumah Tangga, Proyek dan Automotive dalam menghadapi tantangan dan menyongsong kesempurnaan dimasa depan.  Kami bekerja keras dan selalu melakukan yang terbaik untuk melayani pelanggan-pelanggan dimanapun dan kapanpun dalam memberikan informasi yang akurat dan solusi yang tepat pada saat dibutuhkan.Info Produk & Order Hubungi :Phone : 021-5644267    Mobile : 0812 1214 3333( Call/WA)Email : teknikmandiriindo@gmail.com ","
              Jl. Setia Warga 8 No.40 Rt 10/11 Grogol Petamburan, Jakarta Barat            ",Jakarta Barat,DKI Jakarta,+62 812-1214-3333,None,None
PT. ADI RAYA MANDIRI,"
                                    PREMIUM GOLD
                                ",Perlengkapan Alat Berat,"
PT. ADI RAYA MANDIRI berkembang sangat pesat sebagai perusahaan penyedia barang barang untuk kebutuhan industri yang ada di Indonesia.kami menjual dan medistribusikan spare part juga alat-alat untuk kebutuhan industri meliputi bidang Automation System Dan Electrical Components, Pneumatics, Hydraulic dan Juga Controls System Seperti : 
POWDER CLUTCH & BRAKES :

MITSUBISHI
OGURA
OSAKI DENGYOSA
SUNTES
SHINKO SINFONIA
MIKKI PULLEY
COREMO
WARNER
MAYR
ROTEX

HYDRAULIC PNEUMATICS :  

SMC
KOGANEI
CKD
KURODA
TAIYO
TACO
ROSS
AIRTAC
DAIKIN
YUKEN
NOK F-TEC
NACHI
MAC
ERACON
NEW-ERA
PISCO
CHANTO
MYOTOKU

ELECTRICAL MOTOR And INVERTERS : 

MITSUBISHI
YASKAWA
FUJI ELECTRIC
HITACHI
LG/ LS
TOSHIBA
NIKKI DENSO
TAMAGAWA
SEIKI NISSEI
RORZE
SANYO
DENKI
SAWAMURA
ORIENTAL MOTOR
VEXTA MOTOR
 PANASONIC
SHINKO
SHIMPO
NIDEC NEMICON
IDEC IZUMI

SENSOR & CONTROL DEVICE : 

SHINKO
OMRON
SUNX
KEYENCE
RIKEN OPTECH
YAMATAKE AZBIL
SEEKA/ TAKEX
TAKENAKA
PULNIX
KOYO
EUROTHERM OPTEX
PEPPERL+ FUCHS
PILZ
SICK
TURCK
IDEC
 IZUMI

POWER SUPPLIES DC - AC CONVERTER : 

COSEL
NEMIC
LAMBDA
FINE SUNTRONIX
OMRON
MEAN WELL
MURR
PULS
XP Power Supplies

TEMPERATURE CONTROLLER :

RKC
TOHO
SHIMADEN
SHINKO
FUJI ELECTRIC
HONEYWELL
ASAHI KEIKI
ALISH
KEYANG
YOKOGAWA
DYWER

Keuntungan Dari Pelayanan Kami Adalah Sbb:

Harga Yang Kami Tawarkan Lebih Bersaing 
Mutu Dan Keaslian Barang Terjamin 
Barang Dapat Kami Kirim Sesuai Dengan Tanggal Kebutuhan
Kemudahan Dalam Pembayaran 

Harga Hubungi Kami Dibawah Ini :PT. ADI RAYA MANDIRIJl. Pinang Raya No.70 Pondok LabuJakarta Selatan 12450 IndonesiaTelp : 6221-766 3747 - 2904 2880Fax  : 6221- 7510595E-Mail: adirama@indo.net.idE-Mail: adirayamandiri@yahoo.co.idE-Mail: ptadirayamandiri@yahoo.co.idWebsite : www.adirayamandiri.comWebsite : http://adirayamandiript.com ","
              Jl.Pinang Raya No.70 Pondok Labu CilandakJakarta Selatan Indonesia            ",Jakarta Selatan,DKI Jakarta,+62 813-1087-8688,None,None
PT. ADI RAYA MANDIRI,"
                                    PREMIUM GOLD
                                ",Perlengkapan Alat Berat,"
PT. ADI RAYA MANDIRI, berkembang sangat pesat sebagai perusahaan yang bergerak dalam bidang Industrial Automation System dan Electrical Components. perusahaan kami menjual dan medistribusikan barang barang spare part dan alat - alat untuk kebutuhan industri yang ada di Indonesia, meliputi bidang Automation System dan Electrical Components Pneumatic Hydraulic dan juga Controls System Seperti :AGENT :

OPTEX
TRAFAG
WATANABE ELECTRIC
PULS
AXE PANEL METER

AUTOMATION SYSTEM :

ALLEN BRADLEY
ABB
BECKHOFF
DANFOSS
DELTA
FUJI ELECTRIC
GE FANUC
HITACHI
EMERSON
LENZE
LS
OMRON
PANASONIC
SCHNEIDER
SIEMENS
TECO
TOSHIBA
YASKAWA

POWDER CLUTCH & BRAKES :

MITSUBISHI
OGURA
OSAKI-DENGYOSA
SUNTES SHINKO-SINFONIA
MIKKI-PULLEY
COREMO
WARNER
MAYR
HYDRAULIC

PNEUMATIC & HYDRAULICS :

SMC
KOGANEI
CKD
KURODA
TAIYO
TACO
ROSS
AIRTAC
DAIKIN
YUKEN
NOK F-TEC
NACHI-FUJIKOSHI
MAC VALVE
ERACON
NEW-ERA
PISCO
CHANTO
MYOTOKU

ELECTRICAL MOTORS:

MITSUBISHI
YASKAWA
FUJI-ELECTRIC
HITACHI
LG/LS
TOSHIBA
NIKKI-DENSO
TAMAGAWA SEIKI
NISSEI
RORZE
SANYO-DENKI
SAWAMURA
ORIENTAL-MOTOR
VEXTA MOTOR
PANASONIC
SHINKO
SHIMPO
NIDEC-NEMICON
IDEC-IZUMI

SENSOR & CONTROL DEVICE :

OMRON
PANASONIC-SUNX
KEYENCE
RIKEN-OPTECH
YAMATAKE-AZBIL
SEEKA-TAKEX
TAKENAKA-PULNIX
KOYO
EUROTHERM
OPTEX
PEPPERL+FUCHS
PILZ
SICK
TURCK
IDEC-IZUMI
PIL
IPF

POWER SUPPLIES DC - AC CONVERTER : 

COSEL
NEMIC-LAMBDA
FINE-SUNTRONIX 
OMRON
MEANWELL
MURR
PULS
XP

TEMPERATURE CONTROLLER :

RKC INSTRUMENT
TOHO
SHIMADEN
SHINKO TECHNOS
FUJI ELECTRIC
HONEYWELL
ASAHI-KEIKI
ALISH
KEYANG
YOKOGAWA
DWYER
EMKO
TAIE

Keuntungan dari pelayanan kami adalah sbb:

Harga yang kami tawarkan lebih bersaing
Mutu dan keaslian barang terjamin
Barang dapat kami kirim sesuai dengan tanggal kebutuhan
Kemudahan dalam pembayaran

Untuk permintaan penawaran harga hubungi kami dibawah ini :PT. ADI RAYA MANDIRIJl. Pinang Raya No.70 Pondok LabuJakarta Selatan 12450 IndonesiaTelp: 6221-7663747 - 29042880Fax: 6221-7510595E-mail: adirama@indo.net.idE-mail: adirayamandiri@yahoo.co.idE-mail: ptadirayamandiri@yahoo.co.idHubungi sales kami:
Lina:  081219744882
Dani: 081310878688
Maya: 081288840351
Anie : 081318713253 ","
              Jl. Pinang Raya No.70 Pondok Labu            ",Jakarta Selatan,DKI Jakarta,+62 813-1087-8688,None,None
PT SUKSES ANUGERAH BERKAT,"
                                    PREMIUM GOLD
                                ",Perlengkapan Alat Berat,"
              PT. Sukses Anugerah Berkat Hubungi Kami Suryati hp 081289991028 Perusahaan kami bergerak dibidang: 1) General Contractor, Jasa Perdagangan yang meliputi penyediaan barang & alat-alat untuk kebutuhan konstruksi, suku cadang/ spare parts alat-alat berat, dan suku cadang Mitsubishi/ Hino Trucks. 2) Jasa Penyewaan Alat Berat Backhoe, Wheel Loaders, Compactors/ Roller, Excavator, Buldozer, Forklift dan lain lain berbagai macam jenis. Penyewaan tergantung jenis pekerjaan dan lokasi kerja. 3) Jasa Penjualan Conveyor Belt, Wire Rope Untuk permintaan penawaran harga silahkan email ke: suksesanugerahberkat@ gmail.com            ","
              Ruko Mutiara Palem blok C5/17 Cengkareng - Jakarta            ",JAKARTA,DKI Jakarta,+62 812-8999-1028,None,None
Sumber Berkat Abadi,"
                                    PREMIUM GOLD
                                ",Perlengkapan Alat Berat,"
SUMBER BERKAT ABADI
Kami Specialist menyediakan :
¬†
1. Auto Synchronous Generator
= Woodward, Smartgen, ComAp, Datakom
Speed Control & Actuator
= Woodward, GAC, Segma, Cummins
¬†
2. Battery Charger
= BAE, SEG, Smartgen BAC, CSS, Aspire, Datakom SMPS & Firetrol
¬†
3. AVR
= Stamford, Leroy Somer, Marrelli, Mecc Alte, Taiyo, Basler, Caterpillar, OEM
¬†
4. VDO Gauge & VDO Sender
¬†
5. Turbocharger
= Holset, Garrett, KMP, Perkins, IHI, Mitsubishi, Caterpillar
¬†
6. Relay Protection, Overcurrent, Overvoltage & Trafo
= Broyce Control & SEG
¬†
7. Solenoid & MPU
= Woodward, HEL, Deutz, Kubota, DENSO, OEM
¬†
8. Stater Motor & Alternator
= Bosch, Mahle, Iskra, Delco Remy, Hitachi, OEM
COS
= Smartgen & Kyoritsu
¬†
9. Fuse MV
= SIBA, Bussmann, Schneider, Siemens
¬†
10. Spare Parts Generator
= Cummins, Komatsu, Perkins, Deutz, Caterpillar, Yanmar & Kubota
¬†
11. Undercarriage Excavator
¬†
12. Potensiometer, Dioda, Switch, Connector
= Vishay Spectrol, Bourns
¬†
HP / WA : 08788-24-000-19
Bpk. Sonny Pranata ","
              Jl. Pintu Air 3 No. 25-C Pasar Baru            ",Jakarta Pusat,DKI Jakarta,+62 878-8240-0019,None,None
CV. JAYA PERKASA ELECTRIC ,"
                                    PREMIUM GOLD
                                ",Perlengkapan Alat Berat,"
JAYA PERKASA ELECTRIC
is electricals and technics Trading Company. Its can supply any brand with local and international. We are estabilished since 2007 years ago.
We always keep about Quality and Service
With more than 10 years of experience in electricals and engineering equipment, JAPEC (Jaya Perkasa Electric) understand needs of the industry in electricals and engineering tools and market needs in general.
GOOD PARTS .... GOOD PRICE .... GOOD DELIVERYPHONE : +62-812-8404-9473EMAIL : jaya_perkasa_electric@yahoo.comWhatapps : +62-812-8404-9473 ","
              Branch Office :  Kedoya Raya No. 8i Kedoya Jakarta 11520
            ",Jakarta,DKI Jakarta,+62 812-8404-9473,None,None
DUTA KHANSA MANDIRI,"
                                    PREMIUM GOLD
                                ",Perlengkapan Alat Berat,"
              CV.  DUTA KHANSA MANDIRI menyediakan: Jasa KONTRAK SERIVICE  & Penjualan Sparepart Alat berat dari China, Jepang, Korea maupun UK & USA .  Dengan merek XGMA, LIUGONG, XCMG, CHANGLIN, WEICHAI, YUCHAI, CATERPILAR, KOMATSU, CATERPILLAR, HYUNDAI , DOOSAN, KOBELCO, HITACHI, LONKING, SDLG, SHANTUI, WEICHAI, YUCHAI, XINCHAI,TIANLY, SEM, KOHLER ENGINE, PERKINS, CUMMINS, TOYOTA , TCM, MITSUBISHI , BOULI , HANGCHA, PATRIA ,LOVOL, HELLY, CHANLIN, PUMP HYDRAULIC ALAT BERAT dll.CV.  DUTA KHANSA MANDIRI menyediakan: Jasa & Penjualan Sparepart FORKLIFT, ALAT BERAT, GENSET dan Engine  merek ISUZU, KOMATSU,CATERPILLAR, HITACHI,CUMMINS  , TCM, MITSUBISHI, WEICHAI, YUCHAI, FAW ENGINE ,NISSAN ,HINO  dll..CV.  DUTA KHANSA MANDIRI merupakan DISTRIBUTOR resmi penyalur Oli , MINYAK PELUMAS  , PELUMAS OLI  dengan Merek """"PanaOil""""""""PanaOil"""" merek Oli yang setara dengan oli kelas tinggi yang sudah beredar di Indonesia.Sedangkan Untntu Kebutuhan KUSUS ,  Mesin KAPAL MARINE  Kami juga menyedikan dengan merek  ''NUSA OIL'' Kami menyediakan dengan harga terbaik Kelebihan SPARE PARTS kami menggunakan komponen utama yang sudah banyak di pasaran sehingga memudahkan untuk pencarian Spare Parts, seperti;Bulldozer, Motor Grader, Wheel Loader, Vibratory Compactor, Tandem Vibratory Roller, Pneumatic Roller, Forklift1. XCMG ( Bulldozer, Motor Grader, Wheel Loader, Vibratory Compactor, Tandem Vibratory Roller, Pneumatic Roller, Forklift)2. LIUGONG ( Bulldozer, Grader, Wheel Loader, Vibratory Compactor, Tandem Vibratory Roller, Pneumatic Roller, Forklift)3. LONKING( Bulldozer, Grader, Wheel Loader, Vibratory Compactor, Tandem Vibratory Roller, Pneumatic Roller, Forklift)4. CHANGLIN ( Bulldozer, Grader, Wheel Loader, Vibratory Compactor, Tandem Vibratory Roller, Pneumatic Roller)5. SHANTUI ( Bulldozer, Grader, Wheel Loader, Excavator)6. CHENGONG ( Hydraulic Excavator, Mini Excavator, Skid Steer Loader, Wheel Loader)7. ZOOMLION ( Bulldozer, Grader, Wheel Loader, Excavator)8. TIANGONG  / SINOMACH ( Bulldozer, Grader, Wheel Loader, Excavator)9. SDLG ( Bulldozer, Grader, Wheel Loader)10. SANY ( Excavator, Wheel loader, Crane etc)11. YUTONG ( Bulldozer, Grader, Wheel Loader, Vibratory Compactor, Tandem Vibratory Roller, Pneumatic Roller,12. LUTONG ( Tandem, Compactor)13. LUYANG ( Tandem, Compactor)14. FAW SHACMAN HOWO SANY DONGFENG CHENGLONG DFLZ ( Truck)15. WEICHAI ( Engine for Marine and Industrial )16. YUCHAI ( Engine for Marine and Industrial )17. HYUNDAI ( Hydraulic Excavator, Mini Excavator, Skid Steer Loader, Wheel Loader)18. DOOSAN ( Hydraulic Excavator, Mini Excavator, Skid Steer Loader, Wheel Loader)19. VOLVO ( Hydraulic Excavator, Mini Excavator, Skid Steer Loader, Wheel Loader)20. GENSET PARTS ( CUMMINS PERKINS MITSHUBISHI MAN DEUTZ CATERPILLAR YANMAR VOLVOProduk Utama :1. Jual Baterai / Aki / Batteray Traction Untuk Forklift Electric2. Jual Sparepart Alat Berat LIUGONG, LONKING, XCMG, XGMA, SDLG ,HYUNDAI, CATERPILAR, HITACHI  ( WHEEL LOADER, EXCAVATOR, MOTOR GLADER, VIBRO, BULLDOZER, CATERPILAR).   3. Jual Engine Parts : Weichai, Yuchai, Perkins, Cummins, Mitsubishi, Isuzu, Cummins,Toyota dll4. Jual spareparts forklift , Forklift Sparepart : TCM, Mitsubishi, Toyota, Nichiyu Forklift dll5. Jual spare parts Genset , Sparepart: shinchai, shangchai, shanghai, Weichai, Cummins, Perkins, , caterpilar , Marine DLL./Attachment :1. FORK2. Extention FORKS, Sepatu FORK3. Bale Clamp, Paper Roll Clamp dllJual Aneka  ATTACHMENT :Type Baterai Traction, Ban / Tire / Tyre, Forks / Garpu forklift dan sarung fork, Bale Clamp & Attachment , Chain Lift lainnya.MENYEDIAKAN Jasa Perbaikan :- Overhaul Engine / Transmisi / General Overhaul Unit- Kontrak Maintenance / Kontrak Service - Repair alat berat  - Perbaikan forklift- Perbaikan Excavator- Perbaikan whell loader - Perbaikan Alat berat , dllCV. DUTA KHANSA sebagai perusahaan yang bergerak dibidang pengadaan barang dan jasa, kami menyediakan solusi  bisnis  inovatif  kepada perusahaan yang ingin menjadi mitra kami yang mana kami selalu mengutamakan mutu serta kepercayaan demi kelangsungan  bisnis yang harmonis dan berkelanjutan.Contact Us :Mobile      : 085285628186  Whatsapp : 085285628186      fax   Only : 021 7324196  ( only fax .  call before/ after  fax done )Email       : by Whatsap
PERWAKILAN  :
1. Pekalongan Wiradesa.  Smarang  Jawa Tengah
    Contact : HP/WA   081548065555./ 085285628186
2. Kota Bandung  Jawa Barat
    Contack  : HP/WA  081220096566.
HUBUNGI   PERWAKILAN KAMI TERDEKAT. ","
              Head Office :Jl.Dr Cipto Mangunkusumo no.37 Paninggilan Utara Ciledug TANGERANG. Fax ( Only ) : 021 7324196  HP / WA : 085285628186  Warehouse:Jl. Raya Taman Sari,  Asem Reges  Lantai 2  AKS: 52   JAKARTA.   Fax  ( Only ) : 021 7324196 HP / WA :   085285628186Perwakilan  :1. Pekalongan Wiradesa.  Jawa Tengah    Contact : HP/WA   081548065555. 0852856281862. Kota Bandung  Jawa Barat    Contack  : HP/WA  081220096566.HUBUNGI   PERWAKILAN KAMI TERDEKAT.              ","JAKARTA  & TANGERANG 085285628186, Cabang : BANDUNG (081220096566)  & PEKALONGAN (081548065555.) JATENG",DKI Jakarta,085285628186,None,None
Central_ Alat_ Berat,"
                                    PREMIUM GOLD
                                ",Perlengkapan Alat Berat,"
              Kami CV. AZTEKINDO MANDIRI Sebagai Central Alat Berat yang bergerak dibidang penjualan alat-alat berat dan Spare Parts alat berat Meliputi mesin construction dan Mesin2 untuk Kebutuhan Industri Dan Kami Menjual segala macam Ragam SPARE PARTS untuk mesin konstruksi merk China dan korea :1. ASPHALT MIXING PLANT Cap. 40-60 TPH, 60-80 TPH, 66-96 TPH, 150 TPH etc.2. STONE CRUSHER PLANT CAP. 30-40 TPH, 40-60 TPH, 60-80 TPH, 90-100 TPH etc.3. CONCRETE BATCHING PLANT CAP. 30 M3 PER HOUR, 60 M3 PER HOUR, 100 M3 PER HOUR etc.4. XGMA ( Bulldozer, Motor Grader, Wheel Loader, Vibratory Compactor, Tandem Vibratory Roller, Pneumatic Roller, Forklift)5. XCMG ( Bulldozer, Motor Grader, Wheel Loader, Vibratory Compactor, Tandem Vibratory Roller, Pneumatic Roller, Forklift)6. LIUGONG ( Bulldozer, Grader, Wheel Loader, Vibratory Compactor, Tandem Vibratory Roller, Pneumatic Roller, Forklift)7. LONKING( Bulldozer, Grader, Wheel Loader, Vibratory Compactor, Tandem Vibratory Roller, Pneumatic Roller, Forklift)8. CHANGLIN ( Bulldozer, Grader, Wheel Loader, Vibratory Compactor, Tandem Vibratory Roller, Pneumatic Roller)9. SHANTUI ( Bulldozer, Grader, Wheel Loader, Excavator)10. CHENGONG ( Hydraulic Excavator, Mini Excavator, Skid Steer Loader, Wheel Loader)11. ZOOMLION ( Bulldozer, Grader, Wheel Loader, Excavator)12. TIANGONG ( Bulldozer, Grader, Wheel Loader, Excavator)13. SDLG ( Bulldozer, Grader, Wheel Loader)14. SANY ( Excavator, Wheel loader, Crane etc)15. YUTONG ( Bulldozer, Grader, Wheel Loader, Vibratory Compactor, Tandem Vibratory Roller, Pneumatic Roller,16. LUTONG ( Tandem, Compactor)17. LUYANG ( Tandem, Compactor)18. FAW SHACMAN HOWO SANY DONGFENG CHENGLONG DFLZ ( Truck)19. WEICHAI ( Engine for Marine and Industrial )20. YUCHAI ( Engine for Marine and Industrial )21. HYUNDAI ( Hydraulic Excavator, Mini Excavator, Skid Steer Loader, Wheel Loader)22. DOOSAN ( Hydraulic Excavator, Mini Excavator, Skid Steer Loader, Wheel Loader)23. VOLVO ( Hydraulic Excavator, Mini Excavator, Skid Steer Loader, Wheel Loader)24. GENSET PARTS ( CUMMINS PERKINS MITSHUBISHI MAN DEUTZ CATERPILLAR YANMAR VOLVO)25. All Parts of Machinery Industry ( Pump, Motor, Generator Set, Conveyor, Bearings, Hydraulic and Pneumatic Tools)26. CONVEYOR BELT STAR INDIA, BELTRAM KOREA, PIX, CONTINENTAL etc27. AIRMAN COMPRESSOR PDS 185 , PDS175, PDS 265S, PDS 39OS, PDS 655, PDS 750, PDSF140 etc28. SPARE PARTS KOMATSU CATERPILLAR KOBELKO HITACHI DSB29. JINLING EXCAVATOR PARTSKeunggulan dari produk-produk diatas menggunakan komponen utama yang sudah banyak di pasaran sehingga memudahkan untuk pencarian Spare Parts, seperti;- Engine CUMMINS ( HYUNDAI, XGMA), MITSUBISHI ( HYUNDAI), YUCHAI ( XGMA XCMG, LIUGONG, CHANGLIN, SDLG) ETC- Main pump KAWASAKI ( HYUNDAI), GRUNDFOS & REXROTRH ( XGMA)- Travel Motor KAYABA ( HYUNDAI), Transmission ZF ( XGMA)Demikianlah informasi ini semoga dapat menjadi bahan pertimbangan Bapak dalam menentukan pembelianSpare parts alat-alat berat. Dan kami dengan senang hati sekali akan membantu anda apabila ada kebutuhan mengenai produk diatas ke nomor telepon kami di +6282123338987 atau +6281513177298 atau chek disitus kami WWW.AZTEKINDO.COM ","
              Pasar Asem Reges Lantai 2 ALO 2 AKS No.111-113            ",Jakarta Barat,DKI Jakarta,+62 815-1317-7298,None,None
BENGKEL BUBUT LESTARI,"
                                    PREMIUM GOLD
                                ",Perlengkapan Alat Berat,"
              Salam kenal dan salam sukses,perkenalkan perusahaan kami BENGKEL BUBUT LESTARI. Kami berdiri sejak 1998 di jl.H.Juhri.Rt010.Rw.04.No 28 B. Meruya selatan. Kembangan. Jakarta Barat. Ber awal dari menangani tehnik perbaikan, produksi,fabrikasi alat alat tehnik di antaranya korter,slyp kruk as ,sitting valve,lemboring knoken shaft terus berkembang hingga pengecoran logam,produksi hydrand pillar,pembuatan adjustable bekisting untuk pengecoran landas pacu bandara di timika papua. Kami terus mengembangkan tehnik tehnik di segala bidang dan mumpuni dalam meracik logam hingga dapat membuat spare part yang berkualitas tinggi.       Seiring perkembangan dan permintaan akan dukungan pekerjaan bubut maka kami sampai pada pekerjaan pekerjaan pada sektor alat alat konstruksi. Di sinilah kami menemukan tantangan yang kami anggap mewakili jiwa kami yang sangat dinamis dan berkomitmen. Adapun selana kami menangani alat alat konstruksi kami sudah banyak menangani banyak hal, di antaranya adalah pembuatan spare part Tower crane, passanger hoist,bar cutter,bar bender,vibrator,anchor hingga pembuatan bucket cor.       Dalam urusan bekerja sama kami juga telah banyak menjalin kerja sama dengan perusahaan perusahaan beken semisal Pt Takenaka indonesia, Pt Wijaya Kusuma Contractors, Pt Catur Bangun Mandiri, Pt PP Taisei, Pt Jaya Konstruksi dll hingga sub kontraktor lainya.Untuk itu kami sangat berkomitment pada bidang ini hingga kami saat ini sudah mengembangkan diri pafa sektor sewa,servis,jual dan beli alat alat konstruksi di antaranya: BAR CUTTER. BAR BENDER. CONCRETE VIBRATOR. BUCKET COR. GENSET. COMPRESSOR. ,dll       Untuk informasi lebih lanjut hubungi Nardi.WA : 081311082146LINE : 087883636105BB : 57BC4DF2Email : cutbenrent17@gmail.comBLOG : bubutlestari.blogspot.co.id            ","
              Jl.H.Juhri.Rt 010. Rw 04. No 29 B. Meruya selatan. Kembangan. Jakarta barat            ",DKI Jakarta,DKI Jakarta,+62 813-1108-2146,None,None
PT.RODA MAS ABADI,"
                                    PREMIUM GOLD
                                ",Perlengkapan Alat Berat,"
WELCOME TO PT. RODA MAS ABADI    
PT. Roda Mas Abadi adalah Perusahaan Terkemuka di Indonesia dan juga Sebagai Perusahaan  Distributor, Importir dan Agen yang Menjual dan Penyedia segala kebutuhan Komponen Alat dan System Pembangkit Listrik Tenaga Surya. Dan perusahaan kami juga berpengalaman dalam Pembangkit Listrik Tenaga Surya System On Grid, Hybrid, On Grid, Solar Home System. Pembangkit Listrik Tenaga Surya ini dapat di pasang di CCTV, SPBU, Rumah, Industri, Pergudangan, Pabrik, Rumah Sakit, Kantor, Bandara, Pelabuhan, Pertanian, Perkebunan, Kapal, Penambangan, Base Camp, Tambak, Perikanan, Hotel, Pondok Resort, Cold Storage, Telekomunikasi dan di daerah terpencil yang tidak atau belum terjangkau Listrik. 
Dengan di dukung karyawan yang ahli di bidangnya, perusahaan kami dapat melaksanakan Survey, Supply, Design, Perencanaan, Perancangan, Perawatan, Supervisi, Komisioning, Konsultan, serta Pelaksana Instalasi di Lokasi. 
Perusahaan kami juga menjual berbagai Produk Energi  Baru Terbarukan seperti: Solar Cell, Lampu Led, Inverter, Solar Charge Controller, Battrey, Tiang Pju, Box Panel, Panel, juga Penerangan Jalan Umum Tenaga Surya  dengan harga yang sangat kompetitif dan di sertai layanan purna jual di setiap produk yang kami tawarkan karena produk yang kami tawarkan memiliki kualitas tinggi dan terbaik serta sudah di kenal dan di pakai di Indonesia.
Berikut ini adalah produk utama kami: 
SMA: ( Solar Inverter On Grid, Hybrid, Off Grid ) 
EASUN: ( Solar Inverter On Grid, Hybrid, Off Grid )SWT Power ( Solar Inverter Capable Of Starting Electric Motor, Solar Inverter Off Grid, On Grid, Hybrid )Voltronic Power ( Solar Inverter On Grid, Hybrid, Off Grid )  
SOFAR: ( Solar Inverter On Grid, Hybrid, Off Grid )   
MUST ENERGY: ( Solar Inverter On Grid, Hybrid, Off Grid)   
HELUKABEL: ( Cable For Photovoltaic System ) 
SIMAX: ( Solar Panel ) 
SUNNYWAY: ( Battery Gel, Battrey Tubular Gel OPZV )   
HANDPACK: ( Battrey Lithium LiFeP04 ) 
MTC: ( Battrey Gel ) 
HXXY: ( Led Solar Street Light, All in One ) 
SUNWAY: ( Led Lighting ) 
CHENFEC:  ( Led Lighting, Solar Street Light Two In One ) 
TERLED: ( Solar Led Lighting, Solar Street Light All In One, Two In One ) 
L&S: ( Led Lighting ) 
ENELTEC: ( Led Lighting, Led Expolsion Proof )
SRNE:  ( Solar Controller, PWM, MPPT )
EP SOLAR:  ( Solar Controller, PWM, MPPT )
POWER REMOTE: ( Solar Controller, PWM, MPPT ) 
RMA ( Box Panel, Box Battrey, Panel MDP, Panel PV, Panel DC. Panel Battrey, Panel ATS, Panel Combiner ) 
RMA ( Street Lighting Pole ) RMA ( Solar Home Systems )  
Selain Menjual Produk Energi Terbarukan, kami juga Menjual Produk dibawah ini:
CPS: ( Chain Cable )
REELCRAFT: ( Cable Reels ) 
REELTEC: ( Cable Reels )   
Jika Anda Mencari Distributor Dan Agen Produk PLTS ( Pembangkit Listrik Tenaga Surya ) yang berkualitas, Kamilah solusinya karena kami menyediakan solusi kebutuhan Energi baru terbarukan khususnya Pembangkit Listrik Tenaga Surya & Produk Lampu Led  Tenaga Surya, Hal ini karena: 
Kami Ahli dan Profesional: Kami memberikan pelayanan yang terbaik, Ahli dan berpengalaman di bidangnya. Kualitas Produk yang terbaik dan Jaminan Garansi: Kami  slalu memberikan produk yang berkualitas tinggi dan terbaik serta memberikan garansi system kepada customer kami karena kepuasan customer adalah segalanya Harga yang Kompetitif: Harga yang kami tawarkan harga yang sangat kompetitif, dan kami memberikan pelayanan setelah pembelian ( After Sales Service) terhadap produk yang kami tawarkan kepada customer yang sangat puas  dengan mengunakan produk kami 
 
Moto Perusahan Kami: ‚Äú Kami Bukan Yang Pertama, Tapi Kami yang Terbaik‚Äù 
 
Silahkan Kunjungi website kami  di : http://www.rodamasabadi.com / http://www.rma.co.id
 
Untuk Informasi Mengenai Produk, Harga, Stok Dan Pemesanan Produk Terkait Produk PLTS dan Produk Lampu Led dapat menghubungi kami di: 
 
PT. Roda Mas Abadi
Komp. Mutiara Taman Palem Blok C-19/91 Cengkareng Timur‚Äì Jakarta Barat 11730 
Tel: 021 -  5435 6017 
Fax         : 021 -  5435 6018 
Email      : rm_abadi@cbn.net.id 
Contact Person: 
Mr. Asan : 0812-8032-9193 
Mr. Awan: 0812-8513-2531              
  ","
              Komp. Ruko Mutiara Taman Palem Blok C19 No.91 Cengkareng Timur            ",Jakarta Barat,DKI Jakarta,+62 812-8032-9193,+62 812-8513-2531,None
BEJO REJO BANGKIT JAYA,"
                                    PREMIUM GOLD
                                ",Perlengkapan Alat Berat,"
              PT. BEJO REJO BANGKIT JAYA merupakan Perusahaan Jual / Beli / Sewa Concrete Pump, alat berat, heavy equipment di Jakarta - Indonesia. CONCRETE PUMP / POMPA BETON : disini kami untuk concrete pump menyediakan berbagai macam tipe sesuai kebutuhan anda, ada concrete pump mini, concrete pump standa ( 18 meter ) concrete pump long boom ( 26 meter ) , concrete pump super long boom ( 32 - 37 meter) dan juga ada concrete pump portable atau biasa di sebut pompa kodok/ stationary, pompa portable sendiri kegunaanya untuik pengecoran dengan ketinggian dan jarak yang sudah tidak bisa di lakukan oleh concrete pump mobile. Sewa Concrete Pump Jual Concrete Pump Beli Concrete Pump Rental Concrete Pump Jasa Concrete Pump Sewa Heavy Equipment Jual Heavy Equipment Beli Heavy Equipment Rental Heavy Equipment Heavy Equipment Rental Pump Jasa Heavy EquipmentUntuk informasi lebih lanjut silahkan hubungi : Bpk. Hermanto / Bpk Darma Hp : 08129107773 Hp : 0818124645            ","
              DAAN MOGOT KM.17- NO. 38 (KALIDERES)            ",JAKARTA BARAT,DKI Jakarta,+62 818-124-645,None,None
PT.NUSANTARA SENTRAL TEKNOTAMA,"
                                    PREMIUM GOLD
                                ",Perlengkapan Alat Berat,"
Jual : Undercarriage, Sparepart Alat Berat , Sparepart Truck , Sparepart Forklift ,Sparepart Genset  Di Jakarta. 
Jual Spare part Alat Berat Komatsu , Caterpillar , Kobelco , Hitachi , Hyundai , Volvo
Excavator PC40 , PC45 , PC50 , PC75 , PC130F-7 , PC200-5 , PC200-6 , PC200 -7 , PC200-8 ,PC200-8MO ,PC300-6 ,PC300-7 , PC300-8 , PC400-7 , PC400-8 , CAT320 , CAT320B , CAT320C , CAT320D , CAT320D-2 ,ZX48 , ZX110 , ZX210F , ZX200-5G , ZX330 , EX200-3 , EX200-5 , SK200-6 , SK200-8 , SK330-8 , SK480LC-8 , R210-7 , R210-9 , R220-7 , R220-9 , SH130 , SH210 , EC210.
Dozer D85ESS-2,D65ESS-2,D65PX-8,D31P-20,D6D,D6G,D3C,D4K,D6R,D7G,D5R.
Motor Grader GD510A-1, GD511A-1, GD405, CAT 120K, CAT 140H.
Wheel Loader WA100-6 , WA150-5 , WA200 , WA300, WA400-8, WA500.Jual Spare part ForkliftForklift Komatsu , Forklift Caterpillar , Forklift TCM , Forklift Toyota , Forklift Mitsubishi , Forklift Nissan.Jual Spare part GensetGenset Perkin , Genset Yanmar , Genset Cummin , Genset Firman , Genset Dongfeng , Genset Kubota.www.spareparthitachinst.comwww.sparepartKomatsunst.comwww.sparepartCaterpillarnst.comwww.sparepartKobelconst.comwww.sparepartHyundainst.comwww.sparepartsumitomonst.comwww.sparepartvolvonst.comwww.agensparepartnst.comwww.sparepartalatberatnst.comwww.jualsparepart.co.id ","
              Jalan Karang Anyer Raya Komplek ruko 55 Blok. B1 No.32            ",Jakarta Pusat,DKI Jakarta,+62 812-9888-8228,None,None
BERKAT PARTINDO ABADI,"
                                    PREMIUM GOLD
                                ",Perlengkapan Alat Berat,"
Berkat Partindo Abadi adalah perusahaan yang berbegerak dalam bidang penjualan Ban Alat Berat dan Velg Alat Berat untuk Dump Truck, Mobile Crane, Forklift, Loader, Traktor, Grader, Backhoe, Compactor, Road Roller, Vibro, Tandem, Wheel Dozer, Skidder, Reach Stacker, Straddle Carrier, Gantry Gate, Harvester, Finisher, Paver, Skidder, Bob Cat, dan Alat Berat lainnya.
Berkat Partindo Abadi memberikan hanya pelayanan yang terbaik, produk unggulan tepat guna, dan harga yang kompetitif kepada setiap pelanggan dan mitra kerjanya. Silahkan Hubungi Kami : CV. Berkat Partindo Abadi Sales 1 : 0858 88 20 22 66 .Sales 2 : 0858 33 66 88 99 .Fax : 021 - 2960 8397 ( Fax) .Email : info@berkatpartindoabadi.com .Website : https://berkatpartindoabadi.com . ","
              CV. Berkat Partindo Abadi - MGK Kemayoran - Lantai UG - Blok A18 / 7 - Jl. Angkasa Kav. B6 - Kemayoran - Jakarta Pusat            ",Jakarta Pusat,DKI Jakarta,+62 858-3366-8899,None,None
Indo Autozone,"
                                    PREMIUM GOLD
                                ",Perlengkapan Alat Berat,"
Indo Autozone merupakan perusahaan distributor yang bergerak dalam penjualan ban alat berat seperti ban forklift, ban loader, ban grader, ban traktor, ban vibro, ban crane, ban reach stacker, ban dump truck, ban telehandler, dan sebagainya. Juga tersedia velg untuk unit alat berat yang telah disebutkan sebelumnya seperti velg loader, velg forklift, velg vibro, velg grader, dan lain lain. Kami terus berkomitmen untuk menjadi mitra terbaik dalam penyediaan ban alat berat diberbagai sektor di Indonesia, meliputi industri, konstruksi, pertambangan, perkebunan, pelabuhan, bandar udara, produksi, pergudangan, dan sebagainya. Kami bertekad untuk menjadi solusi terdepan untuk kebutuhan kendaraan industrial dan alat berat Anda. Didukung oleh tim teknis yang handal, kompeten dan profesional, kami juga menyediakan layanan service untuk forklift, mulai dari perawatan rutin sampai perbaikan yang memerlukan keahlian khusus seperti overhaul (turun mesin) dan perbaikan transmisi. Selain itu, kami juga menyediakan jasa penyewaan atau rental forklift harian maupun kontrak, dari kapasitas 2 ton sampai 25 ton. Sejak berdirinya Indo Autozone di tahun 2012, kami memiliki portfolio client yang tersebar merata di berbagai wilayah Indonesia, mulai dari Sumatera, Jawa, Sulawesi, Kalimantan bahkan Papua. Ini merupakan bukti kepercayaan pelanggan terhadap kami dan tentunya totalitas komitmen Indo Autozone untuk kepuasan Anda. Indo Autozone Alamat: Jalan Hibrida Raya Blok PE 10 No. 27, Kelapa Gading Permai, 14250, Jakarta Utara, Indonesia Telp: (62) ( 021) 4584 7292 Fax: (62) ( 021) 4584 2094 HP (1): +62 851 0058 5553 HP (2): +62 877 8805 5651   Business Hours Senin - Jumat : 08.00 ‚Äì 17.00 Sabtu : 08.00 ‚Äì 14.00 Minggu dan Hari Libur TutupWebsitewww.indoautozone.co.idwww.banforklift.idMedia Sosialwww.facebook.com/indo.autozone.jakartaInstagram: indo.autozone.jakarta ","
              Jln. Hibrida Raya Blok PE 10 No. 27, Kelapa Gading Permai, Jakarta Utara            ",Jakarta Utara,DKI Jakarta,+62 877-8805-5651,None,None
PT TEKKINDO CENTRA DAYA,"
                                    PREMIUM GOLD
                                ",Perlengkapan Alat Berat,"
PT. Tekkindo Centra Daya is a leading distributor and supplier of Industrial products in Indonesia.
We supply our customers with high-quality industrial machinery and support them with full technical support.
We strive to help our customers to build sustainable businesses by providing industrial solutions hassle-free.If problems arise, we will come with a solution.
This simple proposition has helped us to grow from distributor of one product serving one city into what Tekkindo is today- importer, distributor and engineering company sourcing from five countries to serve more than a thousand customers throughout Indonesia.
For Your information please call : 
Call : - 02122544488
- 02122544666
- 02158906938

- 02158906939
WA :
- 087784337755
Email :  
- selvia@tekkindo.com 
 ","
              PT TEKKINDO CENTRA DAYARukan Aries Niaga Blok A1 No. 2A-2BMeruya Utara, Jakarta Barat            ",Jakarta Barat,DKI Jakarta,+62 877-8433-7755,None,None
PT. TOTAL ABADI SOLUSINDO ( Authorized Distributor & General Contractor ),"
                                    PREMIUM GOLD
                                ",Perlengkapan Alat Berat,"
              PT. Total Abadi Solusindo adalah Perusahaan yang bergerak di bidang Industrial Automation System & Electrical Component, instruments juga Controls. Perusahaan kami mampu memenuhi semua kebutuhan Industri baik dalam segi penjualan maupun pelayanan.SUPPORT BRAND & ALL MANUFACTURE:AC INVERTER DRIVES : YASKAWA ALLEN BRADLEY ABB MITSUBISHI SIEMENS OMRON SCHNEIDER HITACHI TOSHIBA LS/ LG HYUNDAI PANASONIC SUMITOMO FUJI ELECTRIC LENZE EMERSON FISHER DELTA DANFOSS SANYO DENKI TECO VACON BOSCH REXROTH BALDOR WELGEN SUNFAR XANTREX PLASMA VICTRON MECHRON ERGUS GENIUS WELDMAN INVERTEK SMA LAMA RCHE TEK-DRIVE TAIYO SOLARMAX TELEMECANIQUE THERMAL ARC BRECON WEG ORIENTAL VEXTA NISSEI NORD SANTERNO PARKER SSD IMO, DLLPLC ( Programmable Logic Controllers ) :MITSUBISHI OMRON ABB ALLEN BRADLEY SIEMENS IDEC SCHNEIDER KOYO KEYENCE HITECH HITACHI FOXBORO FATEK LS/ LG DELTA NAIS GEFRAN FINDER GE FANUC NATIONAL YOKOGAWA PANASONIC MATSUSHITA UNITRONICS FUJI ELECTRIC TELEMECANIQUE AKIRA HAMILTON MONITOR / HMI ( Human Machine Interface ) : PROFACE WEINTEK HITECH HAKKO KINCO WECON ALLEN BRADLEY MITSUBISHI OMRON SCHNEIDER SIEMENS HITACHI YASKAWA ABB GE FANUC DELTA M2i BEIJER PEPPERL+ FUCHS EATON CIMON UNITRONICS TEMPERATURECONTROLLER : AZBIL YAMATAKE OMRON IFM RKC FOX E+ E REX TOHO TOKY FUJI ELECTRIC TEDEA-HUNTLEIGHT DANFOSS HAYASHI GENERAL INSTRUMENT SANWOH IDEC TOKY NAIS KOYO SEIKI SUMTAK HEIDENHAIN OMRON KUBLER HENGSTLER IKA WEST LS MECAPION TOK FUTEK MAHR ELCIS TURCK BAUMER ELTRA BALLUFF HOHNER EMETA JDA BEI TEKEL FOTEK DYNAPAR RAYTEC NORTHSTAR SICK EDWARDS STEGMANN DA NAHERPRESSURE & FLOWMETER : FUJI ELECTRIC DWYER KROM FLOMEC TURB O ABB NAGANO MARSH A NCHOR BAUMER FISHER NORGREN ASCHROFT OPTEX FA DANFOSS REXPOWER SUGINO ASAHI OSAKA JOHNSON AIGO MAGNETROL YTC PEACOCK VEGA BAR WATER METER & TESTER : HANNA WATERFLO BBE B GBX YUKO ASAHI ITRON FUZHOU TECLOCK DELTA TOYO SEIKITACHOMETERS :ONO-SOKKI LINE SEIKI HENGSTLER WEST SHIMPO FEMA LUTRON AVTRON KURAMOTO KADOGUCHI SANWA PROV A/ TES RHEINTACHO DYNALCO SANPOMETER PNEUMATIC-HYDRAULICS-PUMPS-VALVE : SMC SUNTES KOGANEI NOP ( NIPPON OIL PUMP ) TERAL TOYOOKI YTC TACO HITACHI KONAN CHANTO FESTO PISCO ROTORK NORGREN NEW ERA NOK F-TEC AURORA PARKER/ KURODA ASCO ROSS DUNGS JUFAN DELTRON HINAKA NITTO KOYO CR YPC TPC C & C VESTA VERSA WABCO SANKO WATTS AIRTEC HAFNER NIHON SPINDLE MAC HERION YPL BIFOLD KANEKO KEIHIN HONEYWELL TOHO TOYO ULVAC ASAHI BANJO ARGUS FABCO ISUKA MAXON ROTEX SHOWA HIROSE YAMATO JOHNSON THOMPSON KEB SANYO PLANOXPOWER SUPPLY AC-DC CONVERTER :MEANWELL COSEL FINE SUNTRONIX SANYO DENKI OMRON ALLEN BRADLEY SIEMENS TDK-LAMBDA NEMIC LAMBDA ETA RAFFLES KIKUSUI LAMARCHE TAPE DISPENSER : ELM YAESU STROBOSCOPE : SHIMPO POKAI MONARCH INSTRUMENT FLUKE LANDTEK APEX MICROSCOPE : OLYMPUS MEIJI KYOWA LEICA INDUCTION MOTOR - SERVO MOTOR - GEAR MOTOR - AC-DC MOTOR & AIR MOTOR : TOSHIBA SIEMENS HITACHI MITSUBISHI YASKAWA LENZE SUMITOMO TSUBAKI YOKOGAW A ALLEN BRADLEY TAMAGAWA STEGMANN CEM SHANGYANG PANASONIC FUJI ELECTRIC ABB HONEYWELL FLENDER YASKOW TRAMEC DINA MIC TSUKASA BODINE SPG WEG KEB AEG TECO TOYO VDO DAEWO BENTLY NIDEC TAIYO GLOBEVIBRATOR MOTOR : URAS ADK QUANTUM ITAVIBRAS AVITEQ VIBTEC SIGN AL LIGHTS : PATLITE M-SYSTEM WATANABE AUTONICS SAFETY RELAY : PILZ IDEC IZUMI LEUZE RIKEN AB SIEMENS OMRON SCHNEIDER MITSUBISHI ABB SICK PHOENIX IFM EATON HENGSTLER PANASONICS FUCHS WENGLOR MURR FARNELL OKITA SUNGHO WILMAR TOKY TOKIN FUJITSU HON EYWELL NATIONAL TOYO SEIKI MATSUSHITA KRAUS & NAIMER FOTEK FINE SUNTRONIX GEMSGRINDING WHEEL : NORITAKE NRS KOYO FUJI MIURA MIWA ANCHOR MITSUI UNTER NORTON FAN ( Blower ) : SANYO DENKI ACE NMB TERAL FUJI TOYO YUMO ONISHU KDK NYB MZ SHAWA CHAMPION RAMFAN VISTAR JOUNING TOSHIBA HITACHI KOKI ECHO MITSUBISHI TAIYO/SAKURA NIDEC DELUXE DELTA NEU.Keuntungan dari Pelayanan Kami adalah sbb :- Harga yang kami tawarkan lebih bersaing.- Stock yang cukup lengkap.- Kualitas dan keaslian barang terjamin / Asli dan Brand New- Barang dapat kami kirim sesuai dengan tanggal kebutuhan- Untuk Barang yang membutuhkan import/ indent dari luar, kami memiliki waktu pengiriman lebih cepat.- Kemudahan dalam pembayaran.- Engineering yang handalUntuk Permintaan Penawaran Harga & Stock Silahkan Hubungi Team Sales kami Dibawah ini :Pemasaran :Yadi Mobile : + 62-81297691617Email : yadi@ totalabadisolusindo.co.idMulyadiMobile : + 621-80808849 Ext.208Email: mulyadi@totalabadisolusindo.co.idPT. TOTAL ABADI SOLUSINDOD'Arcade Blok A19 Business Center Jatinegara IndahJl. Dr. Krt Radjiman Widyoningrat, Cakung, Jakarta TimurEmail : info@ totalabadisolusindo.co.idEmail : sales@totalabadisolusindo.co.idWeb : www.totalabadisolusindo.com            ","
              D'Arcade Blok A19 Business Center Jatinegara IndahJl. Dr. Krt Radjiman Widyoningrat, Cakung, Jakarta Timur  ",Jakarta Timur,DKI Jakarta,+81 297-69-1617,None,None
CV.TUGU PERMATA,"
                                    PREMIUM GOLD
                                ",Perlengkapan Alat Berat,"
              CV.TUGU PERMATA adalah perusahaan yang bergerak di bidang penyediaan Alat Safety atau Perlengkapan Safety, antara lain : Safety Helmet, Safety Shoes, Hand Glove, Body Harness, Rubber Cone, Convex Mirror, Road Barrier, Safety Glasses, Earplug, APAR, Hand Metal Detector, DLL.Kami Juga Menyediakan ALat Kebersihan,Kawat Loket Dan Besi Rak Siku Lobang.            ","
              CV.TUGU PERMATAGedung Mega Glodok Kemayoran ( MGK ) Lantai GF Blok C5No.03Jl.Angkasa Kav B-6 Kemayoran,Jakarta Pusat.Telp : ( 021 ) 29070470 Email : tugupermata@yahoocoid""For Response : WA : 081384722205 / 081906808999""            ",Kemayoran Jakarta Pusat,DKI Jakarta,08138422205,None,None
PT SANY MAKMUR PERKASA - SANY JAKARTA,"
                                    PREMIUM GOLD
                                ",Perlengkapan Alat Berat,"
              JIMAC Group berdiri tanggal 23 Juli 2003 yang terletak di kawasan kota baru Kemayoran Jakarta Utara dan sekarang berganti nama menjadi PT SANY MAKMUR PERKASA dengan lokasi yang strategis serta akses yang sangat mudah dicapai baik dari Bandara Soekarno-Hatta dan juga dari pelabuhan Tanjung Priok yaitu di Jalan Peta Barat No 08 - Kalideres. PT SANY MAKMUR PERKASA saat ini merupakan Dealer alat berat merek SANY di Indonesia. Jenis alat berat yang kami ageni meliputi : a. Mobile Crane ( 25, 55, 75 ton ) b. Rough Terrain Crane ( 40, 60, 90 ton ) c. Truck Mixer d. Drum Mixer e. Truck Concrete Pump f. Stationery Concrete Pump g. Batching Plant "" STRIVING FOR EXCELLENCE"" adalah motto dari PT JIMAC PERKASA karena kami akan terus memberikan pelayanan purna jual yang berkualitas bagi pelanggan            ","
              Marketing OfficeJl. Peta Barat No 08. Pegadungan - KalideresJakarta Barat             ",Jakarta Barat,DKI Jakarta,+62 852-1680-9600,None,None
PT. Total Abadi Solusindo ( Authorized Distributor & General Contractor ),"
                                    PREMIUM GOLD
                                ",Perlengkapan Alat Berat,"
              PT. Total Abadi Solusindo adalah Perusahaan yang bergerak di bidang Industrial Automation System & Electrical Component, instruments juga Controls. Perusahaan kami mampu memenuhi semua kebutuhan Industri baik dalam segi penjualan maupun pelayanan. SUPPORT BRAND & ALL MANUFACTURE: AC INVERTER DRIVES : YASKAWA ALLEN BRADLEY ABB MITSUBISHI SIEMENS OMRON SCHNEIDER HITACHI TOSHIBA LS/ LG HYUNDAI PANASONIC SUMITOMO FUJI ELECTRIC LENZE EMERSON FISHER DELTA DANFOSS SANYO DENKI SUOER TECO VACON BOSCH REXROTH EATON KEB AKAO UNICO INVT EWM KACO QUICK CUTES SANKEN BALDOR WELGEN SUNFAR XANTREX PLASMA VICTRON MECHRON ERGUS GENIUS WELDMAN INVERTEK SMA LAMA RCHE TEK-DRIVE PROMAC MIYACHI NOVA ELECTRIC SEW WINNER TAIYO SOLARMAX TELEMECANIQUE THERMAL ARC BRECON WEG ORIENTAL VEXTA NISSEI NORD SANTERNO PARKER SSD IMO PLC ( Programmable Logic Controllers ) : MITSUBISHI OMRON ABB ALLEN BRADLEY SIEMENS IDEC SCHNEIDER KOYO KEYENCE HITECH HITACHI FOXBORO FATEK LS/ LG DELTA NAIS GEFRAN FINDER GE FANUC NATIONAL YOKOGAWA PANASONIC MATSUSHITA UNITRONICS FUJI ELECTRIC TELEMECANIQUE AKIRA HAMILTON MONITOR / HMI ( Human Machine Interface ) : PROFACE WEINTEK HITECH HAKKO KINCO WECON ALLEN BRADLEY MITSUBISHI OMRON SCHNEIDER SIEMENS HITACHI YASKAWA ABB GE FANUC DELTA M2i BEIJER PEPPERL+ FUCHS EATON CIMON FATEK MAPLE SYSTEM KRONO TECH XYCOM ADVANTECH PARKER WEINVIEW PANASONIC RS AUTOMATION - RS OEMAX AU OPTRONICS UNITRONICS TEMPERATURE CONTROLLER : AZBIL YAMATAKE OMRON IFM RKC EUROTHERM SHINKO SICK SIKA FOX E+ E REX TOHO TOKY FUJI ELECTRIC MURR EMKO BETA WEST OMEGA JUMO HYODA TURCK ETAC DELTA FOTEK SUNIL S IRCO SIGMA BAUMER FLUKE WATLOW YAMARI COMARK NAGANO GOSSEN FENWALL FUJITA FI NETEK BURKERT SINYEI AUTONICS SIEMENS MILTRONICS SHIMADEN KERONICS ASHCROFT HANYOUNG SHENG MA ROSEMOUNT HONEYWELL HENGSTLER DATASENSOR SAGINOMIYA SPIRAX SARCO SENSORTRONICS WIKA ENDRESS+ HAUSER SHINKO TECHNOS SANYO TEDEA-HUNTLEIGHT DANFOSS HAYASHI GENERAL INSTRUMENT SANWOH TAKAMISAWA TIPPKEMPER KROHNE WEICHI SENSOR & CONTROL : AZBIL YAMATAKE IFM SICK TURCK OPTEX TAKEX TAKENAKA SUNX GEMS SENSOR IDEC TOKY NAIS KOYO HONEYWELL KEYENCE WECO NAIS PARKER KONICS DATASEN SOR KFPS GEFRAN JOHNSON CONTROLS AUTONICS ANLY DANAHER CIKACHI MICROSWITCH WILLIAM CONTROLS SENSORTRONICS DOTECH TELCO SEEKA INFRA FOTEK LEUZE TOKYO SENSOR RIKEN BAUMER BINDER SENTEC FUTRON SUMTAK BANNER HOKUYO SUNGHO BALLUFF VISOLUX HANYOUNG UB SEIKI SCHUTER ROSEMOUNT AECO NGK DATALOGIC PULSOTRONICS ORION HEIDENHAIN MET ROL DENSO NATIONAL KANSAI WENGLOR OMEGA WATLOW TIPPKEMPER KOMORI FUTEK TELEM ECANIQUE ELTROTEC VIGOR HAMILTON PEPPERL+ FUCHS DATA HARVEST MICRO DETECTOR CONTRINEX TEDEA HUNTLEIGHT SINYEI E+ E ELEKTRONIK KROHNE SIEMENS SCHNEIDER ORION LEUZE ALLEN BRADLEY CARLO GAVAZZI OMRON FUJI ELECTRIC DATALOGIC ROTARY ENCODER & COUNTER : NIDEC NEMICON KOYO TAMAGAWA TAMAGAWA SEIKI SUMTAK HEIDENHAIN OMRON KUBLER HENGSTLER IKA WEST LS MECAPION TOK FUTEK MAHR REP VERTEX TAKEDA THOMAS DEUBLIN SAKURA HAYASHI KASH IYAMA FULLER SHOWA GIKEN DUF-NORTON FUJI SEIKI WILLIAM CONTROL MTL NSD PEPPERL+ FUCHS VISOLUX IFM HUBNER LIKA AVTRON ELCIS TURCK BAUMER ELTRA BALLUFF HOHNER EMETA JDA BEI TEKEL FOTEK DYNAPAR RAYTEC NORTHSTAR SICK EDWARDS STEGMANN DA NAHER PRESSURE & FLOWMETER : FUJI ELECTRIC DWYER KROM SCHRODER MARSH BELLOFRAM SHIMPO IMADA VDO ENERPAC POLYFLEX HERCULES KEM TOSHIBA FLOMEC TURB O ABB NAGANO FUTRON ROSEMOUNT KONICS VEGA GEMS SENSOR KOBOLD ENDRESS+ HAUSER HONEYWELL AB IFM JUMO WIKA SICK OMEGA SUNIL TURCK FUTEK HYODA MARSH A NCHOR BAUMER FISHER NORGREN ASCHROFT OPTEX FA DANFOSS REXPOWER YOSHITAKE HUNTLEIGHT KURTZ SAGINOMIYA SUGINO ASAHI OSAKA TAIYO-HERION TELEMECANIQUE PARKER FINETEK ADTEK EMA LUTRON NOSHOK ADTECH KE LLER K-TEK BARTON SIGNET SCHNEIDER TAKUWA KERONICS SIEMENS-MOORE PENN JOHNSON AIGO MAGNETROL YTC DITECH E+ E MILTRONICS NIPPON ELECTRIC BURKERT TOKICO NITTO TOKYO KEISO ELSTER CROWN NIAGARA KEM-KUEPPERS NUFLO VORTEK ULTRASONIC PEACOCK VEGA BAR WATER METER & TESTER : HANNA WATERFLO BBE B GBX YUKO ASAHI ITRON FUZHOU HORIBA AMICO BOSCO BMETE R TACO EUTECH SHINJU B' BRAND B-METERS KENT SCHLUMBERGER SAPPEL EESIFLO INVENSYS MEINECKE HELLIGE LA MOTTE AQUA METRO FLUKE CHAMPION SONY TREND HI-LO BAKER ASKER HIOKI FUJI SEIKI TOGOSHI ATTONIC TECLOCK DELTA TOYOSEIKI TACHOMETERS : ONO-SOKKI LINE SEIKI HENGSTLER WEST SHIMPO FEMA LUTRON AVTRON KURAMOTO KADOGUCHI SANWA PROV A/ TES RHEINTACHO DYNALCO SANPOMETER PNEUMATIC-HYDRAULICS-PUMPS-VALVE : SMC SUNTES KOGANEI NOP ( NIPPON OIL PUMP ) TERAL TAIYO CKD DAIKIN YUKEN AIRTAC TOYOOKI YTC TACO HITACHI KONAN CHANTO FESTO PISCO ROTORK NORGREN NEW ERA NOK F-TEC AURORA PARKER/ KURODA ASCO ROSS DUNGS JUFAN DELTRON HINAKA NITTO KOYO CR YPC TPC C & C VESTA VERSA WABCO SANKO WATTS AIRTEC HAFNER CONVUM MINDMAN HERCULES SUMITO MO FUJIKURA HUMPHREY NUMATICS UB SEIKI JOUCOMATIC NIHON SEIKI FUJI SEIKI REXROTH EATON NACHI BOSCH RIKEN OGURA BALDOR KAYABA ENERPAC TOKIMEC HO RIUCHI NIHON SPINDLE MAC HERION YPL BIFOLD KANEKO KEIHIN HONEYWELL TOHO TOYO ULVAC ASAHI BANJO ARGUS FABCO ISUKA MAXON ROTEX SHOWA HIROSE YAMATO JOHNSON THOMPSON WEC O SAMSON PASCAL KOSMEK SPIRAX SARCO BODIN EBARA HONDA MARCH KOKEN HANIL SANWA VOGEL ORION FINDER TERADA UC HIDA STUART WILDEN YANMAR ZENITH KOMATSU MITSUBA DAISHIN MONOFLO SIEMENS SUN TEC EBARA POWER CLUTCH & BRAKE : OGURA OSAKI DENYOSHA SHINPONIA SUNTES TSUBAKI MIKI PULLEY MITSUBISHI EATON YASKAWA REXROTH NIIKA TRANTEX MATRIX LENZE NEKEN AIR CHAMP WARNER AIRFLEX CAMCO STROMAG KEB SANYO PLANOX POWER SUPPLY AC-DC CONVERTER : MEANWELL COSEL FINE SUNTRONIX SANYO DENKI OMRON ALLEN BRADLEY SIEMENS TDK-LAMBDA NEMIC LAMBDA IDEC IDEC IZUMI MURR SANKI UNIPOWER METRONIX SANKEN ETA RAFFLES KIKUSUI POWER-ONE PULS EMERSON AEC ARTESYN GOSSEN YAMADA XP FUJI ELECTRIC ITOH LA MARCHE TAPE DISPENSER : ELM YAESU STROBOSCOPE : SHIMPO POKAI MONARCH INSTRUMENT FLUKE LANDTEK APEX MICROSCOPE : OLYMPUS MEIJI KYOWA LEICA INDUCTION MOTOR - SERVO MOTOR - GEAR MOTOR - AC-DC MOTOR & AIR MOTOR : TOSHIBA SIEMENS HITACHI MITSUBISHI YASKAWA LENZE SUMITOMO TSUBAKI YOKOGAW A ALLEN BRADLEY TAMAGAWA STEGMANN CEM SHANGYANG PANASONIC FUJI ELECTRIC ABB HONEYWELL SHINANO ORIENTAL BARCOL-AIR TMEIC SKK SIGMA SEW GTR B ALDOR SNT TVT HORZ BAUER NISSEI SITI XAJONG BISON FLENDER YASKOW TRAMEC DINA MIC TSUKASA BODINE SPG WEG KEB AEG TECO TOYO VDO DAEWO BENTLY ENERPAC GAST H AMILTON RELIANCE FENNER MIKI PULLY SAWAMURA VEXTA HIGEN RORZE ELECTROL SHINKO BAUMULLER ELCO LS MARATHON BOSCH TELEMECANIQUE METRONIX NIDEC TAIYO GLOBE VIBRATOR MOTOR : URAS ADK QUANTUM ITAVIBRAS AVITEQ YASKAWA AEG TRM TORCH VIMEC VIBTEC SIG NAL LIGHTS : PATLITE M-SYSTEM WATANABE AUTONICS HANYOUNG ARROW SHINHO ADTECH SAFETY RELAY : PILZ IDEC IZUMI LEUZE RIKEN AB SIEMENS OMRON SCHNEIDER MITSUBISHI ABB SICK PHOENIX IFM EATON CROUZET EUCHNER HENGSTLER RS COMPONENTS KEYENCEE ALTECH MAUSER PANASONICS WEIDMULLER HONGFA PEPPERL+ FUCHS WENGLOR MURR FARNELL FINDER HITECH MTL INSTRUMENT ZIPPSWITCH FESTO GE CARLO GAVAZZI TAKEX LS FUJI OLGEN SANYU OKITA SUNGHO WILMAR TOKY TOKIN FUJITSU HON EYWELL NATIONAL TOYO SEIKI MATSUSHITA KRAUS & NAIMER FOTEK FINE SUNTRONIX GEMS GRINDING WHEEL : NORITAKE NRS KOYO FUJI MIURA MIWA ANCHOR MITSUI UNTER NORTON Keuntungan dari Pelayanan Kami adalah sbb : - Harga yang kami tawarkan lebih bersaing. - Stock yang cukup lengkap. - Kualitas dan keaslian barang terjamin / Asli dan Brand New - Barang dapat kami kirim sesuai dengan tanggal kebutuhan - Untuk Barang yang membutuhkan import/ indent dari luar, kami memiliki waktu pengiriman lebih cepat. - Kemudahan dalam pembayaran. - Engineering yang handal Untuk Permintaan Penawaran Harga & Stock Silahkan Hubungi Team' S Sales kami Dibawah ini : 
Marketing :1. Yadi. Mobile : + 62-81297691617
Phone : 021 ‚Äì 80808849 Ext.208
2. Ahmad Sudarman.
Mobile : + 62-81282819147
Phone : 021 ‚Äì 80808849 Ext.209PT. TOTAL ABADI SOLUSINDO
Authorized Distributor & Energy Management ContractorJl.Dr.Krt Radjiman Widyodiningrat Ruko D'Arcade Blok A19D‚ÄôMansion Jatinegara Indah Central Bussiness Park, Pulo Jahe, Cakung , Jakarta Timur 13930Phone   : +62-21-80808849 |Fax.  +62-21-80808848Email   : info@totalabadisolusindo.co.idEmail   : sales@totalabadisolusindo.co.idWeb     : www.totalabadisolusindo.comSUPPORT ALL BRAND & ALL MANUFACTURE :
|INVERTER|PLC|HMI|SOFT STARTER|AC SERVO|SENSOR & CONTROLLER|POWER SUPPLY|CIRCUIT BREAKER & CONNECTOR|TACHOMETER|FILTER|BATTERY CHARGER||ENCODER & COUNTER|SCALE & INDICATOR||FLOW METER|TESTER|WATER METER|SIGNAL LAMP|SAFETY RELAY|LOADCELL|FAN & BLOWER|INSTRUMENTS|GENSET||MODULE|VALVE|PUMP|PNEUMATIC & HYDRAULIC|PRESSURE TRANSMITTER|CLUTCH & BRAKE|ELECTRIC MOTOR|SHOCK ABSORBER|GRINDING WHELL|PANEL|PIPE|CABLE|
  ","
              Jl.Dr.Krt Radjiman Widyodiningrat Ruko D'Arcade Blok A19Jatinegara Indah Central Bussiness Park, Pulo Jahe, Cakung , Jakarta Timur 13930            ",DKI Jakarta,DKI Jakarta,+81 297-69-1617,None,None
PT. SARANA TEKNIK MOTOR & GEARBOX REDUCER > saranagroup@ cbn.net.id,"
                                    PREMIUM GOLD
                                ",Perlengkapan Alat Berat,"
              PT. SARANA TEKNIK MOTOR & GEARBOX REDUCER > saranagroup@ cbn.net.idkomp perkantoran sunter permai blok b11, jl danau sunter utara kav k2tel 6519582 fax 65305868- 6400893SELL PRODUK motor electric di Indonesia Sarana Teknik Group adalah sebuah didirikan sejak Oktober 1998. Perusahaan yang sudah menjadi distributor terkemuka transmisi daya berkualitas mekanis & produk motor listrik. Bertahun-tahun, kami telah mendidedikasikan untuk memecahkan masalah-masalah industri dan kami didukung oleh engineer yang sangat ahli melalui penjualan dan perwakilan layanan pelanggan yang tersebar di wilayah Indonesia yang terlatih memberikan bantuan teknis kepada pelanggan kami, Perusahaan kami selalu akan berusaha untuk membantu untuk mendistribusikan knowledge juga referensi untuk efisiensi. Perusahaan kami melalui ISO principals telah menjadikan kami NO 1 di Indonesia sebagai referensi pencarian dan pembelian serta purna jual untuk perangkat industri. Product kami; Brand Motor : Motor Teco , Motor Elektrim , Motor Siemens , Motor Fukuta , Motor Tatung , Motor Yuema , Motor Baldor ( Exsplotion Proof) , Motor Franklin ( Motor Deepwell ) , Motor Bonfiglioli , Motor Mez , Motor Flender , Motor Motovario , Motor sew            ","
              komplek Perkantoran Sunter Permai Blok B11 Jl.Danau Sunter Utara Kav. K-2 Sunter Agung            ",Jakarta,DKI Jakarta,+62 815-1968-4035,None,None
PT. FENNER ALVA PRIMA email : alvaprima@ cbn.net.id,"
                                    PREMIUM GOLD
                                ",Perlengkapan Alat Berat,"
              PT. FENNER ALVA PRIMA- FENNER - INDONESIA - PT. FENER ALVA PRIMA INDUSTRILindeteves Trade Centre ( LTC) Glodok Lt. 2 Block C 43, NO 39,Jl. Hayam Wuruk 127 Jakarta 11180, JakartaTEL: .6232-0191.......6232-0192FAX : 6232-0193EMAIL 1: alvaprima@ cbn.net.idEMAIL 2 : WWW.ALVAINDUSTRI.COMWWW.FENNER.CO.ID is part of the FENNER ALVA PRIMA Group. Its principal business is that of sales of general industrial parts, Power Transmission equipment, Coupling, pulley, bushing , belting, Roller Chain, sprocket.Conveyor Chain, powerlock, gear reducer, electric motor, inverter, etc In its Chain Operation, ALVA PRIMA offers a wide variety of industrial-use drive and conveyor chains, including the drive chains used in drive systems and the conveyor chains that are a central component of production lines. ALVA PRIMA provides these products to various industry, such as the industrial machinery. Our Power Transmission Units and Components Operation offer a diverse lineup of products, including such parts and units as Reducers, Power Cylinder, Power Lock, Cam Clutches, etc. The Fenner Group, headquartered in England, was founded over 150 years ago and today has annual turnover approaching ¬£ 500 million. The company employs over 3, 700 people worldwide across five continents and more than 25 manufacturing plants. It consists of 5 subsidiaries include Fenner Precision, manufacture of precision elastomer products, Fenner Drives POWER TWISTBELT PowerTwist Plus is the everyday industrial workhorse. Perfectly suited to Z/ 10, 3L, A/ 13, B/ 17, and C/ 22 drives and can be installed on existing pulleys with no changes in set-up. Fenner Drives PowerTwist Plus V-Belts minimise downtime with no tools required, easy installation in minutes without tear-downs or struggling with rusted motor bases. Have an application where static electricity is a concern? PowerTwist Plus Antistatic is the answer‚Ä¶ with all the benefits of standard PowerTwist Plus and the best antistatic properties of any V-belt on the market. Fenner Belt Drives Fenner Chain Drives Fenner Shaft Fixings Fenner Couplings Fenner Motors Fenner Inverters Fenner Gearboxes Fenner Powe            ","
              LTC, GLODOK,JL, HAYAM WURUK - email : alvaprima@cbn.net.id            ",JAKARTA,DKI Jakarta,+62 812-9855-8063,None,None
PT. SARANA-BLOWER COMPRESSOR ( SARANA GROUP),"
                                    PREMIUM GOLD
                                ",Perlengkapan Alat Berat,"
              PT. SARANA- BLOWER COMPRESSOR ( SARANA GROUP)WWW.SARANA-TEKNIK.COMTEL 6519582- FAX 65305858-6400893 Email : saranagroup@ cbn.net.idDistributor Power Transmission, Electric Motor, blower & compressorKAMI MENJUAL BERMACAM BLOWERS & COMPRESSORS SBB .:1. RING BLOWER MERK CHUAN FAN2.TURBO BLOWER MERK CHUAN FAN3. RING BLOWER MERK CRELEEC4.RING BLOWER MERK SHOW FOW5 RING BLOWER MERK HO HSING6. COMPRESSOR PUMA7. COMPRESSOR PANTHER8. COMPRESSOR JAGUAR9.COMPRESSOR SWAN10.COMPRESSOR FUSHENG11, COMPRESSOR SHARKCHUAN FAN BLOWER : Chuan Fan Electric Co., Ltd. Chuan Fan Electric Co., Ltd. With the concept of best service, high quality, fast delivery, and creativity, Chuan Fan Electric Co., Ltd., founded in 1972, has been professionally producing Side channel blowers, Centrifugal blowers, and multistage turbo blowers as well as all kind of blowers in mid or low pressure. From casting, processing, to motor making, up to 95 of the procedures are finished in our factory. We produce over thirty-six thousand sets of blowers every year. We also manufacture dust collectors and pressure exhaust fans for industrial use.CHUAN FAN Side Channel Blowers- Ring Blowers CHUAN FAN Side Channel Blowers- Ring Blowers CHUAN FAN Side Channel Blowers- Ring BlowersMore Details CHUAN FAN Product ID: RB SERIES ( 50HZ) Futural: Ring Blowers are designed with practical regenerative theory. Require no maintenance! No oily odor! Eternity life! Specifications: Applications: Grain elevators. Textile fiber collections Paper industry Sewage treatments Cement manufacturing Diesel burning Pulp industry Class manufacturing Ice manufacturing Tunnel ventilation Fishery industry Features: Low noise and vibration Dynamic balancing minimizes vibration. Dust-proofed shaft seal Protects bearing from contaminated air stream and possible foreign particle damage. High reliability Directly connected motor shaft-impeller provides reliable, long term performance. No gears, belts, motor brushes or sliding blades to require periodic maintenance. Space-efficient design Unique design results in substantial airflows at moderate pressures in minimum space and weight. Versatility Easily throttled and changed from pressure to suction operation. May be mounted in a variety of fashiond. Stable airflow Centrifugal compressor design delivers smooth, stable airflow with no pulsations. High-pressure airflow Produces continuous high-pressure airflow. The Ring Blower is ideally suited to many industrial applications. A policy of continuous improvement is followed, and the right to alter any published data without notice is reserved. He maximent permissible temperature and the gas temperature at the inlet is 40 C.            ","
              KOMP PERKANTORAN SUNTER PERMAI BLOK B11, JL. SUNTER DANAU UTARA KAV K2,, TEL 6519582,,FAX 65305868,,EMAIL saranagroup@cbn.net.id            ",JAKARTA,DKI Jakarta,+62 815-1968-4035,None,None
Teguh Jaya Sejahtera,"
                                    PREMIUM GOLD
                                ",Perlengkapan Alat Berat,"
              Perusahaan kami menjual Precision Measuring Equipment merk TECLOCK ( made in japan)            ","
              Gedung LINDETEVES TRADE CENTER lantai 2 blok c35 no 2, Mangga Besar            ",Jakarta Barat,DKI Jakarta,None,None,None
cv lamtama sianturindo,"
                                    PREMIUM GOLD
                                ",Perlengkapan Alat Berat,"
Menjual macam macam spareparts Truck Eaton Fuller Transimission Parts Fast Fuller Transmission Parts FAW Fast Fuller Transmission Parts Shacman Truck Parts CAMC Fast Fuller Transmission Parts Sinotruck Truck Parts Foton Truck Parts Foton Auman Truck Fast Fuller Transmission Parts Kenworth Truck Parts Wabco Brake Valve Parts Meritor Parts Bulldozer Dresser and Dressta Parts Bendix Valve Parts Bendix Kompresor Parts Dana Spicer Parts DAF Genuine Parts PACCAR Genuine Parts Volvo FH16 Parts, Menjual FKM Seal Oring : Parco, Parker, Kalrez Dupont, National Komatsu caterpillar Cummins VOLVO MACK  GEAR GEAR ","
              jln. raya cilincing no 20 , rt 015 / rw 016 . semper barat , cilincing jakarta utara            ",Jakarta utara,DKI Jakarta,+81 3-1001-1108,None,None
PT FENNER ALVA PRIMA ,"
                                    PREMIUM GOLD
                                ",Perlengkapan Alat Berat,"
              KAMI ADALAH DISTRIBUTOR TUNGGAL FENNER DI INDONESIAKANTOR PUSAT:PT FENNER ALVA PRIMA INDUSTRI FENNER COUPLING & PULLEYLTC GLODOK LT. 2 BLOK C27 No. 6-7 GLODOK - JAKARTATEL 021-62320192-62320191FAX : 021-62320193Email: : alvaprima@cbn.net.idTEAM MARKETING DAN TEKNISI YANG BERPENGALAMAN AKAN MEMBANTU DAN MEMPERMUDAH PEKERJAAN ANDA. HARGA YANG MURAH KARENA KAMI TANGAN PERTAMA DI INDONESIA. BARANG YANG ASLI KARENA KAMI DISTRIBUTOR RESMI DAN BEREGISTRASI DARI INGGRIS.ADAPUN PRODUK YG KAMI JUAL :SHAFT MOUNTED FENNER SPEED REDUCER FENNER HRC COUPLING FENNER TAPPER LOCK & PULLEY FENNER FENAFLEX TYRE COUPLING FENNER JAW COUPLING FENNER WEDGE & V-BELT FENNER HTD BELT POWER TWIST BELT FENNER HELICAL GEAR MOTOR FENNER HELICAL BEVEL MOTOR HELICAL GEAR REDUCER ELECTRIC MOTOR FENNER WORM GEAR MOTORBranch Office :Kav. General Manager Block F2 No.6 Damkar - Cilegon 42436Telp : 0254 - 2552322, 2552323Fax : 0254 - 392536Email : alvaprima@ cbn.net.idBranch Office :Jl. Marsma R. Iswahyudi No. 449 A Rt. 29 Sepnggan Balikpapan 76114Telp : 0542 - 8000444, 800433 Fax : 0542 - 771062Email : alvaprima@cbn.net.id // alva88@bitnet.net.idBARANG DI JAMIN MURAH, ASLI, DAN BARU            ","
              LTC Glodok LT.2 BLOK C 27 No 6-7            ",JAKARTA,DKI Jakarta,+62 812-9855-8063,None,None
PD MULTI PARTINDO JAYA,"
                                    PREMIUM GOLD
                                ",Perlengkapan Alat Berat,"
              Perusahaan kami bergerak di bidang penjualan spare part alat berat, genset serta engine marine. Dimana kami menjual spare part untuk segala engine Caterpillar, Cummins, Komatsu, Nissan, Mitsubishi, Kobelco, Hitachi, Bomag dll. Kami juga menyediakan teknikal supplay untuk Perusahaan yang membutuhkan jasa reparasi engine. Dimana mekanik kami sudah sangat berpengalaman dalam bidang tersebut. Kami tidak memberikan janji dalam bekerjasama, tapi kami memberikan bukti dan service yang selayaknya di dapat oleh pelanggan pelanggan kami. Untuk perhatiannya kami ucapkan terima kasih.            ","
              Jl. karang Anyar Raya, komp Ruko Karang Anyar Permai 55 Blok B1 No. 43Jakarta Pusat             ",Jakarta Barat,DKI Jakarta,+62 812-1945-7221,None,None
PT. SARANA TEKNIK,"
                                    PREMIUM GOLD
                                ",Perlengkapan Alat Berat,"
PT. Sarana Teknik adalah yang berdiri sejak Oktober 1998. WWW.SARANA-TEKNIK.COM EMAIL : saranagroup@cbn.net.idtel 021 6519582  Perusahaan yang menjadi distributor transmisi tenaga mekanik & produk motor listrik. Dengan penghargaan dari custumer akhir nya kami menjadi di kenal dengan Stokist pada product sebagai berikut:  BALDOR MOTOR DODGE COUPLING - DODGE BEARING FALK COUPLING REXNORD COUPLING - REXNORD CHAIN ADDAX COUPLING, THOMAS, FENNER BELT COUPLING PULLEY, SIHI PUMP, KOSHIN GEAR PUMP, SOUTHERN CROSS PUMP, EBARA PUMP, FRANKLIN SUMMESIBLE PUMP, KENFLO PUMP, BEARING, BANDO BELT, CONTINENTAL CONVEYOR BELT MARTIN, LINK BELT, HITACHI, MTK, NIKKEN, KHK, KTR, KB PENTA POWER, CUTES INVERTER, THOSIBA INVETER, DELTA INVERTER, KBMM, TECO MOTOR, SIEMENS MOTOR, YUEMA ELECTRIC MOTOR, TSUBAKI POWER HELICAl DRIVE REDUCER, KOPFLEX, TB WOOD' S, FLENDER, NBK, KTR, MITSUBOSHI, CENTA, EBARA, MOTOVARIO, MOTOVARIO GEARBOX, MOTOVARIO INDONESIA , MOTOVARIO WORM GEAR, BONFIGLIOLI, BONFIGLIOLI INDONESIA, BONFIGLIOLI RIDUTTORI, BONFIGLIOLI GEARMOTOR  Untuk informasi dan pemesanan :  KANTOR PUSAT PT. Sarana Teknik Kompleks Perkantoran Sunter Permai Blok B.11, Jl. Danau Sunter Utara Kav. K-2, Sunter Agung Jakarta 14350 Indonesia Phone : ( 021) 651-9582 ( Hunting) Fax : ( 021) 65305868 - 6400893 Fax Bebas Pulsa : 0800-1-666-777 Email : saranagroup@cbn.net.id  Website : www.sarana-teknik.com Branch Office A. Cikarang Jl. Raya Industri No. 54 Cikarang Jababeka - Cikarang ( Dekat Pintu Gebang Jababeka) Phone : ( 021) 89835649, 89835702 Fax : ( 021) 89835882 Email : sarana_ cikarang@ cbn.net.id/ saranagroup@ cbn.net.id ATTN BAPAK ADRIAN/ FARID/ WINARNO/ AJIN  B. Surabaya Ruko Sentra Tropodo Blok C-7 Jl. Raya Tropodo No. 115, Waru - Surabaya Phone : ( 031) 8685823 - 24 Fax : ( 031) 8685825 Email : sarana_ surabaya@cbn.net.id/ saranagroup@ cbn.net.id ATTN BAPAK JUANDI/ NANANG kusnindra ","
              Komplek Perkantoran Sunter Permai Blok B11 Jl.Danau Sunter Utara Kav. K-2 Sunter AgungSUNTER JAKARTA UTARA            ",Jakarta,DKI Jakarta,+62 815-1968-4035,None,None
INtersarana Indokita (INIGLODOK),"
                                    PREMIUM GOLD
                                ",Perlengkapan Alat Berat,"
              www.iniglodok.com Usaha dari pengembangan indokita teknik ; intersarana1 , Nilfastindo dan Pora Perabot. Pengembangan ini untuk mempermudah pelayanan pembelian sukucadang,mesin,utilities dan accesories. Customer selalu menjadi prioritas Kami dalam usaha pengembangan bisnis.Untuk mempermudah pelayanan bisa menghubungi di  Customer service :+62 21 6329866. & 021 22638375 ----------------------------------------------------------------------------------------------------www.iniglodok.com Enterprises of indokita development techniques; intersarana1, Nilfastindo and Pora perabot. This development is to facilitate the purchase of service parts, machines and accesories. Our customer is always a priority in business development efforts.we giving a cost compatible price with the other.We always effort for giving our customers satisfaction.trustworthy and reliable.From Customers ,We grow up.Customer Service : 021  6329866 & 22638375Sales 1  08561003778  (Whatsapp-Line)Sales 2. 081285012211 (Whatsapp-Line) ","
              JL. Hayam Wuruk GLODOK CITY 3rd floor Blok BKS No 64. & 4th Floor Blok BKS No 08 Jakarta 11120LTC Lindeteves Glodok Jl Hayam Wuruk 127 Glodok Jakarta .Koridor F Lt,1  Blok B Pameran            ",Jakarta,DKI Jakarta,+62 856-1003-778,None,None
