Name,Membership,Category,Description,Address,City,Province,telp1,telp2,telp3,telp4,telp5,telp6,telp7
LIONEL EXPRESS,"
                                    PREMIUM GOLD
                                ",Kargo & Logistik,"
Lionel Express adalah perusahaan yang bergerak di bidang Jasa Ekspedisi dan pengiriman barang. Kami melayani Jasa Ekspedisi dan Pengiriman Barang melalui Jalur Darat, Laut dan Udara.
Berdiri sejak tahun 2015, dan pengalaman para pendirinya kurang lebih 20 tahun dalam bidang jasa ekspedisi dan pengiriman barang, Lionel Express hadir sebagai solusi utama untuk pengiriman anda.
Kami beroperasi 24 Jam setiap harinya untuk melayani pengiriman ke seluruh kota besar Indonesia, Pelayanan lengkap, Lead time tepat waktu, dan tariff yang sangat kompetitif.
Bagi kami, kepuasan pelanggan adalah nomer satu!
LIONEL EXPRESS Your Delivery Solution! ","
              HQ Office:Duta Garden Square, Ruko, Jl. Husein Sastranegara No.11-12, RT.027/RW.008, Jurumudi, Benda, Tangerang City, Banten 15124, IndonesiaOperational Office :APSARANA RA WAREHOUSE Cargo Area Airport Soekarno Hatta, Terminal Cargo, RT.001/RW.010, Pajang, Benda, Tangerang City, Banten 15124            ",Tangerang,Banten,083807800278,+81 3-8204-9935,+81 28-948-1111,,,,
CV. BLATINDOPUTRA,"
                                    PREMIUM GOLD
                                ",Kargo & Logistik,"
              Perusahaan kami CV. Blatindoputra Utama merupakan perusahaan yg bergerak dibidang Supplier Industri. Kami sudah bekerjasama dengan beberapa perusahaan. Sehubungan dengan itu, kami bermaksud untuk menjadi supplier di perusahaan Bapak/ Ibu. Harapan kami, penawaran ini dapat terwujud dalam bentuk kerjasama sehingga dapat menguntungkan kedua belah pihak. Adapun produk yg akan kami sediakan adalah ( terlampir beberapa brosur produk) : 1. Material Handling Equipment ‚Ä¢ Hand Pallet Truck ‚Ä¢ Hand Trolley ‚Ä¢ Drum Handler dan Drum Porter ‚Ä¢ Stacker ( Manual, Semi Electric, dan Full Electric) ‚Ä¢ Hoist 2. Roda - Aneka Macam Roda 3. Filter ‚Ä¢ Filter Oli ‚Ä¢ Filter Udara ‚Ä¢ Filter Separator Air Oil 4. Tools            ","
              Plaza Merdeka (Harkot) JL. Merdeka Raya No. 53 Blok D7/ 2            ",Tangerang,Banten,None,None,None,,,,
Toko Kareem,"
                                    PREMIUM GOLD
                                ",Kargo & Logistik,"
              Jual Sembako Murah dari Bulog-  Minyak Goreng-  Beras Premium-  Gula-  Tepung Terigu-  Daging Sapi-  Daging Kerbau-  Bawang Merah-  Bawang Putihdll            ","
              Jl Anggur V Pamulang Permai 1 Blok A36 No.3 Pamulang Tangerang Selatan            ",Tangerang Selatan,Banten,+62 850-7805-103,None,None,,,,
CV.PASAMAN INDAH EXPRESS,"
                                    PREMIUM GOLD
                                ",Kargo & Logistik,"
CV. Pasaman Indah Express perusahaan jasa angkutan bergerak di bidang angkutan barang seperti pupuk pertanian, barang dan hasil perkebunan- pabrik kelapa sawit, barang pindahan, sepeda motor, spare part, alat berat, barang pertokoaan, plastik, dengan harga bersaing dan ekonomis. Armada kami meliputi Truk fuso, Canter, Tronton dll nyaJasa angkutan via darat yang berkantor pusat di kota medan melayani pengiriman barang murah dari medan ke madina - simpang gambir - silaping - tiku -air balam - air bangis - ujung gading - simpang 3 alin - simpang empat - kinali - RAO - Tapus -Panti  lubuk sikaping - lubuk basung - bukit tinggi - lubuk alung - maninjau - pasaman barat - pasaman timur - agam- padang pariaman- padang - pesisir selatan - damasraya dan wilayah sumatera barat lain nya.Hubungi Kami :CV. PASAMAN INDAH EXPRESSJl. Letda Sujono No.53 Kel. Tembung, Medan Tembung, MedanIndonesia 20223Phone : 082161006900 / 081361096900 ( Call )Whatsapp : 082161006900Website : www.pasamanindah.com
  ","
              Jl. Letda Sujono No 53 Kel. Tembung, Medan Tembung            ",Medan,Sumatera Utara,+62 821-6100-6900,None,None,,,,
PT. INTI LOGISTIC,"
PREMIUM RUBY
",Kargo & Logistik,"
              CARGO AGENT IMPORT DOOR TO DOOR SERVICE SPECIALIST INTI LOGISTIC BERDIRI SEJAK TAHUN 2002 DAN SAAT INI MELAYANI IMPORT DOOR TO DOOR SERVICES DARI SELURUH NEGARA KE JAKARTA ATAU KOTA-KOTA LAIN DI INDONESIA. JASA YANG KAMI LAYANI MELIPUTI: Import door to door, Import cargo to Indonesia, Import cargo Singapore to Jakarta, Cargo import borongan, Import services to Indonesia, Services door to door Singapore ‚Äì Indonesia Door to door, services Singapore to Jakarta, door to door Singapore to Jakarta, import door to door, Import door to door services, Jasa import borongan, Import borongan, Jasa door to door Singapore to Jakarta, Door to door USA to Jakarta, Door to door China to Jakarta, Cargo door to door to Jakarta, Import cargo to Jakarta, Import cargo to Indonesia Door to door services to Indonesia, import borongan door to door, cargo import door to door forwarding, door to door Ex-works System atau Port to DOOR system Kami akan mengurus pick up di Negara asal dan juga pengurusan customs dan handling di negara asal dan mengirimkan Langsung ke alamat anda baik melalui air freight atau sea freight ( LCL/ FCL) . ALL IN RATE Rate yang kami berikan 1 paket rate dimana rate tersebut sudah termasuk ‚Ä¢ Biaya pengambilan barang di Negara asal ‚Ä¢ Penanganan jasa Custom dari Negara asal ‚Ä¢ Biaya gudang dan biaya pelabuhan di port Negara asal ‚Ä¢ Biaya pengiriman baik udara atau laut ‚Ä¢ Jasa custom handling di Indonesia ‚Ä¢ Biaya import dan pajak ( BEA MASUK, PPN, PPH) di Indonesia ‚Ä¢ Biaya gudang atau biaya pelabuhan di pelabuhan Indonesia ‚Ä¢ Biaya transportasi dari pelabuhan atau bandara ke alamat client. Jenis Barang Import Door to Door yang kami handle: All commodity ( kecuali perishable goods dan forbidden goods) Negara-negara yang selama ini pernah kami handle: 1. Import DOOR TO DOOR from USA ( Amerika Serikat) 2. Import DOOR TO DOOR from Canada 3. Import DOOR TO DOOR from Germany 4. Import DOOR TO DOOR from Austria 5. Import DOOR TO DOOR from UK 6. Import DOOR TO DOOR from Italy 7. Import DOOR TO DOOR from Netherland ( Belanda) 8. Import DOOR TO DOOR from France 9. Import DOOR TO DOOR from Portugal 10. Import DOOR TO DOOR from Spanyol 11. Import DOOR TO DOOR from Rusia 12. Import DOOR TO DOOR from Swiss 13. Import DOOR TO DOOR from Turky 14. Import DOOR TO DOOR from Denmark 15. Import DOOR TO DOOR from Australia 16. Import DOOR TO DOOR from Japan 17. Import DOOR TO DOOR from Taiwan 18. Import DOOR TO DOOR from Hong Kong 19. Import DOOR TO DOOR from China 20. Import DOOR TO DOOR from Korea 21. Import DOOR TO DOOR from USA 22. Import DOOR TO DOOR from Malaysia 23. Import DOOR TO DOOR from Thailand 24. Import DOOR TO DOOR from Vietnam 25. Import DOOR TO DOOR from Singapore 26. Dan banyak lagi For more details for your IMPORT Door to Door solution, Please contact: PT. Inti Logistic Grand Dhika City

Kirana Two Tower, Level 10-A Jl. Boulevard Timur No.88, Kelapa Gading - Jakarta 14250
WhatsApp : 0813 9921 7574

Email: info@ intilogistic.co.id            ","
              Grand Dika Citu Suite 2007 Jl.  H Joyomartono Exi Tol Timur BekasiWhatsApp : 0813 9921 7574            ",Bekasi,Jawa Barat,+62 813-9921-7574,None,None,,,,
CV. Berkah Anugerah Nathanurang,"
PREMIUM BLUE ONYX
",Kargo & Logistik,"
              Penyewaan Mobil Box dan Blinkvan, Grand Max Box, CDD dan CDE dengan sistem sewa bulanan maupun tahunan lepas kunci atau dengan supir (Kami juga siap melayani dengan sistem drop off (sistem dedicate).PIC : A. Hutahean (0812 8097 2540)            ","
              Vila Mutiara Gading 3 Blok A10 No.3 Kebalen bekasi            ",Bekasi,Jawa Barat,None,None,None,,,,
Arisjaya CArgo,"
                                    PREMIUM GOLD
                                ",Kargo & Logistik,"
Perusahaan kami siap melayani kebutuhan dengan pelayanan jasa Cargo ke seluruh indonesia, kami sudah berpengalaman sejak tahun 2009 tentunya sangat bisa dipercaya untuk anda semua .Jangan ragu lagi untuk anda percayakan ke kami untuk pengiriman ke seluruh indonesia ,tentunya para pekerja kami sudah sangan berpengalaman dan bekerja dengan profesional.  ","
              Jalan Permai 29 No. 3 Ds. Mekar Rahayu Kec. Marga Asih, Kabupaten Bandung            ",Bandung,Jawa Barat,+62 813-1204-6267,None,None,,,,
JASA EKSPEDISI DARAT-LAUT-UDARA,"
                                    PREMIUM GOLD
                                ",Kargo & Logistik,"

PUSATKARGO adalah anak usaha dari KINEXLOGISTCS yang bergerak dibidang jasa kurir/pengiriman barang paket/rite, pengepakan, pergudangan, pindahan dan trucking.

 
PUSATKARGO didirikan secara khusus untuk melayani pengiriman barang paket/ritel tujuan domestik dan internasional untuk mendukung berjalannya perdagangan e-commerce yang sekarang ini berkembang pesat.
Dengan dukungan SDM yang berpengalaman dan networking kemitraan, keagenan serta perwakilan yang luas PUSATKARGO dapat menjangkau layanan pengiriman sampai ke pelosok Nusantara, baik pengiriman darat, laut, udara. Fasilitas yang kami miliki seperti gudang, lokasi, armada truk sendiri yang menggunakan system monitoring GPS Tracking akan memberikan output yang baik bagi pelanggan ","
              Jl. Cut Mutia Komplek Ruko Mitra Plaza Blok A No. 23 Sepanjang Jaya  Kota BekasiTel. +62-21-82763238, +62-812 1000 3238, +62-822 1000 3238Email : riwando@pusatkargo.comwww.jasaekspedisi.comwww.pusatkargo.com            ",Kota Bekasi,Jawa Barat,+62 812-1000-3238,None,None,,,,
PT. Mega Trans Jaya,"
                                    PREMIUM GOLD
                                ",Kargo & Logistik,"
              Mega trans Jaya adalah suatu perusahaan yang bergerak pada bidang jasa pengiriman barang , moving, warehousing, jasa pelayanan cargo services, baik pengiriman antar kota / handling daerah, dalam satu pulau maupun pengiriman antar pulau (INTERSULER), yang mencakup pengiriman barang dengan sistem lepas (BREAK BULK), melalui peti kemas LCL / FCL, pengiriman barang melalui truk (TRUCKING), dengan service port to port ataupun door to door.Mega Trans Jaya menawarkan sekian banyak Layanan Opsional, mulai dari pengiriman non-standar dan opsi penagihan hingga pengiriman netral karbon. Dengan pilihan yang fleksibel peningkatan layanan, kenyamanan anda bertambah ketika menggunakan layanan kiriman cepat kami.FEATURESMeningkatkan pelayanannya melalui penyambungan Network / Jaringan yang berbasis pada Informasi Teknologi (IT) yang diharapkan dapat memuaskan client/customer.1. Harga yang kompetitif solusi yang efektif dan efisiensi dalam pengiriman cargo yang berbasiskan pada informasi dan teknologi guna menghadapi tingkat persaingan di era globalisasi saat ini.2. Service yang memuaskan solusi efisiensi dan tepat waktu, dengan standart pelayanan yang tinggi serta inovatif dan praktis.3. Jaringan yang luas Kantor Agent perwakilan tersebar diseluruh wilayah Indonesia menjadi pilihan terbaik jasa pengiriman dan penanganan barang-barang cargo.4. Armada Keselamatan pengiriman barang dengan prasarana yang telah kami miliki sebagai berikut : Fuso Bak, Cdd Box, Cde Box, Grand Box, GrandMax Bak, Granmax blindvan dan Sedepa Motor.5. SDM yang profesional Memiliki Tenaga Ahli yang Professional dan berpengalaman di core bisnis cargo serta dapat memberikan layanan yang cepat dan tetap waktu sesuai dengan moto Kami.6. Layanan Kedepannya selalu untuk terus meningkatkan mutu pelayanannya dan menjadi jawaban atas pengiriman dan penyimpanan barang-barang cargo.Dengan adanya desakan kebutuhan pelayanan jasa pengiriman dirasakan terus meningkat dan dibutuhkan dari waktu ke waktu, maka kami akan menjawab kebutuhan tersebut dengan tenaga ahli yang professional dan berpengalaman di core bisnis cargo serta dapat memberikan layanan yang cepat dan tepat waktu Mega trans jaya merupakan solusi tepat untuk mitra pengiriman paket barang dokumen anda ke seluruh indonesia ataupun export-import.HUBUNGI KAMI DI :Budiarto IrawanMobile : 0877 1812 3567 // 0822 9912 3789Email : budiarto@megatransjaya.comHead Office :Jl. Melong Tengah No.139 B ‚Äì BandungTelp : 022 -2056-3056Operasional :Perkantoran Bandara Husein Sastranegara Lt.2 No.33 BandungTelp : 022-860 60018Website : www.megatransjaya.com // www.megatranscargo.com ","
              Jl. Melong Tengah No.139 B            ",Bandung,Jawa Barat,+62 822-9912-3789,None,None,,,,
PT. Hudaya Maju Mandiri,"
                                    PREMIUM GOLD
                                ",Kargo & Logistik,"
              Penjelasan Ringkas Hudaya Maju Mandiri, PT located in Cibitung has its business generally in commerce automotive trading and specificly as a dealer for Hino Automotive products. The company covers trading of vehicle units, spare parts and services. The business path we provide is in conformity with the products manufactured by PT. Hino Indonesia Manufacturing and our principle's, Hino Japan. Company History Hudaya Maju Mandiri, PT was established in 1996 in Jakarta (Notary Soekaimi SH Jakarta No. 101 dated 15 April 1996) with 5 staffs, and we started our business in selling units. Hudaya Maju Mandiri, PT is one of a branch company under PT. Mayasari Bakti, the holding company owned by Mr. H. E. Mahfud. To run the business of Hudaya Maju Mandiri, PT. Mr. H. E. Mahfud had assigned Mr. H. Bambang Risyana as the Chief Director, Mr. Zulfikar Pujiadi H as Finance Director and Mr. Rudy Ferdian as Marketing Director. Year 1997 - 1998 In early 1997 Hudaya Maju Mandiri, PT moved its location to Bekasi area, Kompleks Bekasi Mas Blok B No. 15, Jl. A. Yani - Bekasi, In the period of 1997 the company had reached its best marketing with sales of 235 units, This was happened caused by the increament of staff numbers, specially in marketing department. Unfortunately, when the crisis which effected most of the economy sectors of the whole nation in Indonesia came, the company's business was effected badly. In 1998 the sales was dropped down to the number of just 50 units. In this period, in order to increase the earnings, the company has expanded its sales by selling the spare parts and hired some another staffs. Year 1999 - 2000 In 1999 the company's commerce automotive trading was going down, the sales just reached the number of 56 units. In 2000 the company increased the sales with new customers and by recovery of politic and economy situation in Indonesia, our sales gained a good result. Year 2001 - 2002 In 2001 the company's financial situation was starting better, so then the company hired some others staffs and expanded the business again by having a new division: services, specially for Hino products. In 2002 Hudaya Maju Mandiri, PT obtained the best sales of Hino dealer all over Indonesia. Untuk pemesanan silahkan hubungi kami dialamat email : hinosalesteam@ gmail.com Anda juga bisa kontak kami jika ingin konsultasi lebih lanjut dengan saudara Rino Hino di no Hp: 0818-727690 / 0812-99023578            ","
              Jl. Raya Jakarta Bogor km 47,5 Cibinong Bogor 16912

Jl. Raya Teuku Umar KM. 44 Cikarang Barat-Bekasi 17520            ",Bogor,Jawa Barat,0818727690,+81 299-02-3578,None,,,,
PT HASTA KARYA TEKNIK,"
                                    PREMIUM GOLD
                                ",Kargo & Logistik,"
              Kami bergerak di bidang Electrical, Mechanical dan Fabrikasi untuk kebutuhan industri. Bidang electrical meliputi Pembuatan panel distribusi, repair electrical part sampai dengan pembuatan sistem automation menggunakan plc dan HMI. Bidang Mechanical meliputi overhoul dan trouble shooting mesin industri seperti, milling cnc , bubut cnc, injection moulding, die casting dll. Maker mesin seperti Fanuc, moriseiki, takizawa, takamaz, okuma howa, enshu, toshiba, niigata, jsw, nissei , hitachi seiki dllJasa Pembuatan Spray Booth, Backing Oven, Conveyor, Maskig Jig Painting.            ","
              Jalan Raya Selang Jati No 56 RT 03 RW 03 Kampung Selang Jati Desa Wanajaya Kecamatan Cibitung Kabupaten Bekasi Jawa Barat Indonesia            ",Bekasi,Jawa Barat,+62 813-1580-2088,None,None,,,,
"DUA PUTRA PETIR, CV Telp. 0859-9805-8351 , 0898-3518-351 , 0821-3355-5559 , 0813-1845-5559","
PREMIUM RUBY
",Kargo & Logistik,"
BISMILLAHIRROHMANIRROHIIM....CV. DUA PUTRA PETIR (Your Steel Partner) Distributor berbagai Merek Polycarbonate bergaransi 5-10 tahun yang dilengkapi Double Side UV Protected, diantaranya :1. Solar Flat Clear / Colour Plain / Embosed.2. Solar Tuff Roma / Greeca.3. X TUFF Roma dan Greeca (Colour / Clear).4. X Lite.5. SOLITE.6. Twinlite.7. Lexan.8. POLYBOARD.9. Sealent Neutral (Lem PolyCarbonate).10. Sealent Acetic (Lem PolyCarbonate).11. JASA PEMBUATAN CANOPY / PAGAR Sesuai Permintaan.HARGA DIJAMIN MURAH Untuk Info Lebih Lanjut Menghubungi,Demikian Penawaran dari kami, besar harapan kami untuk bisa bekerjasama dengan Anda dengan memberikan pelayanan yang terbaik penjelasan ringkas. Kami juga Bergerak dibidang trading Besi dan Baja dan alat-alat teknik, memiliki pengalaman yang mumpuni lebih dari 10 Tahun, link dan akses bisnis yang luas menjadikan kami harus terus berinovasi, salah satu melalui Bisnis Online seperti ini adapun produk-produk unggulan kami adalah :1. Carbon Steel Bars (Besi / Galvanis / Stainless Steel)‚Ä¢ Besi Beton Polos (Plain Bars) ‚Ä¢ Besi Beton Ulir (Deformed Bars) ‚Ä¢ Besi As (Round Bars) Eq St. 41 ‚Ä¢ Besi As (Round Bars) Eq St. 60, St. 70, St. 90 ‚Ä¢ As Besi Segi Empat (Square Bars / Vierkan) ‚Ä¢ As Besi Segi Enam (Hexagonal Bars) (Besi / Galvanis / Stainless Steel) ‚Ä¢ Silver Steel-Hollow Bars-Tool Steel ‚Ä¢ Strep Besi (Flat Bars) ‚Ä¢ Band Eyzer (Strapping band Plates).2. Carbon Steel Pipes (Besi / Galvanis / Stainless Steel)‚Ä¢ Pipa Baja Hitam (Black Steel Pipes) ‚Ä¢ Pipa Air / Galvanis (Galvanized Pipes) ‚Ä¢ Pipa Seamless (Seamless Pipes) ASTM A 53 / A 106 / API 5 L ‚Ä¢ Pipa Pancang (ERW Pipes) ASTM A 252 ‚Ä¢ Pipa Konstruksi STK-400 (Besi / Galvanis / Stainless Steel) ‚Ä¢ Pipa Perabot (Stalbuist Pipes) ‚Ä¢ Pipa Kotak (Rectangular & Square Pipes).3. Carbon Steel Plates (Besi / Galvanis / Stainless Steel)‚Ä¢ Plat Besi Hitam (Hot Rolled Coil / Sheet) JIS SPHC / JIS SS400 / ASTM A36 ‚Ä¢ Plat Kapal (Ship Building Plate BKI) ‚Ä¢ Plat Besi Putih (Cold Rolled Coil / Sheet) JIS SPCC ‚Ä¢ Plat Bordes (Checkered Plate) ‚Ä¢ Plat Lubang (Perforated Plate) ‚Ä¢ Plat Tahan Gesek (Wear-Resistance Plate) ‚Ä¢ Plat Galvanil (Galvaneal) ‚Ä¢ Plat Galvanis (Galvanized) ‚Ä¢ Expanded Metal.4. Carbon Steel Profiles (Besi / Galvanis / Stainless Steel)‚Ä¢ Siku Besi (Angle Bars) ‚Ä¢ Kanal UNP (U-Channel) ‚Ä¢ Kanal CNP (Lip-Channel) ‚Ä¢ (Besi / Galvanis / Stainless Steel) ‚Ä¢ H-Beam I-Beam WF-Beam (Besi / Galvanis / Stainless Steel) ‚Ä¢ Honey Comb ‚Ä¢ Plate Grating Galvanis ‚Ä¢ Kawat Bronjong ‚Ä¢ Plat Galvanis ‚Ä¢ Siku Galvanis ‚Ä¢ Gabion ‚Ä¢ Kawat Bronjong SNI, Straping Band, Plat Timah, dan masih banyak lagi produk-produk kami, segala macam jenis besi dan baja siap membantu bekerjasama dengan semua pelanggan baik dalam kota maupun luar kota atau bahkan luar pulau dan luar negeri. Terimakasih banyak.
 Hormat Kami,Herry Gusmara, S.Sos DirekturHP : 08599.805.8351 (BOS BESI) / 089.8351.8351 (BESI BESI)WA : 082133.555.559 / 081318.455.559 Email : duaputrapetir@gmail.comD/A : Bukit Plama C5/ 33 Citraland Utara SurabayaOur Website :‚Ä¢ www.besi123.com‚Ä¢ www.besisurabaya.com
‚Ä¢ www.duaputrapetir.co.id‚Ä¢ www.pusatbajaindonesia.com
‚Ä¢ www.tokobangunansurabaya.com‚Ä¢ www.jualbesibajasurabaya.indonetwork.co.id ","
              ‚Ä¢ Head Ofice : Bukit Palma C5/33 Citraland Utara Kec. Pakal Kota Surabaya Barat (Sememi - Benowo)‚Ä¢ Phone : 0821-3355-5559 (Call/WhatsApp)            ",SURABAYA,Jawa Timur,+62 821-3355-5559,+62 813-1845-5559,None,,,,
DUA PUTRA PETIR ,"
PREMIUM RUBY
",Kargo & Logistik,"
BISMILLAHIRROHMANIRROHIIM....
 
CV. DUA PUTRA PETIR ( Your Steel Pertner ) Distributor berbagai merek polycarbonate bergaransi 5-10 tahun yang dilengkapi Double Side UV protected 
1. Solar Flat Clear / Colour Plain / Embosed 
2. Solar Tuff Roma / Greeca 
3. X TUFF Roma dan Greeca ( Colour / Clear ) 
4. X Lite 
5. SOLITE 
6. Twinlite 
7. Lexan 
8. POLYBOARD 
9. Sealent Neutral ( Lem PolyCarbonate ) 
10. Sealent Acetic ( Lem PolyCarbonate ) 
11. JASA PEMBUATAN CANOPY / PAGAR Sesuai permintaan 
 
HARGA DIJAMIN MURAH Untuk Info Lebih Lanjut Menghubungi :  
Hp.08599.805.8351 ( BOS BESI ) 
Hp.089.8351.8351   ( BESI BESI )
Email : duaputrapetir@gmail.com 
 
Demikian Penawaran dari kami, besar harapan kami untuk bisa bekerjasama dengan anda dengan memberikan pelayanan yang terbaik penjelasan ringkas Kami juga Bergerak dibidang trading besi dan baja dan alat-alat teknik, memiliki pengalaman yang mumpuni lebih dari 10 tahun, link dan akses bisnis yang luas menjadikan kami harus terus ber inovasi, salah satu melalui bisnis online seperti ini adapun produk-produk unggulan kami adalah :
 
1.Carbon Steel Bars ( besi/ galvanis/ Stainless Steel ) 
‚Ä¢ Besi Beton Polos ( Plain Bars) ‚Ä¢ Besi Beton Ulir ( Deformed Bars) ‚Ä¢ Besi As ( Round Bars) Eq St.41 ‚Ä¢ Besi As ( Round Bars) Eq St.60, St.70, St.90 ‚Ä¢ As Besi Segi Empat ( Square Bars / Vierkan) ‚Ä¢ As Besi Segi Enam ( Hexagonal Bars) ( besi/ galvanis/ Stainless Steel ) ‚Ä¢ Silver Steel-Hollow Bars-Tool Steel ‚Ä¢ Strep Besi ( Flat Bars) ‚Ä¢ Band Eyzer ( Strapping band Plates) 
 
2. Carbon Steel Pipes ( besi/ galvanis/ Stainless Steel ) 
‚Ä¢ Pipa Baja Hitam ( Black Steel Pipes) ‚Ä¢ Pipa Air / Galvanis ( Galvanized Pipes) ‚Ä¢ Pipa Seamless ( Seamless Pipes) ASTM A 53 / A 106 / API 5 L ‚Ä¢ Pipa Pancang ( ERW Pipes) ASTM A 252 ‚Ä¢ Pipa Konstruksi STK-400 ( besi/ galvanis/ Stainless Steel ) ‚Ä¢ Pipa Perabot ( Stalbuist Pipes) ‚Ä¢ Pipa Kotak ( Rectangular & Square Pipes) 
 
3. Carbon Steel Plates ( besi/ galvanis/ Stainless Steel ) 
‚Ä¢ Plat Besi Hitam ( Hot Rolled Coil/ Sheet) JIS SPHC/ JIS SS400/ ASTM A36 ‚Ä¢ Plat Kapal ( Ship Building Plate BKI) ‚Ä¢ Plat Besi Putih ( Cold Rolled Coil/ Sheet) JIS SPCC ‚Ä¢ Plat Bordes ( Checkered Plate) ‚Ä¢ Plat Lubang ( Perforated Plate) ‚Ä¢ Plat Tahan Gesek ( Wear-Resistance Plate) ‚Ä¢ Plat Galvanil ( Galvaneal) ‚Ä¢ Plat Galvanis ( Galvanized) ‚Ä¢ Expanded Metal 
 
4. Carbon Steel Profiles ( besi/ galvanis/ Stainless Steel ) 
‚Ä¢ Siku Besi ( Angle Bars) ‚Ä¢ Kanal UNP ( U-Channel) ‚Ä¢ Kanal CNP ( Lip-Channel) ( besi/ galvanis/ Stainless Steel ) ‚Ä¢ H-Beam I-Beam WF-Beam ( besi/ galvanis/ Stainless Steel ) - Honey Comb - Plate Grating Galvanis -kawat bronjong -plat galvanis -siku galvanis -gabion -kawat bronjong sni , straping band , plat timah , dan masih banyak lagi produk-produk kami, segala macam jenis besi dan baja siap membantu bekerjasama dengan semua pelanggan baik dalam kota maupun luar kota atau bahkan luar pulau dan luar negeri. terimakasih banyak.
 
Hormat Kami
 
Herry Gusmara
Direktur
Telp. : 031-7407380
Fax : 031-7417127 
HP : 0821-33555559 / 08599-8058351
Email : duaputrapetir@gmail.com 
D/A : Bukit Plama C5/ 33 Citraland Utara Surabaya
 
Website :
www.duaputrapetir.co.id
www.besisurabaya.com
www.tokobangunansurabaya.com
www.pusatbajaindonesia.com
www.jualbesibajasurabaya.indonetwork.co.id
www.besi123.com ","
              bukit palma C5/33 Citraland Utara Kec.pakal Kota Surabaya Barat( Sememi Benowo )            ",Surabaya,Jawa Timur,+62 821-3355-5559,+62 813-1845-5559,None,,,,
Jalabuana Mandiri,"
PREMIUM BLUE ONYX
",Kargo & Logistik,"
Jalabuana Mandiri berdiri atas prakarya dan ide besar terhadap sebuah service and solution terhadap semua kebutuhan barang dan jasa khususnya untuk crane construction and mecanical electrical hoisting.
 
Jalabuana Mandiri menyediakan berbagai produk dan service dalam bidang , sebagai beirkut : 
1. Over Head Crane.
2. Hoist Crane.
3. Cargo Lift.
4. Passenger Lift / Elevator
5. Konstruksi baja. 
 
Kami selalu siap sedia Menjadi Mitra dan partner untuk melayani setiap kebutuhan akan produk kami secara cepat tepat dan berkesinambungan, serta mengedapankan service oriented yang menjadi prioritas dan komitmen kepada setiap dan semua coustomer, pelayanan after seles akan memberikan jaminan garansi terhadap produk kami, mengedapankan profesionalitas dan selalu memberikan dan menghadirkan produk produk yang berkualitas.
 
Untuk informasi lebih detail, harap menghubungin : 
 
Jalabuana Mandiri 
CP : 0813 3335 6618 / 031 9917 1407
Pergudangan Legundi Bizpark Blok D11 Legundi, Gresik, Jawa Timur ","
              Pergudangan Legundi Bizpark Blok D-11 Legundi            ",Gresik,Jawa Timur,+62 813-3335-6618,None,None,,,,
PT. Rajawali Trans Logistic,"
                                    PREMIUM GOLD
                                ",Kargo & Logistik,"
PT RAJAWALI TRANS LOGISTICS adalah Perusahaan pengiriman barang domestik swasta yang telah berdiri dan berpengalaman lebih dari 5 tahun. Sebagai penyedia jasa pengiriman barang yang berpengalaman, kami memberikan solusi total rantai pasokan untuk kebutuhan logistik dan manajemen pengiriman (mis. Layanan Door to Door, Pengangkutan, dokumen Pengiriman Barang, dll.)
 
Kami menawarkan semua jenis layanan pengiriman barang di Indonesia, serta transportasi laut internasional. Kami menawarkan solusi transportasi yang disesuaikan dengan kebutuhan dengan harga pasar yang kompetitif. Kepuasan pelanggan adalah prioritas utama kami, kami sangat berkomitmen untuk mencakup seluruh rantai pasokan dengan solusi pengiriman yang dipersonalisasi dan hemat biaya. Kami memastikan bahwa barang Anda sampai di tujuan dengan aman dan dengan harga terbaik. Semuanya diatur oleh tim profesional bermotivasi tinggi dengan latar belakang logistik yang luas. Jadi jika Anda berencana untuk mengekspor atau mengimpor barang dan sedang mencari perusahaan ekspedisi dengan pengalaman dan pengetahuan yang luas tentang peraturan bea cukai di Indonesia, jangan ragu untuk menghubungi kami untuk membantu Anda dalam operasi logistik.
 

TIM KITA
Di PT RAJAWALI TRANS LOGISTICS, kami selalu bekerja dengan hati-hati dalam memilih pribadi yang tepat, berpengalaman, dan sangat terlatih untuk mengelola dan menangani bisnis Anda dengan benar.
 
PENGLIHATAN
Menjadi perusahaan jasa pengiriman dan logistik multinasional di Indonesia.
 
MISI
Membantu pelanggan dalam mengirimkan barang dengan layanan yang sangat baik dan tepat waktu. Dipenuhi dengan tenaga manusia yang andal, transportasi unit tepat waktu, dan harga terjangkau.
 
TAGLINE
‚Äú KEPUASAN PELANGGAN ADALAH HARGA TETAP ‚Äù
 
 
JASA
- Door To Door Project Cargo
- Kargo umum
- Wadah
- Kargo Proyek (mis. Minyak & Gas, Infrastruktur, Proyek Pipa, Semen, dll.)
- Heavylifts dan Turnkey Projects
- Izin Kustom
- Shore Crane, Forklift, dan Unit Medis Lainnya
- Bongkar muat
 
PELANGGAN KAMI
- WIJAYA KARYA, TBK.
- WIKA BETON, TBK.
- ADHI KARYA, TBK.
- WASKITA KARYA, TBK.
- ADHIMIX PRECAST INDONESIA
- STEEL PIPE INDUSTRY INDONESIA (SPINDO)
- PETROWOOD BANGUN MANDIRI
- PENGIRIMAN ADITYA ARYAPRAWIRA
- LAYANAN PEROLEUM HUABEI
- DLL
 
HUBUNGI KAMI
- Jln. Perak Barat No. 171 Surabaya
- (031) 3288-7007-10 / 0813-3250-5800
- rajawalilogistic@gmail.com ","
              KANTOR PUSAT (SURABAYA)üìç Jln. Perak Barat No. 171 SurabayaPHONE / WHATSAPP‚òéÔ∏è 0813-3250-5800‚Äî            ",SURABAYA,Jawa Timur,+62 813-3250-5800,None,None,,,,
SPON BUSA ABADI,"
                                    PREMIUM GOLD
                                ",Kargo & Logistik,"
              HARGA PABRIK! ! MELAYANI ORDER DARI 1 PCS - RIBUAN PCS ( SEMAKIN BANYAK SEMAKIN MURAH) . DARI KUALITAS YANG PALING EKONOMIS HINGGA KUALITAS YANG PALING BAGUS SUDAH BERPENGALAMAN LEBIH DARI 30 TAHUN MELAYANI DARI INDUSTRI KECIL HINGGA BESAR. MELAYANI KEBUTUHAN EKSPORT ANDA. BAIK DARI SEGI BAHAN BAKU, MAUPUN PRODUK JADI.MEMBUAT KASUR UNTUK KEBUTUHAN PONDOK PESANTREN, MESS PERUSAHAAN, KOS2AN, KASUR UNTUK KAPAL, RUMAH SAKIT, PONDOK PESANTREN, MESS, DLL. MELAYANI PABRIK MEBEL, KEBUTUHAN MATRAS UNTUK SEKOLAH DAN INSTANSI OLAHAGA, HINGGA PROYEK2 KHUSUS SEPERTI SPON UNTUK COBLOSAN PILKADA/ PEMILU, ISI TEMPAT PENSIL, DAN LAIN SEBAGAINYA. ANDA ADA PROYEK ATAU LUBANG YANG SESUAI DENGAN BIDANG KAMI TAPI TIDAK TERTULIS DIATAS? JANGAN RAGU UNTUK MENGHUBUNGI DAN BERDISKUSI DENGAN KAMI. SERAHKAN PADA AHLINYA... SPON BUSA PRODUKSI KAMI :POLYURETHANE SPONGE DARI DENSITY 7-50REBONDED SPONGE R70, R100, R120            ","
              Sepanjang - Sidoarjo            ",sidoarjo,Jawa Timur,,,,,,,
safewaygroup,"
                                    PREMIUM GOLD
                                ",Kargo & Logistik,"
              Safeway memiliki pengalaman 13 tahun dalam bidang produksi palet kayu, hingga saat ini Safeway masih terus mengembangkan fasilitas yang dimiliki agar dapat memenuhi kebutuhan kuantitas dari pelanggan tanpa mengurangi kualitas produk. Pabrik produksi Safeway berada di dekat pusat industri seperti di Karawang, Cibitung, Surabaya, Semarang sehingga memudahkan pengiriman barang kepada pelanggan. Palet dari Safeway memiliki kualitas yang baik. Dalam proses penggerjaannya diawasi oleh staff yang telah berpengalaman dan terlatih. Safeway dilengkapi dengan perlengkapan yang menunjang dalam membuat dan mengirimkan tepat waktu dan sesuai anggaran, semua pesanan kebutuhan anda. Palet kayu Safeway melampaui standard dan memenuhi persyaratan pelayaran international. Komitmen Safeway adalah memberikan layanan terbaik untuk kepuasan pelanggan kami. Safeway menyediakan berbagai macam spesifikasi palet untuk setiap industri, selain palet kayu juga tersedia palet plastik dan palet besi. Safeway juga menyediakan pallet kayu custom yang dapat dipesan untuk memenuhi kebutuhan anda.            ","
              Jalan Raya Margomulyo No. 63A Surabaya             ",Surabaya ,Jawa Timur,None,None,None,,,,
CV. AGRO INDUSTRI SURABAYA ,"
                                    PREMIUM GOLD
                                ",Kargo & Logistik,"
Kami Mulai berkembang dan memulai usaha di Surabaya, perkembangan yang begitu cepat mendesak kami beralih ke Kawasan Industri Gresik, demi kelancaran dan kenyamanan dalam pelayanan terhadap Customer Agro Industri Surabaya. Kawasan Industri Gresik terletak sekitar 60 menit dari Bandara Juanda Surabaya, dan sekitar 20 menit dari pusat Kota Surabaya. Hal ini memudahkan akses Jalur ke Pelabuhan Perak, Stasiun kereta api, maupun jalur antar Propinsi. CV. AGRO INDUSTRI SURABAYA RAHMAT HIDAYAT TELP. 031 3989496 HP. 082129847777 , 082129846666 FAX. 031 3980179 Email. industri20344@ gmail.com 29/08/2017
 
tag:
¬© 2016 DAFTAR HARGA BESI BAJA MURAH JUAL BESI BAJA BETON ULIR POLOS PLAT BAJA HITAM PLAT KAPAL BAJA WF H BEAM SIKU BAJA BAJA UNP KANAL U SIKU CNP BAJA KANAL C PIPA HITAM MEDIUM SCHEDULE 40 SCHEDULE 80 PIPA BAJA BESI HOLLOW WIREMESH DISTRIBUTOR PABRIK PRODUSEN GROSIR SUPPLIER JUAL HARGA AGEN BESI BAJA 09/03/2017 ","
              KAWASAN INDUSTRI GRESIK JL. KIG Selatan IV, Kav. 11 Randuagung, Gresik, JAWA TIMUR            ",SURABAYA,Jawa Timur,+62 812-9846-666,None,None,,,,
PT. JAYA UTAMA SANTIKAH,"
PREMIUM RUBY
",Kargo & Logistik,"
PT. Jaya Utama Santikah adalah perusahaan Perseroan terbatas yang bergerak dibidang Perdagangan Umum dan Jasa. Perusahaan kami telah berdiri sejak 1997 di Jawa Timur dengan nama CV. Jaya Santikah, dan ditahun 2008 kami telah berkembang menjadi PT. Jaya Utama Santikah dan kami sekarang memiliki kantor di Jakarta.
 
Sesuai dengan moto kami yaitu membantu akan kebutuhan dalam bidang Jasa Perawatan Kebersihan dan Keindahan pada setiap lingkungan yang dibutuhkan. Seperti halnya yang kami tawarkan Jasa Kebersihan Gedung, Jasa Perawatan Taman Jakarta semua hal itu tentunya dibutuhkan sebuah management khusus agar kegiatan yang berjalan sesuai dengan apa yang diharapkan.
 
Dan kami menyadari tidak semua kantor atau gedung memiliki management khusus kebersihan dan perawatan seperti ini, dan pastinya untuk membentuk management ini juga dibutuhkan sumber daya yang profesional dan memahami setiap langkah apa saja yang harus dilakukan. Dan semua tahap itu tentunya membutuhkan proses yang panjang, untuk mempersingkat waktu dan meminimakan pembiayaan dalam memenuhi kebutuhan perawatan kebersihan kami siap membantu Anda dalam jasa penyedia cleaning service, jasa cleaning service terbaik, jasa perawatan taman Jakarta, jasa kebersihan gedung, jasa kurir antar barang dan distributor alat cleaning service sebagai produk perdagangan kami. ","
              Jl. Daan Mogot KM19 Kebon Besar Batuceper, kota Tanggerng,             ",Smart Market Daan Mogot Blok B No. 5,DKI Jakarta,+62 811-1833-992,+62 812-8998-071,None,,,,
Pressti Cargo ( Pressti Asia Indonesia ),"
PREMIUM RUBY
",Kargo & Logistik,"
PRESSTI CARGO - INTERNATIONAL FREIGHT FORWARDER - CUSTOM CLEARANCE  PRESSTI CARGO ( PT. PRESSTI ASIA INDONESIA ) adalah perusahaan yang bergerak di bidang Jasa Import Import Door To Door, Jasa Import borongan, Jasa Import Undername, Jasa Customs clearance, Jasa Ekspedisi, Jasa Freight Forwarding, Jasa PPJK dan Jasa Export-Import.  JASA FREIGHT FORWARDING PRESSTI CARGO ( PT. PRESSTI ASIA INDONESIA ) membantu anda dibidang Freight Forwarding yaitu pengurusan semua pengiriman dan penerimaan barang melalui darat, laut dan udara.  JASA PPJK PRESSTI CARGO ( PT. PRESSTI ASIA INDONESIA ) membantu anda dalam kegiatan pengurusan pemenuhan kewajiban pabean untuk dan atas kuasa importir atau eksportir.  JASA EKSPOR-IMPOR PRESSTI CARGO ( PT. PRESSTI ASIA INDONESIA )membantu anda memberikan layanan Jasa Ekspor Impor untuk mengurusi barang yang akan anda ekspor maupun impor.  JASA CUSTOM CLEARENCE PRESSTI CARGO ( PT. PRESSTI ASIA INDONESIA ) membantu anda dalam pengurusan customs clearance untuk kegiatan export dan import.  JASA IMPORT DOOR TO DOOR PRESSTI CARGO ( PT. PRESSTI ASIA INDONESIA ) melayani import borongan mulai dari menjemput barang dari shipper dan mengantar sampai ketempat tujuan  JASA UNDER NAME PRESTI CARGO ( PT. PRESSTI ASIA INDONESIA ) Membantu perusahaan-perusahaan yang akan melakukan kegiatan import dari berbagai negara dengan cara Import Lisensi / Under Name,bagi perusahaan yang belum memiliki fasilitas izin import 

PT.PRESSTI ASIA INDONESIA MEMBERIKAN PELAYANAN YANG HEMAT ( MURAH ) DAN CEPAT UNTUK EKSPOR DAN IMPOR BARANG SECARA ‚Äò DOOR TO DOOR‚Äô   Kami adalah spesialis dalam pengiriman barang ekspor dan impor dengan layanan ‚Äò Door to Door Service‚Äô. Melalui layanan ini Kami akan mengangkut barang mulai dari pintu sipengirim sampai ke pintu sipenerima barang. Anda dapat memanfaatkan layanan kami dengan harga terjangkau karena kami menawarkan harga yang kompetitif serta dikombinasikan dengan layanan transportasi cepat ke dan dari berbagai negara di dunia.  JASA FREIGHT FORWARDING ( PT. PRESSTI ASIA INDONESIA ) membantu anda dibidang Freight Forwarding yaitu pengurusan semua pengiriman dan penerimaan barang melalui darat, laut dan udara.  JASA PPJK ( PT. PRESSTI ASIA INDONESIA ) membantu anda dalam kegiatan pengurusan pemenuhan kewajiban pabean untuk dan atas kuasa importir atau eksportir.  JASA EKSPOR-IMPOR ( PT. PRESSTI ASIA INDONESIA ) membantu anda memberikan layanan Jasa Ekspor Impor untuk mengurusi barang yang akan anda ekspor maupun impor.  JASA CUSTOM CLEARENCE ( PT. PRESSTI ASIA INDONESIA ) membantu anda dalam pengurusan customs clearance untuk kegiatan export dan import.  JASA IMPORT DOOR TO DOOR ( PT. PRESSTI ASIA INDONESIA ) melayani import borongan mulai dari menjemput barang dari shipper dan mengantar sampai ketempat tujuan  JASA UNDER NAME ( PT. PRESSTI ASIA INDONESIA ) Membantu perusahaan-perusahaan yang akan melakukan kegiatan import dari berbagai negara dengan cara Import Lisensi / Under Name, bagi perusahaan yang belum memiliki fasilitas izin import
INDONESIA
Pressti Cargo Asia
Our operational hourMon - Sat : 08.00 - 17.00 WIB
AddressJl. Raya Lenteng Agung Kav. 22 no. 20Jakarta Selatan 12610Indonesia
Contact numberPhone : (62-21) 7888 6595 (Hunting)(Mobile) Phone : +62 813 1414 4434 - Ardi(Mobile) Phone : +62 812 8806 5657 - Roki(Mobile) Phone : +62 878 7854 5898 - Yuda
Fax(62-21) 7888 6594 
Emailgeneral@pressticargo.com - general@pressticargo.co.id
Websitewww.pressticargo.co.id
 ( PT. PRESSTI ASIA INDONESIA )  JL. RAYA LENTENG AGUNG KAV 22 NO. 20 JAKARTA SELATAN 12610 Telp : ( 021 ) 7888 6595 Faks : ( 021 ) 7888 6594 Website : www.pressticargo.com  Email: general@pressticargo.com  general@pressticargo.co.id  ","
              Jl. Raya Lenteng Agung Kav. 22 No. 20 Jakarta Selatan             ",Jakarta Selatan,DKI Jakarta,+62 812-8050-7675,+62 813-1414-4434,None,,,,
CV ORIZA SATIVA TRANS,"
                                    PREMIUM GOLD
                                ",Kargo & Logistik,"

Jasa Pengiriman Darat, Jasa Pengiriman Laut, Jasa Pengiriman Udara, Jasa Sewa Trucking, Jasa Pengiriman Via Kapal Pelni, Jasa Pengiriman Container Cargo, Jasa door to door servise, Ke seluruh Indonesia dan Free Biaya Pik Up Untuk Area DKI JAKARTA & Sekitarnya.

Hubungi KamiHp. 6287775918975Email : kirimnusantara75@gmail.com ","
              Jalan Outer Ring Road Kamal Pintu Air No.55 Cengkareng Timur Jakarta Barat Kode Pos 11730  Email : info@kirimnusantara.com            ",JAKARTA BARAT,DKI Jakarta,+62 877-7591-8975,None,None,,,,
JXH CARGO EXPRESS,"
                                    PREMIUM GOLD
                                ",Kargo & Logistik,"
              JXH Cargo Express bergerak di Bidang Jasa Pengiriman Import Borongan Cargo Door To Door Service BY SEA (Laut) LCL & FCL  & BY AIR (Udara) from China, Singapore, HK, TW, Bangkok, Korea, USA dll.Sebagai pendukung kerja yang profesional dan bertanggung jawab kepada pelanggan kami memiliki team kerja yang sudah berpengalaman, Fasilitas gudang yang memadai dan system komunikasi ONLINE. Kami Melayani Jasa Import Borongan Pengiriman barang dengan Harga all in BY SEA FCL, LCL & BY AIR & Kami juga melayani RESMI & UNDERNAME.OUR SERVICES :                          Custom Import # Bill of Loading, Ocean Freight # Loading Container di -                         Pabrik # Pick Up Barang # Warehouse, Trucking # Penitipan Transfer RMB /                         Payment # Pengurusan Tax Refunds, Form E, LS Surveyor, dll.            Untuk informasi selanjut nya silahkan Hub Marketing kami masing-masing.            ","
              Taman Palem Lestari B 3 No.33, Cengkareng, Jakarta Barat             ",Jakarta,DKI Jakarta,+62 813-9922-8882,+62 822-9845-7590,+62 881-1107-181,,,,
PT. Centranusa Pasific Indokargo ( JAKARTA PONTIANAK),"
                                    PREMIUM GOLD
                                ",Kargo & Logistik,"
              JASA PENGIRIMAN BARANG JAKARTA - PONTIANAK ( KAPAL CEPAT) PT. Centranusa Pasific Indokargo adalah Perusahaan jasa pengiriman barang via laut dengan Layanan Port to Port, Port to Door ( Request) . Jasa layanan CPINDOKARGO adalah sebagai berikut :~ Domestik Service: Jasa pengiriman barang / kirim barang / kargo/ cargo laut / paket kilat. Berdasarkan geografis wilayah Indonesia yang terdiri dari kepulauan, kami memberikan alternative layanan pengiriman barang, yaitu Sea Freight - Jasa pengiriman barang domestik melalui laut dengan kapal cepat sendiri.~ Jasa Ekspedisi Laut luar pulau / antar kota lintas pulau / antar kota lintas propinsi, ekspedisi muatan kapal laut-emkl, kapal cepat, kapal cargo, kapal barang, kapal cepat, ekspedisi laut, ekspedisi muatan kapal laut.PT. Centranusa Pasific adalah sebuah perusahaan swasta yang berdiri di Kalimantan Barat pada tahun 2004 dan bergerak dibidang jasa pengiriman barang diseluruh wilayah Indonesia, khususnya pada daerah Kalimantan barat. Adapun yang melatar belakangi berdirinya perusahaan ini adalah ingin turut mendukung perkembangan serta pertumbuhan perekonomian di Indonesia khususnya dalam mendistribusikan barang-barang kebutuhan masyarakat serta kebutuhan Industri secara Fast, Accurate, Safe and Trustworthy sesuai dengan motto perusahaan kami. Kemudian seiring perkembangan serta tingginya permintaan dari customer- customer kami, untuk itu kami dapat membantu mendistribusikan barang-barang sampai dengan baik ke alamat penerima yang di tuju maka kami menyediakan media pendukung seperti armada sendiri dan tenaga ahli yang professional dalam pengiriman barang. Hal itu bertujuan untuk mempermudah mencapai sasaran dan tujuan pelanggan yang ditentukan dan menyediakan armada laut sendiri untuk mempercepat tempuh jarak pengiriman barang milik pelanggan. Perusahaan tersebut memiliki 3 armada juga seperti Kapal kargo Express 1, Kapal kargo Express 2 dan Kapal kargo 88. Rute baru kami akan segera dibuka untuk kota Banjarmasin, Surabaya dan Palembang, hal ini hanya untuk memberikan pelayanan yang terbaik, kemudahan pelanggan serta kepuasan pelanggan dalam pengiriman barang. Berbagai Macam Jenis Barang / Paket Yang Siap Kami Kirimkan Untuk Membantu Anda Atau Usaha Anda Antara Lain :- Dokumen- Pakaian-Tupperware- Segala bentuk Sparepart- Mesin- Konveksi- Percetakan- Besi- Pompa- Alat Listrik- Alat Elektronik- Alat Komputer, aksesoris Komputer dan Tinta Komputer- Alat Berat- Alat Kesehatan- Alat Rumah Tangga- Alat Safety- Motor dan Sparepart Motor- Sparepart Mobil- Makanan Kering- Material Advertising- Biji Plastik ( Specialist)- Dan Lain Lain.Harga terbaik dengan pelayanan terbaik ( Harga Termurah Khusus Pontianak dan Kalimantan Barat ) Promo Harga Undian Setiap Harinya untuk konfirmasi harga terbaik silahkan hubungi kami di 021 6591108 atau 087888676657. dan datang ke gudang kami.            ","
              Jl. Mangga Besar 1 no 61 e            ","Taman sari, Jakarta barat",DKI Jakarta,+62 813-1821-6135,+62 812-8228-8203,+62 878-7853-0177,+62 813-1883-1578,None,None,None
PT. GLORI ARTHA LOGISTIK,"
                                    PREMIUM GOLD
                                ",Kargo & Logistik,"

Dengan Hormat,
 
Perkenalkan kami PT.GLORI ARTHA LOGISTIK salah satu perusahaan jasa Import specialist dalam bidang jasa Import Door to door & Customs Clearance berikut beberapa penawaran Jasa dari kami :

Product dan Services kami antara lain :
 1. Sea and Air Cargo Custom Service.
2. Undername Consignee Services
3. Break Bulk / Conventional
4. Container Cargo Vessel
5. FCL & LCL Agents
6. Heavylift Rental & Leasing
7. PPJK Export Import
8. Inland Transport & Domestic
9. Cargo Insurance
10. Door to Door Service
 
VISI KAMI : ‚Äú Bersama Kami Membangun Negeri ‚Äú
  ","
              Sampoerna Strategic Square 30th Floor South Tower Jl. Jend Sudirman Kav. 45-46 Jakarta 12930                  E-mail : info@pt.glorilogistik.com | www.glorilogistik.com            ",Jakarta Selatan,DKI Jakarta,08119701297,None,None,,,,
SUDA CARGO,"
                                    PREMIUM GOLD
                                ",Kargo & Logistik,"
SUDA CARGO Kami salah satu perusahaan Freight Forwarder yang melayani pengiriman barang import dari luar Negeri ke seluruh Indonesia dengan , LCL / FCL, dengan sistem resmi/legal serta peminjaman Perusahaan/ Undername ( Consignee ) ke seluruh Indonesia. SUDA CARGO mempunyai Agent-Agent di Eropa dan Asia sehingga kami bisa mengerjakan Import borongan all-In dan Door To Door dari negara asal, dengan harga pembelia Ex-Works , FOB, C&F Dan CIF, dengan harga yang kami tawarkan bisa bersaing dengan forwarder lain. SUDA CARGO kami menyedian beberapa legalitas import barang Dengan sistem import undername atau Import borongan undername, adapun beberapa jenis barang yang bisa kami bantu untuk Undername dan borongan all-in sebagai berikut. Mesin Baru/Bekas, Alat Berat, Besi/Baja, Alkes, Garment,Textile, Furniture, Elektronik, Mainan, Kosmetik, Acessories, Chemical,  Spare Parts, Alas Kaki, Keramik,  Makanan & Minuman dan barang Cargo Lainnya Adapun Producs service yang kamitawarkan via udara ataupun via laut sbb : Jasa Customs Clearance Jasa Import Under Name ( Consignee Name )Jasa Import Borongan (All-In) Jasa Import Door to Door Jasa Import Mesin BekasJasa Domestics antar pulau  Untuk keterangan lebih lanjut mengenai import jangan segan ‚Äì segan untuk menghubungi kami.  SUDA CARGOJl.Raya Pondok Gede No.37,Pinang Ranti Jakarta Timur 13560 Indonesia M  : 0812 1275 3999 / 0818 0621 2727 ( FAISAL )W : http://www.jasaimportborongan.com/ ","
              GRAHA EMRE Lt.IV Room 202A Jl.Raya Pondok Gede No.37, Pinang Ranti, Jakarta Timur            ",Jakarta Timur,DKI Jakarta,081212753999,081806212727,None,,,,
PT. SELARAS XPRESS YAKSAMAKI,"
                                    PREMIUM GOLD
                                ",Kargo & Logistik,"
              JASA PENGIRIMAN BARANG DAN DITRIBUSI MURAH SE-INDONESIA, EXPEDISI OPTMAL DAN BERKUALITAS, TRUCKING, PENGIRIMAN UDARA, DARAT, LAUT, ANTAR KOTA ANTAR PROVINSI, ALL PULAU ( SUMATERA - JAWA - KALIMANTAN - BALI - SULAWESI - PAPUA - MALUKU - NTT - DAN KOTA LAINNYA) HOT LINE : 021 - 97256500 HP : 0812 8653 1988 PT. SELARAS XPRESS YAKSAMAKI ( SEXY-LOGISTIC) adalah perusahaan jasa ekspedisi dengan konsep layanan dan harga yang optimal serta berkualitas. Layanan ekspedisi yang dapat diakses oleh semua pelanggan, baik klien perusahaan maupun klien perorangan. PT. SELARAS XPRESS YAKSAMAKI ( SEXY-LOGISTIC) memiliki cabang & agent diseluruh wilayah Indonesia, serta menjalin kerjasama dengan maskapai penerbangan dan pelayaran utama di Indonesia. Update terhadap teknologi terkini di bidang jasa Ekspedisi, juga dilakukan secara terus menerus terhadap sistem dan personil yang menjalankan, sehingga dapat menjamin keamanan barang dan ketepatan waktu pengiriman barang. PT. SELARAS XPRESS YAKSAMAKI ( SEXY-LOGISTIC) siap melayani setiap kebutuhan pelanggan, dengan cara yang praktis dan disesuaikan dengan kebutuhan masing - masing pelanggan. Macam - macam paket & dokument yang siap kami kirimkan untuk membantu Perusahaan atau Produk anda : Sparepart, Mesin, Unit, Trackor, Exavator, Konveksi, Cetakan, Besi, container, pompa, alat listrik, alat savety, alat kesehatan, alat bantu, crane, mobil, motor, karet, makanan, karpet, advertising, dll. PT. SELARAS XPRESS YAKSAMAKI ( SEXY-LOGISTIC) memiliki cabang dan agent yang tersebar diseluruh Indonesia, yaitu : Aceh, Medan, Pekanbaru, Padang, Jambi, Bengkulu, Palembang, Bandar Lampung, Jakarta, Bogor, Depok, Bekasi, Tanggerang, Bandung, Purwokerto, Yogyakarta, Solo, Magelang, MAdiun, Semarang, Surabaya, Malang, Mojekerto, Bali, Denpasar, Balikpapan, Banjarmasin, Palangkaraya, Manado, Palu, Kendari, Pare - pare, Samarinda, Ujung Pandang, Maluku, NTT, NTB, Ambon, Jayapura, Berau, Batu licin, Sebuku, Martapura, Sorong, Manokwari dll. Layanan Expedisi murah, jasa pengiriman, jasa trucking, pengiriman darat, pengiriman udara, pengriman laut, sewa armada, kargo ( kargo) bandara, pelabuhan, expor - impor ( export - import) , titipan kilat, pengiriman kilat, pegiriman cepat, delivery service, expedisi cepat, logistik ( logistic) , door to door service, door to port, port to port, port to door, one day service, ons, yes, satu hari sampai, same day service.            ","
              jl. Pd. kelapa Raya no. B14 RT.06 RW.04pondok kelapa - Duren sawit - jakarta timur 13450            ",Jakarta Selatan,DKI Jakarta,+81 28-653-1988,None,None,,,,
ROXTRADE INDUSTRIES CO. LTD.,"
                                    PREMIUM GOLD
                                ",Kargo & Logistik,"
              ROXTRADE is the trademark of our business.We Roxtrade Industries Co., Ltd. is a China based company.An international industrial supplier.The global channel for local requirements.Contact us at:
Telp/Fax: +62-21-62305572
Mobile call: +6282217228095
WhatsApp: +628176636898E-mail: info@roxtrade.com            ","
              Lindeteves Trade Center (LTC Glodok) SB-A1/3, Jl. Hayam Wuruk No. 127, Jakarta 11180, Indonesia.Telp: +62-21-62305572Fax: +62-21-62305572Mobile call: +6282217228095WhatsApp: +628176636898E-mail: info@roxtrade.com            ",Jakarta Barat,DKI Jakarta,+62 817-6636-898,None,None,,,,
