Name,Membership,Category,Description,Address,City,Province,telp1,telp2,telp3
RAJAWALI MITRA SEGEL,"
                                    PREMIUM GOLD
                                ",Pengaman Barang,"
Rajawali Mitra Segel adalah sebuah perusahaan yang berlokasi di Tangerang, Indonesia. Perusahaan kami menyediakan berbagai jenis segel drum besi / plastik (Steel / Plastic Cap-Seal), ring plastik (Plastic O-Ring), timah dan kawat segel (Tin and Wire Seal), alat segel drum besi (Tooling / Crimping Tool), tutup drum besi (Steel Drum Plug / Closures) dan alat pembuka tutup drum (Drum Plug Opener).Kami juga melayani jasa sablon atau emboss segel drum besi dengan LOGO perusahaan Anda.Untuk informasi lebih lanjut mengenai produk kami, silahkan hubungi kami di nomor-nomor berikut. Office: (021) - 5400 247 / 5400 588 Fax: (021) - 5400 764 Mobile:  0819 3298 9851 (Bp. Risfan) ","
              Ruko Taman Mahkota Blok A2 No. 29, Jl. Hussein Sastranegara
Kel. Benda, Kec. Benda, Tangerang, Indonesia            ",Tangerang,Banten,+62 819-3298-9851,None,None
PT. BEN GOLAN BERKARYA,"
PREMIUM RUBY
",Pengaman Barang,"
Selamat Datang di Website PT. Ben Golan Berkarya. Kami merupakan perusahaan yang bergerak dalam industri Alat Proteksi Diri dan Keamanan, Alat Pertahanan Diri, Eye Protection, Face Protection, First Aid Kit, Alat Detector, Hearing Protection, Masker, Rompi, Helmet, Fire Extinguisher, Marka Jalan, Safety Shoes, Marine Equipment, Safety Sign, Head Protection, Wearpack, Sarung Tangan, EEBD (Emergency Escape Breathing Escape), Eye Wash, Body Harnes, GPS DAN NAVIGASI, Material Handling, dll.Kami Adalah Perusahaan Berkembang Yang Melayani Penjualan Secara Eceran Dan Grosir Ke Seluruh Indonesia. Menyediakan Segala Perlengkapan Untuk Keselamatan Kerja (Safety Equipment) Dan Perlengkapan Perkapalan (Marine). Kami Juga Menerima Pesanan Khusus Untuk Seragam Kerja,Pdh/Pdl Dan Menerima Pesanan Khusus Kabel Tray.

MEDAN:
Jl. Gunung Krakatau No.83 Glugur Darat II Kec. Medan Timur - Medan Sumatera Utara 20238
 
JAKARTA:
MGK Kemayoran Lantai GF Blok A3 No.2 Jalan Angkasa Kav.B6 Kota Baru Bandar Kemayoran, Jakarta Pusat
 
BALI:
Simpang 6, Jl.Pulau Rembulan No 15 Denpasar - Bali  ","
              Jl. Gunung Krakatau No.83 Glugur Darat II Kec. Medan Timur - Medan            ",Medan,Sumatera Utara,+62 811-909-805,None,None
CV. CEMARA PLASTIK MEDAN ,"
                                    PREMIUM GOLD
                                ",Pengaman Barang,"
              PT. CEMARA PLASTIK NUSANTARA adalah anak Perusahaan dari PT. SINAR SURYA ABADI SEJAHTERA yang berkedudukan di Jakarta.Perusahaan Kami memprodukasi dan menjadi Distributor dari semua jenis kebutuhan kemasan plastik untuk pertanian, peternakan, perkebunan dan industri.Kami juga menyediakan produk-produk derivatif seperti Karung Plastik ( Goni) ,Karung Laminating, Polinet, terpal plastik, waring sayur, waring ikan, paranet ( shading net) mulsa plastik, tali plastik, dan Selang drip untuk irigasi. Untuk info lanjut hubungi Team Marketing Kami:Hendra Lim (082168535916)Sriyono (081385042865)Endrik (081376403459)Office : (061) 80033991Email  : cemara_plastik@yahoo.com            ","
              Komp. Pergudang Cemara No.70 Jl. Irian barat (pasar hitam) - Sampali Medan            ",Medan,Sumatera Utara,+82 16-853-5916,None,None
PT. DAMASES SEJAHTERA,"
PREMIUM RUBY
",Pengaman Barang,"
              PT Damases Sejahtera adalah Perusahaan yang bergerak di bidang produksi dan perdagangan aneka produk penyerab kelembaban udara (desiccant) , yang berfungsi untuk menyerab kelembaban udara (humidty) untuk mencegah timbulnya jamur, korosi (karat), produk menjadi basah, label terlepas, peregangan pada perekat dan efek yang merugikan lainnya yang berhubungan dengan kelembaban udara selama barang disimpan di dalam gudang maupun selama pengiriman di dalam kontainer.Didirikan sejak tahun 2004 oleh Ir. Lazarus Arintoko dan Agus Mulia dengan pabrik seluas 3.600 M² di Klaten, Jawa Tengah, PT Damases Sejahtera secara berkesinambungan terus mengembangkan produk penyerap kelembapan udara dengan berbagai terobosan/inovasi baru untuk menjaga dan meningkatkan kualitas produknya.            ","
              Jln. Gading Permai Raya Blok AZ19-20 Grogol Grogol, Sukoharjo            ",Sukoharjo,Jawa Tengah,+62 812-5881-667,None,None
cv tiga saka,"
                                    PREMIUM GOLD
                                ",Pengaman Barang,"
CV. Tiga Saka merupakan perusahaan yang memulai bisnisnya sebagai suplier polynet roll ( fruit bag ). Saat ini perusahaan kami adalah salah satu perusahaan yang di percaya mendistribusikan produk plastik wrapping dengan merk Haiwa, Best Fresh, untuk memenuhi kebutuhan industri di bidang Perhotelan, Rumah sakit, Restoran, Catering service, Supermarket, Fishery, Bakery & cake shop, General food packaging, dan Agro bussiness.Kami menyadari hal tersebut sepenuhnya dan bertekat mampu menjadi partner terpercaya yang memahami kebutuhan pelanggan. diwujudkan dengan mengembangkan kultur perusahaan yang berfokus pada customer, ditunjukan dengan usaha berkesinambungan dalam melakukan inovasi yang memicu nilai tambah nyata produk dan meningkatkan kualitas layanan secara penuhKesemuanya itu dengan tujuan memberikan pengalaman interaksi yang menyenangkan terhadap pelanggan, produk, layanan dan solusi.Adapun Produk-produk yang kami jual :- Perforated Bag and Polynet- Tray Foam- Impulse Sealer- Mesin Wraping Plastik- Aluminium Foil Roll- Plastik Wraping merk “Best Cling”- Plastik Wraping merk “Raypin”- Plastik Wraping merk “Bset Fresh”- Plastik Wraping merk “Haiwa""- Foamnet- Lakban buah&sayurUntuk Informasi dan Pemesanan bisa langsung menghubungi kami di kontak yang tersedia. ","
              Jl. RM. Soebagiono Tjk Bentulu No. 1 Karangmalang - Mijen - Semarang Jawa Tengah            ",Semarang,Jawa Tengah,+81 575-52-7889,None,None
PT. ANUGRAH PUTRA KENCANA,"
PREMIUM RUBY
",Pengaman Barang,"
PT. Anugrah Putra Kencana adalah perusahaan yang bergerak dalam bidang perdagangan umum atau industry supply seperti : kimia industri, kimia analis, glassware ( alat-alat laboratorium ), laboratorium instrument, laboratorium equipment, furniture lab ( lemari Asam, wall bench, island bench, balance table, lemari kimia, lemari glassware ), timbangan analis, chain dan kebutuhan industry lainnya.Kami memiliki principal dari Jerman, Rusia, Korea, Japan, China, Taiwan, India, dan juga beberapa pemasok lokal yang mendukung bisnis kami sampai sekarang.PT. Anugrah Putra Kencana corporation specializes in the field of general trading / supply industries such as chemical industry, chemical analysts, laboratory glassware equipments, laboratory instruments / equipments, laboratory furniture ( Fume hood, wall benches, island benches , balance tables, chemicals storage cabinet, glassware storage cabinet ),  analytical balance and chain.We have principals from the following countries: Germany, Russia, Korea, Japan, China, Taiwan, and India, as well as local suppliers who continue in supporting our business.  ","
              Pergudangan Segitigamas Pintu 6 UKM center Jl. Samsung IIc Blok C3i            ",Bekasi,Jawa Barat,+62 821-1399-3562,+62 877-4142-8040,+62 896-0555-3944
PT. Mandiri Niagamas Cemerlang,"
                                    PREMIUM GOLD
                                ",Pengaman Barang,"
PT. MANDIRI NIAGAMAS CEMERLANG adalah perusahan penyedia alat kebutuhan industri seperti :
 1. Gland Packing 2. Sheet Packing 3. Rubber Packing 4. Conveyor Belt 5. Industrial Machine 6. Machining 7. Heat Insulation 8. Rubber Lining 9. Casting 10. Mechanical Seal 11. Manufacturing 12. Elastomer Bearing Pad 13. Chemical Coal Additive 14. Heater Element 15. Pallet Kayu 16. Coarse River Aggregate ( Kerikil ) 17. Rubber Fender 18. Pressure Gauge 19. Vibrator 20. Valve 21. Handling Equipment 22. Bearing 23. Clutches & Breakes 24. Universal Joint & Cardan Shaft 25. Conveyor Chains 26. Chains 27. Pulley 28. Coupling 29. Gearbox & Wormgear 30. Gearmotor 31. Electric Motor 32. Control System 33. Hose 34. Slitter 35. Roll Conveyor 36. Pulley Conveyor 37. Pneumatic 38. HydraulicKami berkomitmen untuk memberikan pelayanan terbaik kepada semua klient kami dari setiap produk yang kami tawarkan.Contact Us :PT. MANDIRI NIAGAMAS CEMERLANGOffice     : Jl. Raya Cikarang - Cibarusah No 27, Lippo Cikarang – BekasiPhone     : 021 - 8990 0912Fax       : 021 – 8990 0912         Mobile    : 0812 8132 3388 // 0877 8913 6128Whatsapp : 0877 8913 6128Email     : mandiriniagamascemerlang@gmail.com ","
              Jl. Raya Cikarang - Cibarusah No. 27 , Lippo Cikarang - Bekasi            ",Bekasi,Jawa Barat,+62 877-8913-6128,None,None
PT EDPACK KARUNIA PERSADA,"
                                    PREMIUM GOLD
                                ",Pengaman Barang,"
Sekilas PT Edpack Karunia Persada
PT Edpack Karunia Persada atau yang juga dikenal dengan Brand Edpack Persada merupakan perusahaan yang hingga saat ini bergerak dibidang produksi atau manufaktur produk-produk kemasan industri dan sekaligus mendistribusikan dan mensupply produk-produk industri tersebut ke berbagai Perusahaan di berbagai lokasi.
Bekerjasama dengan Berbagai Perusahaan
PT Edpack Karunia persada selama dalam menjalankan usaha dibidang produk-produk kemasan industri, telah mendistribusikan dan bekerjasama dengan berbagai perusahaan di berbagai lokasi baik perusahaan skala lokal, nasional maupun multinasional. Berbagai Jenis Perusaahaan tersbut misalnya :

perusahaan-perusahaan Semen, Semen Instan, Semen Mortar, Semen Putih
Perusahaan-perusahaan Makanan dan Minuman atau Food and beverage
Perusahaan-perusahaan dengan produk-produk makanan yang bersifat organik
Perusahaan-perusahaan arang seperti arang aktif, arang kelapa, arang kayu dan lainnya
Perusahaan Karbon Aktif
Perusahaan -Perusahaan kimia atau chemical company dengan berbagai jenis produk
Perusahaan Teh
Perusahaan dengan produk Aspal Dingin atau Cold Mix Asphalt
Perusahaan dengan produk-produk sabun dan sejenisnya
Perusahaan dengan produk biji plastik, compund dan sejenisnya
Perusahaan-perusahaan dengan produk-produk tekstil dan sejenisnya
Dan Berbagai Jenis Perusahaan lainnya

Produk produk PT Edpack Karunia Persada digunakan baik untuk keperluan lokal ataupun internasional atau export. Kedepannya PT Edpack Karunia Persada akan tetap menjalin kerjasama dengan berbagai jenis perusahaan atau pelaku industri lainnya.
Berpengalaman dibidangnya 
PT Edpack Karunia Persada telah berpengalaman dibidang produksi atau manufaktur dan distribusi produk-produk kemasan industri ke berbagai jenis industri. Produk-produk kemasan industri yang hingga saat ini kami produksi dan supply atau distirbusikan keberbagai perusahaan adalah :
Kemasan Kertas
Produk Kemasan kertas merupakan produk kemasan yang berbahan utama terbuat dari kertas. Produk-produk kemasan kertas misalnya Karung Kertas (Paper Sack) seperti Karung Kertas Kraft, Karung kertas laminasi woven (Sandwich Bag), karung kertas laminasi Aluminium Foil dan Karung kertas Laminasi PE coated, Siku Kertas (Paper Angle), Pallet Kertas (Paper Pallet), Tabung Kertas (Paper Core dan paper tube), Karton Box (Cartoon box), Honeycomb core dan Honeycomb Board
Kemasan Plastik
Produk Kemasan plastik adalah produk kemasan industri dengan berbahan utama terbuat dari jenis plasstik dan atau woven. Produk Produk Tersebut misalnya adalah Karung Woven (Woven Bag), Karung Jumbo (Jumbo Bag), Plastic Bag seperti HDPE, LLDPE dan PP, Plastic Vacuum, Pallet Plastik, Plastik Wrapping, Strapping Band, Infraboard
Kemasan Kayu
Produk Kemasan kayu merupakan produk dengan berbahan utama dari Kayu baik kayu mentah ataupun kayu olahan. Produk Tersebut misalnya Pallet Kayu (Wooden Pallet) dan Box Kayu (Wooden Crate). Produk ini tersedia dengan kualitas lokal dan kualitas ISPM No.15
Mengapa Bekerjasama dengan PT Edpack Karunia persada dalam memenuhi kebutuhan perusahaan anda akan produk kemasan industri adalah pilihan yang tepat? Hal ini tidak lepas dari apa yang menjadi Visi dan misi perusahaan, Sasaran mutu dan Motto atau slogan perusahaan serta nilai nilai perusahaan yang kami tanamkan pada segenap Team perusahaan dalam beraktivitas sehari hari.
Visi dan Misi PT Edpack Karunia Persada
Dalam menjalankan usahanya PT Edpack Karuia Persada memiliki visi dan misi dan komitment yang menjadi acuan dalam menjalankan usahanya sehari hari. adapun yang menjadi visi dan misi perusahaan adalah :
VISI PT EDPACK KARUNIA PERSADA
Menjadi Perusahaan yang Terpercaya, handal, cepat dan tepat serta komunikatif dalam menangai semua bisnis perusahaan dan menjadi perusahaan rujukan bagi pelanggan-pelanggan dan pasar dalam memenuhi kebutuhan mereka dan relasi mereka sehubungan dengan produk-produk kemasan baik untuk keperluan skala lokal, nasional dan internasional
MISI PT EDPACK KARUNIA PERSADA
Komitement penuh dalam menjawab kebutuhan pelanggan dan pasar yang semakin berkembang melalui penyediaan produk-produk yang berkualitas. Cepat, Tepat dan akurat dalam menjawab dan menyelesaikan permasalahan yang ada. Komunikatif dan persuasif dalam mendengar pelanggan. Trampil dan terlatih dalam menyelesaikan tugas dan tanggungjawab serta kewajiban. Pelayanan yang ramah dan management yang sistematis, terkendali dan terpercaya
SASARAN MUTU PT EDPACK KARUNIA PERSADA
Berusaha penuh dalam mencapai tingkat kepuasan Pelanggan dengan zero complaint serta efektifitas dan efisiensi proses produksi dan pelayanan pelanggan
MOTTO PT EDPACK KARUNIA PERSADA
PT Edpack Karunia Persada memiliki Motto atau slogan dalam berusaha yang kami singkat sebagai ""INNER QUALITY ONE STOP SERVICE"" yang merupakan singkatan dari Innovative, Excellence, Respect, Quality, dan One Stop Service. Berikut apa yang menjadi penjelasan dari Motto atau Slogan Peruahaan PT Edpack Karunia Persada :

Innovative : Perusahaan senantiasa melakukan inovasi baik pelayanan maupun produk dan jasa perusahaan dei mncapai visi dan misi perusahaan serta sasaran mutu perusahaan dalam berusaha.
Excellence : Bahwa Perusahaan senantiasa berusaha menyediaan produk dan jasa yang terbaik, pelayanan yang terbaik demi mencapai tujuan perusahaan serta visi, misi dan sasaran perusahaan dalam beraktivitas
Quality : Bahwa PT Edpack Karunia Persada dalam menjalankan usahanya senantiasa menyediakan produk dan jasa yang berkualitas, memenuhi standard kualitas yang terbaik sehingga produk dan jasa tersebut digunakan oleh pelanggan sesuai expektasi sehingga tercapai kepuaan pelanggan
One Stop Service : Bahwa PT Edpack Karunia Persada dalam menjalankan usahanya berusaha untuk menyediakan berbagai jenis komunikasi yang cepat dan tersedia baik melalui komunikasi langsung, chatting, maupun komunikasi melalui situs dan email sehingga pelayanan produk dan jasa perusahaan dapat diakses kapanpun dan dimanapun

Nilai Nilai Berusaha PT Edpack Karunia Persada
Nilai nilai PT Edpack Karunia Persada dalam menjalankan usaha sehari hari :

Bagi Kami, pelanggan bukanlah sarana untuk mendapatkan keuntungan semata, tetapi adalah Mitra Keluarga perusahaan yang harus tetap eksis, berkembang dan berkelanjutan dalam usahanya. Relasi jangka panjang dengan pelanggan serta kepercayaan pelanggan adalah hal yang tetap kami jaga.
Bagi Kami, Kualitas Produk dan pelayanan adalah hal yang sangat penting dan merupakan inti dari semua produk dan jasa yang kami sediakan
Bagi kami, Memberi kemudahan dan rasa nyaman bagi pelanggan dalam bekerjasama dengan kami adalah hal yang sangat mendasar. Kemudahan dalam mendapatkan produk berkualitas, kemudahan dalam berkomunikasi dan kemudahan dalam menyelesaikan berbagai permasalahan yang ada.
Bagi kami, Pelayanan yang ramah, komunikatif dan persuasif, pengiriman produk yang cepat, harga yang terjangkau, kualitas produk yang terjamin, tenaga kerja yang trampil, handal dan terlatih adalah hal yang menjadi faktor utama untuk mencapai kepuasan pelanggan.
Bagi Kami, tetap bersama pelanggan adalah suatu kewajiban. Untuk itu kami menyediakan layanan konsultasi dan layanan purna jual kepada semua pelanggan pelanggan kami

Segeralah bekerjasama dengan PT Edpack Karunia Persada. PT Edpack Karunia Persada akan melayani anda dengan baik. Hubungi kami segera. PT Edpack Karunia Persada hadir untuk anda.




PT.EDPACK KARUNIA PERSADA - PACKAGING MANUFACTURER
Email  :  csupport@edpackpersada.com
Web    : https://www.edpackpersada.com 

 
Follow Us On
 
        
Paper Packaging Division :  Paper Sack, Paper Angle, Paper core, paper pallet, honeycomb, paper box, 
Plastic Packaging Division :  Paper vacuum bag, Plastic Bag, Woven Bag, Jumbo Bag, Plastic Wrapping, Plastic Pallet, Strapping Band
Wooden Packaging : Wooden Pallet, Wooden Crate ISPM 15 quality
Other packaging : Jute Bag (Karung Goni) 
 
 
 



 ","
              Jl. Irigasi Komplek Edpack Persada No 1 RT 002/RW 003, Ciranji Barat, Ragemanunggal, Kecamatan Setu, Bekasi Jawa Barat 17320            ",setu bekasi ,Jawa Barat,+62 877-3561-5426,None,None
CV. Asstraco,"
PREMIUM RUBY
",Pengaman Barang,"
CV. ASSTRACO SURABAYA berdiri sejak tahun 1988 dengan tujuan untuk membantu mengembangkan perekonomian masyarakat di Indonesia, khususnya di bidang Plastik. CV. ASSTRACO SURABAYA telah melayani konsumen dengan motto 4K : Komitmen, Kualitas, Kecepatan, dan Ketepatan.
Seiring berjalannya waktu, CV. ASSTRACO menjadi General Supplier terpercaya di Surabaya. Berbagai produk baru kami luncurkan hanya untuk kepuasan konsumen, diantaranya : Tali PE, Tali Tampar, Selang air Milliard, Terpal Plastik berbagai macam ukuran, Kain Layar, Kain Gelaran, berbagai macam Waring berkualitas tinggi seperti : Waring Hitam, Waring Paranet, Polinet / Safety Net dan lain-lain.
Kami Menjual : Karung Plastik,Tali,Terpal Plastik,Besi Baja,Selang Milliard,Kain Layar. ","
              Margomulyo permai blok AH-22 AsemRowo            ",Surabaya,Jawa Timur,+62 812-2294-5151,None,None
"AVODAMITRA INDOTECH, CV","
PREMIUM RUBY
",Pengaman Barang,"
              TIMBANGAN DIGITAL / WEIGHING SCALE : Jembatan Timbang , Conveyor Belt scale , Bagging Scale , Batching scale , AMP Scale , Batching plant scale , Floor Scale , Bench Scale , Timbangan hewan , Timbangan sapi , Timbangan emas , hand pallet scale , pocket scale , loadcell , waterproof scale BEST BRAND ; USA , EUROPE , JAPAN , KOREA , CHINA , TAIWAN , INDONESIA PROGRAM APLIKASI TIMBANGAN Program jembatan timbang , AMP , Batching plant , Chek weigher , belt scale , industrial automation MELAYANI SERVICE SEMUA MERK DAN TERA METROLOGY LEGAL TOTAL INDUSTRIAL MACHINERY : Stones Crusher Plant, Batching Plant , Bagging Scale , Conveyor Check Weigher , Conveyor belt scale , Aspalt mixing plant INDUSTRIAL AUTOMATION ; Electrical and control panel touch sceen , programable , database INDUSTRIAL INSTRUMENT Floow control, Temperatur control , Mouisture control TOTAL Weighing Solution and Automation            ","
              OFFICE 1 / WORKSHOP : Jl. Pranti Semampir RT 10 / RW 04, Samping Perum OASIS Village, Sedati, Sidoarjo 61253OFFICE 2 : Jl. Gunung Anyar Tengah No. 58A, Surabaya 60294 , Telp           ;  081357505788 081331599789Email        ;  avodamitra@yahoo.com            ",Sidoarjo,Jawa Timur,+62 813-5750-5788,+62 813-3159-9789,None
ASIA PERDANA ABADI,"
                                    PREMIUM GOLD
                                ",Pengaman Barang,"
Kami menyediakan berbagai produk dengan spesifikasi yang anda butuhkan , Kami juga merupakan Badan Usaha yang bergerak  di bidang Perdagangan dengan spesifikasi sebagai Supplier Peralatan teknik,Peralatan SPBU Pertamina,Gasket Packing, Komponen Mesin Industri serta menangani project.
Kami menyediakan berbagai kebutuhan akan Perlengkapan Industri seperti: - VALVE - FITTING - PIPA - SEAL - GASKET - KAWAT LAS - BERBAGAI KOMPONEN / ALAT FABRIKASI YANG DISESUAIKAN DENGAN KEBUTUHAN SPECIFIK ANDA.
Kami menawarkan berbagai Produk tersebut dengan Specifikasi atau Brand yang Anda butuhkan dengan disertai Sertifikat yang menjamin Keaslian Produk ataupun Specifikasi Produk.. 
untuk mendapatkan informasi silahkan kunjungi / hubungi kantor kami , Terima kasih
Asia Perdana Abadi
 JL .  WIGUNA   1  No. 57 , Surabaya ( OFFICE 1 )JL. NEW GREEN HILL RESIDENCE 2 BLOK DD 11 (OFFICE 2)
( Warehouse ) . JL . Gunung Anyar Jaya Masjid  No. 36 . Rungkut , Surabaya.
Jatim - Indonesia
Telp  : 031 - 8711586
Fax   : 031 - 8711586
Telkomsel Office  : 0851-01476326
Email :  ( asiaperdanaabadi@yahoo.com ),( asiaperdanaabadi@gmail.com
Hubungi Marketing kami :
   –  Eko  SE, (081- 23266026  / WA  )  
–  Deddy, ST ( 0856- 4846-8999 / WA )
–  Avonda SE, ( 085100 21 0161 – 0858 50300 234 )
 
  ","
              JL. WIGUNA 1 No.57 Surabaya (OFFICE 1)JL. NEW GREEN HILL RESIDENCE 2 BLOK DD 11 (OFFICE 2)Gunung Anyar Jaya Masjid No. 36 Surabaya (WAREHOUSE) ",Surabaya,Jawa Timur,+62 812-3266-026,+62 858-5030-0234,+62 856-4846-8999
PT. CIPTA TUNAS SAKTI,"
                                    PREMIUM GOLD
                                ",Pengaman Barang,"
              PT. Cipta Tunas sakti merupakan perusahaan khusus menyediakan plastic packaging dengan kwalitas standart nasional dan internasional.Kami mensuply dan mendistribusikan plastic packaging di seluruh wilayah indonesia kami juga sangat berpengalaman di bidang plastic packaging selama 18 tahun sehingga bisa menjadi jaminan untuk produk pesanan anda. Produk kami antara lain, PVC Shrink, POF Shrink, PE Shrink, Stretch Film, OPP Tape, Strrapping band, PE Foam, Polycell, Lid Cup, PET Green Embos, Label, Segel, Tissue galon, Plastik HD, Plastik PE, Plastik PP, Kantong Sampah, Polybag, Plastik Vacum, Standing Pouch, OPP Bag, Perforeted Bag, CPP Transparan, seal sapu, seal sodok, Plastik preform, Galon, Botol plastik, Gelas plastik. Kami akan memberikan jaminan kualitas dan layanan yang optimal.terima kasih atas kunjungan anda dan silakan melihat produk2 kami, jika ada pertanyaan silakan hubungi kami Terimakasih, Cipta Tunas Sakti            ","
              Jl.Sedayu  No. 23C            ",Surabaya,Jawa Timur,+62 822-3250-2667,None,None
CV. HUMIA DESTINDO,"
                                    PREMIUM GOLD
                                ",Pengaman Barang,"
CV. HUMIA DESTINDO adalah perusahaan swasta yang bergerak dibidang Perdagangan Umum (General Trading Supplier) untuk beberapa produk penunjang kebutuhan industri dan Kargo Kontainer khususnya untuk produk Silica Gel, Humiabsorbent Desiccant, Swipe-All Absorbent dan Hi Dryers Desiccant.
Untuk produk-produk yang kami pegang selama ini adalah produk berkualiatas dan terpercaya di dunia industri diantaranya yaitu :
1. Humiabsorbent Desiccants
Desiccant penyerap kelembaban untuk Kontainer dan kemasan tertutup agar tidak menimbulkan jamur, basah, karat dan kerusakan akibat ditimbulkan dari efek kelembaban yang tidak terkontrol dengan baik.
Humiabasorbent CaCl2 (Calcium Chloride) dengan spesifikasi berat 5 gram hingga 1000 gram
 

2. Hi Dryers Desiccants
Desiccant dengan berbahan dasar Mineral Clay + CaCl2 + Starch hadir dengan spesifikasi berat 1000 gram dan dengan kemasan packaging PE Pastics dan Spunbound, serta dengan harga kompetitif.
3. Silica Gel
Silica Gel dengan spesifikasi berat 1 gram, 2 gram, 5gram dan customize packaging

4. Swipe-All 
“Solusi lap modern, lebih praktis dan ekonomis”
Tissue industry pengganti kain majun yang praktis, efisien dan higenis serta dapat meminimalkan biaya pembuangan limbahnya, mudah penggunaannya dan dapat dicuci kembali 3x pakai.
Kami berdomisili di Surabaya - Jawa Timur siap melayani kebutuhan anda sampai seluruh Indonesia.
Head Office :
Jl. Kutisari Utara III No. 37
Surabaya 60291
Jawa TimurTelp. 031 3739 8974
 
Haidir AS
Sales Regional Manager
Call & WA  : 081 2712 5550
Email        : sales@humiadestindo.id
                  cvhumiadestindo@gmail.com
Homepage : www.humiadestindo.com
  ","
              Jl. Kutisari Utara III No. 37Surabaya 60291            ",Surabaya,Jawa Timur,+62 812-7125-550,None,None
UD. SIDO MUMBUL,"
                                    PREMIUM GOLD
                                ",Pengaman Barang,"
              UD. SIDO MUMBULPerusahaan kami bergerak di bidang distribusi barang pecah belah / bolo pecah, plastik rumah tangga, peralatan / alat dapur ( kitchen wares) dan kebersihan ( cleaning equipments) , perlengkapan rumah tangga ( house wares / home appliances) dan kebutuhan industri ( industrial wares) lebih dari 30 tahun di Pasar Turi, Surabaya. Kami menjual barang-barang produksi lokal dan impor seperti barang-barang aluminium, kaca, plastik, stainless steel, perkakas, dll. dengan harga dan kuantiti partai ( grosir) untuk dijual kembali ( reseller price).Beberapa merek barang yang kami jual adalah Hock, Lion Star, Maspion, Global Eagle, Green Leaf, Dian Sari, Owl Plast, Technoplast, Bull Star dan masih banyak lagi. Untuk informasi lebih lengkap bisa dilihat pada halaman Katalog Produk kami atau bisa langsung datang ke kantor kami pada hari Senin - Sabtu pada pukul 10: 00 - 17: 00 WIB di jalan Dupak 63, kompleks pertokoan Mutiara Dupak C-22, Surabaya.  Dengan dukungan supplier lokal dan nasional, kami siap untuk memenuhi kebutuhan usaha anda. Kontak kami segera untuk berbisnis dengan kami.Kami juga melayani kebutuhan hotel, rumah sakit, cafe, restoran & katering.Untuk pemesanan produk dapat dilakukan via telepon, short message service ( SMS) , Yahoo! Messenger, Blackberry Messenger ( BBM) dengan sistem pembayaran cash ( transfer bank / kontan) . Pembayaran dapat dilakukan setelah mendapat konfirmasi dari kami atas ketersediaan jumlah produk yang dibutuhkan. Apabila anda serius, dimohon untuk tidak mengirimkan e-mail kepada kami tanpa melakukan konfirmasi terlebih dahulu.  Tersedia kualitas produk biasa, menarik, murah, kuat dan berkualitas tergantung merk dan kebutuhan. Untuk area surabaya kami dapat mengirim, untuk konsumen luar kota dan luar pulau dapat dikirim lewat ekspedisi yang telah disepakati bersama. JAKARTA - BANDUNG - YOGYAKARTA - MAGELANG - SOLO - DENPASAR - SEMARANG - MALANG - SURABAYA - BANYUWANGI - PASURUAN - PROBOLINGGO - JEMBER - PRABUMULIH - MEDAN - JAMBI - PEKANBARU - MAKASSAR - BALIKPAPAN - PONTIANAK - BANJARMASIN - BATAM - PALEMBANG - LAMPUNG - SAMARINDA - PADANG - MATARAM - KALABAHI - MANADO - JAMBI - ACEH - PANGKALAN BUN - KUALA PEMBUANG - BATU LICIN - SAUMLAKI - TUAL - GORONTALO - TANJUNG SELOR - TOLI TOLI - AMBON - BATAM - PANGKALPINANG - WAINGAPU - WAIKABUBAK - KUPANG - ATAMBUA - DILI - PALU - SAMPANG - BANGKALAN - SUMENEP - JAYAPURA - SORONG - BIAK - MANOKWARI - MERAUKE - BAU BAU - TERNATE - TOBELO - KENDARI UD. SIDO MUMBUL - Jln. Dupak 63 / Pertokoan Mutiara Dupak C-22, (031) 5469330 / 081938685700, Surabaya. PIN BBM = 7C5F4B40 / 5B69FFC6 / 228B81D4 WA = +6282143438684 LINE = herry.sutanto E-mail = ud_sido_mumbul@yahoo.com / herrychenzhongqiang@gmail.com Jam Kerja = Senin - Sabtu 10:00 - 17:00 WIB, Hari Minggu / Besar Libur            ","
              Jln. Dupak 63 / Pertokoan Mutiara Dupak C-22, (031) 546-9330 / 0819-3868-5700, Surabaya.
PIN BBM = 7C5F4B40 / 5B69FFC6
WA = 0821-4343-8684
LINE = herry.sutanto            ",Surabaya,Jawa Timur,+62 814-3438-684,None,None
COLOSSAL ART INDONESIA,"
                                    PREMIUM GOLD
                                ",Pengaman Barang,"
CV. Colossal Art Indonesia
merupakan perusahaan kontraktor yang bergerak khusus pada design dan produksi Pekerjaan Kayu, Metal, Fiber, dan Kriya untuk menunjang skup proyek Interior – Arsitektur, Pameran – Eksebisi, Dekorasi, Fiber Modeling, Advertising, dan General Contractor. Dengan Sistem manajemen ter-integrasi dan terancana serta di tunjang dengan tenaga ahli di bidangnya pada tiap - tiap workshop produksi.
WORKSHOP PRODUKSI 
Untuk memastikan ketepatan delivery aplikasi konsep design, mulai tahun 2008 Colossal Art Indonesia membangun beberapa workshop independent yang terus berkembang yang khusus menangani aplikasi produksi proyek Interior – Arsitektur, Pameran – Eksebisi, Dekorasi, Fiber Modeling, Advertising, dan General Contractor. Dengan adanya supply chain management yang terintegrasi di harapkan dapat menghasilkan sebuah produk yang berkualitas dan harga yang bersaing sehingga menghasilkan Competitive Advantage yang durable.
Colossal Art Indonesia memiliki 4 workshop yang khusus menangani spesifikasi pekerjaan yang berbeda, yaitu :
1. Workshop Khusus Pekerjaan Kayu 
Workshop independent milik sendiri yang khusus menangani semua pekerjaan kayu, multiplek, MDF, PB, IB dan pekerjaan kayu lainnya, mulai dari fabrikasi hingga finishing ( HPL, Vinyl, Duco, Melamic, Digital Printing) dikerjakan di workshop ini. Di dukung dengan tenaga – tenaga ahli di bidangnya dan peralatan yang memadai dan fasilitas gudang yang mencukupi sehingga di harapkan dapat mengaplikasikan design untuk produk kayu yang maksimal. Workshop ini untuk mensuport proyek Interior – Arsitektur, Pameran – Eksebisi, Dekorasi, Fiber Modeling, Advertising, dan General Contractor.
2. Workshop Khusus Pekerjaan Metal 
Workshop independent milik sendiri yang khusus menangani semua pekerjaan Besi, Stainless, Aluminium, ACP, Trust dan pekerjaan metal lainnya, mulai dari fabrikasi ( Cutting, Welding, Cor, Bubut, dll) hingga finishing ( Coating Powder, Spry coating, dll) dikerjakan di workshop ini. Di dukung dengan tenaga – tenaga ahli di bidangnya dan peralatan yang memadai dan fasilitas gudang yang mencukupi sehingga di harapkan dapat mengaplikasikan design untuk produk metal yang maksimal. Workshop ini untuk mensuport proyek Interior – Arsitektur, Pameran – Eksebisi, Dekorasi, Fiber Modeling, Advertising, dan General Contractor.
3. Workshop Khusus Pekerjaan Fiber, Kaca dan Acrylic
Workshop independent milik sendiri yang khusus menangani semua pekerjaan Fiber, Kaca dan Acrylic, mulai dari fabrikasi & Modeling hingga finishing ( Cutting Laser, Emboss, Polin, Bevel, Gravir, dll) dikerjakan di workshop ini. Di dukung dengan tenaga – tenaga ahli di bidangnya dan peralatan yang memadai dan fasilitas gudang yang mencukupi sehingga di harapkan dapat mengaplikasikan design untuk produk metal yang maksimal. Workshop ini untuk mensuport proyek Interior – Arsitektur, Pameran – Eksebisi, Dekorasi, Fiber Modeling, Advertising, dan General Contractor.
4. Workshop Khusus Pekerjaan Furnishing & Kriya 
Workshop independent milik sendiri yang khusus menangani semua pekerjaan Furnishing mulai dari Steyrofoam, kain, kulit, Corrugated, Baloon, craft, foam, dacron dikerjakan di workshop ini. Di dukung dengan tenaga – tenaga ahli di bidangnya dan peralatan yang memadai dan fasilitas gudang yang mencukupi sehingga di harapkan dapat mengaplikasikan design untuk produk furnishing yang maksimal. Workshop ini untuk mensuport proyek Interior – Arsitektur, Pameran – Eksebisi, Dekorasi, dan General Contractor.
Dengan memiliki workshop produksi sendiri kami dapat memastikan kualitasnya. Kami sudah berdedikasi sejak 2008 menjadi sub kontraktor dari berbagai mitra konsultan interior dan arsitektur ternama di berbagai daerah di indonesia. Kami akan berikan solusi terbaik agar dapat bermanfaat bagi perkembangan dan kemajuan bersama. ","
              Jln Gunung Muria No.6 16/07 Krembung            ",Sidoarjo,Jawa Timur,+62 822-4005-0012,+62 822-3305-0020,None
PT.DAMASES SEJAHTERA,"
                                    PREMIUM GOLD
                                ",Pengaman Barang,"
              Kami adalah perusahaan yg bergerak di bidang penyerap kelembaban , (humidity absorbent ). berdiri sejak th 2014.DESICANT  / SILICA GEL adalah produk kami yg berfungsi sebagai penyerap kelembaban udara di dalam container , guadang maupun di dalm kemasan.untuk lebih jelas bisa hubungi kami ......081227788101.....gratis consultasi            ","
              puri surya jaya , cluster atena H3 No 27 gedangan .sidoarjo            ",sidoarjo,Jawa Timur,+62 812-2778-8101,None,None
PT. PERSADA SILVER,"
PREMIUM RUBY
",Pengaman Barang,"
              PRODUSEN VCI Plastik, Penjual VCI Plastik, Penjual VCI Paper, Distributor VCI Paper, Distributor VCI Plastik, Penjual VCI Plastik dan VCI Paper, Jual VCI Plastik Kantong, roll, Gusset dan TD Bag, Jual VCI Plastic Bubble wrap,  Jual VCI Paper sheet dan Roll merek Multiguard, Ferrogard, Branorost dan SilverCorr. Jual Desiccant dan Silica Gel, Distributor Desiccant dan Silica Gel. Produsen Minyak anti karat/ Oli anti karat, Jual Anti rust oil,Produsen Multi purpose Cleaner, Jual Multi Purpose Cleaner, Distributor Cutting Oil/Coolant, Jual Tyre Lubricant, Jual Tyre Cleaner.            ","
              PRIMA CENTRE 1 EXTENSION, Blok F-43, Kedaung Kali Angke, Jakarta 11710            ",Jakarta Barat,DKI Jakarta,+62 811-999-208,None,None
PT. WIKA NIAGA SUKSES,"
PREMIUM RUBY
",Pengaman Barang,"
Kami adalah importir dan supplier dari produk diamond wheel, polishing wheel, cutting wheel, counter sink, cork pad, softboard, cork roll, tali kevlar dengan kualitas terbaik dan harga sangat bersaing. Bila ada permintaan ataupun kebutuhan untuk produksi kacanya jangan ragu untuk menghubungi kami...Kami akan memberikan harga terbaik. Kami juga akan membantu anda untuk memenuhi kebutuhan perusahaan. ","
              Komplek Ruko Grand Niaga
Jl. Puri Kencana Blok K6 nO. 3-O
Kembangan Selatan, Kembangan
(Samping tol kebon Jeruk)            ",JAKARTA BARAT,DKI Jakarta,+62 813-8014-1111,+62 811-9953-515,None
REKA KARYA PACKING GASKET,"
                                    PREMIUM GOLD
                                ",Pengaman Barang,"
              REKA KARYA PACKING ------------------------------- Perkenalkan kami dari toko REKA KARYA PACKING kami bermaksud ingin menjadi rekan / mitra anda dan kami ini menjual bermacam macam packing gasket di antara nya sebagai berikut : PACKING GASKET Klingerit packing tombo type, 1000 , 1303, 1100, 1935, 1120, dll, Packing Valqua type 1500, 1501Ac, 6500 dll, Packing gabus karet, Packing klinger sil C4400, 4403, 4200 dll, Packing klingerit kawat 1000, Garlock 1000, Asbestos jointing sheet, Asbes kain, Asbes tape, Gland packing asbes, Piur ptfe, Kevlar , Steam packing, Rames packing, Rockwool sheet, Rockwool rool, Rockwool pipe, Steel wool Veltwool, Kampas rem, Perrodo, Air filter, Gllas wool, Graphite sheet, Fibber sheet, Sigth gllas, Spiral wound gasket, DLL Merk TOMBO, VALQUA, FINE BEST, KLINGER, GARLOCK, CHESTERTON, DLLENGINEERING PRODUCT Acrylic sheet, Mika, Acrylic rood, Acrylic pipe, Kaca temper, ptfe sheet, ptfe rood, Carbon teflon sheet, Carbon teflon rood, Pertinak sheet, Navotek Sheet, Navotek rood, Uretan sheet, Uretan rood, Poly carbonate, PE sheet, PE rood, Nylon sheet, rood, Resin fibber plate, Resin fibber rood, HDPE sheet, PE, Mc blue sheet, Mc blue rood, Brake lining, Kain pemanas ptfe, Cham pup, Lem dowcorning, DLL.RUBBER PRODUCT Karet sintetis, Karet anti saptic, Karet hijau, Karet putih, Silicone sheet, Selang silicone, Silicone rood, Karet garis, Habasit, Inatex Karet conveyor, Karet jerman, Karet benang, Spoon hitam, Spoon putih, Karet gabus, Spoon tahan panas DLL.TERIMA PESANAN / PEMBUATAN Packing flange standard, ANSI, JIS, PN, ASME, Ada lubang baut / Tampa lubang baut, SPIRAL WOUND GASKET, ANSI, DN, PN, JIS, Material , SS, CARBON, TITANIUM, GRAPHITE Demikian lah product yang kami tawarkan dan masih banyak yang lainnya yang kami tidak bisa sebutkan satu persatu, sudi kira nya bapak / ibu dari perusahaan manapun mau bekerja sama dengan kami, atas kerja samanya kami ucapkan terima kasih salam kami choerudinANDA MEMESAN KAMI SIAP ANTAR SAMPAI TUJUAN KEPUASAN ANDA KUNCI KESUKSESAN KAMI UNTUK PEMESANAN / INFO HUBUNGI :M.yusup/ChoerulAlamat : pertokoan glodok jaya lt4 blok D no 48hp : 082110939899  -087-8899-9833 email . packingrekakarya@yahoo.co.id            ","
              Pertokoan Glodok Jaya Lt 4 Blok D No.48            ",Jakarta,DKI Jakarta,+62 821-1093-9899,None,None
Ben Berkarya,"
                                    PREMIUM GOLD
                                ",Pengaman Barang,"
Selamat Datang di Website Ben Berkarya. Kami merupakan perusahaan yang berdiri sejak 2012 bergerak dalam industri Alat Proteksi Diri dan Keamanan, Alat Pertahanan Diri, Eye Protection, Face Protection, First Aid Kit, Alat Detector, Hearing Protection, Masker, Rompi, Helmet, Fire Extinguisher, Marka Jalan, Safety Shoes, Marine Equipment, Safety Sign, Head Protection, Wearpack, Sarung Tangan, EEBD (Emergency Escape Breathing Escape), Eye Wash, Body Harnes, GPS dan Navigasi, Material Handling, dll.Kami Adalah Perusahaan Berkembang Yang Melayani Penjualan Secara Eceran Dan Grosir Ke Seluruh Indonesia. Menyediakan Segala Perlengkapan Untuk Keselamatan Kerja (Safety Equipment) Dan Perlengkapan Perkapalan (Marine). Kami Juga Menerima Pesanan Khusus Untuk Seragam Kerja,Pdh/Pdl Dan Menerima Pesanan Khusus Kabel Tray.Email : info@ben.co.idTelp : (021) 29070534WA : 08118886817 ","
              MGK Kemayoran Lantai GF Blok A3 No.2 Jalan Angkasa Kav.B6 Kota Baru Bandar Kemayoran, Jakarta Pusat            ",Kemayoran,DKI Jakarta,08118886817,None,None
PT. GLORI ARTHA LOGISTIK,"
                                    PREMIUM GOLD
                                ",Pengaman Barang,"

Dengan Hormat,
 
Perkenalkan kami PT.GLORI ARTHA LOGISTIK salah satu perusahaan jasa Import specialist dalam bidang jasa Import Door to door & Customs Clearance berikut beberapa penawaran Jasa dari kami :

Product dan Services kami antara lain :
 1. Sea and Air Cargo Custom Service.
2. Undername Consignee Services
3. Break Bulk / Conventional
4. Container Cargo Vessel
5. FCL & LCL Agents
6. Heavylift Rental & Leasing
7. PPJK Export Import
8. Inland Transport & Domestic
9. Cargo Insurance
10. Door to Door Service
 
VISI KAMI : “ Bersama Kami Membangun Negeri “
  ","
              Sampoerna Strategic Square 30th Floor South Tower Jl. Jend Sudirman Kav. 45-46 Jakarta 12930                  E-mail : info@pt.glorilogistik.com | www.glorilogistik.com            ",Jakarta Selatan,DKI Jakarta,08119701297,None,None
Sumber Berkat Abadi,"
                                    PREMIUM GOLD
                                ",Pengaman Barang,"
SUMBER BERKAT ABADI
Kami Specialist menyediakan :
 
1. Auto Synchronous Generator
= Woodward, Smartgen, ComAp, Datakom
Speed Control & Actuator
= Woodward, GAC, Segma, Cummins
 
2. Battery Charger
= BAE, SEG, Smartgen BAC, CSS, Aspire, Datakom SMPS & Firetrol
 
3. AVR
= Stamford, Leroy Somer, Marrelli, Mecc Alte, Taiyo, Basler, Caterpillar, OEM
 
4. VDO Gauge & VDO Sender
 
5. Turbocharger
= Holset, Garrett, KMP, Perkins, IHI, Mitsubishi, Caterpillar
 
6. Relay Protection, Overcurrent, Overvoltage & Trafo
= Broyce Control & SEG
 
7. Solenoid & MPU
= Woodward, HEL, Deutz, Kubota, DENSO, OEM
 
8. Stater Motor & Alternator
= Bosch, Mahle, Iskra, Delco Remy, Hitachi, OEM
COS
= Smartgen & Kyoritsu
 
9. Fuse MV
= SIBA, Bussmann, Schneider, Siemens
 
10. Spare Parts Generator
= Cummins, Komatsu, Perkins, Deutz, Caterpillar, Yanmar & Kubota
 
11. Undercarriage Excavator
 
12. Potensiometer, Dioda, Switch, Connector
= Vishay Spectrol, Bourns
 
HP / WA : 08788-24-000-19
Bpk. Sonny Pranata ","
              Jl. Pintu Air 3 No. 25-C Pasar Baru            ",Jakarta Pusat,DKI Jakarta,+62 878-8240-0019,None,None
MURIA PILAR ABADI,"
                                    PREMIUM GOLD
                                ",Pengaman Barang,"
PRODUCT RANGE : * HOT INSULATION - ROCKWOOL - CALSIUM SILICATE - GLASSWOOL - CERAMIC FIBER - ASBESTOS CLOTH - CEMENT * COLD INSULATION - FOAM GLASS - POLYURETANE - POLYSTERENE / STYROFOAM - POLYETHELENE - AEROFLEX - CEMENT - THERMAFLEX * REFRACTORY - CASTABLE - FIRE BRICKS * PARTITION & ACCOUSTIC - GIPSUM BOARD - CALSIBOARD - PROMAT - GLASS CLOTH - THERMACLOTH - HT 800 - BLACK TISSUE, Busa Telor . * ACCESSORIES - S/ S BAND' S CLIP - ALL BAND' S CLIP - MASTIC - ADHESIVE - AL * FOIL * SPINDLE PINS * ETC * METAL JACKETING - ALUMUNIUM SHEET * AL - CORRUGATED * STAINLESS GAVANIZED STEEL - - SOUNDPROOF - PEREDAM SUARA - PIPE SUPPORT / PENYANGGA PIPA ","
              Jl.M.KAHFI I Gg.MENINJO NO.57  Rt 06 Rw.05 CIGANJUR JAGAKARSA JAKARTA SELATAN            ",Jakarta Selatan,DKI Jakarta,+81 3-8438-4874,None,None
cv lamtama sianturindo,"
                                    PREMIUM GOLD
                                ",Pengaman Barang,"
Menjual macam macam spareparts Truck Eaton Fuller Transimission Parts Fast Fuller Transmission Parts FAW Fast Fuller Transmission Parts Shacman Truck Parts CAMC Fast Fuller Transmission Parts Sinotruck Truck Parts Foton Truck Parts Foton Auman Truck Fast Fuller Transmission Parts Kenworth Truck Parts Wabco Brake Valve Parts Meritor Parts Bulldozer Dresser and Dressta Parts Bendix Valve Parts Bendix Kompresor Parts Dana Spicer Parts DAF Genuine Parts PACCAR Genuine Parts Volvo FH16 Parts, Menjual FKM Seal Oring : Parco, Parker, Kalrez Dupont, National Komatsu caterpillar Cummins VOLVO MACK  GEAR GEAR ","
              jln. raya cilincing no 20 , rt 015 / rw 016 . semper barat , cilincing jakarta utara            ",Jakarta utara,DKI Jakarta,+81 3-1001-1108,None,None
Central Packing,"
                                    PREMIUM GOLD
                                ",Pengaman Barang,"
Kami adalah perusahaan yang bergerak dalam Pengadaan Barang & Jasa industri.kami adalah Specialist Packing Gasket, Kami menawarkan berbagai solusi produk yang dapat menunjang kegiatan usaha dan bisnis khususnya di Jabodetabek dan sekitarnya."" CENTRAL PACKING"" memiliki kompetensi dan keunggulan dengan tenaga kerja yang profesional yang telah dipercaya oleh puluhan perusahaan di Indonesia Dalam rangka menjalin kerjasama, kami menawarkan produk-produk kami yang dapat membantu perkembangan usaha dan bisnis perusahaan anda secara berkesinambungan. Produk yang kami tawarkan, diantaranya : PACKING GASKET & GLAND PACKING PRODUCT Tombo 1000 , Tombo 1303 , Tombo 1100 , Tombo 1935 , Tombo 1995 , Tombo 1120 , Valqua 1500 , Valqua 1501AC , Valqua 6500 , Valqua 1500AC , valqua no.gf 300, valqua no.6502, valqua no.mf300, valqua no.sf300, valqua 7026, valqua 6501, valqua 6503 ac, valqua 7010. Packing gabus karet . klinger top graph 2000, klinger top graph 2008, TOMBO NO.9038 G-Flon Packing, NON ASBESTOS BG 1005, VALQUA No.2010 NBR, CR, EPDM, NEOPRENE, Klingersil C-4400 , Klingersil C-4403 , Klingersil C-4500 , Klingersil C-4430 , Thermoseal Klingersil c4401, Klingerit 100 , Klingerit 200 , Klingerit Universal 3xA, Klingerit Oilit 3xA , klingerit 1000, Garlock 1000, Garlock 7021 , Garlock 5500 , Garlock 3000, Garlock 3200, Garlock 3300, Garlock 3400, Garlock 3700, TBA Firefly , Graphite Sheet , Spiral Wound Gasket , Gland Packing , Rames Packing , Steam Packing , Kevlar , Piur PTFE , GFO , PTFE Joint Sealant , Graphite Packing , Gland Packing PTFE Kevlar , PTFE Graphite Packing , gasket novapress basic frenzelit, PTFE Yellow Fiber Packing , Carbon Fiber Gland Packing , Ptfe Packing , Kampas Rem / Brake Lining , teadit 1005, teadit na1100, , teadit na-1122, NON ASBESTOS COMPRESSED - BG 3010 , 3030, teadit tf 1590, teadit na 1040, teadit na 1002, teadit na 1122, Merk: TOMBO , VALQUA , FINE BEST, KLINGER , GARLOCK , CHESTERTON , Dan Lain-Lainnya....... INSULATION PRODUCT Calcium Silicate Pipe , Asbestos Tape With Aluminium , Asbestos Cloth With Aluminium , Aluminium Foil , Asbestos Tape , Asbestos Cloth , Fiberglass Tape , Fiberglass Cloth , Aluminium Foil Tape , Asbestos Insulation , Thermo Cloth And Thermo Tape , Rockwool Insulation , Glass Wool Insulation , Kain PTFE , Rockwool Pipe , Asbestos Rope , Vilt Wool , Rockwool Blanket , Asbestos Sheet , Steel wool , Dan Lain-Lainnya ENGINEERING PRODUCT PVC Sheet , PVC Rod , Polyurethane Sheet , Polyurethane Rod , Mika , Acrylic Pipe , Acrylic Rod , Acrylic Sheet , Nylon Rod , Nylon Sheet , Pertinak Rod , Pertinak Sheet , PE Sheet, PE Rod , PTFE Rod , PTFE Sheet , Carbon PTFE Sheet , Carbon PTFE Rod , Kaca temper , Novotek Sheet , Novotek Rod , Uretan Sheet , Uretan Rod , Poly Carbonate , Resin Fibber Plate, Resin Fibber Rod , HDPE Sheet , Mc Blue Sheet, Mc Blue Rod, Sigth Gllas , Dan Lain-Lainnya RUBBER PRODUCT Rubber Pulley , rubber neoprene, rubber viton, rubber fkm, cr rubber sheet, Karet Benang , Rubber Sheet , Karet Sintetis , Silicone Rubber Sheet , Rubber Anti Static , Karet Hijau , Karet Putih, Silicone Sheet , Selang Silicone , Silicone Rod , Karet Garis , Habasit , Inatex , Karet Conveyor , Karet Jerman , Rubber NBR , Rubber EPDM , Silicone Rubber Merah, Spoon Hitam , Spoon Putih, Karet Gabus, Spoon Tahan Panas , Dan Lain-Lainnya TERIMA PESANAN / PEMBUATAN Packing Flange Standard , ANSI , JIS , PN , ASME , Ada Lobang Baut / Tanpa Lobang Baut , Spiral Wound Gasket , ANSI , DN , PN , JIS , Material , SS , CS , Carbon , Titanium , Graphite , Non Asbestos Suatu kebanggan apabila kami dapat menjadi bagian dari perkembangan usaha dan bisnis anda dengan berbagai produk dan layanan dari kami. Kepuasan pelanggan adalah prioritas utama kami.  UNTUK PEMESANAN / INFO HUBUNGI : Erik Irawan Head Office : LTC GLODOK LT.1 Blok B.28 N0.1  Jakarta Barat, HP: 0822 7352 2222 ,  Tel: ( 021) 62309527 , 62305583 Fax: ( 021) 62309527 , 62305583 http:// centralpackinggasket.com,http://gasketpackings.com ANDA MEMESAN KAMI SIAP ANTAR SAMPAI TUJUAN. KEPUASAN ANDA KUNCI KESUKSESAN KAMI . . ","
               Gedung LTC Glodok LT.1 Blok B.27 No.5  Jl.Hayam Wuruk No.127 Jakarta barat (11180)http://www.indonetwork.co.id/dashboard/products/edit/6388992M : 082273522222,Tel : (62-21) 62309527 ,62305583Fax: (62-21) 62309527,62305583http://centralpackinggasket            ",Jakarta barat,DKI Jakarta,+62 822-7352-2222,None,None
