Name,Membership,Category,Description,Address,City,Province,telp1,telp2,telp3
Unique Carpet & Deco Bali,"
                                    PREMIUM GOLD
                                ",Desain,"
              Unique Carpet & Deco Bali bergerak dalam bidang Distribusi dan pengerjaan proyek karpet & bahan Dekorasi / interior . Produk yang kami tawarkan seperti : 1. Handmade Natural Carpet ( Wooden Carpet, Natural Fiber Carpet) 2. Carpet roll / Carpet Tile 3. Wooden Flooring / Laminated Flooring Parquet - Vinyl Flooring 4. Wallpaper / Wallcovering 5. Vinyl Carpet, Carpet Tile, Carpet Pile 6. Carpet Industry 7. Handmade Acrylic/ Wool Carpet 8. Rumput Sintetis 9. Rubber Paving ( For Playground, Jogging Track) 10. PVC Placemat / Table mat 11. Window Blinds - Gordyn - Awning 12. Yoga Accessories 13. etc. Kami menerima pesanan secara retail maupun project. Bagi anda yang berada di bali yang memiliki rencana untuk menata interior rumah, kantor, villa dan hotel. Kami melayani jasa pemasangan wallpaper, lantai vinyl, parquet kayu dan lainnya untuk keperluan interior anda. Untuk contoh produk silahkan kunjungi gallery kami di jalan Hayam Wuruk no.326 ( Sebelah Konsulat Amerika Denpasar) dan toko kami di jalan By Pass Ngurah Rai No.290 A Denpasar, Bali. Untuk keterangan lebih lanjut mengenai produk kami, jangan ragu untuk menghubungi kami melalui form kontak atau telpon yang tertera. Silahkan Hubungi kami : Head Office Bali ( Denpasar) UNIQUE CARPET & DECO BALI Jln. Hayam Wuruk No.326 Renon Denpasar Sebelah consulat Amerika Tel/ fax : 0361-4744851 Hp : 0819858868, 085888858868, 081999538338 E-mail : uniquedecobali@ yahoo.com a_ uniquecarpetdecobali@ yahoo.com s_ uniquecarpetdeco @ yahoo.com Facebook : Unique Carpet Deco Bali UNIQUE CARPET & DECO BALI Branch Jl. By Pass Ngurah Rai Sanur No 290A - Seberang Restoran Serenity Tel / Fax : 0361-286543 Email : uniquedecobali@ yahoo.com uniquecarpetdecobali@ yahoo.com Facebook : Unique Yoga Bali Carpet - Wall to wall Carpet - Tile Carpet - Event Vinyl Laminate - Flooring Anti-Fatigue & Doormat Artificial Grass Wallpaper Roller Blinds Vertical Blinds Horizontal Blinds Accessories Karpet project, Karpet Roll, Karpet tile, Karpet hand tufted custom, Karpet acrylic, Karpet karet, Karpet vinyl, Karpet kantor, Karpet hotel, Karpet restaurant, Karpet pameran, Karpet rumah, Karpet Ruang tidur, Karpet ruang tamu, Karpet dapur, Karpet gudang, Karpet pesawat, Karpet container, Karpet kapal ferry, Karpet karoseri, Karpet kereta api, Karpet bus, Karpet rumah sakit, Karpet mushola, Karpet lapangan olahraga Keset doormat, Keset nomad, Keset 3M, Keset mie / bihun, Keset anti slip Handmade natural carpet, Karpet natural, Karpet anyaman, Karpet sisal, Karpet serat, Karpet abaca, Karpet banana fiber, Karpet seagrass, Karpet wool, Karpet cotton, Karpet raffia, Parket kayu, Wooden parquet, Lantai kayu Rumput sintetis, Rumput plastik, Rumput pvc, Karpet rumput List kayu, List parket, List dinding, List vinyl, List pvc Wallpaper kantor / office, Wallpaper rumah , Wallpaper polos , Wallpaper motif, Wallpaper vinyl , Wallpaper nonwoven, Wallpaper bunga, Wallpaper kayu, Wallpaper batu , Wallpaper anyaman, Wallpaper korea, Wallpaper Sangetsu, Wallpaper Lily color, Wallpaper Exselect, Wallpaper Reserve 1000, Wallpaper fine 1000 Placemat pvc, Placemat anyaman, Placemat hotel, Placemat restoran, Placemat café Amenities hotel Gordyn , Krey, Vertical blind, Horizontal blind, Roman shade, Awning Yoga mat, Yoga towel, Yoga props, Yoga ball, Yoga block, Yoga clothing, Yoga accessories            ","
              Jl.Hayam Wuruk No.326, Denpasar Bali            ",Denpasar,Bali,+62 878-6183-3535,None,None
Az Architecture Design,"
                                    PREMIUM GOLD
                                ",Desain,"
              Az Architecturedesign meyediakan Jasa Arsitektur, Jasa Interior Design and Building : Office/ Residential/ Apartemen, Jasa Renovasi Bangunan, Jasa Mekanikal Elektrikal & Plumbing, Jasa Produksi Furniture & Pantri, Jasa Designn & Kontraktor Lanscape            ","
              Ruko Kelapa Dua Residence blok K18 Jl Tugu Raya, Kelurahan Tugu            ",Depok,Jawa Barat,+62 813-6167-1250,None,None
Jasa Pembuatan Maket | Canti Cipta Ruang Studio,"
                                    PREMIUM GOLD
                                ",Desain,"
Selamat Datang dan kami ucapkan terima kasih karena anda telah telah meluangkan waktu untuk mengunjungi website kami. Harapan kami semoga anda bisa mendapatkan informasi yang anda harapkan di website kami dan kemudian bisa berlanjut kepada pertemuan-pertemuan berikutnya agar kami bisa lebih dalam dan lebih luas untuk mempresentasikan ataupun menjelaskan kegiatan usaha kami.
Canti Cipta Ruang Studio adalah Perusahaan Jasa Pembuatan Maket (Miniatur) di Jakarta, Yang telah dirintis pendiriannya sejak tahun 2007 dan akan selalu mencoba untuk terus berkembang dalam Industri Manufacture Jasa pembuatan Maket Miniatur
Maket adalah miniatur atau model bangunan yang akan dibuat untuk memudahkan visualisasi hasil rancangan baik berupa rancangan Arsitektur, Design Interior, Design Eksterior, Design Landscape atau Siteplan. kadang kala ada juga maket miniatur yang berupa kapal (ship miniature). 
Berbekal pengalaman lebih dari 9 tahun dalam industri maket Miniatur, CCR Studio akan selalu berusaha untuk tampil terdepan dalam memenuhi setiap kebutuhan ataupun permintaan pembuatan maket miniatur dengan kualitas terbaik dengan harga yang kompetitif
Terima Kasih atas kunjungan anda, silahkan melihat-lihat hasil karya produk kami yang lain di website ini yang bergerak dalam bidang Jasa Pembuatan Maket semoga proses pencarian informasi yang anda butuhkan terpenuhi.
For More Info Contact Us:Office      : Jl. Raya Kranggan No 22 JatisampurnaWorkshop : Jl. Dahlan Raya Rt 3 Rw 7 No 13a Kampung Baru Harja mukti Cimanggis DepokPhone  : 082184299010email   : canticiptaruang@gmail.comwebsite : www.canticiptaruang.com ","
              Jl. Raya Kranggan No 22 Jatisampurna - Bekasi            ",Bekasi,Jawa Barat,+62 821-8429-9010,None,None
PD RAVIBORDIR Indramayu ,"
                                    PREMIUM GOLD
                                ",Desain,"
PD RAVI BORDIR Adalah perusahaan satu-satunya yg ada di kabupaten Indramayu JAWABARAT. Yang sudah terkenal dengan hasil kwalitas dan ketepatan produksi, juga desain nya. kami sudah berjalan SEJAK tahun 1998. Kami adalah perusahaan yg bergerak dalam bidang produksi & penjualan secara langsung DI TOKO KAMI , maupun ON LINE secara BISNIS. Bidang kami Dalam pembuatan perlengkapan TNI.POLISI.POLPP.DISHUB.SECURITY SEKOLAH PASKIBRA mulai dari Topi. Jaket. Rompi. Kaos. Tas/ ransel. Sepatu PDL/ PDH. Wearpakc. Kemeja. Training. Helm. Logam Gantungan Kuci. Jam Dinding, juga menerima Pembuatan Jas.Jasket. Tenda Pramuka. Tenda Dome. Tenda Kerucut. BORDIR LOGO SEKOLAH Dinas Organisasi. DLLFB : Ravibordir IndramayuPD Ravi BordirIndramayu Jawa barat HP wa 081 324 73 1399 Hp wa 0857 2016 8603 ","
              JL. SILIWANGI (PINTU MASUK BTN PAOMAN ASRI no 60)KEC/Kab. INDRAMAYU kode Pos 45212 Jawa barat IndonesiaHp wa  081324731399 - 085720168603 dekat 500 meteran dekat dengan kantor Bupati Indramayu Jawa barat            ",INDRAMAYU - JAWABARAT INDONESIA. ,Jawa Barat,+62 813-2473-1399,None,None
BETA CONSTRUCTION SURABAYA,"
PREMIUM RUBY
",Desain,"
Selamat datang di situs BENGKEL LAS konstruksi baja surabaya. Kami bergerak di bidang pengelasan yang mencakup berbagai pekerjaan seperti pembuatan kuda-kuda WF, pagar, teralis, kanopi, railing tangga, balkon, tangga putar, pintu harmonika, rollingdoor, dll. Kami siap di panggil kapanpun anda membutuhkan kami.
Kami hadir di tengah–tengah anda untuk membantu kesulitan anda. Serahkan pengerjaan besi untuk bangunan Anda pada kami. Kami bersedia datang ke tempat anda untuk mendiskusikan desain yang anda inginkan. Anda dapat memilih produk dari ratusan ‘items’ yang tersedia pada katalog kami, atau mendesain sendiri model unik khusus untuk anda. Dijamin tidak kecewa karena kami adalah ahlinya.
KONSTRUKSI BAJA SUARABAYA Merupakan Perusahaan Jasa dalam bidang Konstruksi Baja , Konstruksi Baja WF, Baja WF, Konstruksi Baja Ringan, mekanik dan electrical gedung , Silo, Listrik dan Telekomunikasi , Rolling Grill, Pintu otomatis / Automatic Door System , Barrier Gate System , Pagar Otomatis / Arm Gate System dan lain-lain yang didukung oleh SDM terlatih dan berpengalaman.
Penanganan yang cepat dan akurat karena ketersediaan tenaga ahli dengan jumlah yang memadai dan berpengalaman sehingga mendapatkan hasil yang sesuai dengan target dan berkualitas.
Beberapa lingkup kerja kami meliputi
Konstruksi Baja Untuk : – Gudang / Pabrik – Gedung Bertingkat – Gedung Olah Raga / Futsal – Hoist – Girder – Dll.
Konstruksi Baja Ringan :  – Atap baja ringan/truss – galvalum – Canopy – Pagar Besi – Pintu Harmonika – Rolling Door, Rolling grile, Rolling Porporate, Dll
BUILDING MECHANICAL & ELECTRICAL – Electrical Wire Rope Hoist – Lift – Access System – dll
Mechanical Electrical : – Pintu Otomatis ( automatic Door System ) – Pintu Garasi / Pintu Pagar Otomatis ( Arm Gate System ) – Pintu Palang Parkir Otomatis ( Barrier Gate System )
Hormat KamiDirekturBETA CONSTRUCTION
“KONTRUKSI BAJA, FLOORDECKING / BONDEK, PINTU GERBANG PABRIK (AUTOMATIC GATE), PAGAR BESI, KANOPI, PINTU PLAT / STEEL DOOR / FIREDOOR, TANGGA PUTAR, RAILLING TANGGA, PINTU HARMONIKA, ROLLING DOOR, RANGKA ATAP BAJA RINGAN ” ","
              Jl. H. Syukur VI Kavling A   Sedati Gede - Sedati            ",Sidoarjo,Jawa Timur,+62 821-3290-9999,None,None
"DUA PUTRA PETIR, CV Telp. 0859-9805-8351 , 0898-3518-351 , 0821-3355-5559 , 0813-1845-5559","
PREMIUM RUBY
",Desain,"
BISMILLAHIRROHMANIRROHIIM....CV. DUA PUTRA PETIR (Your Steel Partner) Distributor berbagai Merek Polycarbonate bergaransi 5-10 tahun yang dilengkapi Double Side UV Protected, diantaranya :1. Solar Flat Clear / Colour Plain / Embosed.2. Solar Tuff Roma / Greeca.3. X TUFF Roma dan Greeca (Colour / Clear).4. X Lite.5. SOLITE.6. Twinlite.7. Lexan.8. POLYBOARD.9. Sealent Neutral (Lem PolyCarbonate).10. Sealent Acetic (Lem PolyCarbonate).11. JASA PEMBUATAN CANOPY / PAGAR Sesuai Permintaan.HARGA DIJAMIN MURAH Untuk Info Lebih Lanjut Menghubungi,Demikian Penawaran dari kami, besar harapan kami untuk bisa bekerjasama dengan Anda dengan memberikan pelayanan yang terbaik penjelasan ringkas. Kami juga Bergerak dibidang trading Besi dan Baja dan alat-alat teknik, memiliki pengalaman yang mumpuni lebih dari 10 Tahun, link dan akses bisnis yang luas menjadikan kami harus terus berinovasi, salah satu melalui Bisnis Online seperti ini adapun produk-produk unggulan kami adalah :1. Carbon Steel Bars (Besi / Galvanis / Stainless Steel)• Besi Beton Polos (Plain Bars) • Besi Beton Ulir (Deformed Bars) • Besi As (Round Bars) Eq St. 41 • Besi As (Round Bars) Eq St. 60, St. 70, St. 90 • As Besi Segi Empat (Square Bars / Vierkan) • As Besi Segi Enam (Hexagonal Bars) (Besi / Galvanis / Stainless Steel) • Silver Steel-Hollow Bars-Tool Steel • Strep Besi (Flat Bars) • Band Eyzer (Strapping band Plates).2. Carbon Steel Pipes (Besi / Galvanis / Stainless Steel)• Pipa Baja Hitam (Black Steel Pipes) • Pipa Air / Galvanis (Galvanized Pipes) • Pipa Seamless (Seamless Pipes) ASTM A 53 / A 106 / API 5 L • Pipa Pancang (ERW Pipes) ASTM A 252 • Pipa Konstruksi STK-400 (Besi / Galvanis / Stainless Steel) • Pipa Perabot (Stalbuist Pipes) • Pipa Kotak (Rectangular & Square Pipes).3. Carbon Steel Plates (Besi / Galvanis / Stainless Steel)• Plat Besi Hitam (Hot Rolled Coil / Sheet) JIS SPHC / JIS SS400 / ASTM A36 • Plat Kapal (Ship Building Plate BKI) • Plat Besi Putih (Cold Rolled Coil / Sheet) JIS SPCC • Plat Bordes (Checkered Plate) • Plat Lubang (Perforated Plate) • Plat Tahan Gesek (Wear-Resistance Plate) • Plat Galvanil (Galvaneal) • Plat Galvanis (Galvanized) • Expanded Metal.4. Carbon Steel Profiles (Besi / Galvanis / Stainless Steel)• Siku Besi (Angle Bars) • Kanal UNP (U-Channel) • Kanal CNP (Lip-Channel) • (Besi / Galvanis / Stainless Steel) • H-Beam I-Beam WF-Beam (Besi / Galvanis / Stainless Steel) • Honey Comb • Plate Grating Galvanis • Kawat Bronjong • Plat Galvanis • Siku Galvanis • Gabion • Kawat Bronjong SNI, Straping Band, Plat Timah, dan masih banyak lagi produk-produk kami, segala macam jenis besi dan baja siap membantu bekerjasama dengan semua pelanggan baik dalam kota maupun luar kota atau bahkan luar pulau dan luar negeri. Terimakasih banyak.
 Hormat Kami,Herry Gusmara, S.Sos DirekturHP : 08599.805.8351 (BOS BESI) / 089.8351.8351 (BESI BESI)WA : 082133.555.559 / 081318.455.559 Email : duaputrapetir@gmail.comD/A : Bukit Plama C5/ 33 Citraland Utara SurabayaOur Website :• www.besi123.com• www.besisurabaya.com
• www.duaputrapetir.co.id• www.pusatbajaindonesia.com
• www.tokobangunansurabaya.com• www.jualbesibajasurabaya.indonetwork.co.id ","
              • Head Ofice : Bukit Palma C5/33 Citraland Utara Kec. Pakal Kota Surabaya Barat (Sememi - Benowo)• Phone : 0821-3355-5559 (Call/WhatsApp)            ",SURABAYA,Jawa Timur,+62 821-3355-5559,+62 813-1845-5559,None
GARUDA SOUVENIR,"
PREMIUM BLUE ONYX
",Desain,"
Produsen sekaligus pabrik souvenir dan merchandise seperti tas seminar , tas punggung , gantungan kunci , tempat tissu, Dompet , ikat pinggang, travel bag, Tas Sepatu , Pouch, Gym Bag, Tas Sepatu futsal dll. Didukung tenaga ahli yang berpengalaman dan kapasitas produksi perbulan hingga 1000pcs dengan kualitas yang terjamin dan harga yang kompetitif. Alamat marketing surabaya : jl sidosermo II no 323 surabaya . up : bpk DAHLAN ","
              Jl Sidosermo II No 323 Surabaya            ",surabaya,Jawa Timur,+62 878-5317-0300,None,None
Trijaya Arsitek (081 330 2099 63),"
                                    PREMIUM GOLD
                                ",Desain,"
TRIJAYA ALUMINIUM( Aluminium and Glass Specialist )TRIJAYA ALUMINIUM bergerak di bidang jasa pembangunan Konstruksi, Exterrior, dan Interrior Gedung.Kami telah dipercaya Membangun & mempercantik gedung perkantoran, pusat perbelanjaan, showroom, pabrik, gudang, ruko, rumah tinggal dan fasilitas umum lainnya seperti rumah sakit, tempat ibadah, dan pom bensin (SPBU).Pekerjaan kami telah tersebar tidak hanya di pulau Jawa, tetapi hingga ke Madura, Sumatra, Bali, NTB, NTT, Sulawesi, Kalimantan, Papua.Percayakan pekerjaan :  - Konstruksi Baja - Aluminium Composite Panel (ACP) - Pintu jendela aluminium - Pintu kaca Tempered - Partisi kaca - Shower glass - Curtain wall - Spider System - Kanopy Kaca - Reling Tangga Kaca  - lantai kaca / atap kaca - Reklame - Letter Timbul - Neon Sign - Neon boxke kami yang telah terbukti mengutamakan kwalitas dan ketepatan waktu dalam pengerjaanya. Dapatkan harga yang kompetitif hanya di kami TRIJAYA ALUMINIUM, Didukung oleh tenaga ahli yang telah mempunyai teknik dan pengalaman dalam menangani berbagai proyek skala kecil, menengah maupun besar, Kami percaya bisa memberikan pelayanan terbaik, yang akan membantu memberikan saran & panduan di setiap proses, sehingga impian atau ide Anda bisa terwujud sesuai yang diharapkan.Goal nya adalah harga yang kompetitif dan reasonable, efisien dalam biaya dan waktu tanpa meninggalkan aspek estetika.Selain melayani Jasa pembangunan kami juga melayani penjualan material :Aluminium Composite Panel - Alucobond, Aluclad, Cladbond, Alucopan, Alcopan,- Goldstar, Seven, Alumetal, Alustar,- Winmetal, Maco, Aluprima, AlumebondAluminium Kusen- YKK, incom, Indal- Alexindo, Alko, HP MetalKaca- Asahi, Mulia, Tempered & Non tempered- Clear, Printing, Glass tone, Lacobel, Tinted- Mirror, Black Mirror, Sunergy, One Way- Stopsol, Laminated, TemperedBesi- WF, CNP, Pipa Besi, Hollow Besi, Besi Siku, Plat dllHubungi :Layanan 24jamMoch. Indra PrasetyoHp. 081 330 2099 63Kantor. 031 8490 309Web. www.trijayaaluminium.com ","
              Jagir Sidoresmo VI /140            ",Surabaya,Jawa Timur,+81 3-3020-9963,None,None
UD Dwi Tunggal Perkasa,"
                                    PREMIUM GOLD
                                ",Desain,"
              DWI PRODUK ukm kerajinan logam berdiri sejak Th 2001, memproduksi : alat alat dapur : parut, serok, sotil, hanger, japit, centong dll. Sekarang merintis usaha dagang dengan nama UD DWI TUNGGAL PERKASA Guna menjembatani UKM - UKM di wilayah kami dalam hal pemasaran produknya , sehingga tidak terjadi permainan harga oleh tengkulak. kunjungi http: / / ngunutproduction.blogspot.com , http: / / parutmillenium.blogspot.com melayani pembelian grosir , mengirim ke seluruh pelosok nusantara . buat para retailer di daerah gunakan kesempatan ini untuk mendapatkan harga langsung dari produksen.            ","
              jln.  Fajar  Lingkungan  10  Rt 02  Rw 04  Ngunut            ",tulungagung,Jawa Timur,+81 3-3587-7045,None,None
percetakan murah surabaya ,"
                                    PREMIUM GOLD
                                ",Desain,"
              berbagai macam produk percetakan yang kami terima Secara garis besar, produk dan jasa yang kami tawarkan bisa dikelompokkan ke dalam bidang-bidang berikut: Printing ( percetakan) . Bidang percetakan yang kami tawarkan memiliki spektrum yang luas, seluas kebutuhan cetak yang berkembang pada masyarakat modern. Paling tidak kami biasa mengelompokkannya ke dalam 5 kebutuhan cetak :

Promosi, yaitu kebutuhan cetak yang berkaitan dengan media sosialisasi sebuah layanan atau produk, seperti kalender, brosur, poster, paper bag, pamflet, undangan, flyer, hanging mobile, company profile, atau katalog, company profile, danm lainnya.
Penerbitan, yaitu kebutuhan cetak yang berkaitan dengan usaha-usaha penerbitan seperti bulletin, majalah, tabloid, buku, agenda, dan lainnya.
Packaging, yaitu kebutuhan cetak yang berkaitan dengan kemasan sebuah produk misalnya kemasan pakaian ( baju, songkok, sarung) , kemasan makanan ( roti dan donat) , kemasan barang atau kemasan lainnya ( inner box) .
Administrasi, yaitu kebutuhan cetak yang berhubungan dengan administrasi seperti ID Card, kartu nama, atau form administrasi, dan lainnya. Jasa, yaitu layanan berupa jasa kerja di bidang percetakan seperti jasa desain grafis, jasa cetak atau jasa plong.
Publishing ( penerbitan) . layanan cetak seperti media buletin dan majalah yang muncul secara periodik, ataupun buku yang terbit di waktu tertentu saja. Advertising ( media pariwara) . Pada bidang ini kami menawarkan pembuatan: Merchandise ( kaos, mug, gantungan kunci, dan lainnya.) In Door ( art visual, x-banner, sticker vynil / cutting, dan lainnya.) Out Door ( umbul- umbul, spanduk, banner, baliho, billboard, neon sign/ box, dan lainnya) Komunikasi audiovisual ( cd interaktif, iklan radio, iklan televisi, company profile, dan lainnya) Lain-lain ( pembuatan logo perusahaan)

hubungi kami ---->>> 081217715726 , 085100812174website : www.sinarimajinasi.com            ","
              jl. rambutan 14 rt.5 rw 2 geluran taman sidoarjo             ",Surabaya,Jawa Timur,+62 812-1771-5726,None,None
Duta Plastik Printing,"
                                    PREMIUM GOLD
                                ",Desain,"
Selamat datang di www.dutaplastikprinting.com
DUTA PLASTIK PRINTINGMUHAMMAD SUYATNO
Alamat : Jl.NN.Rawa Kramat, Rt04/04 no 10 cengkareng barat - jakarta barat NO.HP : 081316888892, 087888775592 , 085711400392 WA     : 081316888892, 087888775592 Email   : dutaplastik123@ gmail.comKami bergerak di dalam bidang jasa :· shopping bag· cetak kantong plastik· plastik softhandle· printing plastik· tempat cetak kantong plastik· plastik polybag· plastik kresek· plastik HD· plastik PE· plastik OPP· plastik PP· plastik laundry· plastik promosikami menyediakan berbagai plastik berbagai ukuran dan berbagai warna, cocok untuk tas promosi, tas pameran, tas belanja di toko maupun di perusahaan anda tentunya, barang bermutu bekualitas internasional, harga terjangkau, kami juga menerima partai kecil dan partai besar, perusahaan kami juga menerima cetak plastik dan spunbond partai kecil dan partai besar. perusahaan ini bergerak di bidang printing plastik dan produksi pp polos ( non printing) atau biasanya di sebut sablon plastik.Perusahaan Kami Berdiri sejak tahun 2006. Kami siap melayani orderan dengan minimal order yang terjangkau sampai besar dengan harga yang murah dan kualitas yang terbaik. untuk ukm atau home industri tidak usah merasa sungkan untuk hub kami. kami akan mambantu anda untuk menciptakan packaging yang bagus dan mempromosikan product anda kami juga melayani design gambar jasa yang kami sediakan adalah, design gambar, design logo, job order, bisa membuat dari ukuran kecil sampai besar, quantity kecil-besar.Jenis Bahan Plastik   : HD PE PP OPP LLDPE oxium degradabelJenis & Model Plastik : HD Singlet, HD Softhandle, HD Oval, PE SingletCocok untuk Supermarket, Alfamart, Indomart, Retaurant, Superindo, Apotek, Toko Baju.Macam – macam kantong Spundbond Ready Stock :1. Model Pegangan Plong : ukuran 20 x 24, ukuran 25 x 35, ukuran 30 x 402. Model Pegangan Talipres pakai lipat samping : ukuran 25x35, ukuran 30x40, ukuran 38 x 45, ukuran 45 x 55.Cetak plastik printing, plastik sablon, plastik print shoping bags, plastik boutique, plastik promosi, plastik kebutuhan kantor, plastik shoping bags, plastik gudang, plastik super, plastik polibag, plastik tanaman, plastik pupuk, plastik beras, plastik kripik, plastik corr bangunan, plastik onderdil mobil, plastik toko baju, plastik kebutuhan rumah saki,t plastik kebutuhan akupuntur, plastik bungkus pakan burung, plastik bungkus sayuran organik kualitas unggul, dll. ","
              Jl. NN rawa kramat rt 04/04 no. 10 cengkareng barat - cengkareng , jakarta barat            ",Jakarta Barat,DKI Jakarta,+62 813-1688-8892,None,None
TUTON ARSITEK,"
                                    PREMIUM GOLD
                                ",Desain,"
TUTON ARSITEK & INTERIOR
Berdiri sejak tahun 2015 perusahaan yang bergerak di bidang jasa interior, jasa arsitek, jasa pembuatan furniture.Visi kami memberikan hasil terbaik untuk kepuasan konsumenMisi kami memberikan design terbaik dalam setiap pekerjaan yang kami kerjakan            ","
              Jl Condet Raya No. 88Balekambang, Condet, Jakarta Timur (Depan Kantor BRI)  email: bee.tuton@gmail.com            ",Jakarta Timur,DKI Jakarta,085773989505,None,None
BINA JAYA PLASTIK || SABLON PLASTIK PRINTING MURAH JAKARTA,"
                                    PREMIUM GOLD
                                ",Desain,"
PERUSAHAAN KAMI DI BIDANG CETAK KANTONG PLASTIK PRINT TEMPAT CETAK KANTONG PLASTIK PRINT PLASTIK PLASTIK POLOS PLASTIK HP, PLASTIK SUPERMARKET PLASTIK TOKO BAJU PLASTIK TALI PRESS PLASTIK POND OVAL, PLASTIK GAGANG PLASTIK KRESEK PLASTIK MURAH PLASTIK BIBIT TANAMAN PLASTIK , BERKUALITAS PLASTIK, POLYBAG PLASTIK BIBIT TANAMAN PLASTIK SAMPAH CETAK PLASTIK HD, CETAK PLASTIK PE PLASTIK WARNA TAS SPUNBOND PLASTIK SOFTHANDLE PLASTIK DISTRO, PLASTIK UNTUK DISTRO, PLASTIK KANTONG BAJU, PLASTIK PEMBUNGKUS BAJU, PLASTIK UNTUK BUNGKUS BAJU, PLASTIK HP, PLASTIK alamat Alamat : Jl. Jelambar Indraloka 5, No 1875, Jakarta BaraNomer Handphon / WA. 081280163911/ 081229367057 Atas Nama : Bpk, Egi Suprianto / Bpk, Anton . naik kearah jakarta jabrat behenti di samping Halte "" Busway Indosiar"" tanya tukang ojek minta alamat ke indraloka 5, kurang lebih biaya buat ngojek Rp. 10.000, - atau hubungi kontak kami nanti kami jemput depan Halte Indosiar. UNTUK PEMESANAN MINIMAL ORDER 5000 PCS/ LEMBAR DP 50% DARI NOMINAL JUMBLAH UANG PEMESENAN KANTONG PLASTIK CETAK / BUAT LOGO tas plastik sablon tas plastik cetak tas plastik printing tas plastik logo CETAK SABLON PLASTIK CETAK MODEL PLONG, CETAK SABLON MODEL PLASTIK TALI PRES, CETAK SABLON MODEL CETAK SABLON PLASTIK KRESEK, CETAK SABLON MODEL PLASTIK BELANJA, CETAK SABLON MODEL PLASTIK PLONG TENGAH, CETAK SABLON, MODEL PLASTIK OVAL, TENGAH, CETAK SABLON MODEL PLASTIK BOLONG TENGAH, PLASTIK BURAM, PLASTIK TRANPARAN, PLASTIK MODEL JCO, PLASTIK BENING, PLASTIK KACA, PLASTIK MODEL ALFA, PLASTIK MODEL INDOMART, PLASTIK LLDPE, PLASTIK HD WARNA MERAH, PLASTIK WARNA HITAM, PLASTIK WARNA KUNING, PLASTIK WARNA IJO, PLASTIK WARNA BIRU, PLASTIK WARNA CREM, PLASTIK KRESEK, TAS PROMOSI, PLASTIK MODEL KEMASAN SAYURAN, PLASTIK PE PLASTIK HD PLASTIK UNTUK BENIH PADI BENIH KANGKUNG BENIH CABE PLASTIK PUPUK PLASTIK UKURAN CASTEM / KASTEM UKURAN SMAL UKURAN SMOL UKURAN PLASTIK A4 UKURAN A3 CETAK PLASTIK TENG TENG PLASTIK TENG TENGAN CETAK PLASTIK MODEL TALIPRES PLASTIK KEMASAN CETAK LAMINASI CETAK SEPARASI 8 WARNA 10 WARNA CETAK KANTONG PLASTIK, KANTONG PLASTIK, PRINTING PLASTIK, SABLON PLASTIK, SHOPPING BAG, POLYBAG, LAUNDRY BAG, KANTONG KRESEK, SUPERMARKET BAG, SUPPLIER PLASTIK, DISTRIBUTOR PLASTIK, KANTONG KRESEK, PLASTIK KRESEK, POLY BAG, KANTONG BELANJA, TOKO PLASTIK, PRODUKSI PLASTIK, PERCETAKAN KANTONG PLASTIK, PERCETAKAN PLASTIK, PLASTIK HD, PLASTIK PE, PLASTIK OPP, PLASTIK PP, PLASTIK LAUNDRY, ROTOGRAVURE BINAJAYA PLASTIK. Perusahaan Kami bergerak dibidang jasa promosi, percetakan dan sablon sejak tahun 2000 dan sudah melayani ratusan konsumen dari berbagai wilayah di indonesia. BINAJAYA PLASTIK. MELAYANI PESANAN ANDA DALAM BIDANG PROMOSI DAN BIDANG KEPERLUAN KANTONG PLASTIK BUAT USAHA ANDA. SEGERA HUBUNGI KONTAK KAMI SEKARANG JUGA SEDIA PLASTIK CETAK LOGO PESENAN KONSUMEN menerima pesenan kantong shoping bags plastik dengan model variasi unik-unik menerima partai kecil dan partai besar dan mutu kualitas terjamin bagus dan kami juga bisa membuatkan edit logo nya sampai yang bagus model unik juga jenis plastik CETAK KANTONG PLASTIK, KANTONG PLASTIK, PRINTING PLASTIK, SABLON PLASTIK, SHOPPING BAG, POLYBAG, LAUNDRY BAG, KANTONG KRESEK, SUPERMARKET BAG, SUPPLIER PLASTIK, DISTRIBUTOR PLASTIK, KANTONG KRESEK, PLASTIK KRESEK, POLY BAG, KANTONG BELANJA, TOKO PLASTIK, PRODUKSI PLASTIK, PERCETAKAN KANTONG PLASTIK, PERCETAKAN PLASTIK, PLASTIK HD, PLASTIK PE, PLASTIK OPP, PLASTIK PP, PLASTIK LAUNDRY, ROTOGRAVURE contoh ukuran plastik redi stok oval tanpa lipat samping uk.L16 x P24, . HD oval 032. uk.L20 x P30, . HD oval 032. uk.L25 x P35, . HD oval 0 32. uk.L30 x P39, . HD oval 032. oval pake lipat sampng uk.L43/ L35 x P40, . HD oval 035 uk.L43/ L35 x P48, . HD oval 04 uk.L55/ L45 x P48, . HD oval 05. model oval tanpa lipet samping uk. L20 x P27, . HD model oval tanpa lipet samping 035. uk. L25 x P35, . HD model oval tanpa lipet samping 035. uk. L30 x P30, . HD model oval tanpa lipet samping 004. uk. L30 x P35, . HD model oval tanpa lipet samping 004. uk. L30 x P37, . HD model oval tanpa lipet samping 004. uk. L30 x P40, . HD model oval tanpa lipet samping 004. uk. L35 x P35, . HD model oval tanpa lipet samping 004. uk. L35 x P37, . HD model oval tanpa lipet samping 004. uk. L35 x P40, . HD model oval tanpa lipet samping 004. uk. L35 x P45, . HD model oval tanpa lipet samping 004. uk. L35 x P50, . HD model oval tanpa lipet samping 005. uk. L40 x P40, . HD model oval tanpa lipet samping 005. uk. L40 x P45, . HD model oval tanpa lipet samping 005. uk. L45 x P45, . HD model oval tanpa lipet samping 006.. model oval lipet samping uk.L26/ L20 x P27, . HD model oval lipet samping 035. uk.L32/ L25 x P35, . HD model oval lipet samping 035. uk.L40/ L30 x P30, . HD model oval lipet samping 004. uk.L40/ L30 x P35, . HD model oval lipet samping 004. uk.L40/ L30 x P37, . HD model oval lipet samping 004. uk.L40/ L30 x P40, . HD model oval lipet samping 004. uk.L45/ L35 x P35, . HD model oval lipet samping 004. uk.L45/ L35 x P37, . HD model oval lipet samping 004. uk.L45/ L35 x P40, . HD model oval lipet samping 004. uk.L45/ L35 x P45, . HD model oval lipet samping 004. uk.L45/ L35 x P50, . HD model oval lipet samping 005. uk.L45/ L40 x P40, . HD model oval lipet samping 005. uk.L50/ L40 x P45, . HD model oval lipet samping 005. uk.L55/ L45 x P45, . HD model oval lipet samping 006.. model tali pres uk.L26/ L20 x P27, . HD Talipres 035. uk.L32/ L25 x P35, . H D Talipres 035. uk.L40/ L30 x P30, . HD Talipres 004. uk.L40/ L30 x P35, . HD Talipres 004. uk.L40/ L30 x P37, . HD Talipres 004. uk.L40/ L30 x P40, . HD Talipres 004. uk.L45/ L35 x P35, . HD Talipres 004. uk.L45/ L35 x P37, . HD Talipres 004. uk.L45/ L35 x P40, . HD Talipres 004. uk.L45/ L35 x P45, . HD Talipres 004. uk.L45/ L35 x P50, . HD Talipres 005. uk.L45/ L40 x P40, . HD Talipres 005. uk.L50/ L40 x P45, . HD Talipres 005. uk.L55/ L45 x P45, . HD Talipres 006.. model singlet uk.L27/ L15 x P35, . HD singlet 03. uk.L29/ L17 x P36, . HD singlet 03. uk.L36/ L24 x P38, . HD singlet 03. uk.L40/ L28 x P48, . HD singlet 0 3. uk.L49/ L35 x P55, . HD singlet 035. uk.L60/ L40 x P60, . HD singlet 037. uk.L65/ L45 x P65, . HD singlet 04. uk.L70/ L50 x P75, . HD singlet 045.. ini ukuran plastik tebal 05 harus di pesen khusus pake minim order. model oval tanpa lipat plastik tebal uk. L16 x P24, . HD oval 05. uk. L20 x P30, . HD oval 05. uk. L25 x P35, . HD oval 05. uk. L30 x P39, . HD oval 05. uk. L43/ L35 x P40, . HD oval 05. uk. L43/ L35 x P48, . HD oval 05. uk. L55/ L45 x P48, . HD oval 05.. plastik tali press uk. L26/ L20 x P27, . HD Talipres 05. uk. L32/ L25 x P35, . H D Talipres 05. uk. L38/ L30 x P37, . HD Talipres 05. uk. L43/ L35 x P39, . HD Talipres 05. uk. L45/ L35 x P48, . HD Talipres 05. uk. L50/ L40 x P48, . HD Talipres 05.. Plastik singlet uk. L27/ L15 x P35, . HD singlet 05. uk. L29/ L17 x P36, . HD singlet 05. uk. L36/ L24 x P38, . HD singlet 05. uk. L40/ L28 x P48, . HD singlet 05. uk. L49/ L35 x P55, . HD singlet 05. uk. L60/ L40 x P60, . HD singlet 05. uk. L65/ L45 x P65, . HD singlet 05. uk. L70/ L50 x P75, . HD singlet 05.. plastik klip obat ukuran redi stok uk. L3 x P5. plastik klip uk. L4 x P6. plastik klip uk. L5 x P8. plastik klip uk. L6 x P10. plastik klip uk. L7 x P10. plastik klip uk. L8 x P10. plastik klip uk. L8, 7 x P13. plastik klip uk. L10 x P15. plastik klip uk. L11 x P17. plastik klip uk. L12 x P20. plastik klip uk. L16 x P20. plastik klip uk. L20 x P30. plastik klip uk. L25 x P35. plastik klip uk. L30 x P40. plastik klip uk. L35 x P41. plastik klip. UKURAN MODEL OVAL PLASTIK KLIP OBAT JENIS PE BENING REDI STOK Uk 25x35 + 7 04 Uk 28x36 + 7 04 Uk 30x38 + 7 05 Uk 30x40 + 7 06 Uk 35x40 + 7 07, -. jenis plastik pp tipis harga 26000/ kg mini pesen 1ball berat 25kg uk. L10 x P15 tebal 04 uk. L10 x P20 tebal 04 uk. L12 x P25 tebal 04 uk. L15 x P30 tebal 04 uk. L20 x P30 tebal 04 uk. L20 x P35 tebal 04 uk. L20 x P40 tebal 04 uk. L25 x P35 tebal 04 uk. L25 x P45 tebal 04 uk. L28 x P40 tebal 04 uk. L28 x P45 tebal 04 uk. L30 x P45 tebal 04 uk. L30 x P50 tebal 04 uk. L35 x P50 tebal 04 uk. L38 x P55 tebal 04 uk. L40 x P60 tebal 04 uk. L45 x P65 tebal 04 uk. L50 x P75 tebal 04 uk. L60 x P100, tebal 04. jenis plastik pp tebal kripik uk. L12 x P25 tebal 08 plastik kripik uk. L15 x P30 tebal 08 plastik kripik uk. L15 x P20 tebal 08 plastik kripik uk. L20 x P35 tebal 08 plastik kripik. jenis Plastik OPP uk. L10 X P25: tebal 0.03 mm uk. L10.5 x P18: tebal 0.03 mm uk. L10.5 x P25: tebal 0.03 mm uk. L11 x P15: tebal 0.03 mm uk. L11 x P18: tebal 0.03 mm uk. L11 x P25: tebal 0.03 mm uk. L11.5 x P25: tebal 0.03 mm uk. L12 x P15: tebal 0.03 mm uk. L12 x P25: tebal 0.03 mm uk. L12.5 x P25: tebal 0.03 mm uk. L13 x P15: tebal 0.03 mm uk. L13 x P18: tebal 0.03 mm uk. L13 x P25: tebal 0.03 mm uk. L13.5 x P25: tebal 0.03 mm uk. L14 x P18: tebal 0.03 mm uk. L14 x P25: tebal 0.03 mm uk. L14.5 x P25: tebal 0.03 mm uk. L15 x P25: tebal 0.03 mm uk. L15.5 x P18: tebal 0.03 mm uk. L16 x P25: tebal 0.03 mm uk. L16.5 x P25: tebal 0.03 mm uk. L17 x P25: tebal 0.03 mm uk. L17.5 x P25: tebal 0.03 mm uk. L18 x P25: tebal 0.03 mm uk. L18.5 x P25: tebal 0.03 mm uk. L19 x P25: tebal 0.03 mm uk. L19.5 x P25: tebal 0.03 mm uk. L20 x P30: tebal 0.03 mm uk. L20.5 x P30: tebal 0.03 mm uk. L21 x P30: tebal 0.03 mm uk. L21.5 x P30: tebal 0.03 mm uk. L22 x P30: tebal 0.03 mm uk. L22.5 x P30: tebal 0.03 mm uk. L23 x P30: tebal 0.03 mm uk. L23 x P35: tebal 0.03 mm uk. L24 x P35: tebal 0.03 mm uk. L6 x P15: tebal 0.03 mm uk. L7 x P15: tebal 0.03 mm uk. L7 x P25: tebal 0.03 mm uk. L7.5 x P25: tebal 0.03 mm uk. L8 x P25: tebal 0.03 mm uk. L8.5 x P15: tebal 0.03 mm uk. L8.5 x P25: tebal 0.03 mm uk. L9 x P15: tebal 0.03 mm uk. L9.5 x P25: tebal 0.03 mm. UKURAN KARUNG BERAS. 45 x 75 Karung beras susu 25KG 40 x 70 Karung beras susu 20KG 50 x 75 Karung beras susu 40KG 56 x 90 Karung beras susu 50KG 60 x 100 Karung beras susu 70KG 60 x 90 Karung beras susu 60KG 75 x 115 Karung beras susu 100KG 35 x 53 Karung beras susu 10KG 47 x 70 Karung beras susu 20KG. HARGA CALL / SMS / BBM KONTAK KAMI AGAR KAMI BISA MEMBANTU DALAM PESANAN YANG ANDA PESAN. ukuran plastik polybag plastik tanaman minim pesen 25kg, 1bal harga 25000/ kg uk. 48/ 24x50 tebal 10 mcrn plastik tanaman warna hitam uk. 40/ 20x40 tebal 10 mcrn plastik tanaman warna hitam uk. 36/ 18x35 tebal 10 mcrn plastik tanaman warna hitam uk. 32/ 16x30 tebal 10 mcrn plastik tanaman warna hitam uk. 26/ 13x25 tebal 10 mcrn plastik tanaman warna hitam uk. 20/ 10x20 tebal 05 mcrn plastik tanaman warna hitam uk. 16/ 8x15 tebal 05 mcrn plastik tanaman warna hitam. uk. ukuran; Plastik OPP Kiloan Plastik OPP Kiloan Ukuran : Sesuai dengan permintaan Ketebalan : Sesuai dengan permintaan Kemasan : 1: Roll minim berat: 75 kg Untuk ukuran umum, harga per kg adalah @ Rp 55.000, / kg-.. PLASTIK BUAH Plastik Buah 25 cm x 35 cm Ukuran : 25 cm x 35 cm ( 2kg) Kemasan : 6 Roll Plastik Buah 30 cm x 40 cm Ukuran : 30 cm x 40 cm ( 2kg) Kemasan : 6 Roll = = = = = = = = = = = = = = = = = = = HDPE 10 cm x 20 cm Ukuran : 10 cm x 20 cm Ketebalan : 0.03 mm Warna : Putih transparan Kemasan : 25 kg Rp. 32 500.00 Banyaknya: HDPE 12 cm x 25 cm Ukuran : 12 cm x 25 cm Ketebalan : 0.03 mm Warna : Putih transparan Kemasan : 25 kg Rp. 32 000.00 Banyaknya: . HDPE 120 cm x 180 cm Ukuran : 120 cm x 180 cm Ketebalan : 0.03 mm Warna : Putih transparan Kemasan : 25 kg Rp. 34 500.00 Banyaknya: HDPE 15 cm x 30 cm Ukuran : 15 cm x 30 cm Ketebalan : 0.03 mm Warna : Putih transparan Kemasan : 25 kg Rp. 32 000.00 Banyaknya: . Produk Kami | Kami menyediakan Plastik Klip, Ziplock Bag, Plastik HD, Plastik PP, Plastik Sampah, Plastik Cor, Plastik Bibit, Plastik Obat, Plastik Transparant, Plastik Klip, Klip Plastik, Ziplock Bags, Zipper Plastik Bags, plastic zipper bags, zipper plastic bags Kelebihan produk kami ( Plastik Klip, Klip Plastik, Ziplock Bags, Zipper Plastik Bags ) Produk kami ( Plastik Klip, Klip Plastik, Ziplock Bags, Zipper Plastik Bags, plastic zipper bags, zipper plastic bags HDPE 20 cm x 35 cm Ukuran : 20 cm x 35 cm Ketebalan : 0.03 mm Warna : Putih transparan Kemasan : 25 kg Rp. 32 000.00 Banyaknya: . HDPE 30 cm x 40 cm Ukuran : 30 cm x 45 cm Ketebalan : 0.03 mm Warna : Putih transparan Kemasan : 25 kg Rp. 32 000.00 Banyaknya: . HDPE 30 cm x 45 cm Ukuran : 30 cm x 45 cm Ketebalan : 0.03 mm Warna : Putih transparan Kemasan : 25 kg Rp. 32 000.00 Banyaknya: . HDPE 35 cm x 50 cm Ukuran : 35 cm x 50 cm Ketebalan : 0.03 mm Warna : Putih transparan Kemasan : 25 kg Rp. 32 000.00 Banyaknya: . plastik klip ukurannya 4 x 6 cm 5 x 8 6 x 10 7 x 10 8, 7 x 13 10 x 15 11 x 17 12 x 20 16 x 25 20 x 30 25 x 35 30 x 40 selain ukuran tersebut bisa juga dipesan. HDPE 40 cm x 60 cm Ukuran : 40 cm x 60 cm Ketebalan : 0.03 mm Warna : Putih transparan Kemasan : 25 kg Rp. 32 000.00 Banyaknya: . HDPE 50 cm x 75 cm Ukuran : 50 cm x 75 cm Ketebalan : 0.03 mm Warna : Putih transparan Kemasan : 25 kg Rp. 32 000.00 Banyaknya: . HDPE 50 cm x 75 cm Ukuran : 50 cm x 75 cm Ketebalan : 0.03 mm Warna : Putih transparan Kemasan : 25 kg Rp. 32 000.00 Banyaknya: . HDPE 50 cm x 75 cm Ukuran : 50 cm x 75 cm Ketebalan : 0.05 mm Warna : Putih transparan Kemasan : 25 kg Rp. 32 000.00 Banyaknya: HDPE 60 cm x 100 cm Ukuran : 60 cm x 100 cm Ketebalan : 0.03 mm Warna : Putih transparan Kemasan : 25 kg Rp. 32 000.00 Banyaknya: HDPE 60 cm x 100 cm Ukuran : 60 cm x 100 cm Ketebalan : 0.05 mm Warna : Putih transparan Kemasan : 25 kg Rp. 32 000.00 Banyaknya: HDPE 75 cm x 130 cm Ukuran : 75 cm x 130 cm Ketebalan : 0.05 mm Warna : Putih transparan Kemasan : 25 kg Rp. 34 500.00 Banyaknya: HDPE 75 cm x 130 cm Ukuran : 75 cm x 130 cm Ketebalan : 0.03 mm Warna : Putih transparan Kemasan : 25 kg Rp. 32 000.00 Banyaknya: HDPE 80 cm x 120 cm Ukuran : 80 cm x 120 cm Ketebalan : 0.03 mm Warna : Putih transparan Kemasan : 25 kg Rp. 34 500.00 Banyaknya: HDPE 90 cm x 120 cm Ukuran : 90 cm x 120 cm Ketebalan : 0.03 mm Warna : Putih transparan Kemasan : 25 kg Rp. 34 500.00 Banyaknya: = = = = = = = = = = = = = = = = = = = = = = = = = = = Kantong Plastik 15 cm x 25 cm Ukuran : 15 cm/ 25 cm x 25 cm Ketebalan : 0.03 mm Warna : Hitam Jumlah lembar : + 260 lembar / kg Kemasan : 25 kg Rp. 685 000.00 Banyaknya: Kantong Plastik 15 cm x 25 cm Ukuran : 15 cm/ 25 cm x 25 cm Ketebalan : 0.03 mm Warna : Putih Jumlah lembar : + 260 lembar / kg Kemasan : 25 kg Rp. 760 000.00 Banyaknya: Kantong Plastik 17 cm x 30 cm Ukuran : 17 cm/ 28 cm x 30 cm Ketebalan : 0.03 mm Warna : Putih Jumlah lembar : + 225 lembar / kg Kemasan : 25 kg Rp. 760 000.00 Banyaknya: Kantong Plastik 17 cm x 30 cm Ukuran : 17 cm/ 28 cm x 30 cm Ketebalan : 0.03 mm Warna : Merah Jumlah lembar : + 225lembar / kg Kemasan : 25 kg Rp. 686 000.00 Banyaknya: Kantong Plastik 17 cm x 30 cm Ukuran : 17 cm/ 28 cm x 30 cm Ketebalan : 0.03 mm Warna : Hitam Jumlah lembar : + 225 lembar / kg Kemasan : 25 kg Rp. 685 000.00 Banyaknya: Kantong Plastik 24 cm x 40 cm Ukuran : 24 cm/ 37cm x 40 cm Ketebalan : 0.03 mm Warna : Putih Jumlah lembar : + 148 lembar / kg Kemasan : 25 kg Rp. 760 000.00 Banyaknya: Kantong Plastik 24 cm x 40 cm Ukuran : 24 cm/ 37 cm x 40 cm Ketebalan : 0.03 mm Warna : Merah Jumlah lembar : + 148 lembar / kg Kemasan : 25 kg Rp. 686 000.00 Banyaknya: Kantong Plastik 24 cm x 40 cm Ukuran : 24 cm/ 37 cm x 40 cm Ketebalan : 0.03 mm Warna : Hitam Jumlah lembar : + 148 lembar / kg Kemasan : 25 kg Rp. 585 000.00 Banyaknya: Kantong Plastik 28 cm x 48 cm Ukuran : 28 cm/ 42 cm x 48 cm Ketebalan : 0.03 mm Warna : Putih Jumlah lembar : + 92 lembar / kg Kemasan : 25 kg Rp. 760 000.00 Banyaknya: Kantong Plastik 28 cm x 48 cm Ukuran : 28 cm / 42 cm x 48 cm Ketebalan : 0.03 mm Warna : Merah Jumlah lembar : + 92 lembar / kg Kemasan : 25 kg Rp. 686 000.00 Banyaknya: Kantong Plastik 28 cm x 48 cm Ukuran : 28 cm/ 42 cm x 48 cm Ketebalan : 0.03 mm Warna : Hitam Jumlah lembar : + 92 lembar / kg Kemasan : 25 kg Rp. 585 000.00 Banyaknya: Kantong Plastik 35 cm x 55 cm Ukuran : 35 cm/ 53 cm x 55 cm Ketebalan : 0.03 mm Warna : Putih Jumlah lembar : + 56 lembar / kg Kemasan : 25 kg Rp. 760 000.00 Banyaknya: Kantong Plastik 35 cm x 55 cm Ukuran : 35 cm/ 53 cm x 55 cm Ketebalan : 0.03 mm Warna : Merah Jumlah lembar : + 56 lembar / kg Kemasan : 25 kg Rp. 600 000.00 Banyaknya: Kantong Plastik 40 cm x 60 cm Ukuran : 40 cm/ 60 cm x 60 cm Ketebalan : 0.04 mm Warna : Putih Jumlah lembar : + 46 lembar / kg Kemasan : 25 kg Rp. 660 000.00 Banyaknya: Kantong Plastik 40 cm x 60 cm Ukuran : 40 cm/ 60 cm x 60 cm Ketebalan : 0.04 mm Warna : Merah Jumlah lembar : + 46 lembar / kg Kemasan : 25 kg Rp. 586 000.00 Banyaknya: Kantong Plastik 40 cm x 60 cm Ukuran : 40 cm/ 60 cm x 60 cm Ketebalan : 0.04 mm Warna : Hitam Jumlah lembar : + 46 lembar / kg Kemasan : 25 kg Rp. 485 000.00 Banyaknya: Kantong Plastik 50 cm x 75 cm Ukuran : 50 cm/ 76 cm x 75 cm Ketebalan : 0.08 mm Warna : Putih Jumlah lembar : + 22 lembar / kg Kemasan : 25 kg Rp. 670 000.00 Banyaknya: Kantong Plastik 50 cm x 75 cm Ukuran : 50 cm/ 76 cm x 75 cm Ketebalan : 0.08 mm Warna : Hitam Jumlah lembar : + 22 lembar / kg Kemasan : 25 kg Rp. 500 000.00 Banyaknya: Kantong Plastik 50 cm x 75 cm Ukuran : 50 cm/ 76 cm x 75 cm Ketebalan : 0.08 mm Warna : Merah Jumlah lembar : + 22 lembar / kg Kemasan : 25 kg Rp. 600 000.00 Banyaknya: = = = = = = = = = = = = = = = = = = = = = = = = Styrofoam Kemasan : Gabus Kecil Quantity : 100 pack Minimal Order 1 Packing : 1000 pieces Rp. 450 000.00 Banyaknya: Styrofoam Kemasan : Gabus Besar Quantity : 100 pack Minimal Order 1 Packing : 1000 pieces Rp. 550 000.00 Banyaknya: Styrofoam Kemasan : Gabus Sekat Quantity : 100 pack Minimal Order 1 Packing : 1000 pieces Rp. 550 000.00 Banyaknya: Styrofoam Kemasan : HB Quantity : 200 pack Minimal Order 1 Packing : 2000 pieces Rp. 560 000.00 Banyaknya: Styrofoam Kemasan : MO Quantity : 100 pack Minimal Order 1 Packing : 1000 pieces Rp. 420 000.00 Banyaknya: Styrofoam Kemasan : M2 Quantity : 250 pack Minimal Order 1 Packing : 2500 pieces Rp. 560 000.00 Banyaknya: Styrofoam Kemasan : P6 Quantity : 250 pack Minimal Order 1 Packing : 2500 pieces Rp. 580 000.00 Banyaknya: Styrofoam Kemasan : P75 Quantity : 250 pack Minimal Order 1 Packing : 2500 pieces Rp. 630 000.00 Banyaknya: Styrofoam Kemasan : P9 Quantity : 100 pack Minimal Order 1 Packing : 1000 pieces Rp. 850 000.00 Banyaknya: Styrofoam Kemasan : TR3 Quantity : 250 pack Minimal Order 1 Packing : 2500 pieces Rp. 750 000.00 Banyaknya: ukuran plastik polybag plastik tanaman minim pesen 25kg 1bal harga 25000/ kg uk. 48/ 24x50 tebal 10 mcrn plastik tanaman warna hitam uk. 40/ 20x40 tebal 10 mcrn plastik tanaman warna hitam uk. 36/ 18x35 tebal 10 mcrn plastik tanaman warna hitam uk. 32/ 16x30 tebal 10 mcrn plastik tanaman warna hitam uk. 26/ 13x25 tebal 10 mcrn plastik tanaman warna hitam uk. 20/ 10x20 tebal 05 mcrn plastik tanaman warna hitam uk. 16/ 8x15 tebal 05 mcrn plastik tanaman warna hitam HD PE PP OPP LLDPE oxium degradabel jenis plastik HD SINGLET HD SOFHENDEL HD OVAL PE SINGLET PE SOFHENDEL PE OVAL jenis plastik super market careffurr plastik alfa plastik superrindo HD singlet oxium degradabel jenis plastik super market PE singlet jenis plastik super market oxium degradabel singlet jenis plastik obat plastik klip cetak plastik printing plastik sablon plastik prin shoping bags plastik boutiq plastik promosi plastik kebutuhan kantor plastik shoping bags plastik gudang plastik super plastik polibag plastik tanaman plastik pupuk plastik beras plastik kripik plastik corr bangunan plastik onderdil mobil onder motor plastik toko baju plastik kebutuhan rumah sakit plastik kebutuhan akupuntur plastik bungkus pakan burung plastik bungkus sayuran organik kualitas unggul DLL Anda bisa mengklik "" Info Perusahaan "" , "" Katalog Produk "" dan "" Hubungi Kami "" untuk melihat isi dan informasi lain dari situs cetak plastik printing plastik sablon plastik prin shoping bags plastik boutiq plastik promosi plastik kebutuhan kantor plastik shoping bags plastik gudang plastik super plastik polibag plastik tanaman pupuk plastik beras plastik kripik plastik cor. TOKO CETAK KANTONG PLASTIK Perusahaan kami lebih memfokuskan jenis produk pada shopping bag plastik, akan tetapi kami juga menerima order jenis produk yang lain. Harga sablon plastik yang kami tawarkan selain relatif murah dan juga dapat dinegosiasikan kembali. Perusahaan kami selalu berusaha menjaga hubungan baik dengan para klien dan langganan, sehingga menjadi suatu kesepakatan bahwa kepercayaan anda kepada kami adalah suatu asset yang sangat berharga bagi kami. dan tidak ternilai harganya. Segera hubungi kontak kami segera mudah cukup hubungi kami melalui telphone anda sekarang juga dan anda akan mendapatkan jawabannya bersama kami. salam sukses binajayaplastik@ yahoo.com info web : info@ binajayaplastik.com ","
              Jl. Jelambar Indraloka Gang 5 No 1875, Jakarta Barat            ",Jakarta Barat,DKI Jakarta,+62 812-8016-3911,None,None
Kambing Guling Grogol (catering sabar menanti),"
                                    PREMIUM GOLD
                                ",Desain,"
catering sabar menanti adalah suplier catering makanan & minuman.melayani area JAKARTA & sekitarnya.daftar menu :zupa-soupkambing gulingsatebasosiomaydimsumcoklat fountaincoklat mealtkebabaneka es(crem,puter,doger,podeng,teler,cendol, cinau)kami melayani dengan amanah & sepenuh hati.kepuasan konsumen kami utamakan.harga terjangkau dengan kwalitas terjamin.kami melayani untuk berbagai acara pesta perkawinan, sunatan, ulang tahun, rapat, dll. di gedung, perkantoran, rumah, hotel, restauran, masjid, dll. bekerja sama dengan catering ternama di jakarta, hotel dan restoran.anda ingin moment pesta anda lebih berkwalitas silahkan pesan makanan dan minuman di catering SABAR MENANTI di JAMIN anda puas. Untuk info dan pemesanan silahkan langsung hubungi kami. bp. SABAR021-56487790815-1401-69730815-3688-0336 (WA)fb : cateringsabarmenantiig : cateringsabarmenanticateringsabarmenanti@gmail.comwww.cateringsabarmenanti.com ","
              jl.indraloka 1 gg.111 no 83e            ",jakarta barat,DKI Jakarta,+62 815-3688-0336,None,None
