Name,Membership,Category,Description,Address,City,Province,telp1,telp2,telp3
PIJAT SYARAF PAK ANTON PONDOK KOPI,"
                                    ANGGOTA BASIC
                                ",Pijat Refleksi,"
PIJAT SYARAF PAK ANTON PONDOK KOPI
 
KAMI MENERIMA JASA PIJAT SYARAF UNTUK KESEHATAN 
 
JASA PIJAT SYARAF KAMI MEMILIKI KEUNGGULAN UNTUK ANDA WANITA TIDAK PERLU MEMBUKA BAJU KARENA KAMI LANGSUNG TOTOK DI BAGIAN YANG SAKIT .
 
 
BAGI ANDA YANG TERKENA SYARAF TERJEPIT , ADA BAIK NYA JANGAN BURU - BURU OPERASI , COBALAH CARI ORANG YANG AHLI DALAM PIJAT SYARAF ATAU MINIMAL ORANG YANG TAHU URUT UNTUK KESELEO KARENA AWAL MULA SYARAF TERJEPIT ITU AKIBAT URAT KESELEO DIBAGIAN SENDI LALU DIDIAMKAN TERLALU LAMA AKAN TIMBUL MEMAR ATAU SEMACAM BENJOLAN KECIL YANG MENYEBABKAN NYERI DAN SAKIT KETIKA BERGERAK . TERKADANG ORANG MENGALAMI RASA SAKIT INI DIAREA ATAS TULANG EKOR , DI PINGGANG , BAHU , LEHER , BELIKAT , PERGELANGAN . KARENA JIKA DI DIAMKAN SAJA BISA FATAL DAN MENYEBABKAN KELUMPUHAN .
 
PIJAT SYARAF PAK ANTON PONDOK KOPI SOLUSI UNTUK ANDA JIKA MENGALAMI SEGALA KELUHAN DIATAS . 
 
KAMI JUGA MELAYANI : 
 
- PIJAT TOTOK SYARAF 
 
- PIJAT REFLEKSI 
 
- PIJAT SYARAF KEJEPIT 
 
ALAMAT : Jalan Arabika 3 No.67 , RT.07 / RW.07 Pondok Kopi kec.Duren Sawit . JAKARTA SAWIT ","
              Jalan Arabika 3 No.67 , RT.07 / RW.07 Pondok Kopi kec.Duren Sawit            ",Jakarta Timur,DKI Jakarta,+62 813-8671-3444,None,None
