Name,Membership,Category,Description,Address,City,Province,telp1,telp2,telp3
PD RAVIBORDIR Indramayu ,"
                                    PREMIUM GOLD
                                ",Bordir Komputer,"
PD RAVI BORDIR Adalah perusahaan satu-satunya yg ada di kabupaten Indramayu JAWABARAT. Yang sudah terkenal dengan hasil kwalitas dan ketepatan produksi, juga desain nya. kami sudah berjalan SEJAK tahun 1998. Kami adalah perusahaan yg bergerak dalam bidang produksi & penjualan secara langsung DI TOKO KAMI , maupun ON LINE secara BISNIS. Bidang kami Dalam pembuatan perlengkapan TNI.POLISI.POLPP.DISHUB.SECURITY SEKOLAH PASKIBRA mulai dari Topi. Jaket. Rompi. Kaos. Tas/ ransel. Sepatu PDL/ PDH. Wearpakc. Kemeja. Training. Helm. Logam Gantungan Kuci. Jam Dinding, juga menerima Pembuatan Jas.Jasket. Tenda Pramuka. Tenda Dome. Tenda Kerucut. BORDIR LOGO SEKOLAH Dinas Organisasi. DLLFB : Ravibordir IndramayuPD Ravi BordirIndramayu Jawa barat HP wa 081 324 73 1399 Hp wa 0857 2016 8603 ","
              JL. SILIWANGI (PINTU MASUK BTN PAOMAN ASRI no 60)KEC/Kab. INDRAMAYU kode Pos 45212 Jawa barat IndonesiaHp wa  081324731399 - 085720168603 dekat 500 meteran dekat dengan kantor Bupati Indramayu Jawa barat            ",INDRAMAYU - JAWABARAT INDONESIA. ,Jawa Barat,+62 813-2473-1399,None,None
CAHAYA GARMENT and EMBROIDERY,"
                                    PREMIUM GOLD
                                ",Bordir Komputer,"
              Profil Perusahaan Cahaya Garment and Embroidery adalah Perusahaan Garmen, Produksi & Berkualitas Di Indonesia. Kami menyediakan jasa pembuatan seragam, kaos-kaos promosi dll. Cahaya Garment and Embroidery merupakan jaringan perusahaan keluarga dimana kami mempunyai 3 workshop industri di Surabaya dikawasan Margodadi 1, Embong Malang, Trosobo. Cahaya Garment and Embroidery mengoperasikan 30 Unit mesin modern dengan tenaga kerja sebanyak 120 orang. Dengan pengalaman sejak tahun 2005  berkiprah di bidang garment, Cahaya Garment and Embroidery sanggup berdiri dan menjadi supplier pakaian yang berkualitas khususnya untuk busana pria maupun wanita seperti kaos polo, T-shirt, jackets, kemeja, celana dan pakaian-pakaian casual lainnya. Kami didukung oleh 120 tenaga kerja yang ahli dibidang garment termasuk dengan adanya tenaga kerja quality control dan designer yang selalu menujang penuh disetiap hasil produksinya untuk menghasilkan kualitas pakaian yang terbaik. Dengan di tunjang penuh oleh 3 unit produksi kami dapat menghasilkan produksi kaos, kemeja, jaket, celana, jeans yang cukup bagus kualitasnya, elegan, dan nyaman dipakai Kami telah mendapatkan reputasi yang cukup baik oleh para user maupun masyarakat yang telah menggunakan jasa perusahaan kami khususnya hasil dari kualitas design maupun produk yang telah dihasilkan. Kami mempunyai logo baru dengan model dan penampilan yang dapat membuat konsumen-konsumen kami yang loyal lebih percaya. Cahaya Garment and Embroidery merupakan perusahaan konveksi yang terkenal reputasi baiknya dan menjadi leader di bidangnya khususnya telah melayani kebutuhan seragam perusahaan-perusahaan besar yang cukup terkenal di Indonesia maupun perusahaan perusahaan di luar negeri. Berdasarkan kualitas terbaik dan sesuai hasil yang diharapkan akhirnya kami menjadi tempat rujukan bagi perusahaan-perusahaan lain untuk meningkatkan performa dan style karyawan yang tentunya pada akhirnya dapat meningkatkan citra perusahaan yang telah menggunakan jasa kami. Kenapa kami Cahaya Garment layak menjadi mitra penyedia produk seragam atau pakaian dari perusahaan anda :1. Kualitas produk adalah lini utama perhatian kami2. Kami memberikan pendampingan buyer secara terus menerus tentang update produksi3. Kami memiliki Team produksi yang solid, sehingga kami bisa mengirim tepat waktu  4. Pelayanan purna jual sebagai garansi kualitas pekerjaan yang kami berikan,Penghargaan: Kami telah berpengalaman lebih 10 tahun membuat Cahaya Gament and Embroidery dengan cepat tumbuh dan berkembang menjadi perusahaan yang cukup disegani dengan hasil produksi yang maksimal ditunjang fasilitas produksi yang terintegrasi. Objektifitas Untuk menjadi mensupllier pakaian dengan kulitas terbaik tentunya kami ditunjang oleh dengan support harga yang cukup kompetitif, pelayanan yang professional, quality control yang ketat, bekerja cepat sesuai deadline, design yang mengikuti perkembangan dan online information. Karena untuk selalu mendapatkan konsumen yang loyal kami sangat menjaga kualitas agar kepuasaan pelanggan tetap terjaga. Kami peduli & Komitmen merupakan modal utama Cahaya Garment and Embroidery COMPANY PROFILE : "" QUALITY IS OUR PRIORITY"" Name Perusahaan: Cahaya Garment and Embroidery Alamat kantor Indonesia: Jl.Margodadi I / 81, Surabaya Bidang usaha utama :- Jasa garment, embroidery ( border ) and laundry Pengembangan usaha- Bidang perdagangan - Bidang pengadaan atau penyediaan barang dan jasa - Bidang penjualan mesin bordir komputer / repair mesin Bordir, Press dan mesin bordir besar lainnya bisa untuk unit baru, unit second, spareparts, kami garansi untuk seluruh Indonesia. - Kerjasama Proyek Pengadaan Seragam kantor atau Pakaian  Misi : Menjadi perusahaan garment yang memperhatikan kualitas, dan berorientasi pada kepuasan konsumen Visi : Menjadi perusahaan garment yang terbaik dan terbesar di Indonesia.Work Shop :  Jl.Pondok Jati - Sda Telephone: ( 081938425969 ) Homepage: http: / / cahaya_ garment.indonetwork.co.id http: / / cahayagarment.blogspot.com E-mail : cahayagarment@ ymail.com Pemilik : Bhagoes Sasmito Effendy, S.E. Iis Susanti, S.E.            ","
              JL.Margodadi 1 / 81            ",surabaya,Jawa Timur,+62 819-3842-5969,None,None
PT. KAUZA CHANDRA MEKAR,"
                                    PREMIUM GOLD
                                ",Bordir Komputer,"
PT. KAUZA CHANDRA MEKAR adalah sebuah perusahaan yang bergerak di bidang  Jasa Penyelenggaraan Pertemuan Perjalanan Insentif Konferensi dan Pameran (MICE) atau biasa juga disebut sebagai Event Organizer. Berdiri sejak tahun 2014 di Jakarta Selatan.  Dalam perjalanan usahanya, souvenir, barang promosi dan seragam selalu menjadi hal penting dalam penyelenggaraan sebuah acara. Maka kami berinisiatif untuk membuka divisi pengadaan Souvenir yang dikenal sebagai Kauzapro Galeri. Kauzapro Galeri menyediakan berbagai kebutuhan promosi perusahaan, antara lain : Kaos, Topi, Payung, Handuk, Agenda, dan berbagai merchandise lainnya sesuai kebutuhan perusahaan. Kami juga melayani jasa Bordir Komputer dan sablon.  ","
              Office        :Wisma Iskandarsyah Blok A-10, Jl. Iskandarsyah Raya Kav. 12-14, Melawai, Kebayoran Baru - Jakarta Selatan.Workshop :Jl. Mugni IV, No. 42A, Jatimekar, Jatiasih - Bekasi 17422            ",Jakarta Selatan,DKI Jakarta,+62 813-1842-3249,None,None
KERTAJAYA LABEL,"
                                    PREMIUM GOLD
                                ",Bordir Komputer,"
              KERTAJAYA LABEL ADALAH PERUSAHAAN YANG BERGERAK DI BIDANG PEMBUATAN LABEL BUKAN HANYA DI JAKARTA KAMI JUGA MENERIMA PESANAN DARI SELURUH WILAYAH INDONESIA DAN KAMI MENERIMA DALAM SKALA BESAR (PARTAI) MAUPUN KECIL (MINIM) DAN KAMI MENYEDIAKANPEMBUATAN LABEL DI SEMUA JENIS :*LABEL BORDIR/WOVEN/RAJUT*LABEL POLYESTER BORDIR*LABEL SATEN BORDIR*LABEL SATEN PRINT*LABEL NILON PRINTKERTAJAYA LABEL SIAP MEMENUHI KEBUTUHAN ANDA KHUSUSNYA BAGI ANDA YANG BERGERAK DI BIDANG FASHION SEPERTI :KONVEKSI/GARMENT DLL.LABEL PAKAIAN INI SANGAT BERMANFAAT UNTUK SEGALA MACAM JENIS PAKAIAN*PAKAIAN DALAM (SPORT BRA/BH/UNDERWEAR/LEGGING/TENGTOP DLL.)*PAKAIAN WANITA*PAKAIAN PRIA*PAKIAN ANAK2DEMI PELAYANAN TERBAIK KAMI JUGA MEMBERIKAN KEMUDAHAN BAGI ANDA YAITU :*GRATIS DESIGN*GRATIS EXAMPLEKERTAJAYA LABELHP : 081289817269 (WA)email :kertajayalabel@gmail.comKEPUASAN ANDA ADALAH PRIORITAS KAMI            ","
              Jl. Kepu Dalam V No.17Kemayoran, Jakarta Pusat            ",Jakarta Pusat,DKI Jakarta,+81 289-81-7269,None,None
