Name,Membership,Category,Description,Address,City,Province,telp1,telp2,telp3
CV.BINTANG BOTOL PLASTINDO,"
                                    PREMIUM GOLD
                                ",Kemasan Kosmetik,"
CV.BINTANG BOTOL PLASTINDO
Usaha yang bergerak dibidang packaging pembuatan botol plastik. Kami melayani Partai besar dan Partai kecil dengan harga yang kompetitif. From our home to yours. Our Products are : 
• Hdpe PET• Botol Herbal• Botol Kosmetik • Botol Air Mineral• Botol Oli & Minyak Rem• Botol hotel  dan masih banyak lagi lainnyaa
All stuff made by order only, you can give any measurements of your bottle and we will make it.
Contact UsEmail  : Bintangbotolplastik@gmail.comPhone               : 0816533839 085720000439 Whatsapp          : +62 822 2220 5499BBM                 : D3549910
www.bintangbotolplastik.net www.bintangbotolplastindo.com ","
              jl.alternatif cibubur Cileungsi km.7 No.63C.Cileungsi Bogor 16820 sebrang Telkom Cileungsi            ",bogor,Jawa Barat,+62 816-533-839,+62 857-2000-0439,None
UD. SIDO MUMBUL,"
                                    PREMIUM GOLD
                                ",Kemasan Kosmetik,"
              UD. SIDO MUMBULPerusahaan kami bergerak di bidang distribusi barang pecah belah / bolo pecah, plastik rumah tangga, peralatan / alat dapur ( kitchen wares) dan kebersihan ( cleaning equipments) , perlengkapan rumah tangga ( house wares / home appliances) dan kebutuhan industri ( industrial wares) lebih dari 30 tahun di Pasar Turi, Surabaya. Kami menjual barang-barang produksi lokal dan impor seperti barang-barang aluminium, kaca, plastik, stainless steel, perkakas, dll. dengan harga dan kuantiti partai ( grosir) untuk dijual kembali ( reseller price).Beberapa merek barang yang kami jual adalah Hock, Lion Star, Maspion, Global Eagle, Green Leaf, Dian Sari, Owl Plast, Technoplast, Bull Star dan masih banyak lagi. Untuk informasi lebih lengkap bisa dilihat pada halaman Katalog Produk kami atau bisa langsung datang ke kantor kami pada hari Senin - Sabtu pada pukul 10: 00 - 17: 00 WIB di jalan Dupak 63, kompleks pertokoan Mutiara Dupak C-22, Surabaya.  Dengan dukungan supplier lokal dan nasional, kami siap untuk memenuhi kebutuhan usaha anda. Kontak kami segera untuk berbisnis dengan kami.Kami juga melayani kebutuhan hotel, rumah sakit, cafe, restoran & katering.Untuk pemesanan produk dapat dilakukan via telepon, short message service ( SMS) , Yahoo! Messenger, Blackberry Messenger ( BBM) dengan sistem pembayaran cash ( transfer bank / kontan) . Pembayaran dapat dilakukan setelah mendapat konfirmasi dari kami atas ketersediaan jumlah produk yang dibutuhkan. Apabila anda serius, dimohon untuk tidak mengirimkan e-mail kepada kami tanpa melakukan konfirmasi terlebih dahulu.  Tersedia kualitas produk biasa, menarik, murah, kuat dan berkualitas tergantung merk dan kebutuhan. Untuk area surabaya kami dapat mengirim, untuk konsumen luar kota dan luar pulau dapat dikirim lewat ekspedisi yang telah disepakati bersama. JAKARTA - BANDUNG - YOGYAKARTA - MAGELANG - SOLO - DENPASAR - SEMARANG - MALANG - SURABAYA - BANYUWANGI - PASURUAN - PROBOLINGGO - JEMBER - PRABUMULIH - MEDAN - JAMBI - PEKANBARU - MAKASSAR - BALIKPAPAN - PONTIANAK - BANJARMASIN - BATAM - PALEMBANG - LAMPUNG - SAMARINDA - PADANG - MATARAM - KALABAHI - MANADO - JAMBI - ACEH - PANGKALAN BUN - KUALA PEMBUANG - BATU LICIN - SAUMLAKI - TUAL - GORONTALO - TANJUNG SELOR - TOLI TOLI - AMBON - BATAM - PANGKALPINANG - WAINGAPU - WAIKABUBAK - KUPANG - ATAMBUA - DILI - PALU - SAMPANG - BANGKALAN - SUMENEP - JAYAPURA - SORONG - BIAK - MANOKWARI - MERAUKE - BAU BAU - TERNATE - TOBELO - KENDARI UD. SIDO MUMBUL - Jln. Dupak 63 / Pertokoan Mutiara Dupak C-22, (031) 5469330 / 081938685700, Surabaya. PIN BBM = 7C5F4B40 / 5B69FFC6 / 228B81D4 WA = +6282143438684 LINE = herry.sutanto E-mail = ud_sido_mumbul@yahoo.com / herrychenzhongqiang@gmail.com Jam Kerja = Senin - Sabtu 10:00 - 17:00 WIB, Hari Minggu / Besar Libur            ","
              Jln. Dupak 63 / Pertokoan Mutiara Dupak C-22, (031) 546-9330 / 0819-3868-5700, Surabaya.
PIN BBM = 7C5F4B40 / 5B69FFC6
WA = 0821-4343-8684
LINE = herry.sutanto            ",Surabaya,Jawa Timur,+62 814-3438-684,None,None
CV EMBA PLAST,"
                                    PREMIUM GOLD
                                ",Kemasan Kosmetik,"
CV EMBA PLAST adalah Perusahaan yang bergerak di Bidang Packaging Cosmetic & Pharmasi.Kami menyediakan Kemasan dengan berbagai Ukuran, seperti Pot Cream Lokal dan Import dengan Harga Paling Kompetitif.Packaging Cosmetic kami lebih mengutamakan kualitas terbaik dari bahan yang terbuat dari PP , PS , PET , dan Acrilyc.
 
Ukuran botol kosmetik yang tersedia mulai dari 20 ml - 600ml. Ukuran Pot Kosmetik :
• 10 gram
• 12,5 gram
• 100 gram
• 125 gram
• 250 gram 
• Dan lain lain
 
Kami juga melayani Dekorasi Produk : Hot Stamping , Printing dan Stiker. Alamat kami di : Perumahan Golden Berry Regency Blok DG 07 Menganti Gresik, Jawa Timur, Indonesia. No Telfon atau No HP/WhatsApp : 085850647998 dan 082264142079.
 
 
Tags : Pabrik Kemasan Kosmetik , Kemasan Kosmetik Murah , Pabrik Kemasan Kosmetik Surabaya , Supplier Botol Kosmetik , Kemasan Kosmetik Unik , Jual Botol Kosmetik Surabaya , Supplier Botol Kosmetik , Pot Kosmetik , Pabrik Pot Cream , Jual Botol Kosmetik Surabaya , Pot Cream Acrylic , Pot Cream Acrylic , Pot Acrylic 10 gram , Jual Pot Cream Acrylic , Pabrik Pot Cream , Jual Pot Cream 10 gram , Jual Pot Salep Murah , Jual Botol Kosmetik Surabaya , Jual Tube Kosmetik , Jual Botol Komestik Import , Harga Sewa Scaffolding di Surabaya , Perhitungan Sewa Scaffolding , Sewa Scaffolding Terdekat ","
              Perumahan Golden Berry Blok DG 07 Menganti Gresik, Jawa Timur, Indonesia            ",GRESIK,Jawa Timur,+62 858-5064-7998,+62 822-6414-2079,None
ANSHELL PLASTIC & PACKAGING,"
                                    PREMIUM GOLD
                                ",Kemasan Kosmetik,"
Selamat Datang di Website PT Anshell Jaya. Kami merupakan perusahaan yang berdiri sejak 2013 bergerak dalam industri Botol Kosmetik, Botol Minuman Dan Minyak Goreng, Botol Minuman , Botol Farmasi, Aneka toples PET, Botol Pupuk Pertanian. Kami berada di Jl Ruko Kingstwon KK-2 Citra Raya. Temukan berbagai produk terbaik kami (Kemasan Botol, botol minuman, botol pupuk, plastik PET, botol kosmetik, Botol murah) dengan kualitas dan harga jual terbaik yang bisa Anda dapatkan. ","
              Ruko Kingstown KK-02 Citraraya            ",Surabaya,Jawa Timur,+62 851-0058-2398,None,None
Selatan Jaya Plastik Surabaya,"
                                    PREMIUM GOLD
                                ",Kemasan Kosmetik,"
Selatan Jaya Merupakan Distributor Plastik Di Surabaya, Kami jual harga grosir produk Barang Plastik, Barang Perlengkapan Makan minum, Perlengkapan Mandi, Perlengkapan masak Dapur, alat kebersihan, Perlengkapan Rumah Tangga, Produk Pecah Belah Dll. 
Hubungi Kami : 
SELATAN JAYA PLASTIK 
0313520648 / 0313542351 / 081331351580
Songoyudan 31b, Surabaya Surabaya Jawa Timur , Indonesia

Produk Melamin, Stainless Steel, Alumunium, Merk Pabrik Napolly, Tms, Ag, Ks, Kaisha, Ikimura, Maspion, Lion Star, Calista, Olympia, Produk China, Dll
 
Kategori Produk Yang Kami Jual
 
Perlengkapan Ruang Tamu:
Kursi Plastik, Meja, Lemari, Keset, Karpet, Sapu, Pel Gagang, Sekrop Plastik, Asbak Melamin.
 
Perlengkapan Di Ruang Makan:
Keranjang Plastik Industri Krat, Sendok, Garpu, Piring, Mangkok, Toples Plastik, Mug, Gelas, Cangkir, Teko, Ceret, Lunch Box, Tempat Sendok, Tempat Sambal, Tutup Sayur Segi, Tutup Sayur Bulat, Jumbo Tras, Eskan, Thermos, Rantang, Wakul, Ompreng, Sealware, Water Jug, Baki, Rantang Catering.
 
Perlengkapan Dapur:
Wajan Alumunium, Kompor Hock, Panci, Kuali, Priuk, Pisau , Rice Cooker, Mixer, Magic Com, Blender, Magic Jar, Rice Bucket, Tudung Saji, Tempat Nasi, Dandang, Oven, Serbet, Industri Krat, Rak Piring, Tampa, Nampan, Niru, Baki, Erus, Eros, Entong, Sutil, Kitchen Set, Panggangan, Sumbu Kompor, Pressure Cooker
 
Perlengkapan Kamar Mandi:
Tempat Sabun, Bak Bayi, Ember, Timba, Baskom, Waskom, Tong Air, Gayung, Kaca Pretty, Gentong, Jirigen.
 
Perlengkapan Kamar:
Gantungan Baju, Hanger, Jepit Baju.
 
Perlengkapan Rumah Tangga:
Keranjang Pakaian, Rak Sepatu, Keranjang Sampah, Pot Bunga, Kursi Taman, Kursi Anak, Kursi Makan, Kursi Bakso, Celengan, Tikar, Kemucing, Container, Bola, Big Boxer, Saringan, Tandon.
 
  ","
              surabaya            ",surabaya,Jawa Timur,+62 813-3135-1580,None,None
