Name,Membership,Category,Description,Address,City,Province,telp1,telp2,telp3
PT. BINA AREA PERSADA,"
PREMIUM RUBY
",Keamanan,"
              Kami dari PT. Bina Area Persada yang bergerak dibidang Outsourcing. Kami menawarkan tenaga Security, Cleaning Service dan Driver. Selain itu kami juga menawarkan Sistem keamanan berbasis IT yang dapat mengamankan ruko, gedung perkantoran hingga pabrik dari tindakan kriminal, kebakaran, banjir dll.            ","
              Jl. Gayungsari barat XI Blok GD No. 13            ",Surabaya,Jawa Timur,08111546010,None,None
percetakan murah surabaya ,"
                                    PREMIUM GOLD
                                ",Keamanan,"
              berbagai macam produk percetakan yang kami terima Secara garis besar, produk dan jasa yang kami tawarkan bisa dikelompokkan ke dalam bidang-bidang berikut: Printing ( percetakan) . Bidang percetakan yang kami tawarkan memiliki spektrum yang luas, seluas kebutuhan cetak yang berkembang pada masyarakat modern. Paling tidak kami biasa mengelompokkannya ke dalam 5 kebutuhan cetak :

Promosi, yaitu kebutuhan cetak yang berkaitan dengan media sosialisasi sebuah layanan atau produk, seperti kalender, brosur, poster, paper bag, pamflet, undangan, flyer, hanging mobile, company profile, atau katalog, company profile, danm lainnya.
Penerbitan, yaitu kebutuhan cetak yang berkaitan dengan usaha-usaha penerbitan seperti bulletin, majalah, tabloid, buku, agenda, dan lainnya.
Packaging, yaitu kebutuhan cetak yang berkaitan dengan kemasan sebuah produk misalnya kemasan pakaian ( baju, songkok, sarung) , kemasan makanan ( roti dan donat) , kemasan barang atau kemasan lainnya ( inner box) .
Administrasi, yaitu kebutuhan cetak yang berhubungan dengan administrasi seperti ID Card, kartu nama, atau form administrasi, dan lainnya. Jasa, yaitu layanan berupa jasa kerja di bidang percetakan seperti jasa desain grafis, jasa cetak atau jasa plong.
Publishing ( penerbitan) . layanan cetak seperti media buletin dan majalah yang muncul secara periodik, ataupun buku yang terbit di waktu tertentu saja. Advertising ( media pariwara) . Pada bidang ini kami menawarkan pembuatan: Merchandise ( kaos, mug, gantungan kunci, dan lainnya.) In Door ( art visual, x-banner, sticker vynil / cutting, dan lainnya.) Out Door ( umbul- umbul, spanduk, banner, baliho, billboard, neon sign/ box, dan lainnya) Komunikasi audiovisual ( cd interaktif, iklan radio, iklan televisi, company profile, dan lainnya) Lain-lain ( pembuatan logo perusahaan)

hubungi kami ---->>> 081217715726 , 085100812174website : www.sinarimajinasi.com            ","
              jl. rambutan 14 rt.5 rw 2 geluran taman sidoarjo             ",Surabaya,Jawa Timur,+62 812-1771-5726,None,None
TEKNIK MANDIRI,"
PREMIUM BLUE ONYX
",Keamanan,"
Teknik Mandiri adalah sebuah perusahaan yang khusus memfokuskan diri dalam memenuhi kebutuhan industri,Rumah tangga,Proyek dan Automotive di bidang produk mechanical, electrical,handtools,welding,safety,dan Lifting pneumatic Equipment  Visi: Menjadi yang terbaik di antara yang terbaik.  Misi: Menjadikan Teknik Mandiri sebagai partner Industry, Rumah Tangga, Proyek dan Automotive dalam menghadapi tantangan dan menyongsong kesempurnaan dimasa depan.  Kami bekerja keras dan selalu melakukan yang terbaik untuk melayani pelanggan-pelanggan dimanapun dan kapanpun dalam memberikan informasi yang akurat dan solusi yang tepat pada saat dibutuhkan.Info Produk & Order Hubungi :Phone : 021-5644267    Mobile : 0812 1214 3333( Call/WA)Email : teknikmandiriindo@gmail.com ","
              Jl. Setia Warga 8 No.40 Rt 10/11 Grogol Petamburan, Jakarta Barat            ",Jakarta Barat,DKI Jakarta,+62 812-1214-3333,None,None
"PT Mega Promosindo Telp : 081316710440, 021-88950650 ","
                                    PREMIUM GOLD
                                ",Keamanan,"
Mega Promosindo adalah group dari mega makmur sentosa perusahaan yang bergerak di bidang trading Percetakan, barang Promosi , Percetakan souvenir atau merchandise Seperti: Mug, Jam, Payung, USB Flash Disk, Power Bank, Pin, ID Card, Tas, Godie Bag, Topi, Kaos, Polo T-Shirt, Buku Agenda, Kalender dan masih banyak lagi produk lainya. Barang kami merupakan produk lokal dan impor yang memiliki keunikan tersendiri Mega Promosindo berdiri sejak tahun 2000 sehingga memiliki pengalaman yang cukup di bidang ini, dengan demikian kami dapat mensuplai barang-barang tepat waktu dengan harga bersaiang dan kualitas yang dapat diandalkan dengan dibantu tenaga kerja yang berpengalaman dan didukung mesin cetak yang cukup modern. Selain Percetakan perusahaan ini bergerak di bidang: Pabrik Kaos, Pabrik Jaket, Pabrik Topi, Pabrik Baju Olahraga, Pabrik Jeans, Pabrik Kaos Polo, Pabrik Polo Shirt, Konveksi Kaos, Konveksi Kaos Polo-Polo Shirt, Konveksi Jaket, Konveksi Celana, Konveksi Seragam ( uniform) , Konveksi Garment, Konveksi Jeans, Garment Seragam, Garment Kemeja, Garment Jaket, Garment Promosi Mengerjakan produksi untuk beraneka jenis pakaian di pabrik/ konveksi sendiri seperti: Seragam : Pakaian Seragam Kerja, Seragam Promosi, Seragam Karyawan, Pakaian Safety, Seragam Kantor, Seragam Lapangan, Seragam Cleaning Service, Seragam Security/ Satpam Pabrik, Pakaian Seragam Teknisi Pabrik, Baju Team Olahraga, Seragam Pemda ( PNS) , Seragam SPBU, Seragam Operator Pabrik, Kemeja: Kemeja Promosi, Kemeja Safety, Kemeja Formal, Kemeja kualitas Garmen, Kemeja F1, Kemeja Kantor, Kemeja Lapangan, Kemeja Reflector, Kemeja Tropical, Kemeja High Twist, Kemeja Safari, Kemeja PDH, Kemeja PDL, Kemeja Otomotif, Kemeja Pabrik, Polo Shirt: Polo Shirt Promosi, Polo Shirt Souvenir, Polo Shirt Golf, Polo Shirt Pique, Polo Shirt Merchandise, Polo Shirt kualitas Ekspor ( Export) , Polo Shirt Seragam, Polo Shirt kualitas Garmen, Polo Shirt Eksklusif, Polo Shirt Pabrik Jaket: Jaket Promosi, Jaket Semi Jas, Jacket Formal, Jaket Safety, Jaket Club, Jaket Casual, Jaket Olahraga, Jaket Polo, Jaket Balap, Jaket kualitas Ekspor ( Export) , Jaket Reflector ( Jaket tambang) , Jaket Loreng, Jaket Pabrik, Jaket Kerja, Jaket Lapangan, Jaket Double side, Jaket Micro Fibre, Jaket Parasit, Jaket Taslan, Jacket Waterproof, Jaket Cold Storage, Jaket fleece, Jacket sport, Jaket Training, Jaket Kontingen, Jaket Atlet, Jaket Almamater, Jaket Mahasiswa, Jaket Canvas, Jaket Kantor, Topi: Topi Promosi, Topi Souvenir, Topi Rimba, Topi Golf, Topi Eksklusif, Topi Pekerja Pabrik, Topi Instansi, Topi Laken Wol, Topi Canvas, Topi Raphel, Kaos T-Shirt: Kaos Oblong, Kaos Polo, Kaos Krah ( Wangki) , Kaos kualitas garmen, Kaos Katun ( cotton) , Kaos Pilkada, Kaos Promosi, Kaos Kampanye, Kaos Sablon, Konveksi Kaos Merchandise, Kaos Formula 1, Kaos olahraga, Kaos Souvenir, Pabrik Kaos murah, Kaos Loreng ABRI, Pabrik Kaos katun Carded, Konveksi Kaos T-Shirt Polos, Pabrik Kaos Bola, T Shirt Promosi, Pabrik Kaos Promo, Kaos Pabrik, Kaos Seragam, Kaos Seluler, Kaos Pariwisata, Kaos Komunitas, Kaos Order, Pesan Kaos, Produksi Kaos, Kaos Family Gathering, Pabrik Kaos PE, Kaos Hyget, Kaos Full Print, Kaos body fit, Kaos Pameran, Kaos Rohani, Kaos Kelas, Pabrik Kaos Bandung, Konveksi Kaos Wanita, Kaos Spandex, dsb. Celana Kerja, Celana PDL, Celana Formal, Celana Pabrik Rompi Promosi, Rompi Order, Tas Promosi, Konveksi Tas Seminar, Konveksi Tas Travel, Tas Pinggang, Baju Pabrik, Baju Wisuda, Baju Keki, Baju Safari, PDH ( Pakaian Dinas Harian) , PDL ( Pakaian Dinas Lapangan) , Konveksi Celana Jeans, Konveksi Kemeja Jeans, Konveksi Jaket Jeans, Pabrik Jeans, dsb, Dengan atribut sablon dan bordir komputer. Untuk kebutuhan Order Perusahaan, Rumah Sakit, Militer, Perusahaan Pertambangan ( Mining) , Team Olahraga, Garment, Pabrik- Pabrik, Perusahaan Produsen, Kantor, Dinas, dll. Sales Marketing : 081316710440 WA :08176454000 E-mail : sales@megapromosindo.com ","
              Kemayoran Jakarta Pusat            ",Jakarta Pusat,DKI Jakarta,+62 813-1671-0440,None,None
Axia Prima Sejahtera,"
                                    PREMIUM GOLD
                                ",Keamanan,"
              PT. Axia Prima Sejahtera, adalah perusahaan yang berada di Indonesia yang bergerak dalam bidang sistem keamanan/ perlengkapan & produk berteknologi yang berkualitas tinggi, dapat dipercaya dan berstandard kelas dunia. Dimana penyedia produk kami adalah beberapa negara besar yang unggul dalam bidang sistem keamanan & produk perlengkapan seperti Jerman, Amerika, Canada, Denmark, Korsel, RRC, Jepang & Taiwan. Jika anda membutuhkan sistem keamanan atau solusi teknologi untuk perusahaan, kami akan memberikan saran dan membantu anda dalam perencanaan, konsultasi, penyediaan, instalasi, pelatihan, 24 jam dan 7 hari dalam seminggu untuk dukungan pelayanan purna jual berdasarkan kontrak pemeliharaan dan layanan telepon. Permasalahan anda dalam sistem keamanan dan produk teknologi akan ditanggapi secepatnya oleh tim ahli dan teknisi profesional yang telah berpengalaman lebih dari 10 tahun yang telah menerima pelatihan baik didalam maupun luar negeri. Kami menyediakan sistem keamanan dan produk berteknologi dengan standard tinggi dan manajemen perencanaan untuk instansi pemerintahaan, sektor swasta maupun perorangan."" "" "" Sebagai; distributor, disain, konsultan, penjualan, instalasi, perawatan, jasa dibidang Sistem Keamanan serta perlengkapan keamanan ( Security System & Security Equipment ) "" "" ""Distributor Resmi untuk Produk Keamanan Siemens Jerman dan Indonesia Distributor resmi untuk Produk CCTV Pelco AmerikaContact : Name : F. Heru Sukrisna, S.SI Email : axiasejahtera@axia.co.id, heru.krisna@axia.co.id Email Sales Manager : winarkodanang@axia.co.idEmail Sales Engineer : billy.gumilar@axia.co.id , akhmad@axia.co.id.Telephone : 021 - 7661187, 021 - 7502301, 021 - 98561299Mobile : 0811 8067 877Fax : 021 - 7590 8764Facebook : Axia Security Systems,Twitter : @axiasecuritysys            ","
              Plaza Karinda Blok B1 No. 14, Jl. Karang Tengah Raya, Lebak Bulus,            ",Jakarta Selatan,DKI Jakarta,+62 811-8067-877,None,None
