Name,Membership,Category,Description,Address,City,Province,telp1,telp2,telp3
CV. JAYA MAKMUR ABADI,"
PREMIUM RUBY
",Biro Jasa,"
CV. Jaya Makmur Abadi, perusahaan yang bergerak dibidang perdagangan umum Material Konstruksi & material lainnya, dan telah berpengalaman lebih dari 10 Tahun. 
Berdiri sejak Tahun 2005 dengan nama Jaya Makmur Abadi, dan diresmikan pada tahun 2010 oleh notaris Edward Agustin menjadi CV. Jaya Makmur Abadi. 
CV. Jaya Makmur Abadi bekerja sama dengan beberapa Pabrik & Distributor Material dan hingga kini sudah melayani lebih dari 900 pelanggan, yang terdiri dari pelanggan pribadi/perusahaan baik dari dalam & luar daerah di Indonesia. 
 
Visi & Misi : 


Menciptakan sistem perusahaan yang sistematis & fleksibel dalam hal pelayanan.
Menciptakan lapangan kerja & Sumber daya Manusia yang terampil, profesional& handal. 
Menciptakan pelayanan & kerjasama yang berkesinambungan dengan pelanggan.
Menjadi perusahaan multinasional yang dapat memberi sumbangsih terhadap perekonomian di Indonesia. 

CV. Jaya Makmur Abadi.General Supplier & Trading : Besi Beton & Baja. Rangka Baja Ringan & Atapnya.Aluminium Kusen Pintu & Jendela.Plywood & Kayu lainnya.Pipa Paralon & Pipa Lainnya. 
Keramik & Granit.Perlengkapan Sanitary. Aksesories Pintu & Jendela.
Segala jenis Kaca Bangunan.Aluminium Composite Panel.Kawat Baja & Besi. 
Karpet Import & VINYL. Kusen, Pintu & Jendela Kayu. Windows Fashion.Mekanikal Elektrikal.Meubelair Kantor & Sekolah.
Pipa HDPE.Pipa Air Panas.HPL.Cat.Pipa Gorong-Gorong.Plat Kapal.Dll.
Untuk melengkapi kebutuhan pelanggan, kami juga menyediakan Jasa Kontraktor, Jasa Arsitek & Jasa Konsultan.
Untuk informasi lebih jelas, dapat menghubungi Marketing kami.
Terima kasih. www.jayamakmurabadi.co.id
CV. Jaya Makmur Abadi 
Jl. Brigjend Katamso No. 2 Samarinda. Kalimantan Timur 75117.Telp : 0541-7802915Fax. : 0541-766315Email : sales@jayamakmurabadi.co.id
 

 
 ","
              Head Office :Jl. Brigjend Katamso No. 2. Samarinda. Kalimantan Timur ",Samarinda ,Kalimantan Timur,+62 823-5215-3244,+62 813-4942-8940,+62 852-4900-5619
PT. Kanam Jaya Manunggal,"
PREMIUM RUBY
",Biro Jasa,"
Tentang Kami
PT. Kanam Jaya Manunggal merupakan salah satu perusahaan yang bergerak dalam bidang pelayanan jasa outsourcing/alih daya untuk memenuhi kebutuhan di perkantoran, industry, hotel, apartemen, pusat perbelanjaan dll.
Adapun layanan kami yang tesedia adalah; Cleaning Service, Kurir, Officeboy, Pengemudi, Receptionist dll.
Visi Perusahaan
Menjadi penggiat dan pemimpin terdepan dalam bidang usaha outsourcing dengan memprioritaskan etos kerja dan Etika yang professional, effective dan inovatif yang slalu mengedepankan nilai kemanusiaan dan profesionalisme tenaga kerja Indonesia sesuai dengan harkat dan martabat manusia Indonesia.
Misi Perusahaan
Peningkatan kualitas kuantitas dan variasi produk dengan tetap mempertahankan input sumber daya yang ada merupakan indicator tercapainya effisiensi dalam suatu perusahaan sebagai syarat tercapainya perusahaan yng berkembang dan berdaya saing tinggi sehingga dapat memberikan pelayanan yang professional dan berkualitas kepada pengguna jasa dengan tolak ukur, yaitu:
a. Kepuasan Mitra Kerja
Mitra kerja merasa terpenuhi keinginan dan kebutuhannya bahkan dapat melebihi harapan yang ada, serta membangun dan membina serta meningkatkan hubungan dengan pengguna jasa.
b. Memberikan Pelayanan Terbaik
Yaitu memastikan pelayanan yang diberikan merupakan pelayanan yang paling baik yang dapat diberkan.
c. Citra yang baik
Dengan bekerja secara professional dan berkualitas akan mewujudkan citra yang positif baik bagi perusahaan atau perusahaan pengguna jasa.
d. Memberikan Kesejahteraan Bagi Stakeholder dan Karyawan
Stakeholder dan karyawan adalah asset yang harus dipertahankan. Bahkan dengan pembinaan yang dilakukan pada akhirnya akan memberikan nilai tambah dan dapat menumbuh kembangkan perusahaan.
 


Pelayanan Kami
PT. Kanam Jaya Manunggal menyediakan jasa layanan cleaning service yang didukung oleh tenaga-tenaga yang handal,  professional serta berpengalaman dibidangnya dan didukung dengan peralatan kebersihan yang modern.
 
Pelayanan jasa Pengemudi. Keahlian personil pengemudi kami memiliki keahlian khusus yang jarang dimiliki oleh perusahaan outsource lainnya, yaitu bahwa pengemudi kami mendapatkan bimbingan serta berpengalaman bekerja membawa ekspatriat terutama berpengalaman di perusahaan-perusahaan jepang. Sehingga tidaklah heran apabila pengguna jasa perusahan kami 95% adalah perusahaan jepang.
 
Receptionist
Kami menyediakan layana jasa untuk receptionis sesua qualifikasi yang anda butuhkan.


Perizinan Usaha


Akte Notaris Ilmiawan Dekrit s., SH, MH No.48, Tanggal 23 Desember 2016
Pengesahan Akte Pendirian Men Kum Ham No.AHU-0057857.AH.01.01. TAHUN 2016
Tanda Daftar Perusahaan (TDP) No.10.27.1.70.06393
Surat Izin Usaha Perdagangan (SIUP) No.503/534/Kpts/HO-DPMPTSP/VII/2017
Surat Izin Perdagangan (SIUP) Kecil Nomor: 0435/10-27/PK/VIII/2017
Surat Izin Operasional Perusahaan (PPJP)No.560/6020-SK/HI & JAMSOS
Surat Keterangan Domisili Usaha (SKDU). Nomor:503/08-Ek.Bang
Nomor NPWP: 08.986.589.2-448.000
Sertifikat Kepesertaan BPJS Nomor: 170000000270757

PT. Kanam Jaya Manunggal - Biro Jasa Terbaikwww.kanamjayamanunggal.co.idKami mencari kandidat SDM/ Perkerja berpengalaman dan Profesional diberbagai bidang dengan selektif.Formulir Lowongan Kerja bisa klik link :http://bit.ly/FormulirLamaranKerjaPTKanamJayaManunggal

 ","
              Komp. Roko Pondok Cabe Mutiara, Blok B-15, Gaplek, Pondok Cabe Tanggerang Selatan            ",Tangerang Selatan,Banten,+62 811-805-024,None,None
KKP Yenny Hutapea,"
                                    PREMIUM GOLD
                                ",Biro Jasa,"
KKP Yenny Hutapea kantor konsultan berdiri Juli 2019 (izin praktek dari Kementrian Keuangan KIP-5101/IP.A/PJ/2019). Memulai dengan jasa konsultan pajak dan jasa akuntansi, kami mengajak para pebisnis untuk bermitra. Kami memiliki visi untuk bertumbuh bersama mitra dan memberikan pelayanan terbaik dibidang perpajakan dan pembukuan. ","
              Jl. Pinang Raya II No.14, Kel.Mangga, Kec.Medan Tuntungan            ",Medan,Sumatera Utara,+62 812-8246-3618,None,None
PT. JAYA UTAMA SANTIKAH,"
PREMIUM RUBY
",Biro Jasa,"
PT. Jaya Utama Santikah adalah perusahaan Perseroan terbatas yang bergerak dibidang Perdagangan Umum dan Jasa. Perusahaan kami telah berdiri sejak 1997 di Jawa Timur dengan nama CV. Jaya Santikah, dan ditahun 2008 kami telah berkembang menjadi PT. Jaya Utama Santikah dan kami sekarang memiliki kantor di Jakarta.
 
Sesuai dengan moto kami yaitu membantu akan kebutuhan dalam bidang Jasa Perawatan Kebersihan dan Keindahan pada setiap lingkungan yang dibutuhkan. Seperti halnya yang kami tawarkan Jasa Kebersihan Gedung, Jasa Perawatan Taman Jakarta semua hal itu tentunya dibutuhkan sebuah management khusus agar kegiatan yang berjalan sesuai dengan apa yang diharapkan.
 
Dan kami menyadari tidak semua kantor atau gedung memiliki management khusus kebersihan dan perawatan seperti ini, dan pastinya untuk membentuk management ini juga dibutuhkan sumber daya yang profesional dan memahami setiap langkah apa saja yang harus dilakukan. Dan semua tahap itu tentunya membutuhkan proses yang panjang, untuk mempersingkat waktu dan meminimakan pembiayaan dalam memenuhi kebutuhan perawatan kebersihan kami siap membantu Anda dalam jasa penyedia cleaning service, jasa cleaning service terbaik, jasa perawatan taman Jakarta, jasa kebersihan gedung, jasa kurir antar barang dan distributor alat cleaning service sebagai produk perdagangan kami. ","
              Jl. Daan Mogot KM19 Kebon Besar Batuceper, kota Tanggerng,             ",Smart Market Daan Mogot Blok B No. 5,DKI Jakarta,+62 811-1833-992,+62 812-8998-071,None
Sugi Jaya,"
PREMIUM BLUE ONYX
",Biro Jasa,"
 
 
Terima Jasa Bongkar Rumah, Gedung & Bangunan Tua  Kami TIM BONGKAR PROFESIONAL melayani pekerjaan proyek bongkar gedung , bongkar rumah, bongkar jembatan, bongkar jalan, bongkar pabrik, bongkar gudang, bongkar ruangan perkantoran dan semua pekerjaan bongkaran lain. Jasa bongkar kami menawarkan harga yang kompetitif, dengan pengerjaan yang cepat dan profesional. Selain menerima jasa bongkar kami juga menerima...
 
 
 
Terima Jasa Bongkar Rumah, Gedung & Bangunan Tua  Kami TIM BONGKAR PROFESIONAL melayani pekerjaan proyek bongkar gedung , bongkar rumah, bongkar jembatan, bongkar jalan, bongkar pabrik, bongkar gudang, bongkar ruangan perkantoran dan semua pekerjaan bongkaran lain. Jasa bongkar kami menawarkan harga yang kompetitif, dengan pengerjaan yang cepat dan profesional. Selain menerima jasa bongkar kami juga menerima...
 

 
 
 
  ","
              GG Mandalika V rt 008 rw 006 Tanjung duren selatan Grogol petamburan jakarta barat            ",Jakarta Barat,DKI Jakarta,+62 812-8025-2772,None,None
PT. Al Hijaz Indowisata,"
",Biro Jasa,"
Alhijaz Indowisata berdiri sejak tahun 2000. Nama Alhijaz diambil dari dua kota suci Mekah dan Madinah yang saat dulu disebut sebagai al-Hijaz, yang kemudian menjadi inspirasi pemberian nama Al-Hijaz sebagai nama perusahaan Travel Umroh yang bergerak dibidang pemberangkatan jamaah haji dan umroh. Seperti keistimewaan 2 kota suci tersebut, diharapkan akan menularkan kebaikan kebaikan pada layanan dan kinerja kami. Sedangkan Indowisata merupakan persamaan kata dari indo yang berarti Indonesia, sedangkan wisata merupakan fokus bisnis dari Alhijaz. Travel umroh Alhijaz telah mengantongi ijin resmi dari pemerintah RI. Selain ijin resmi travel umroh dan haji, Alhijaz juga memiliki lisensi provider Visa. Keberangkatan kami InsyaAllah selalu tepat waktu dengan paket umroh lengkap, serta senantiasa menyediakan pembimbing berkualitas sesuai sunah Rasulullah. Hal tersebut telah menjadi bukti keseriusan kami dalam memberikan layanan terbaik untuk para calon Tamu Allah swt.Untuk lebih lanjut bisa cek website untuk jadwal keberangkatan :www.alhijazindowisata.com ","
              Graha Alhijaz Lt.3Jl. Dewi Sartika 239 A Cawang. Jakarta Timur 13630            ",Jakarta Timur,DKI Jakarta,None,None,None
