Name,Membership,Category,Description,Address,City,Province,telp1,telp2,telp3
Multi Control Indonesia,"
                                    PREMIUM GOLD
                                ",Wire Cut,"
Multi Control Indonesia adalah perusahaan yang bergerak di bidang penjualan kebutuhan industri, untuk semua jenis industri seperti textile, plastik, makanan & minuman, obat, pengolahan kayu, farmasi dan lain-lainnya, serta menjual berbagai kebutuhan untuk trainer pendidikan. Ada pun product-product yang dijual antara lain seperti Frequency Inverter ( VFD), frequency inverter, AC Drives, frequency converters, frequency changers, adjustable speed drives (ASD), adjustable frequency drives (AFD), variable frequency drives (VFD), variable speed drives (VSD), Soft Starters, Soft Stop, Soft Starters for AC Motor, Motor Starters,  Motor Soft Starters, EMI filter, Input EMI Filters, Output EMI Filters, AC Choke, AC Reactor, Input AC Choke， Output AC Choke， Input AC Reactor, Output AC Reactor, DC Choke, DC Reactor, Input DC Choke, Output DC Reactor, Input DC Reactor, HMI, Human Machine Interface,PLC，Programmable Logic Controller, Servo Drive, Servo Motor, Servo Motor & Drive, Servo Motor & Drive, Dioda Module, Darlington, IGBT, Transistor Module, IPM Module, Rectifier Bridge, SCR,GTO & Dioda, Mosfet,Fanuc part, Elevator Board,Fuse, Melt Pressure transmitter, Melt Pressure tranducer, Pressure Sensor,Melt Pressure gauge,Level Transmitter,Differential Pressure transmitter,Mud Pressure Transmitter,Instrument,Diaphragm pressure gauge,Temperature Transmitter, segala model jenis sensor. Propeller flow meter,Ultrasonic Water meter,magnetic flow meter,Gas turbin meter,Radar level meter dan bekerja sama dengan beberapa merk terkenal seperti 

ABB, SIEMENS, DANFOSS, VACON, SEW, LENZE, PETER ELECTRONIC, LEISTER, WATT DRIVE, KEB, BONFIGLIOLI, NORD, CAG ELECTRIC MACHINERY, INTECNO, SYCOTEC, KB ELECTRONICS,  TDE MACNO SPA, GEFRAN, CONTROL TECHNIQUES, PEPPERL FUCHS, GRUNDFOS, VEM MOTORS, BR INDUSTRI-ELEKTRONIK, RK ROSE+KRIEGER, CARLO GAVAZZI, LEROY SOMER, VERLINDE, TRANSTECNO, STAHL CRANE SYSTEMS GMBH, MIYACHI, DEMAG CRANES COMPONENTS, ABM, ROSSI, COGNITO QUAM, GE, AIRTECNICS, Delta, Teco, Toshiba, Mitsubishi, fuji, Yaskawa, Hitachi, Omron, Panasonic, HYUNDAI, LS/LG

Tujuan utama kami adalah untuk menyediakan kebutuhan sarana industri yang tepat dan lengkap dengan layanan yang komprehensif kepada pelanggan, tidak hanya sumber daya saham tetapi juga dukungan teknis dan keahlian teknik. ","
              Villa Payung Indah B 27            ",Semarang,Jawa Tengah,6585225548633,None,None
CV. SAMUDERA TEKNIKINDO SELARAS,"
                                    PREMIUM GOLD
                                ",Wire Cut,"
CV SAMUDERA TEKNIKINDO SELARAS merupakan perusahaan yang bergerak dibidang general trading (General Supplier) dengan 2 (dua) divisi yaitu Perbaikan / Maintenance machine Industri khusus Electrical dan Import product part machine. 
CV SAMUDERA TEKNIKINDO SELARAS memiliki kualitas yang handal dan harga yang sangat ekonomis dan cocok untuk industries dan semua pabrik manufacturing. Adapun merk yang kami supply, diantaranya : Omron, Mitutoyo, Keyence, Yokogawa, SMC, Nagano Keiki, Panasonic, Hanyoung, LG / LS, Fuji Electric, Mitsubishi, Hanyound, Yamatake / Azbil, Klar Stern, Taffware, Panasonic, Hitachi, Siemens, Emerson, Taiyo Parker, Sipik, Shinko, Idec, Sanyo Denki / Dyna Ace, NMB, Daito / Fanuc, NTN, THK, Swan, Oriental Motor, CDK, Luyang, Sick, Bando V-Belt, Yamamoto, Steins, dan masih banyak produk lainnya dari berbagai merk yang kami sediakan, mulai  dari China, Jepang, Taiwan, Korea dan Produk Europa lainnya.
Untuk informasi dan pemesanan silahkan hubungi kami :
CV SAMUDERA TEKNIKINDO SELARAS
Jl. Tarum Barat 2, Ruko Pasar Bersih B-7 (Pintu 11) Kawasan Industri Jababeka II, Jayamukti, Cikarang, Bekasi - Jawa Barat
Phone : 081287602917 // 081219415790 (Call / WA)
Tlp : +62 21 2945 3721 // +62 21 2945 3722
Email : samuderateknikindo@yahoo.com
Website : www.samuderateknikindo.co.id ","
              Office : Jl. Tarum Barat 2, Ruko Pasar Bersih B-7 (Pintu 11) Kawasan Industri Jababeka II, Jayamukti, Cikarang, Bekasi - Jawa Barat ",Cikarang,Jawa Barat,+62 812-1941-5790,None,None
UD. TRILAKSANA MANDIRI,"
PREMIUM BLUE ONYX
",Wire Cut,"
UD. TRILAKSANA MANDIRI merupakan perusahaan yang bergerak di bidang industri logam dan permesinan, di bawah pimpinan H. Agus Abdulloh ST 
 
UD. TRILAKSANA MANDIRI mempunyai  3 dapur produksi. yaitu dapur induk produksi yang mengolah produk wheeldop, bamper variasi mobil/sepeda motor, aksesoris pagar, pembuatan pagar. Yang kedua inori yang memproduksi Box panel, Lampu PJu dll. Yang ketiga kami mempunyai dapur yang melayani jasa plasma cutting, laser cutting (pembuatan pagar motif, wire cut (pembuatan sparepat, matras plong, matras gunting), bubut cnc,  dll. ","
              JL. Kolonel Sugiono No. 26 Rt. 08 Rw. 02 Ngingas Utara Waru Sidoarjo            ",Sidoarjo,Jawa Timur,+62 812-3047-4999,None,None
ABP Mandiri,"
PREMIUM BLUE ONYX
",Wire Cut,"
              Abp Mandiri berdiri pada tahun 2005. Perusahaan Kami bergerak dalam produksi logam khususnya untuk spare part sepeda motor. seperti begasi, tutup mesin, setir, planger, pedal rem, paha rem, dll. untuk saat ini, pangsa pasar kami meliputi wilayah jawa, jakarta, bali, kalimantan dll.            ","
              Jl. Kol. Sugiono Ngingas Selatan No. 14B            ",Rt. 03 Rw. 01 Waru Sidoarjo,Jawa Timur,+62 857-3164-0001,+62 812-3276-743,None
