Name,Membership,Category,Description,Address,City,Province,telp1,telp2,telp3
Warna Warni Surabaya,"
                                    PREMIUM GOLD
                                ",Undangan,"
We are a company that provides many eco-friendly and waste-recycled handcrafts. Our portfolio includes packaging boxes, gift boxes, eco-print textiles, wall art decoration, and beads accessories. Our product increase a high-value artwork, escalate the selling price and stun you ","
              Semolowaru Elok blok K no. 34            ",Surabaya,Jawa Timur,+62 857-3078-8345,None,None
JATIM SABLON,"
                                    PREMIUM GOLD
                                ",Undangan,"
 
Selamat Datang di Website JATIM SABLON. Kami merupakan perusahaan yang bergerak dalam industri Gelas Plastik, Gelas Kertas, Gelas Plastik PP, Sendok Plastik, Kertas Nasi, Kotak Makan Custom. Kami berada di Kawasan Jombang Jawa Timur.
Kami berkomitmen terhadap kualitas, waktu dan pelayanan terbaik kepada pelanggan karena tujuan kami adalah kerja sama jangka panjang yang saling menguntungkan. ","
              JL. Anggrek no.4 RT/RW 2/1 Dsn. Mojoduwur Selatan Ds. Mojoduwur Kec. Mojowarno            ",Jombang,Jawa Timur,+62 816-5489-620,None,None
Acacia Grafika,"
                                    PREMIUM GOLD
                                ",Undangan,"
              PERCETAKAN ACACIAPercetakan Acacia Grafika Offset Printing, Screen printing, Advertising & Promotion www.acacia.indonetwork.co.id E-mail: acacia_ grafika@yahoo.com, edi_sofian_s@yahoo.co.id Jl. Veteran II no 7 Gambir Jakarta PusatTelp 081316628204  Menerima: 1. Cetak buku 2. Poster 3. Kalender 4. Kartu nama 5. Kartu undangan 6. Brosur 7. Famlet 8. Box untuk kemasan obat, box makanan, 9. Stiker, dll Terima ongkos sablon: 1. Plastik, Balon 2. Tas kantong / shopping bag  Kami menyelenggarakan 1.Kursus sablon 2. Kursus percetakan. Hubungi: Edi Sofian Sanjaya Telp.:  Hp. 0813 1662 8204 www.acacia.indonetwork.co.id Email: edi_sofian_s@yahoo.co.id            ","
              PercetakanAcacia Grafika  Offset Printing, Screen printing, Advertising & Promotion www.acacia.indonetwork.co.id   E-mail: acacia_grafika@yahoo.comedi_sofian_s@yahoo.co.id Jl. Veteran II No 7 Gambir Jakarta Pusathp/wa; 0813 1662 8204            ","Gambir, Jakarta Pusat",DKI Jakarta,+62 813-1662-8204,None,None
Usaha Mandiri Plastik,"
                                    PREMIUM GOLD
                                ",Undangan,"
Usaha Mandiri PlastikKami bergerak di jasa bidang sablon / makloon sablon plastik.kami telah bergerak dalam bidang ini selama sepuluh tahun, dengan segala pengalaman yang telah kami miliki. kami akan selalu memberi yang terbaik kepada setiap konsumen.yang kami kerjakan seperi :- Sablon Plastik, PP, PE dan OPP- Sablon kresek (HD), shopping bag, PE Plong, poly bag.- Sablon sticker, dus, styrofoam, karung dll.Bilamana rekan-rekan membutuhkan jasa sablon maupun jasa makloon sablon plastik. kami siap membantu.Info Produk & Hubungi :Bapak SaimanNo Hp : 081212518900 (WA)Email : saimanlana79@gmail.comAlamat : Jl.idraloka.1 gang 3.rt.009.rw.010.no.62.kelurahan Wijaya Kusuma Jelambar jkt barat..
  ","
              JL. Indraloka 1 GG 3. No 62 RT 09/RW 10. Jelambar. Jakarta Barat            ",Jakarta Barat,DKI Jakarta,+62 812-1251-8900,+62 812-1940-9690,None
Duta Plastik Printing,"
                                    PREMIUM GOLD
                                ",Undangan,"
Selamat datang di www.dutaplastikprinting.com
DUTA PLASTIK PRINTINGMUHAMMAD SUYATNO
Alamat : Jl.NN.Rawa Kramat, Rt04/04 no 10 cengkareng barat - jakarta barat NO.HP : 081316888892, 087888775592 , 085711400392 WA     : 081316888892, 087888775592 Email   : dutaplastik123@ gmail.comKami bergerak di dalam bidang jasa :· shopping bag· cetak kantong plastik· plastik softhandle· printing plastik· tempat cetak kantong plastik· plastik polybag· plastik kresek· plastik HD· plastik PE· plastik OPP· plastik PP· plastik laundry· plastik promosikami menyediakan berbagai plastik berbagai ukuran dan berbagai warna, cocok untuk tas promosi, tas pameran, tas belanja di toko maupun di perusahaan anda tentunya, barang bermutu bekualitas internasional, harga terjangkau, kami juga menerima partai kecil dan partai besar, perusahaan kami juga menerima cetak plastik dan spunbond partai kecil dan partai besar. perusahaan ini bergerak di bidang printing plastik dan produksi pp polos ( non printing) atau biasanya di sebut sablon plastik.Perusahaan Kami Berdiri sejak tahun 2006. Kami siap melayani orderan dengan minimal order yang terjangkau sampai besar dengan harga yang murah dan kualitas yang terbaik. untuk ukm atau home industri tidak usah merasa sungkan untuk hub kami. kami akan mambantu anda untuk menciptakan packaging yang bagus dan mempromosikan product anda kami juga melayani design gambar jasa yang kami sediakan adalah, design gambar, design logo, job order, bisa membuat dari ukuran kecil sampai besar, quantity kecil-besar.Jenis Bahan Plastik   : HD PE PP OPP LLDPE oxium degradabelJenis & Model Plastik : HD Singlet, HD Softhandle, HD Oval, PE SingletCocok untuk Supermarket, Alfamart, Indomart, Retaurant, Superindo, Apotek, Toko Baju.Macam – macam kantong Spundbond Ready Stock :1. Model Pegangan Plong : ukuran 20 x 24, ukuran 25 x 35, ukuran 30 x 402. Model Pegangan Talipres pakai lipat samping : ukuran 25x35, ukuran 30x40, ukuran 38 x 45, ukuran 45 x 55.Cetak plastik printing, plastik sablon, plastik print shoping bags, plastik boutique, plastik promosi, plastik kebutuhan kantor, plastik shoping bags, plastik gudang, plastik super, plastik polibag, plastik tanaman, plastik pupuk, plastik beras, plastik kripik, plastik corr bangunan, plastik onderdil mobil, plastik toko baju, plastik kebutuhan rumah saki,t plastik kebutuhan akupuntur, plastik bungkus pakan burung, plastik bungkus sayuran organik kualitas unggul, dll. ","
              Jl. NN rawa kramat rt 04/04 no. 10 cengkareng barat - cengkareng , jakarta barat            ",Jakarta Barat,DKI Jakarta,+62 813-1688-8892,None,None
SIDAKERTA PLASTIK PRINTING,"
                                    PREMIUM GOLD
                                ",Undangan,"
SIDAKERTA PLASTIK PRINTING TEMPAT SABLON PLASTIK MURAH JAKARTA MENJAWAB SEMUA KEBUTUHAN KANTONG PLASTIK. Hubungi Pak HENDRY; 085285750955/08153567506 BBM: D356A480.watshap:085285750955/08153567506.
 .
Kami bergerak dalam bidang jasa: shoping bag, cetak kantong plastik, plastik softhandle printing, plastik tempat cetak kantong plastik, plastik polybag, plastik kresek, plastik HD, dan plastik PE,Plastik opp,plastik HDPE,Plastik PP,Plastik LDPE,Plastik oxium.
 
kami menyediakan berbagai plastik berbagai ukuran dan berbagai warna, cocok untuk tas promosi, tas pameran, tas belanja di toko maupun di perusahaan anda tentunya, barang bermutu bekualitas internasional, harga terjangkau, kami juga menerima partai kecil dan partai besar, perusahaan kami juga menerima cetak plastik dan spunbond partai kecil dan partai besar..... 
 
perusahaan kami bergerak di bidang printing plastik sablon plastik kemasan berlogo dan produksi pp polos ( non printing) 
 
kami siap melayani orderan dengan minimal order yang terjangkau sampai besar dengan harga yang murah dan kualitas yang terbaik. untuk ukm atau home industri tidak usah merasa sungkan untuk hub kami. kami akan mambantu anda untuk menciptakan packaging yang bagus dan mempromosikan product anda kami juga melayani design gambar jasa yang kami sediakan adalah, design gambar, design logo, job order, bisa membuat dari ukuran kecil sampai besar, quantity kecil-besar.
 
 
JENIS BAHAN PLASTIK ; HD PE PP OPP LLDPE oxium degradabel 
JENIS & MODEL PLASTIK ; HD SINGLET HD SOFHANDLE HD OVAL PE SINGLET PE SOFTHANDLE PE OVAL 
JENIS & MODEL PLASTIK ; HD SINGLET / KRESEK 
 
COCOK UNTUK SUPERMARKET, ALFAMART, INDOMARET, RESTAURAN, SUPERINDO, APOTIK, TOKO BAJU , DLL 
 
JENIS & MODEL PLASTIK HD PLONG OVAL , SOFTHANDLE COCOK UNTUK TOKO DISTRO, TOKO BAJU , TOKO HP , SUPERMARKET , DLL 
JENIS & MODEL PLASTIK PP POLOS / TRANSPARAN COCOK UNTUK PACKING BAJU , , MAKANAN , SAYURAN , LAUNDRY , DLL 
JENIS & MODEL PLASTIK OPP COCOK UNTUK BUNGKUS ROTI / BAKERY, UNDANGAN , PACKING BAJU KEMEJA , PACKING CELANA JEANS , DLL 
 
MACAM - MACAM KANTONG SPUNBOND READY STOCK ; 
1. model pegangan plong ; uk; 20x24 uk; 25x35 uk; 30x40 
2. model pegangan talipres pakai lipat samping ready stock ; uk; 25x35 uk; 30x40 uk; 38x45 uk; 45x55 
 
 

Kami brkerja dengan hati-hati dan penuh tanggung jawab. kami tidak mau planggan kami sampai kecwa. kepuasan anda adalah kebahagian kami. ","
              JL.NN rawa keramat.NO.10.RT04/RW04.cengkareng jakarta-barat            ",cengkareng jakarta barat,DKI Jakarta,+62 852-8575-0955,+62 815-3567-506,None
BINA JAYA PLASTIK || SABLON PLASTIK PRINTING MURAH JAKARTA,"
                                    PREMIUM GOLD
                                ",Undangan,"
PERUSAHAAN KAMI DI BIDANG CETAK KANTONG PLASTIK PRINT TEMPAT CETAK KANTONG PLASTIK PRINT PLASTIK PLASTIK POLOS PLASTIK HP, PLASTIK SUPERMARKET PLASTIK TOKO BAJU PLASTIK TALI PRESS PLASTIK POND OVAL, PLASTIK GAGANG PLASTIK KRESEK PLASTIK MURAH PLASTIK BIBIT TANAMAN PLASTIK , BERKUALITAS PLASTIK, POLYBAG PLASTIK BIBIT TANAMAN PLASTIK SAMPAH CETAK PLASTIK HD, CETAK PLASTIK PE PLASTIK WARNA TAS SPUNBOND PLASTIK SOFTHANDLE PLASTIK DISTRO, PLASTIK UNTUK DISTRO, PLASTIK KANTONG BAJU, PLASTIK PEMBUNGKUS BAJU, PLASTIK UNTUK BUNGKUS BAJU, PLASTIK HP, PLASTIK alamat Alamat : Jl. Jelambar Indraloka 5, No 1875, Jakarta BaraNomer Handphon / WA. 081280163911/ 081229367057 Atas Nama : Bpk, Egi Suprianto / Bpk, Anton . naik kearah jakarta jabrat behenti di samping Halte "" Busway Indosiar"" tanya tukang ojek minta alamat ke indraloka 5, kurang lebih biaya buat ngojek Rp. 10.000, - atau hubungi kontak kami nanti kami jemput depan Halte Indosiar. UNTUK PEMESANAN MINIMAL ORDER 5000 PCS/ LEMBAR DP 50% DARI NOMINAL JUMBLAH UANG PEMESENAN KANTONG PLASTIK CETAK / BUAT LOGO tas plastik sablon tas plastik cetak tas plastik printing tas plastik logo CETAK SABLON PLASTIK CETAK MODEL PLONG, CETAK SABLON MODEL PLASTIK TALI PRES, CETAK SABLON MODEL CETAK SABLON PLASTIK KRESEK, CETAK SABLON MODEL PLASTIK BELANJA, CETAK SABLON MODEL PLASTIK PLONG TENGAH, CETAK SABLON, MODEL PLASTIK OVAL, TENGAH, CETAK SABLON MODEL PLASTIK BOLONG TENGAH, PLASTIK BURAM, PLASTIK TRANPARAN, PLASTIK MODEL JCO, PLASTIK BENING, PLASTIK KACA, PLASTIK MODEL ALFA, PLASTIK MODEL INDOMART, PLASTIK LLDPE, PLASTIK HD WARNA MERAH, PLASTIK WARNA HITAM, PLASTIK WARNA KUNING, PLASTIK WARNA IJO, PLASTIK WARNA BIRU, PLASTIK WARNA CREM, PLASTIK KRESEK, TAS PROMOSI, PLASTIK MODEL KEMASAN SAYURAN, PLASTIK PE PLASTIK HD PLASTIK UNTUK BENIH PADI BENIH KANGKUNG BENIH CABE PLASTIK PUPUK PLASTIK UKURAN CASTEM / KASTEM UKURAN SMAL UKURAN SMOL UKURAN PLASTIK A4 UKURAN A3 CETAK PLASTIK TENG TENG PLASTIK TENG TENGAN CETAK PLASTIK MODEL TALIPRES PLASTIK KEMASAN CETAK LAMINASI CETAK SEPARASI 8 WARNA 10 WARNA CETAK KANTONG PLASTIK, KANTONG PLASTIK, PRINTING PLASTIK, SABLON PLASTIK, SHOPPING BAG, POLYBAG, LAUNDRY BAG, KANTONG KRESEK, SUPERMARKET BAG, SUPPLIER PLASTIK, DISTRIBUTOR PLASTIK, KANTONG KRESEK, PLASTIK KRESEK, POLY BAG, KANTONG BELANJA, TOKO PLASTIK, PRODUKSI PLASTIK, PERCETAKAN KANTONG PLASTIK, PERCETAKAN PLASTIK, PLASTIK HD, PLASTIK PE, PLASTIK OPP, PLASTIK PP, PLASTIK LAUNDRY, ROTOGRAVURE BINAJAYA PLASTIK. Perusahaan Kami bergerak dibidang jasa promosi, percetakan dan sablon sejak tahun 2000 dan sudah melayani ratusan konsumen dari berbagai wilayah di indonesia. BINAJAYA PLASTIK. MELAYANI PESANAN ANDA DALAM BIDANG PROMOSI DAN BIDANG KEPERLUAN KANTONG PLASTIK BUAT USAHA ANDA. SEGERA HUBUNGI KONTAK KAMI SEKARANG JUGA SEDIA PLASTIK CETAK LOGO PESENAN KONSUMEN menerima pesenan kantong shoping bags plastik dengan model variasi unik-unik menerima partai kecil dan partai besar dan mutu kualitas terjamin bagus dan kami juga bisa membuatkan edit logo nya sampai yang bagus model unik juga jenis plastik CETAK KANTONG PLASTIK, KANTONG PLASTIK, PRINTING PLASTIK, SABLON PLASTIK, SHOPPING BAG, POLYBAG, LAUNDRY BAG, KANTONG KRESEK, SUPERMARKET BAG, SUPPLIER PLASTIK, DISTRIBUTOR PLASTIK, KANTONG KRESEK, PLASTIK KRESEK, POLY BAG, KANTONG BELANJA, TOKO PLASTIK, PRODUKSI PLASTIK, PERCETAKAN KANTONG PLASTIK, PERCETAKAN PLASTIK, PLASTIK HD, PLASTIK PE, PLASTIK OPP, PLASTIK PP, PLASTIK LAUNDRY, ROTOGRAVURE contoh ukuran plastik redi stok oval tanpa lipat samping uk.L16 x P24, . HD oval 032. uk.L20 x P30, . HD oval 032. uk.L25 x P35, . HD oval 0 32. uk.L30 x P39, . HD oval 032. oval pake lipat sampng uk.L43/ L35 x P40, . HD oval 035 uk.L43/ L35 x P48, . HD oval 04 uk.L55/ L45 x P48, . HD oval 05. model oval tanpa lipet samping uk. L20 x P27, . HD model oval tanpa lipet samping 035. uk. L25 x P35, . HD model oval tanpa lipet samping 035. uk. L30 x P30, . HD model oval tanpa lipet samping 004. uk. L30 x P35, . HD model oval tanpa lipet samping 004. uk. L30 x P37, . HD model oval tanpa lipet samping 004. uk. L30 x P40, . HD model oval tanpa lipet samping 004. uk. L35 x P35, . HD model oval tanpa lipet samping 004. uk. L35 x P37, . HD model oval tanpa lipet samping 004. uk. L35 x P40, . HD model oval tanpa lipet samping 004. uk. L35 x P45, . HD model oval tanpa lipet samping 004. uk. L35 x P50, . HD model oval tanpa lipet samping 005. uk. L40 x P40, . HD model oval tanpa lipet samping 005. uk. L40 x P45, . HD model oval tanpa lipet samping 005. uk. L45 x P45, . HD model oval tanpa lipet samping 006.. model oval lipet samping uk.L26/ L20 x P27, . HD model oval lipet samping 035. uk.L32/ L25 x P35, . HD model oval lipet samping 035. uk.L40/ L30 x P30, . HD model oval lipet samping 004. uk.L40/ L30 x P35, . HD model oval lipet samping 004. uk.L40/ L30 x P37, . HD model oval lipet samping 004. uk.L40/ L30 x P40, . HD model oval lipet samping 004. uk.L45/ L35 x P35, . HD model oval lipet samping 004. uk.L45/ L35 x P37, . HD model oval lipet samping 004. uk.L45/ L35 x P40, . HD model oval lipet samping 004. uk.L45/ L35 x P45, . HD model oval lipet samping 004. uk.L45/ L35 x P50, . HD model oval lipet samping 005. uk.L45/ L40 x P40, . HD model oval lipet samping 005. uk.L50/ L40 x P45, . HD model oval lipet samping 005. uk.L55/ L45 x P45, . HD model oval lipet samping 006.. model tali pres uk.L26/ L20 x P27, . HD Talipres 035. uk.L32/ L25 x P35, . H D Talipres 035. uk.L40/ L30 x P30, . HD Talipres 004. uk.L40/ L30 x P35, . HD Talipres 004. uk.L40/ L30 x P37, . HD Talipres 004. uk.L40/ L30 x P40, . HD Talipres 004. uk.L45/ L35 x P35, . HD Talipres 004. uk.L45/ L35 x P37, . HD Talipres 004. uk.L45/ L35 x P40, . HD Talipres 004. uk.L45/ L35 x P45, . HD Talipres 004. uk.L45/ L35 x P50, . HD Talipres 005. uk.L45/ L40 x P40, . HD Talipres 005. uk.L50/ L40 x P45, . HD Talipres 005. uk.L55/ L45 x P45, . HD Talipres 006.. model singlet uk.L27/ L15 x P35, . HD singlet 03. uk.L29/ L17 x P36, . HD singlet 03. uk.L36/ L24 x P38, . HD singlet 03. uk.L40/ L28 x P48, . HD singlet 0 3. uk.L49/ L35 x P55, . HD singlet 035. uk.L60/ L40 x P60, . HD singlet 037. uk.L65/ L45 x P65, . HD singlet 04. uk.L70/ L50 x P75, . HD singlet 045.. ini ukuran plastik tebal 05 harus di pesen khusus pake minim order. model oval tanpa lipat plastik tebal uk. L16 x P24, . HD oval 05. uk. L20 x P30, . HD oval 05. uk. L25 x P35, . HD oval 05. uk. L30 x P39, . HD oval 05. uk. L43/ L35 x P40, . HD oval 05. uk. L43/ L35 x P48, . HD oval 05. uk. L55/ L45 x P48, . HD oval 05.. plastik tali press uk. L26/ L20 x P27, . HD Talipres 05. uk. L32/ L25 x P35, . H D Talipres 05. uk. L38/ L30 x P37, . HD Talipres 05. uk. L43/ L35 x P39, . HD Talipres 05. uk. L45/ L35 x P48, . HD Talipres 05. uk. L50/ L40 x P48, . HD Talipres 05.. Plastik singlet uk. L27/ L15 x P35, . HD singlet 05. uk. L29/ L17 x P36, . HD singlet 05. uk. L36/ L24 x P38, . HD singlet 05. uk. L40/ L28 x P48, . HD singlet 05. uk. L49/ L35 x P55, . HD singlet 05. uk. L60/ L40 x P60, . HD singlet 05. uk. L65/ L45 x P65, . HD singlet 05. uk. L70/ L50 x P75, . HD singlet 05.. plastik klip obat ukuran redi stok uk. L3 x P5. plastik klip uk. L4 x P6. plastik klip uk. L5 x P8. plastik klip uk. L6 x P10. plastik klip uk. L7 x P10. plastik klip uk. L8 x P10. plastik klip uk. L8, 7 x P13. plastik klip uk. L10 x P15. plastik klip uk. L11 x P17. plastik klip uk. L12 x P20. plastik klip uk. L16 x P20. plastik klip uk. L20 x P30. plastik klip uk. L25 x P35. plastik klip uk. L30 x P40. plastik klip uk. L35 x P41. plastik klip. UKURAN MODEL OVAL PLASTIK KLIP OBAT JENIS PE BENING REDI STOK Uk 25x35 + 7 04 Uk 28x36 + 7 04 Uk 30x38 + 7 05 Uk 30x40 + 7 06 Uk 35x40 + 7 07, -. jenis plastik pp tipis harga 26000/ kg mini pesen 1ball berat 25kg uk. L10 x P15 tebal 04 uk. L10 x P20 tebal 04 uk. L12 x P25 tebal 04 uk. L15 x P30 tebal 04 uk. L20 x P30 tebal 04 uk. L20 x P35 tebal 04 uk. L20 x P40 tebal 04 uk. L25 x P35 tebal 04 uk. L25 x P45 tebal 04 uk. L28 x P40 tebal 04 uk. L28 x P45 tebal 04 uk. L30 x P45 tebal 04 uk. L30 x P50 tebal 04 uk. L35 x P50 tebal 04 uk. L38 x P55 tebal 04 uk. L40 x P60 tebal 04 uk. L45 x P65 tebal 04 uk. L50 x P75 tebal 04 uk. L60 x P100, tebal 04. jenis plastik pp tebal kripik uk. L12 x P25 tebal 08 plastik kripik uk. L15 x P30 tebal 08 plastik kripik uk. L15 x P20 tebal 08 plastik kripik uk. L20 x P35 tebal 08 plastik kripik. jenis Plastik OPP uk. L10 X P25: tebal 0.03 mm uk. L10.5 x P18: tebal 0.03 mm uk. L10.5 x P25: tebal 0.03 mm uk. L11 x P15: tebal 0.03 mm uk. L11 x P18: tebal 0.03 mm uk. L11 x P25: tebal 0.03 mm uk. L11.5 x P25: tebal 0.03 mm uk. L12 x P15: tebal 0.03 mm uk. L12 x P25: tebal 0.03 mm uk. L12.5 x P25: tebal 0.03 mm uk. L13 x P15: tebal 0.03 mm uk. L13 x P18: tebal 0.03 mm uk. L13 x P25: tebal 0.03 mm uk. L13.5 x P25: tebal 0.03 mm uk. L14 x P18: tebal 0.03 mm uk. L14 x P25: tebal 0.03 mm uk. L14.5 x P25: tebal 0.03 mm uk. L15 x P25: tebal 0.03 mm uk. L15.5 x P18: tebal 0.03 mm uk. L16 x P25: tebal 0.03 mm uk. L16.5 x P25: tebal 0.03 mm uk. L17 x P25: tebal 0.03 mm uk. L17.5 x P25: tebal 0.03 mm uk. L18 x P25: tebal 0.03 mm uk. L18.5 x P25: tebal 0.03 mm uk. L19 x P25: tebal 0.03 mm uk. L19.5 x P25: tebal 0.03 mm uk. L20 x P30: tebal 0.03 mm uk. L20.5 x P30: tebal 0.03 mm uk. L21 x P30: tebal 0.03 mm uk. L21.5 x P30: tebal 0.03 mm uk. L22 x P30: tebal 0.03 mm uk. L22.5 x P30: tebal 0.03 mm uk. L23 x P30: tebal 0.03 mm uk. L23 x P35: tebal 0.03 mm uk. L24 x P35: tebal 0.03 mm uk. L6 x P15: tebal 0.03 mm uk. L7 x P15: tebal 0.03 mm uk. L7 x P25: tebal 0.03 mm uk. L7.5 x P25: tebal 0.03 mm uk. L8 x P25: tebal 0.03 mm uk. L8.5 x P15: tebal 0.03 mm uk. L8.5 x P25: tebal 0.03 mm uk. L9 x P15: tebal 0.03 mm uk. L9.5 x P25: tebal 0.03 mm. UKURAN KARUNG BERAS. 45 x 75 Karung beras susu 25KG 40 x 70 Karung beras susu 20KG 50 x 75 Karung beras susu 40KG 56 x 90 Karung beras susu 50KG 60 x 100 Karung beras susu 70KG 60 x 90 Karung beras susu 60KG 75 x 115 Karung beras susu 100KG 35 x 53 Karung beras susu 10KG 47 x 70 Karung beras susu 20KG. HARGA CALL / SMS / BBM KONTAK KAMI AGAR KAMI BISA MEMBANTU DALAM PESANAN YANG ANDA PESAN. ukuran plastik polybag plastik tanaman minim pesen 25kg, 1bal harga 25000/ kg uk. 48/ 24x50 tebal 10 mcrn plastik tanaman warna hitam uk. 40/ 20x40 tebal 10 mcrn plastik tanaman warna hitam uk. 36/ 18x35 tebal 10 mcrn plastik tanaman warna hitam uk. 32/ 16x30 tebal 10 mcrn plastik tanaman warna hitam uk. 26/ 13x25 tebal 10 mcrn plastik tanaman warna hitam uk. 20/ 10x20 tebal 05 mcrn plastik tanaman warna hitam uk. 16/ 8x15 tebal 05 mcrn plastik tanaman warna hitam. uk. ukuran; Plastik OPP Kiloan Plastik OPP Kiloan Ukuran : Sesuai dengan permintaan Ketebalan : Sesuai dengan permintaan Kemasan : 1: Roll minim berat: 75 kg Untuk ukuran umum, harga per kg adalah @ Rp 55.000, / kg-.. PLASTIK BUAH Plastik Buah 25 cm x 35 cm Ukuran : 25 cm x 35 cm ( 2kg) Kemasan : 6 Roll Plastik Buah 30 cm x 40 cm Ukuran : 30 cm x 40 cm ( 2kg) Kemasan : 6 Roll = = = = = = = = = = = = = = = = = = = HDPE 10 cm x 20 cm Ukuran : 10 cm x 20 cm Ketebalan : 0.03 mm Warna : Putih transparan Kemasan : 25 kg Rp. 32 500.00 Banyaknya: HDPE 12 cm x 25 cm Ukuran : 12 cm x 25 cm Ketebalan : 0.03 mm Warna : Putih transparan Kemasan : 25 kg Rp. 32 000.00 Banyaknya: . HDPE 120 cm x 180 cm Ukuran : 120 cm x 180 cm Ketebalan : 0.03 mm Warna : Putih transparan Kemasan : 25 kg Rp. 34 500.00 Banyaknya: HDPE 15 cm x 30 cm Ukuran : 15 cm x 30 cm Ketebalan : 0.03 mm Warna : Putih transparan Kemasan : 25 kg Rp. 32 000.00 Banyaknya: . Produk Kami | Kami menyediakan Plastik Klip, Ziplock Bag, Plastik HD, Plastik PP, Plastik Sampah, Plastik Cor, Plastik Bibit, Plastik Obat, Plastik Transparant, Plastik Klip, Klip Plastik, Ziplock Bags, Zipper Plastik Bags, plastic zipper bags, zipper plastic bags Kelebihan produk kami ( Plastik Klip, Klip Plastik, Ziplock Bags, Zipper Plastik Bags ) Produk kami ( Plastik Klip, Klip Plastik, Ziplock Bags, Zipper Plastik Bags, plastic zipper bags, zipper plastic bags HDPE 20 cm x 35 cm Ukuran : 20 cm x 35 cm Ketebalan : 0.03 mm Warna : Putih transparan Kemasan : 25 kg Rp. 32 000.00 Banyaknya: . HDPE 30 cm x 40 cm Ukuran : 30 cm x 45 cm Ketebalan : 0.03 mm Warna : Putih transparan Kemasan : 25 kg Rp. 32 000.00 Banyaknya: . HDPE 30 cm x 45 cm Ukuran : 30 cm x 45 cm Ketebalan : 0.03 mm Warna : Putih transparan Kemasan : 25 kg Rp. 32 000.00 Banyaknya: . HDPE 35 cm x 50 cm Ukuran : 35 cm x 50 cm Ketebalan : 0.03 mm Warna : Putih transparan Kemasan : 25 kg Rp. 32 000.00 Banyaknya: . plastik klip ukurannya 4 x 6 cm 5 x 8 6 x 10 7 x 10 8, 7 x 13 10 x 15 11 x 17 12 x 20 16 x 25 20 x 30 25 x 35 30 x 40 selain ukuran tersebut bisa juga dipesan. HDPE 40 cm x 60 cm Ukuran : 40 cm x 60 cm Ketebalan : 0.03 mm Warna : Putih transparan Kemasan : 25 kg Rp. 32 000.00 Banyaknya: . HDPE 50 cm x 75 cm Ukuran : 50 cm x 75 cm Ketebalan : 0.03 mm Warna : Putih transparan Kemasan : 25 kg Rp. 32 000.00 Banyaknya: . HDPE 50 cm x 75 cm Ukuran : 50 cm x 75 cm Ketebalan : 0.03 mm Warna : Putih transparan Kemasan : 25 kg Rp. 32 000.00 Banyaknya: . HDPE 50 cm x 75 cm Ukuran : 50 cm x 75 cm Ketebalan : 0.05 mm Warna : Putih transparan Kemasan : 25 kg Rp. 32 000.00 Banyaknya: HDPE 60 cm x 100 cm Ukuran : 60 cm x 100 cm Ketebalan : 0.03 mm Warna : Putih transparan Kemasan : 25 kg Rp. 32 000.00 Banyaknya: HDPE 60 cm x 100 cm Ukuran : 60 cm x 100 cm Ketebalan : 0.05 mm Warna : Putih transparan Kemasan : 25 kg Rp. 32 000.00 Banyaknya: HDPE 75 cm x 130 cm Ukuran : 75 cm x 130 cm Ketebalan : 0.05 mm Warna : Putih transparan Kemasan : 25 kg Rp. 34 500.00 Banyaknya: HDPE 75 cm x 130 cm Ukuran : 75 cm x 130 cm Ketebalan : 0.03 mm Warna : Putih transparan Kemasan : 25 kg Rp. 32 000.00 Banyaknya: HDPE 80 cm x 120 cm Ukuran : 80 cm x 120 cm Ketebalan : 0.03 mm Warna : Putih transparan Kemasan : 25 kg Rp. 34 500.00 Banyaknya: HDPE 90 cm x 120 cm Ukuran : 90 cm x 120 cm Ketebalan : 0.03 mm Warna : Putih transparan Kemasan : 25 kg Rp. 34 500.00 Banyaknya: = = = = = = = = = = = = = = = = = = = = = = = = = = = Kantong Plastik 15 cm x 25 cm Ukuran : 15 cm/ 25 cm x 25 cm Ketebalan : 0.03 mm Warna : Hitam Jumlah lembar : + 260 lembar / kg Kemasan : 25 kg Rp. 685 000.00 Banyaknya: Kantong Plastik 15 cm x 25 cm Ukuran : 15 cm/ 25 cm x 25 cm Ketebalan : 0.03 mm Warna : Putih Jumlah lembar : + 260 lembar / kg Kemasan : 25 kg Rp. 760 000.00 Banyaknya: Kantong Plastik 17 cm x 30 cm Ukuran : 17 cm/ 28 cm x 30 cm Ketebalan : 0.03 mm Warna : Putih Jumlah lembar : + 225 lembar / kg Kemasan : 25 kg Rp. 760 000.00 Banyaknya: Kantong Plastik 17 cm x 30 cm Ukuran : 17 cm/ 28 cm x 30 cm Ketebalan : 0.03 mm Warna : Merah Jumlah lembar : + 225lembar / kg Kemasan : 25 kg Rp. 686 000.00 Banyaknya: Kantong Plastik 17 cm x 30 cm Ukuran : 17 cm/ 28 cm x 30 cm Ketebalan : 0.03 mm Warna : Hitam Jumlah lembar : + 225 lembar / kg Kemasan : 25 kg Rp. 685 000.00 Banyaknya: Kantong Plastik 24 cm x 40 cm Ukuran : 24 cm/ 37cm x 40 cm Ketebalan : 0.03 mm Warna : Putih Jumlah lembar : + 148 lembar / kg Kemasan : 25 kg Rp. 760 000.00 Banyaknya: Kantong Plastik 24 cm x 40 cm Ukuran : 24 cm/ 37 cm x 40 cm Ketebalan : 0.03 mm Warna : Merah Jumlah lembar : + 148 lembar / kg Kemasan : 25 kg Rp. 686 000.00 Banyaknya: Kantong Plastik 24 cm x 40 cm Ukuran : 24 cm/ 37 cm x 40 cm Ketebalan : 0.03 mm Warna : Hitam Jumlah lembar : + 148 lembar / kg Kemasan : 25 kg Rp. 585 000.00 Banyaknya: Kantong Plastik 28 cm x 48 cm Ukuran : 28 cm/ 42 cm x 48 cm Ketebalan : 0.03 mm Warna : Putih Jumlah lembar : + 92 lembar / kg Kemasan : 25 kg Rp. 760 000.00 Banyaknya: Kantong Plastik 28 cm x 48 cm Ukuran : 28 cm / 42 cm x 48 cm Ketebalan : 0.03 mm Warna : Merah Jumlah lembar : + 92 lembar / kg Kemasan : 25 kg Rp. 686 000.00 Banyaknya: Kantong Plastik 28 cm x 48 cm Ukuran : 28 cm/ 42 cm x 48 cm Ketebalan : 0.03 mm Warna : Hitam Jumlah lembar : + 92 lembar / kg Kemasan : 25 kg Rp. 585 000.00 Banyaknya: Kantong Plastik 35 cm x 55 cm Ukuran : 35 cm/ 53 cm x 55 cm Ketebalan : 0.03 mm Warna : Putih Jumlah lembar : + 56 lembar / kg Kemasan : 25 kg Rp. 760 000.00 Banyaknya: Kantong Plastik 35 cm x 55 cm Ukuran : 35 cm/ 53 cm x 55 cm Ketebalan : 0.03 mm Warna : Merah Jumlah lembar : + 56 lembar / kg Kemasan : 25 kg Rp. 600 000.00 Banyaknya: Kantong Plastik 40 cm x 60 cm Ukuran : 40 cm/ 60 cm x 60 cm Ketebalan : 0.04 mm Warna : Putih Jumlah lembar : + 46 lembar / kg Kemasan : 25 kg Rp. 660 000.00 Banyaknya: Kantong Plastik 40 cm x 60 cm Ukuran : 40 cm/ 60 cm x 60 cm Ketebalan : 0.04 mm Warna : Merah Jumlah lembar : + 46 lembar / kg Kemasan : 25 kg Rp. 586 000.00 Banyaknya: Kantong Plastik 40 cm x 60 cm Ukuran : 40 cm/ 60 cm x 60 cm Ketebalan : 0.04 mm Warna : Hitam Jumlah lembar : + 46 lembar / kg Kemasan : 25 kg Rp. 485 000.00 Banyaknya: Kantong Plastik 50 cm x 75 cm Ukuran : 50 cm/ 76 cm x 75 cm Ketebalan : 0.08 mm Warna : Putih Jumlah lembar : + 22 lembar / kg Kemasan : 25 kg Rp. 670 000.00 Banyaknya: Kantong Plastik 50 cm x 75 cm Ukuran : 50 cm/ 76 cm x 75 cm Ketebalan : 0.08 mm Warna : Hitam Jumlah lembar : + 22 lembar / kg Kemasan : 25 kg Rp. 500 000.00 Banyaknya: Kantong Plastik 50 cm x 75 cm Ukuran : 50 cm/ 76 cm x 75 cm Ketebalan : 0.08 mm Warna : Merah Jumlah lembar : + 22 lembar / kg Kemasan : 25 kg Rp. 600 000.00 Banyaknya: = = = = = = = = = = = = = = = = = = = = = = = = Styrofoam Kemasan : Gabus Kecil Quantity : 100 pack Minimal Order 1 Packing : 1000 pieces Rp. 450 000.00 Banyaknya: Styrofoam Kemasan : Gabus Besar Quantity : 100 pack Minimal Order 1 Packing : 1000 pieces Rp. 550 000.00 Banyaknya: Styrofoam Kemasan : Gabus Sekat Quantity : 100 pack Minimal Order 1 Packing : 1000 pieces Rp. 550 000.00 Banyaknya: Styrofoam Kemasan : HB Quantity : 200 pack Minimal Order 1 Packing : 2000 pieces Rp. 560 000.00 Banyaknya: Styrofoam Kemasan : MO Quantity : 100 pack Minimal Order 1 Packing : 1000 pieces Rp. 420 000.00 Banyaknya: Styrofoam Kemasan : M2 Quantity : 250 pack Minimal Order 1 Packing : 2500 pieces Rp. 560 000.00 Banyaknya: Styrofoam Kemasan : P6 Quantity : 250 pack Minimal Order 1 Packing : 2500 pieces Rp. 580 000.00 Banyaknya: Styrofoam Kemasan : P75 Quantity : 250 pack Minimal Order 1 Packing : 2500 pieces Rp. 630 000.00 Banyaknya: Styrofoam Kemasan : P9 Quantity : 100 pack Minimal Order 1 Packing : 1000 pieces Rp. 850 000.00 Banyaknya: Styrofoam Kemasan : TR3 Quantity : 250 pack Minimal Order 1 Packing : 2500 pieces Rp. 750 000.00 Banyaknya: ukuran plastik polybag plastik tanaman minim pesen 25kg 1bal harga 25000/ kg uk. 48/ 24x50 tebal 10 mcrn plastik tanaman warna hitam uk. 40/ 20x40 tebal 10 mcrn plastik tanaman warna hitam uk. 36/ 18x35 tebal 10 mcrn plastik tanaman warna hitam uk. 32/ 16x30 tebal 10 mcrn plastik tanaman warna hitam uk. 26/ 13x25 tebal 10 mcrn plastik tanaman warna hitam uk. 20/ 10x20 tebal 05 mcrn plastik tanaman warna hitam uk. 16/ 8x15 tebal 05 mcrn plastik tanaman warna hitam HD PE PP OPP LLDPE oxium degradabel jenis plastik HD SINGLET HD SOFHENDEL HD OVAL PE SINGLET PE SOFHENDEL PE OVAL jenis plastik super market careffurr plastik alfa plastik superrindo HD singlet oxium degradabel jenis plastik super market PE singlet jenis plastik super market oxium degradabel singlet jenis plastik obat plastik klip cetak plastik printing plastik sablon plastik prin shoping bags plastik boutiq plastik promosi plastik kebutuhan kantor plastik shoping bags plastik gudang plastik super plastik polibag plastik tanaman plastik pupuk plastik beras plastik kripik plastik corr bangunan plastik onderdil mobil onder motor plastik toko baju plastik kebutuhan rumah sakit plastik kebutuhan akupuntur plastik bungkus pakan burung plastik bungkus sayuran organik kualitas unggul DLL Anda bisa mengklik "" Info Perusahaan "" , "" Katalog Produk "" dan "" Hubungi Kami "" untuk melihat isi dan informasi lain dari situs cetak plastik printing plastik sablon plastik prin shoping bags plastik boutiq plastik promosi plastik kebutuhan kantor plastik shoping bags plastik gudang plastik super plastik polibag plastik tanaman pupuk plastik beras plastik kripik plastik cor. TOKO CETAK KANTONG PLASTIK Perusahaan kami lebih memfokuskan jenis produk pada shopping bag plastik, akan tetapi kami juga menerima order jenis produk yang lain. Harga sablon plastik yang kami tawarkan selain relatif murah dan juga dapat dinegosiasikan kembali. Perusahaan kami selalu berusaha menjaga hubungan baik dengan para klien dan langganan, sehingga menjadi suatu kesepakatan bahwa kepercayaan anda kepada kami adalah suatu asset yang sangat berharga bagi kami. dan tidak ternilai harganya. Segera hubungi kontak kami segera mudah cukup hubungi kami melalui telphone anda sekarang juga dan anda akan mendapatkan jawabannya bersama kami. salam sukses binajayaplastik@ yahoo.com info web : info@ binajayaplastik.com ","
              Jl. Jelambar Indraloka Gang 5 No 1875, Jakarta Barat            ",Jakarta Barat,DKI Jakarta,+62 812-8016-3911,None,None
