Name,Membership,Category,Description,Address,City,Province,telp1,telp2,telp3
CV. JAYA MAKMUR ABADI,"
PREMIUM RUBY
",Box Penyimpanan & Pallet,"
CV. Jaya Makmur Abadi, perusahaan yang bergerak dibidang perdagangan umum Material Konstruksi & material lainnya, dan telah berpengalaman lebih dari 10 Tahun. 
Berdiri sejak Tahun 2005 dengan nama Jaya Makmur Abadi, dan diresmikan pada tahun 2010 oleh notaris Edward Agustin menjadi CV. Jaya Makmur Abadi. 
CV. Jaya Makmur Abadi bekerja sama dengan beberapa Pabrik & Distributor Material dan hingga kini sudah melayani lebih dari 900 pelanggan, yang terdiri dari pelanggan pribadi/perusahaan baik dari dalam & luar daerah di Indonesia. 
 
Visi & Misi : 


Menciptakan sistem perusahaan yang sistematis & fleksibel dalam hal pelayanan.
Menciptakan lapangan kerja & Sumber daya Manusia yang terampil, profesional& handal. 
Menciptakan pelayanan & kerjasama yang berkesinambungan dengan pelanggan.
Menjadi perusahaan multinasional yang dapat memberi sumbangsih terhadap perekonomian di Indonesia. 

CV. Jaya Makmur Abadi.General Supplier & Trading : Besi Beton & Baja. Rangka Baja Ringan & Atapnya.Aluminium Kusen Pintu & Jendela.Plywood & Kayu lainnya.Pipa Paralon & Pipa Lainnya. 
Keramik & Granit.Perlengkapan Sanitary. Aksesories Pintu & Jendela.
Segala jenis Kaca Bangunan.Aluminium Composite Panel.Kawat Baja & Besi. 
Karpet Import & VINYL. Kusen, Pintu & Jendela Kayu. Windows Fashion.Mekanikal Elektrikal.Meubelair Kantor & Sekolah.
Pipa HDPE.Pipa Air Panas.HPL.Cat.Pipa Gorong-Gorong.Plat Kapal.Dll.
Untuk melengkapi kebutuhan pelanggan, kami juga menyediakan Jasa Kontraktor, Jasa Arsitek & Jasa Konsultan.
Untuk informasi lebih jelas, dapat menghubungi Marketing kami.
Terima kasih. www.jayamakmurabadi.co.id
CV. Jaya Makmur Abadi 
Jl. Brigjend Katamso No. 2 Samarinda. Kalimantan Timur 75117.Telp : 0541-7802915Fax. : 0541-766315Email : sales@jayamakmurabadi.co.id
 

 
 ","
              Head Office :Jl. Brigjend Katamso No. 2. Samarinda. Kalimantan Timur ",Samarinda ,Kalimantan Timur,+62 823-5215-3244,+62 813-4942-8940,+62 852-4900-5619
PT.LINARA MAS INDONESIA,"
                                    PREMIUM GOLD
                                ",Box Penyimpanan & Pallet,"
              PT LINARA MAS INDONESIA, Divisi MATERIAL HANDLING & Divisi MECHANICAL ELECTRICAL, ingin menawarkan produk-produk kami yang mungkin dapat memenuhi kebutuhan perusahaan Bapak/ Ibu.            ","
              Jalan Merpati Raya No 47  Ciputat            ",Tangerang Selatan,Banten,None,None,None
PT.Metal Makmur Mandiri,"
                                    PREMIUM GOLD
                                ",Box Penyimpanan & Pallet,"
Perusahaan kami bergerak dalam bidang sheet metal fabrication dan jasa servis untuk segala macam box yang terbuat dari lembaran besi dan baja. Kami menyediakan Jasa CNC Punching, Bending (Tekuk), Shearing (Potong) terbaik kami untuk membuat box panel, box genset, box mesin bubut CNC, rak server, rak kabinet, rak shelving supermarket, peralatan dapur stainless, peralatan laboratorium dan lain sebagainya.
Kami menggunakan mesin AMADA CNC Turret punch dan AMADA Bending pressbrake untuk keakuratan dan kualitas barang yang kita hasilkan. Material (Plat) yang didukung adalah dengan dimensi 8' x 4' (2400mm x 1200mm) dengan maximum ketebalan 3.2mm untuk Mild Steel, 2mm untuk Stainless Steel dan 4mm untuk aluminium.
Misi kami adalah untuk menyediakan jasa servis yang baik dan terpercaya dengan harga yang kompetitif. Kami akan mengejar target waktu anda untuk pengerjaan setiap barang yang anda percayakan kepada kami dan tentunya dengan tetap memperhatikan kualitas dari hasil produksi dari barang anda di tempat kami.
Jangan ragu untuk menghubungi kami, Staff Kami akan siap membantu anda. Terima Kasih Kunjungi kami juga di www.metalmakmurmandiri.com ","
              Kawasan Industri Manis, jatiuwung - Tangerang Banten            ",Tangerang,Banten,+62 852-1344-7088,None,None
PT. DAMASES SEJAHTERA,"
PREMIUM RUBY
",Box Penyimpanan & Pallet,"
              PT Damases Sejahtera adalah Perusahaan yang bergerak di bidang produksi dan perdagangan aneka produk penyerab kelembaban udara (desiccant) , yang berfungsi untuk menyerab kelembaban udara (humidty) untuk mencegah timbulnya jamur, korosi (karat), produk menjadi basah, label terlepas, peregangan pada perekat dan efek yang merugikan lainnya yang berhubungan dengan kelembaban udara selama barang disimpan di dalam gudang maupun selama pengiriman di dalam kontainer.Didirikan sejak tahun 2004 oleh Ir. Lazarus Arintoko dan Agus Mulia dengan pabrik seluas 3.600 M¬≤ di Klaten, Jawa Tengah, PT Damases Sejahtera secara berkesinambungan terus mengembangkan produk penyerap kelembapan udara dengan berbagai terobosan/inovasi baru untuk menjaga dan meningkatkan kualitas produknya.            ","
              Jln. Gading Permai Raya Blok AZ19-20 Grogol Grogol, Sukoharjo            ",Sukoharjo,Jawa Tengah,+62 812-5881-667,None,None
ZULINDO JAYA MANDIRI,"
PREMIUM RUBY
",Box Penyimpanan & Pallet,"
ZULINDO JAYA MANDIRI merupakan Perusahaan yang Siap Membantu Anda dalam Bidang :‚Ä¢ Penyediaan, Pemasangan dan Perawatan Filter AHU‚Ä¢ Pengadaan dan Perawatan berbagai Type AC‚Ä¢ Pengerjaan Konstruksi Besi, Aluminium, Stainless‚Ä¢ Kontraktor HV AC untuk Ruang Operasi, Ruang Isolasi dan Ruang CCSD (Pusat Sterilisasi)Dan telah Melayani Berbagai Instansi dan Perusahaan Ternama, Khususnya di Area Jawa Tengah. Beberapa diantaranya :‚Ä¢ RSUD KRMT WONGSONEGORO‚Ä¢ RSUD IR SUKARNO SUKOHARJO‚Ä¢ RSI KENDAL‚Ä¢ RS Kariadi‚Ä¢ RS Roemani‚Ä¢ RS Elisabeth‚Ä¢ Telkom‚Ä¢ PT Indofood‚Ä¢ Ciputra‚Ä¢ Perusahaan Farmasi dan Mall di SemarangUntuk diluar Jawa Tengah beberapa diantaranya :‚Ä¢ RS Bunda Lhoksumawe, Makasar dan Kalimantan.""Pelayanan Terbaik, Tepat, Efisien adalah Semangat Kami""-----Hubungi Kontak Kami Sekarang untuk Dapatkan Penawaran Terbaik dan Harga Bersaing (CALL/WHATSAPP).
‚Ä¢ Phone : 0813-2542-2349 (Peni Eka Prastyawati)
‚Ä¢ e-Mail : zulindo.jayamandiri@gmail.com‚Ä¢ Website : www.ZulindoFilterSemarang.com
 ","
              KANTOR PUSATüìç Jln. Condrokusumo Raya No. 21-D Bongsari Semarang BaratPHONE / WHATSAPP‚òéÔ∏è 0813-2542-2349‚Äî            ",SEMARANG,Jawa Tengah,+62 813-2542-2349,None,None
CV.KARYA SEJATI,"
                                    PREMIUM GOLD
                                ",Box Penyimpanan & Pallet,"
              CV.KARYA SEJATI bergerak di bidang suplier kebutuhan industri seperti Straping Band , Pallet Plastik , Lid cup , dll. Saat ini industri banyak memerlukan straping band dan pallet plastik bekas, karena pallet kayu sulit dicari , alternatif lain adalah menggunakan pallet plastik yang lebih kuat dan praktis.Kami juga menyedia produk-produk lain seperti Stationery Tape, Sofa Arab, Pure Lemon dan Paket Tour and Travel Umroh.Untuk Info dan Pemesanan anda bisa sewaktu waktu menghubungi kami pada :ASEP : 0813-3635-5399            ","
              Jl. Wr.Soepratman kav 42 Simongan            ",Semarang,Jawa Tengah,+62 813-3635-5399,None,None
CV.Revindo Karya Utama,"
PREMIUM RUBY
",Box Penyimpanan & Pallet,"
CV. Revindo Karya Utama adalah perusahaan manufacture yang bergerak dalam industri packing Dan packaging, kami melayani pembuatan pallet, Peti ( wooden Box), Bobbin ( wooden drum plywood ) dengan standard ISPM#15.Kami berkomitmen dalam kualitas, pelayanan dan nilai tambah, KUALITAS : Perusahaan kami selalu mengedepankan kualitas sesuai standard yang diinginan pelanggan kami,dan di jaga secara konsistentPELAYANAN: kami mengedepankan pelayanan dalam hal delivery yang tepat waktu, Pelayanan service yang memuaskan pelangganNILAI TAMBAH : kesesuain kualitas dan ketepatan delivery adalah sesuatu yang mendukung produksi pelanggan kami, sehingga menjadi nilai tambah untuk pelanggan kami, kami siap bekerja sama dengan perusahaan anda untuk berbagai kebutuhan, baik dalam jumlah besar ataupun dalam jumlah kecil. serta melayani permintaan spesifikasi khusus sesuai kebutuhan pelanggan, proses treatment yang sesuai standar ISPM #15adalah jaminan kami untuk kepuasan pelanggan, kami akan mempermudah anda dalam mencari solusi untuk mencari pallet,bobbin,bok kayu, berkualitas dengan harga yang sesuai dengan budget pelangganHubungi Kami :Phone : 021-82648350Mobile : 0821-1234-9747 ( Call/WA )Email : revindokaryautama@gmail.com ","
              Head Office :Jl. Bougenville Raya, Griya Timur indah Blok B1 No. 1A, Jatimulya, Tambun SelatanWorkshop :Jl. Desa Ciketing No.3 RT 01/03, Kel. Sumur Batu, Kec.Bantar Gebang,Bekasi            ",Bekasi,Jawa Barat,+62 821-1234-9747,None,None
PT. Mandiri Niagamas Cemerlang,"
                                    PREMIUM GOLD
                                ",Box Penyimpanan & Pallet,"
PT. MANDIRI NIAGAMAS CEMERLANG adalah perusahan penyedia alat kebutuhan industri seperti :
 1. Gland Packing 2. Sheet Packing 3. Rubber Packing 4. Conveyor Belt 5. Industrial Machine 6. Machining 7. Heat Insulation 8. Rubber Lining 9. Casting 10. Mechanical Seal 11. Manufacturing 12. Elastomer Bearing Pad 13. Chemical Coal Additive 14. Heater Element 15. Pallet Kayu 16. Coarse River Aggregate ( Kerikil ) 17. Rubber Fender 18. Pressure Gauge 19. Vibrator 20. Valve 21. Handling Equipment 22. Bearing 23. Clutches & Breakes 24. Universal Joint & Cardan Shaft 25. Conveyor Chains 26. Chains 27. Pulley 28. Coupling 29. Gearbox & Wormgear 30. Gearmotor 31. Electric Motor 32. Control System 33. Hose 34. Slitter 35. Roll Conveyor 36. Pulley Conveyor 37. Pneumatic 38. HydraulicKami berkomitmen untuk memberikan pelayanan terbaik kepada semua klient kami dari setiap produk yang kami tawarkan.Contact Us :PT. MANDIRI NIAGAMAS CEMERLANGOffice     : Jl. Raya Cikarang - Cibarusah No 27, Lippo Cikarang ‚Äì BekasiPhone     : 021 - 8990 0912Fax       : 021 ‚Äì 8990 0912         Mobile    : 0812 8132 3388 // 0877 8913 6128Whatsapp : 0877 8913 6128Email     : mandiriniagamascemerlang@gmail.com ","
              Jl. Raya Cikarang - Cibarusah No. 27 , Lippo Cikarang - Bekasi            ",Bekasi,Jawa Barat,+62 877-8913-6128,None,None
PT EDPACK KARUNIA PERSADA,"
                                    PREMIUM GOLD
                                ",Box Penyimpanan & Pallet,"
Sekilas PT Edpack Karunia Persada
PT Edpack Karunia Persada atau yang juga dikenal dengan Brand Edpack Persada merupakan perusahaan yang hingga saat ini bergerak dibidang produksi atau manufaktur produk-produk kemasan industri dan sekaligus mendistribusikan dan mensupply produk-produk industri tersebut ke berbagai Perusahaan di berbagai lokasi.
Bekerjasama dengan Berbagai Perusahaan
PT Edpack Karunia persada selama dalam menjalankan usaha dibidang produk-produk kemasan industri, telah mendistribusikan dan bekerjasama dengan berbagai perusahaan di berbagai lokasi baik perusahaan skala lokal, nasional maupun multinasional. Berbagai Jenis Perusaahaan tersbut misalnya :

perusahaan-perusahaan Semen, Semen Instan, Semen Mortar, Semen Putih
Perusahaan-perusahaan Makanan dan Minuman atau Food and beverage
Perusahaan-perusahaan dengan produk-produk makanan yang bersifat organik
Perusahaan-perusahaan arang seperti arang aktif, arang kelapa, arang kayu dan lainnya
Perusahaan Karbon Aktif
Perusahaan -Perusahaan kimia atau chemical company dengan berbagai jenis produk
Perusahaan Teh
Perusahaan dengan produk Aspal Dingin atau Cold Mix Asphalt
Perusahaan dengan produk-produk sabun dan sejenisnya
Perusahaan dengan produk biji plastik, compund dan sejenisnya
Perusahaan-perusahaan dengan produk-produk tekstil dan sejenisnya
Dan Berbagai Jenis Perusahaan lainnya

Produk produk PT Edpack Karunia Persada digunakan baik untuk keperluan lokal ataupun internasional atau export. Kedepannya PT Edpack Karunia Persada akan tetap menjalin kerjasama dengan berbagai jenis perusahaan atau pelaku industri lainnya.
Berpengalaman dibidangnya 
PT Edpack Karunia Persada telah berpengalaman dibidang produksi atau manufaktur dan distribusi produk-produk kemasan industri ke berbagai jenis industri. Produk-produk kemasan industri yang hingga saat ini kami produksi dan supply atau distirbusikan keberbagai perusahaan adalah :
Kemasan Kertas
Produk Kemasan kertas merupakan produk kemasan yang berbahan utama terbuat dari kertas. Produk-produk kemasan kertas misalnya Karung Kertas (Paper Sack) seperti Karung Kertas Kraft, Karung kertas laminasi woven (Sandwich Bag), karung kertas laminasi Aluminium Foil dan Karung kertas Laminasi PE coated, Siku Kertas (Paper Angle), Pallet Kertas (Paper Pallet), Tabung Kertas (Paper Core dan paper tube), Karton Box (Cartoon box), Honeycomb core dan Honeycomb Board
Kemasan Plastik
Produk Kemasan plastik adalah produk kemasan industri dengan berbahan utama terbuat dari jenis plasstik dan atau woven. Produk Produk Tersebut misalnya adalah Karung Woven (Woven Bag), Karung Jumbo (Jumbo Bag), Plastic Bag seperti HDPE, LLDPE dan PP, Plastic Vacuum, Pallet Plastik, Plastik Wrapping, Strapping Band, Infraboard
Kemasan Kayu
Produk Kemasan kayu merupakan produk dengan berbahan utama dari Kayu baik kayu mentah ataupun kayu olahan. Produk Tersebut misalnya Pallet Kayu (Wooden Pallet) dan Box Kayu (Wooden Crate). Produk ini tersedia dengan kualitas lokal dan kualitas ISPM No.15
Mengapa Bekerjasama dengan PT Edpack Karunia persada dalam memenuhi kebutuhan perusahaan anda akan produk kemasan industri adalah pilihan yang tepat? Hal ini tidak lepas dari apa yang menjadi Visi dan misi perusahaan, Sasaran mutu dan Motto atau slogan perusahaan serta nilai nilai perusahaan yang kami tanamkan pada segenap Team perusahaan dalam beraktivitas sehari hari.
Visi dan Misi PT Edpack Karunia Persada
Dalam menjalankan usahanya PT Edpack Karuia Persada memiliki visi dan misi dan komitment yang menjadi acuan dalam menjalankan usahanya sehari hari. adapun yang menjadi visi dan misi perusahaan adalah :
VISI PT EDPACK KARUNIA PERSADA
Menjadi Perusahaan yang Terpercaya, handal, cepat dan tepat serta komunikatif dalam menangai semua bisnis perusahaan dan menjadi perusahaan rujukan bagi pelanggan-pelanggan dan pasar dalam memenuhi kebutuhan mereka dan relasi mereka sehubungan dengan produk-produk kemasan baik untuk keperluan skala lokal, nasional dan internasional
MISI PT EDPACK KARUNIA PERSADA
Komitement penuh dalam menjawab kebutuhan pelanggan dan pasar yang semakin berkembang melalui penyediaan produk-produk yang berkualitas. Cepat, Tepat dan akurat dalam menjawab dan menyelesaikan permasalahan yang ada. Komunikatif dan persuasif dalam mendengar pelanggan. Trampil dan terlatih dalam menyelesaikan tugas dan tanggungjawab serta kewajiban. Pelayanan yang ramah dan management yang sistematis, terkendali dan terpercaya
SASARAN MUTU PT EDPACK KARUNIA PERSADA
Berusaha penuh dalam mencapai tingkat kepuasan Pelanggan dengan zero complaint serta efektifitas dan efisiensi proses produksi dan pelayanan pelanggan
MOTTO PT EDPACK KARUNIA PERSADA
PT Edpack Karunia Persada memiliki Motto atau slogan dalam berusaha yang kami singkat sebagai ""INNER QUALITY ONE STOP SERVICE"" yang merupakan singkatan dari Innovative, Excellence, Respect, Quality, dan One Stop Service. Berikut apa yang menjadi penjelasan dari Motto atau Slogan Peruahaan PT Edpack Karunia Persada :

Innovative : Perusahaan senantiasa melakukan inovasi baik pelayanan maupun produk dan jasa perusahaan dei mncapai visi dan misi perusahaan serta sasaran mutu perusahaan dalam berusaha.
Excellence : Bahwa Perusahaan senantiasa berusaha menyediaan produk dan jasa yang terbaik, pelayanan yang terbaik demi mencapai tujuan perusahaan serta visi, misi dan sasaran perusahaan dalam beraktivitas
Quality : Bahwa PT Edpack Karunia Persada dalam menjalankan usahanya senantiasa menyediakan produk dan jasa yang berkualitas, memenuhi standard kualitas yang terbaik sehingga produk dan jasa tersebut digunakan oleh pelanggan sesuai expektasi sehingga tercapai kepuaan pelanggan
One Stop Service : Bahwa PT Edpack Karunia Persada dalam menjalankan usahanya berusaha untuk menyediakan berbagai jenis komunikasi yang cepat dan tersedia baik melalui komunikasi langsung, chatting, maupun komunikasi melalui situs dan email sehingga pelayanan produk dan jasa perusahaan dapat diakses kapanpun dan dimanapun

Nilai Nilai Berusaha PT Edpack Karunia Persada
Nilai nilai PT Edpack Karunia Persada dalam menjalankan usaha sehari hari :

Bagi Kami, pelanggan bukanlah sarana untuk mendapatkan keuntungan semata, tetapi adalah Mitra Keluarga perusahaan yang harus tetap eksis, berkembang dan berkelanjutan dalam usahanya. Relasi jangka panjang dengan pelanggan serta kepercayaan pelanggan adalah hal yang tetap kami jaga.
Bagi Kami, Kualitas Produk dan pelayanan adalah hal yang sangat penting dan merupakan inti dari semua produk dan jasa yang kami sediakan
Bagi kami, Memberi kemudahan dan rasa nyaman bagi pelanggan dalam bekerjasama dengan kami adalah hal yang sangat mendasar. Kemudahan dalam mendapatkan produk berkualitas, kemudahan dalam berkomunikasi dan kemudahan dalam menyelesaikan berbagai permasalahan yang ada.
Bagi kami, Pelayanan yang ramah, komunikatif dan persuasif, pengiriman produk yang cepat, harga yang terjangkau, kualitas produk yang terjamin, tenaga kerja yang trampil, handal dan terlatih adalah hal yang menjadi faktor utama untuk mencapai kepuasan pelanggan.
Bagi Kami, tetap bersama pelanggan adalah suatu kewajiban. Untuk itu kami menyediakan layanan konsultasi dan layanan purna jual kepada semua pelanggan pelanggan kami

Segeralah bekerjasama dengan PT Edpack Karunia Persada. PT Edpack Karunia Persada akan melayani anda dengan baik. Hubungi kami segera. PT Edpack Karunia Persada hadir untuk anda.




PT.EDPACK KARUNIA PERSADA - PACKAGING MANUFACTURER
Email  :  csupport@edpackpersada.com
Web    : https://www.edpackpersada.com 

 
Follow Us On
 
        
Paper Packaging Division :  Paper Sack, Paper Angle, Paper core, paper pallet, honeycomb, paper box, 
Plastic Packaging Division :  Paper vacuum bag, Plastic Bag, Woven Bag, Jumbo Bag, Plastic Wrapping, Plastic Pallet, Strapping Band
Wooden Packaging : Wooden Pallet, Wooden Crate ISPM 15 quality
Other packaging : Jute Bag (Karung Goni) 
 
 
 



 ","
              Jl. Irigasi Komplek Edpack Persada No 1 RT 002/RW 003, Ciranji Barat, Ragemanunggal, Kecamatan Setu, Bekasi Jawa Barat 17320            ",setu bekasi ,Jawa Barat,+62 877-3561-5426,None,None
"Dian Perdana Indonesia, PT","
                                    PREMIUM GOLD
                                ",Box Penyimpanan & Pallet,"
              PT. Dian Perdana Indonesia berdiri pada tahun 2013. Pada awal berdiri, perusahaan kami bergerak dalam bidang produksi dan pemasaran kemasan kertas. Kemasan kertas yang kami produksi adalah paper sack atau karung kertas atau lebih dikenal dengan sebutan multiwall paper sack (paper bag).Seiring perkembangan dan permintaan pasar yang semakin pesat maka kami menambah pemasaran kami dibidang karung lainnya seperti karung plastik seperti karung woven dan plastik vacuum, plastic PE, karung aluminium foil dan karung jumbo.Guna melengkapi kebutuhan  kemasan pelanggan-pelanggan kami, kami menyediakan produk Pallet  seperti pallet kertas, pallet kayu dan pallet plastik.Dibidang perdagangan lainnya, perusahaan kami bekerjasama dengan beberapa rekanan dalam hal penyediaan  produk produk foods and beverage powder dari produk pertanian, organic dan rempah rempah seperti  coconut powder, cocoa powder, palm sugar, vanila, pala, lada dan juga produk produk bahan bangunan (mortar dan aspal dingin).Perusahaan kami senantiasi berusaha melakukan perbaikan dan pengembangan dalam seluruh aktivitas pelayanannya dan produk-produk yang diproduksi dan dipasarkan guna menyesuaikan diri dengan permintaan pelanggan-pelanggan kami dan keinginan pasar.Visi Perusahaan‚ÄúMenjadi perusahaan yang terbesar dan tercepat dalam penanganan bidang kemasan sack kertas serta menjadi pemimpin pasar untuk mempertahankan keberadaan kami dalam mengejar perusahaan yang bertaraf Internasional untuk organisasi nasional maupun internasional‚Äù.Misi Perusahaan‚ÄúBerkomitmen penuh dalam menjawab kebutuhan pelanggan, permintaan pasar dan penyelesaian permasalahan yang ada melalui penyediaan produk yang lengkap dan berkualitas, sumber daya manusia yang ramah, terlatih dan kompeten, managemen yang sistematis dan terkendali, pelayanan yang terpercaya dan akurat, infrastruktur yang tersedia serta pelayanan yang terintegrasi dan berbasis informasi dan teknologi‚Äù.Kebijakan Mutu‚ÄúMemberikan pelayanan yang sistematis, tercepat dan terpercaya dalam semua aktivitas bisnis kami guna mempertahankan keberadaan sebagai pemimpin pasar terhadap organisai nasional maupun internasional‚Äù.Sasaran Mutu1.    Meningkatkan kepuasan pelanggan serta mengurangi keluhan pelanggan2.    Meningkatkan efektivitas dan efisiensi proses produksi dan pelayanan.Motto kami adalah "" INNER QUALITY ONE STOP SERVICE "" atau Innovation, Excellence, Respect, Quality dan One Stop Service.Produk - Produk Perusahaan Kami memproduksi beberapa produk-produk kemasan dan juga bekerjasama dengan beberapa supplier dalam menyalurkan produk-produk pertanian, organik, rempah-rempah dan bahan bangunan. Kemasan Karung (Sack Packaging) -    Karung Kertas (Paper Sack)Paper Sack yang kami produksi dan pasarkan terdiri dari beberapa tipe dan jenis berdaarkan bahan baku yang digunakan :Tipe atau Model Paper Sack yang kami produksi 1.    Paper Sack Tipe Jahit (Sewn Paper Sack)2.    Paper Sack Tipe Block Bottom Atas Terbuka (Block Bottom open mouth)3.    Paper Sack tipe Block Bottom Open Valve (valve Paper Sack)Jenis Paper Sack Berdasarkan Bahan Baku1.    Karung kertas kraft (Kraft paper Sack)2.    Karung kertas Kraft Sandwich (Woven Laminated Paper Sack Kraft)3.    Karung kertas Kraf laminasi PE coated (PE coated lamination Sack Kraft Paper)4.    Karung kertas Kraft laminasi Aluminium Foil (Aluminium foil laminated kraft paper sack)-    Karung Woven1.    Karung woven laminasi (Laminated woven bag)2.    Karung woven tanpa laminasi (Non lamination woven bag)3.    Karung Jumbo (Jumbo Bag)-    Karung Plastik1.    Karung Plastik PE/HD (PE/HD Plastic Bag)2.    Karung Plastic Vacuum (Plastic vacuum bag)-    Karung Aluminium Foil1.    Kantong Aluminium Foil ZipLock2.    Karung Aluminium Foil PouchKemasan Pallet (Pallet Packaging)-    Pallet Kertas-    Pallet Kayu-    Pallet PlastikProduk-produk food and beverage dari produk pertanian, organic dan rempah-rempah -    Coconut Powder (Tepung Kelapa)-    Cocoa Powder (Tepung Coklat)-    Palm Sugar Powder (Tepung Gula Semut)-    Vanila Powder (Tepung Vanila)-    Nutmeg Powder (Tepung Pala)-    Pepper Powder (Tepung Lada)Produk-Produk Bahan Bangunan-    Semen Mortar-    Asphalt DinginMarketing Office :Jl. Alternatif Cileungsi, Metropolitan Land Transyogi, Cluster Green Palma, Sektor Tanjung 14 No.20 Bogor - Jawa Barat, 16820
Hubungi kami segera dimarketing office : 
Tety : 085780546226
 
Raja : 081384422156
 
Ana : 081384422154
 
Fitri : 081384422152
 
Nurul : 081389214174
 
Nadia : 081389214175
 
Citra :  081384422153
 
Boy : 081384422155
 
No tlp office :
021-29628514
021-29628515
021-29628516
021-22950363
 
Email :info@dianperdanaindonesia.commarketing@dianperdanaindonesia.com ","
              Jl. Alternatif Cileungsi, Komplek Metropolitan Land Transyogi, Cluster Green Palma, Sektor Tanjung 14 No.20            ",Bogor,Jawa Barat,+62 813-8442-2155,+62 813-8442-2153,+62 813-8442-2157
Karoseri Kenka,"
                                    PREMIUM GOLD
                                ",Box Penyimpanan & Pallet,"
Info Untuk Pembuatan Mobil:
Karoseri Box Pendingin Freezer,
Karoseri Box Pendingin Chiller, 
Karoseri Box Pendingin Frozen, 
Karoseri Box Cold Storage, 
Karoseri Box Refrigeration, 
Karoseri Box Cool Storage, 
Karoseri Box Fiber, 
Karoseri Box Cold Storage, 
aroseri Mobil Toko, 
Karoseri Food Truck, 
Karoseri Wingbox, 
Karoseri Box Besi, 
Karoseri Box Alumunium, 
Karoseri Self Loader, 
Karoseri Mixer, 
Karoseri Trailer, 
Karoseri Bak Besi, 
Karoseri Tangki, 
Karoseri Vacuum Tank .. dll
 
Hotline : 0812.951.888.53 / 0812.9696.3488
 
Note :
 
1.Harga yang tertera adalah batas minimum
2.Batas Minimum di tentukan dari unit yang digunakan ( Pick up - Medium Truck - Truck Besar )
3.Untuk type khusus, harga juga di tentukan dari perlengkapan yg di inginkan ","
              Jl M T Haryono Km 6,5 no 8 A 
Kelurahan Taman sari
Kecamatan Setu Bekasi            ",Bekasi,Jawa Barat,+62 812-9518-8853,None,None
PT. COLAR CREATIV INDUSTRI,"
PREMIUM RUBY
",Box Penyimpanan & Pallet,"
              Pabrik Glassboard Rekanan ASAHI GLASS di Indonesia
  ","
              Jln Gunung Muria No.6            ",Sidoarjo,Jawa Timur,+81 3-4600-0020,None,None
PT SEAN INDONESIA,"
                                    PREMIUM GOLD
                                ",Box Penyimpanan & Pallet,"
PT SURYA ENERGI ANUGERAH NUSANTARA INDONESIA ( PT SEAN INDONESIA ) was established in  2017, and rapidly grew into and aggressive and commited distributor of industrial, General Contractor, Mechanical & Electrical, Civil and Construction, Logistic Solutions, Design and Supply. 
In the General Contractor, Mechanical & Electric, Civil and Construction, Design & Supply, PT SEAN INDONESIA has M1 category ( Grade 5 ) & NFPA Member* Scope of work PT SEAN INDONESIA *
‚Ä¢ GENERAL CONTRACTOR, MECHANICAL & ELECTRIC, CIVIL & CONSTRUCTION, DESIGN & SUPPLY ( M1 category ‚Äì Grade 5 ) ‚Äì NFPA MEMBER
‚Ä¢ SAFETY SPECIALIST of FIXED FIRE FIGHTING SYSTEM, FIRE DETECTION & GENERAL ALARM SYSTEM
‚Ä¢ SAFETY SPECIALIST of BUILDING, INDUSTRIAL ,MARINE FIRE PROTECTION SYSTEM & EQUIPMENT AND LIFE SAVING
‚Ä¢ A PROFESSIONAL SUPPLIER for INDUSTRIAL SECTIONAL DOORS, LOADING DOCK SYSTEMS, HIGH SPEED DOORS, & AUTOMATION SYSTEM
‚Ä¢ MATERIAL HANDLING, WAREHOUSE EQUIPMENT & SAFETY EQUIPMENT
‚Ä¢ STORAGE RACKING SYSTEM, SOLUTION OF AS/RS, AUTOMATION EQUIPMENT,  WAREHOUSE PROTECTION ‚Ä¢ MPM PLASTIC PROTECTIONS‚Ä¢ SOLAR PANEL, SOLAR SYSTEM, SOLAR INVERTER, SOLAR COMPONENT
‚Ä¢ RENTAL FORKLIFT, HAND PALLET  - SERVICE AND SPARE PART
‚Ä¢ APPLIANCES CUSTOMIZED FILTRATION, WORK OF RUBBER SEALS, VITTON, PU, NBR, GRAPHITE, NYLON etc
‚Ä¢ SEAN Conveyor Product's gravity roller conveyors are available in many sizes and configurations. Gravity roller will convey light, medium, and heavy loads that have firm flat bottoms such as cartons, totes, cases, skids, drums, etc.
Through ingenious design and quality that‚Äôs proven and tested, Sean Indonesia is the supplier for product to many Foreign Based Companies ( PMA ) in the manufacturing, Pharmaceutical, Chemical ,cigarette Industrial and others. 
We company‚Äôs commitment is simple and yet something that we sincerely wish for all of our customers, Principals, employees, and shareholder... ‚Äú  We serve, innovation and solution ‚Äú  ","
               Office : The Taman Dhika Cluster Boulevard BL 8 No. 8 , Jl Kesatrian Buduran - Sidoarjo 61252            ",Sidoarjo,Jawa Timur,+82 12-228-5168,None,None
UD. SIDO¬†MUMBUL,"
                                    PREMIUM GOLD
                                ",Box Penyimpanan & Pallet,"
              UD. SIDO MUMBULPerusahaan kami bergerak di bidang distribusi barang pecah belah / bolo pecah, plastik rumah tangga, peralatan / alat dapur ( kitchen wares) dan kebersihan ( cleaning equipments) , perlengkapan rumah tangga ( house wares / home appliances) dan kebutuhan industri ( industrial wares) lebih dari 30 tahun di Pasar Turi, Surabaya. Kami menjual barang-barang produksi lokal dan impor seperti barang-barang aluminium, kaca, plastik, stainless steel, perkakas, dll. dengan harga dan kuantiti partai ( grosir) untuk dijual kembali ( reseller price).Beberapa merek barang yang kami jual adalah Hock, Lion Star, Maspion, Global Eagle, Green Leaf, Dian Sari, Owl Plast, Technoplast, Bull Star dan masih banyak lagi. Untuk informasi lebih lengkap bisa dilihat pada halaman Katalog Produk kami atau bisa langsung datang ke kantor kami pada hari Senin - Sabtu pada pukul 10: 00 - 17: 00 WIB di jalan Dupak 63, kompleks pertokoan Mutiara Dupak C-22, Surabaya. ¬†Dengan dukungan supplier lokal dan nasional, kami siap untuk memenuhi kebutuhan usaha anda. Kontak kami segera untuk berbisnis dengan kami.Kami juga melayani kebutuhan hotel, rumah sakit, cafe, restoran & katering.Untuk pemesanan produk dapat dilakukan via telepon, short message service ( SMS) , Yahoo! Messenger, Blackberry Messenger ( BBM) dengan sistem pembayaran cash ( transfer bank / kontan) . Pembayaran dapat dilakukan setelah mendapat konfirmasi dari kami atas ketersediaan jumlah produk yang dibutuhkan. Apabila anda serius, dimohon untuk tidak mengirimkan e-mail kepada kami tanpa melakukan konfirmasi terlebih dahulu. ¬†Tersedia kualitas produk biasa, menarik, murah, kuat dan berkualitas tergantung merk dan kebutuhan. Untuk area surabaya kami dapat mengirim, untuk konsumen luar kota dan luar pulau dapat dikirim lewat ekspedisi yang telah disepakati bersama. JAKARTA - BANDUNG - YOGYAKARTA - MAGELANG - SOLO - DENPASAR - SEMARANG - MALANG - SURABAYA - BANYUWANGI - PASURUAN - PROBOLINGGO - JEMBER - PRABUMULIH - MEDAN - JAMBI - PEKANBARU - MAKASSAR - BALIKPAPAN - PONTIANAK - BANJARMASIN - BATAM - PALEMBANG - LAMPUNG - SAMARINDA - PADANG - MATARAM - KALABAHI - MANADO - JAMBI - ACEH - PANGKALAN BUN - KUALA PEMBUANG - BATU LICIN - SAUMLAKI - TUAL - GORONTALO - TANJUNG SELOR - TOLI TOLI - AMBON - BATAM - PANGKALPINANG - WAINGAPU - WAIKABUBAK - KUPANG - ATAMBUA - DILI - PALU - SAMPANG - BANGKALAN - SUMENEP - JAYAPURA - SORONG - BIAK - MANOKWARI - MERAUKE - BAU BAU - TERNATE - TOBELO - KENDARI UD. SIDO MUMBUL - Jln. Dupak 63 / Pertokoan Mutiara Dupak C-22, (031) 5469330 / 081938685700, Surabaya. PIN BBM = 7C5F4B40 / 5B69FFC6 / 228B81D4 WA = +6282143438684 LINE = herry.sutanto E-mail = ud_sido_mumbul@yahoo.com / herrychenzhongqiang@gmail.com Jam Kerja = Senin - Sabtu 10:00 - 17:00 WIB, Hari Minggu / Besar Libur            ","
              Jln. Dupak 63 / Pertokoan Mutiara Dupak C-22, (031) 546-9330 / 0819-3868-5700, Surabaya.
PIN BBM = 7C5F4B40 / 5B69FFC6
WA = 0821-4343-8684
LINE = herry.sutanto            ",Surabaya,Jawa Timur,+62 814-3438-684,None,None
Selatan Jaya Plastik Surabaya,"
                                    PREMIUM GOLD
                                ",Box Penyimpanan & Pallet,"
Selatan Jaya Merupakan Distributor Plastik Di Surabaya, Kami jual harga grosir produk Barang Plastik, Barang Perlengkapan Makan minum, Perlengkapan Mandi, Perlengkapan masak Dapur, alat kebersihan, Perlengkapan Rumah Tangga, Produk Pecah Belah Dll. 
Hubungi Kami : 
SELATAN JAYA PLASTIK 
0313520648 / 0313542351 / 081331351580
Songoyudan 31b, Surabaya Surabaya Jawa Timur , Indonesia

Produk Melamin, Stainless Steel, Alumunium, Merk Pabrik Napolly, Tms, Ag, Ks, Kaisha, Ikimura, Maspion, Lion Star, Calista, Olympia, Produk China, Dll
 
Kategori Produk Yang Kami Jual
 
Perlengkapan Ruang Tamu:
Kursi Plastik, Meja, Lemari, Keset, Karpet, Sapu, Pel Gagang, Sekrop Plastik, Asbak Melamin.
 
Perlengkapan Di Ruang Makan:
Keranjang Plastik Industri Krat, Sendok, Garpu, Piring, Mangkok, Toples Plastik, Mug, Gelas, Cangkir, Teko, Ceret, Lunch Box, Tempat Sendok, Tempat Sambal, Tutup Sayur Segi, Tutup Sayur Bulat, Jumbo Tras, Eskan, Thermos, Rantang, Wakul, Ompreng, Sealware, Water Jug, Baki, Rantang Catering.
 
Perlengkapan Dapur:
Wajan Alumunium, Kompor Hock, Panci, Kuali, Priuk, Pisau , Rice Cooker, Mixer, Magic Com, Blender, Magic Jar, Rice Bucket, Tudung Saji, Tempat Nasi, Dandang, Oven, Serbet, Industri Krat, Rak Piring, Tampa, Nampan, Niru, Baki, Erus, Eros, Entong, Sutil, Kitchen Set, Panggangan, Sumbu Kompor, Pressure Cooker
 
Perlengkapan Kamar Mandi:
Tempat Sabun, Bak Bayi, Ember, Timba, Baskom, Waskom, Tong Air, Gayung, Kaca Pretty, Gentong, Jirigen.
 
Perlengkapan Kamar:
Gantungan Baju, Hanger, Jepit Baju.
 
Perlengkapan Rumah Tangga:
Keranjang Pakaian, Rak Sepatu, Keranjang Sampah, Pot Bunga, Kursi Taman, Kursi Anak, Kursi Makan, Kursi Bakso, Celengan, Tikar, Kemucing, Container, Bola, Big Boxer, Saringan, Tandon.
 
  ","
              surabaya            ",surabaya,Jawa Timur,+62 813-3135-1580,None,None
CV. Karya Sejati,"
                                    PREMIUM GOLD
                                ",Box Penyimpanan & Pallet,"
              Dengan hormat, Bersama ini kami Cv. Karya Sejati yg berdomisili di Surabaya Jawa Timur, bergerak di bidang penyediaan General Suplier Pabrik seperti spare parts, peralatan tehnik, plate besi pipa besi dan \ pallet plastik, baru and bekas . Straping Band. Serta Freight Forwarding , dokument export import angkutan dalam PETI KEMAS / KONTAINER. Demikian penawaran ini kami sampaikan. Atas perhatian dan hp 081336355399 atau email karyasejati@live.comkerjasamanya kami mengucapkan terimakasih. Hormat Kami. Asep.            ","
              jl.taman pondok jati df 17Sepanjang - Sidoarjo081336355399            ",surabaya,Jawa Timur,+62 813-3635-5399,None,None
COLOSSAL ART INDONESIA,"
                                    PREMIUM GOLD
                                ",Box Penyimpanan & Pallet,"
CV. Colossal Art Indonesia
merupakan perusahaan kontraktor yang bergerak khusus pada design dan produksi Pekerjaan Kayu, Metal, Fiber, dan Kriya untuk menunjang skup proyek Interior ‚Äì Arsitektur, Pameran ‚Äì Eksebisi, Dekorasi, Fiber Modeling, Advertising, dan General Contractor. Dengan Sistem manajemen ter-integrasi dan terancana serta di tunjang dengan tenaga ahli di bidangnya pada tiap - tiap workshop produksi.
WORKSHOP PRODUKSI 
Untuk memastikan ketepatan delivery aplikasi konsep design, mulai tahun 2008 Colossal Art Indonesia membangun beberapa workshop independent yang terus berkembang yang khusus menangani aplikasi produksi proyek Interior ‚Äì Arsitektur, Pameran ‚Äì Eksebisi, Dekorasi, Fiber Modeling, Advertising, dan General Contractor. Dengan adanya supply chain management yang terintegrasi di harapkan dapat menghasilkan sebuah produk yang berkualitas dan harga yang bersaing sehingga menghasilkan Competitive Advantage yang durable.
Colossal Art Indonesia memiliki 4 workshop yang khusus menangani spesifikasi pekerjaan yang berbeda, yaitu :
1. Workshop Khusus Pekerjaan Kayu 
Workshop independent milik sendiri yang khusus menangani semua pekerjaan kayu, multiplek, MDF, PB, IB dan pekerjaan kayu lainnya, mulai dari fabrikasi hingga finishing ( HPL, Vinyl, Duco, Melamic, Digital Printing) dikerjakan di workshop ini. Di dukung dengan tenaga ‚Äì tenaga ahli di bidangnya dan peralatan yang memadai dan fasilitas gudang yang mencukupi sehingga di harapkan dapat mengaplikasikan design untuk produk kayu yang maksimal. Workshop ini untuk mensuport proyek Interior ‚Äì Arsitektur, Pameran ‚Äì Eksebisi, Dekorasi, Fiber Modeling, Advertising, dan General Contractor.
2. Workshop Khusus Pekerjaan Metal 
Workshop independent milik sendiri yang khusus menangani semua pekerjaan Besi, Stainless, Aluminium, ACP, Trust dan pekerjaan metal lainnya, mulai dari fabrikasi ( Cutting, Welding, Cor, Bubut, dll) hingga finishing ( Coating Powder, Spry coating, dll) dikerjakan di workshop ini. Di dukung dengan tenaga ‚Äì tenaga ahli di bidangnya dan peralatan yang memadai dan fasilitas gudang yang mencukupi sehingga di harapkan dapat mengaplikasikan design untuk produk metal yang maksimal. Workshop ini untuk mensuport proyek Interior ‚Äì Arsitektur, Pameran ‚Äì Eksebisi, Dekorasi, Fiber Modeling, Advertising, dan General Contractor.
3. Workshop Khusus Pekerjaan Fiber, Kaca dan Acrylic
Workshop independent milik sendiri yang khusus menangani semua pekerjaan Fiber, Kaca dan Acrylic, mulai dari fabrikasi & Modeling hingga finishing ( Cutting Laser, Emboss, Polin, Bevel, Gravir, dll) dikerjakan di workshop ini. Di dukung dengan tenaga ‚Äì tenaga ahli di bidangnya dan peralatan yang memadai dan fasilitas gudang yang mencukupi sehingga di harapkan dapat mengaplikasikan design untuk produk metal yang maksimal. Workshop ini untuk mensuport proyek Interior ‚Äì Arsitektur, Pameran ‚Äì Eksebisi, Dekorasi, Fiber Modeling, Advertising, dan General Contractor.
4. Workshop Khusus Pekerjaan Furnishing & Kriya 
Workshop independent milik sendiri yang khusus menangani semua pekerjaan Furnishing mulai dari Steyrofoam, kain, kulit, Corrugated, Baloon, craft, foam, dacron dikerjakan di workshop ini. Di dukung dengan tenaga ‚Äì tenaga ahli di bidangnya dan peralatan yang memadai dan fasilitas gudang yang mencukupi sehingga di harapkan dapat mengaplikasikan design untuk produk furnishing yang maksimal. Workshop ini untuk mensuport proyek Interior ‚Äì Arsitektur, Pameran ‚Äì Eksebisi, Dekorasi, dan General Contractor.
Dengan memiliki workshop produksi sendiri kami dapat memastikan kualitasnya. Kami sudah berdedikasi sejak 2008 menjadi sub kontraktor dari berbagai mitra konsultan interior dan arsitektur ternama di berbagai daerah di indonesia. Kami akan berikan solusi terbaik agar dapat bermanfaat bagi perkembangan dan kemajuan bersama. ","
              Jln Gunung Muria No.6 16/07 Krembung            ",Sidoarjo,Jawa Timur,+62 822-4005-0012,+62 822-3305-0020,None
PT. SAMUDERA SARANA LOGISTIK CABANG SURABAYA,"
                                    PREMIUM GOLD
                                ",Box Penyimpanan & Pallet,"
Kami adalah PT Samudera Sarana Logistik Surabaya anak perusahaan Cabang PT. Samudera Indonesia Group, Tbk. Kami telah memiliki pengalaman sejak tahun 1980-an dan didirikan secara resmi pada 1991 Bisnis utama kami adalah; - Kontainer Depot - Modifikasi Kontainer Bekas - Maintenance and Repair Container - Reefer ServiceKami menawarkan modifikasi kontainer yang dibuat oleh tim profesional dan berpengalaman di bidangnya. Definisi Modifikasi Kontainer ( Portacamp) : Kontainer Office atau PortaCamp adalah sebuah bangunan yang dirancang dan dibangun untuk menjadi bergerak daripada terletak secara permanen. Bangunan portabel dapat di buat sesuai kebutuhan serta dapat dipindahkan atupun digunakan di kemudian hari.Kelebihan portacamp: - Perumahan permanen / sementara (tidak perlu IMB)- Sebagai bangunan kantor sementara - Sebagai kantin atau kafetaria hanya dengan ruang kecil yang diperlukan - Dapat dipindahkan atau dikirimkan seluruh Indonesia Produk Modifikasi Kontainer kami: Ruangan kantor, kamar Medis, Lounge, Kitchen, Canteen, Cold Storage, Laundry, Kamar Mandi, Kamar Tidur, Toilet, Gudang, Chiller & Frozen, Isotank, 10 ft dry dan 10 ft reefer dan sebagainya sesuai permintaan dari customer Pelanggan kami: - PT. Freeport Indonesia - PT. Medco Geothermal Indonesia ( Medco Energy) - PT. McConnell Dowell Indonesia - PT. Antareja Resources - PT. Sclumberger Geophisics Nusantara - PT. Elnusa - PT. Apexindo Pratama Duta - PT. Alam Bersemi Sentosa - PT. Sapta Indra Sejati - PT. Thiess Indonesia - PT. Sodexo Indonesia Dll  ","
              Jalan Greges Jaya III No. 2-4-6 Greges            ",Surabaya,Jawa Timur,+62 812-1388-6878,+62 821-2568-0449,None
safewaygroup,"
                                    PREMIUM GOLD
                                ",Box Penyimpanan & Pallet,"
              Safeway memiliki pengalaman 13 tahun dalam bidang produksi palet kayu, hingga saat ini Safeway masih terus mengembangkan fasilitas yang dimiliki agar dapat memenuhi kebutuhan kuantitas dari pelanggan tanpa mengurangi kualitas produk. Pabrik produksi Safeway berada di dekat pusat industri seperti di Karawang, Cibitung, Surabaya, Semarang sehingga memudahkan pengiriman barang kepada pelanggan. Palet dari Safeway memiliki kualitas yang baik. Dalam proses penggerjaannya diawasi oleh staff yang telah berpengalaman dan terlatih. Safeway dilengkapi dengan perlengkapan yang menunjang dalam membuat dan mengirimkan tepat waktu dan sesuai anggaran, semua pesanan kebutuhan anda. Palet kayu Safeway melampaui standard dan memenuhi persyaratan pelayaran international. Komitmen Safeway adalah memberikan layanan terbaik untuk kepuasan pelanggan kami. Safeway menyediakan berbagai macam spesifikasi palet untuk setiap industri, selain palet kayu juga tersedia palet plastik dan palet besi. Safeway juga menyediakan pallet kayu custom yang dapat dipesan untuk memenuhi kebutuhan anda.            ","
              Jalan Raya Margomulyo No. 63A Surabaya             ",Surabaya ,Jawa Timur,None,None,None
PT.Rizki Jaya Abadi Transportasi,"
                                    PREMIUM GOLD
                                ",Box Penyimpanan & Pallet,"
PERUSAHAAN JASA TRANSPORTASI TRUCKING PENGIRIMAN KE SELURUH WILAYAH INDONESIAPengiriman Barang Menggunakan COLT DIESEL, FUSO ENGKEL, TRONTON, TRAILER, LOW BED, SELF LOADER, DOLLY, CONTAINER, KAPAL TONGKANG, KAPAL LOS CARGO & KAPAL LCT? Melalui Darat dan Laut? KAMI SOLUSINYA !!! Kami melayani pengiriman barang partai besar maupun kecil ke seluruh wilayah IndonesiaVISI Perusahaan :Menjadi perusahan jasa transportasi yang BERKUALITAS, BERINTEGRITAS, PROFESIONAL, UNGGUL, TERKEMUKA, TERPERCAYA dan TERDEPAN di wilayah Indonesia dalam layanan dan kinerja serta mengutamakan kepuasan pelanggant.
MISI Perusahaan :

Mengembangkan karyawan yang berkompeten dengan menciptakan lingkungan kerja yang baik untuk mendukung tercapainya kepuasan custommer
Membantu Custommer dalam pengiriman barang yang baik dan tepat waktu
Melakukan kegiatan bisnis sesuai dengan standart manajemen CV RIZKI JAYA ABADI
Meningkatkan produktifitas kerja karyawan
Mensejahterakan taraf hidup karyawan
Meningkatkan nilai perusahaan bagi para mitra bisnis
Selalu berinovasi dalam setiap perkembangan
Selalu memberikan pelayanan berkualitas yang terbaik kepada seluruh sutommer

Legalitas Perusahaan :

Nomor Pokok Wajib Pajak ( NPWP) No : 02.938.3031-603.000
Tanda Daftar Perusahaan Persekutuan Komanditer ( TDP) No : 13.17.3.60.05745 berlaku sampai dengan 14 Juli 2019
Surat Ijin Usaha Perdagangan ( SIUP) Disperindag No : 510/ 509-1067/ 404.6.2/ 2019

Beberapa wilayah besar daerah tujuan yang kami tangani adalah sebagai berikut : BALI, JAWA, JAKARTA, SUMATERA, SULAWESI DAN KALIMANTAN Pengiriman VIA ‚Äì Kapal Los Cargo : BANJARMASIN, BALIKPAPAN, SAMPIT, KUMAI, SAMARINDA, BONTANG, MAKASAR, KUPANG DAN IRIAN JAYA. Untuk Informasi lebih lanjut dan informasi harga dapat langsung menghubungi : CS      : 031-8985294 / 031-8987289 HP      : 0812357777014Email : rizkijayaabadi@ymail.com ","
              Jalan Raya By Pass Krian KM 30 Ruko Keraton Residence Superblock No 9 Krian, Sidoarjo, Jawa Timur, Indonesia            ",Sidoarjo,Jawa Timur,+62 813-5777-7014,+62 813-5469-7558,+62 812-1782-9942
CV. BERKAT JAYA ABADI,"
                                    PREMIUM GOLD
                                ",Box Penyimpanan & Pallet,"
              Mengambil respon ini sebagai moto, PT. Berkat Jaya Abadi, didirikan di surabaya pada tahun 2001 dengan tujuan untuk berkontribusi pada proses modernisasi, khususnya dalam teknologi ilmiah di indonesia , dan berfungsi sebagai langkah awal untuk pembangunan Indonesia. Dengan kekuatan kita pada teknologi yang baik. Sumber daya manusia yang berpengalaman dalam peralatan laboratorium, PT. Berkat Jaya Abadi menyediakan berbagai layanan kepada Pelanggan kami termasuk konsultasi, riset, instalasi dan layanan purna jual. yang selalu berkesinambungan, Kami unggul dalam memasok alat-alat laboratorium untuk perdagangan yang di terima baik oleh pihak proffesional di Indonesia. PT. Berkat Jaya Abadi menyediakan peralatan di bidang Biomolecular, Bahan Kimia, Surface Aerator, Alat-alat Laboratorium. kita tidak hanya akan membantu mereka untuk membangun laboratorium yang sesuai dengan standar GLP. Tetapi juga membantu perusahaan-perusahaan produksi untuk mendapatkan keuntungan untuk mencapai standar GMP kombinasi peralatan laboratorium canggih dan produk yang tahu bagaimana menjadi dasar penting layanan terbaik yang kami berikan. Pasar Indonesia memiliki potensi masa depan yang cerah di bidang peralatan laboratorium. Sebuah perusahaan yang memiliki Visi dan Misi, seperti Berkat Jaya Abadi, tidak akan puas dengan prestasi yang ada. Bisnis yang kita lakukan adalah Bisnis sciense. Ini juga merupakan tugas yang serius akan menguntungkan negara-negara yang terlibat dalam jangka yang sangat panjang di masa depan. Setiap staf di PT. Berkat Jaya Abadi adalah melaksanakan misi meningkatkan teknologi. Kami sepenuhnya berkomitmen untuk berkontribusi untuk membangun jembatan perdagangan dan teknologi antara Indonesia dan Dunia            ","
              Jl.Wonorejo Permai Timur VI no. 6 (Nirwana Eksekutif Blok EE -111            ",Surabaya,Jawa Timur,+62 813-3044-2375,None,None
TEKNIK MANDIRI,"
PREMIUM BLUE ONYX
",Box Penyimpanan & Pallet,"
Teknik Mandiri adalah sebuah perusahaan yang khusus memfokuskan diri dalam memenuhi kebutuhan industri,Rumah tangga,Proyek dan Automotive di bidang produk mechanical, electrical,handtools,welding,safety,dan Lifting pneumatic Equipment  Visi: Menjadi yang terbaik di antara yang terbaik.  Misi: Menjadikan Teknik Mandiri sebagai partner Industry, Rumah Tangga, Proyek dan Automotive dalam menghadapi tantangan dan menyongsong kesempurnaan dimasa depan.  Kami bekerja keras dan selalu melakukan yang terbaik untuk melayani pelanggan-pelanggan dimanapun dan kapanpun dalam memberikan informasi yang akurat dan solusi yang tepat pada saat dibutuhkan.Info Produk & Order Hubungi :Phone : 021-5644267    Mobile : 0812 1214 3333( Call/WA)Email : teknikmandiriindo@gmail.com ","
              Jl. Setia Warga 8 No.40 Rt 10/11 Grogol Petamburan, Jakarta Barat            ",Jakarta Barat,DKI Jakarta,+62 812-1214-3333,None,None
PT.SINARDO PRATAMA,"
                                    PREMIUM GOLD
                                ",Box Penyimpanan & Pallet,"
PT. SINARDO PRATAMA sebagai stockies dan distributor untuk produk material steel bagi perindustrian & project di Indonesia. Kami spesialis dalam mensupport ( mensuply ) kebutuhan proyek ‚Äì proyek industri seperti : Oil & Gas Pipelines Konstruksi,Pembangkit Listrik ( Power Plants )  Pembuatan Kapal ( Ship Building )  Boiler, Pulp & Paper, Chemical, Dll. Adapun material yang dapat kami suply sebagai berikut : * PIPA : Carbon steel, Galvanis ( Welded & Seamless ) API 5L, A 106 Gr. B, A 53 Gr. A/ A 53 Gr. B, Gr.X 52 Size : ¬Ω ‚Äù ‚Äì 32‚Äù Spiral Welded Steel Line Pipe Size : ¬Ω ‚Äù ‚Äì 120‚Äù Stainless Steel Pipe SUS 304, 304L, 316, 316L Size : ¬Ω ‚Äù ‚Äì 24‚Äù Alloy Steel Pipe A333 Gr. 6, A335 P5, P11, P12 Tubing SS 316, 316L * Fitting : Elbow Tee Reducer Concentric & Eccentric Union Coupling Half Coupling Hex Plug Thredolet Weldolet Sokolet Dll Sch 10, 20, 30, 40, 60, 80, 120, 160 Class # 150, # 1000, # 2000, # 3000, # 6000 Carbon Steel : ASTM/ ASME SA234 WPB, WPC, WPL6, A 105 Alloy steel: ASTM/ ASME SA234 WP5, WP9, WP11, WP12, WP22, WP91 * Flange Weld neck Flange Slip On Flange Blind Flange Socket Weld Flange Lap Joint Class # 150, # 300, # 600, # 900, # 1500, # 2500, JIS 10K, PN 10, 16 Dll Matr‚Äô ASTM A105 ASTM A182 304, 304L, 316, 316L ASTM A350 LF 2 * Valve Gate Valve Glove Valve Check Valve Ball Valve Butterfly Valve Knife Gate Valve Strayner Type : ANSI, JIS, PN Matr‚Äô A 105, A216WCB, A 350 LF2, SS 304, 304L, 316, 316L Brand : Kitz, Tomoe, Toyo, GLT, James Bury * Steel Construction H ‚Äì Beam IWF Steel Angle Assental Plate Channel U CNP Matr‚Äô SS 400, A36, A 516 Gr. 70, SS 202, SS 304, 304L, SS316, 316L Pressure Vessel, Boiler Plate Dll RUBBER HOSE INDUSTRIAL, FLEXIBLE METALIC HOSE, HIDRAULIC HOSE, FLEXIBLE RUBBER HOSE, CAM LOCK, QUICK COUPLING, FIRE HOSE, DAN PRODUK-PRODUK STEEL DAN HARDWARE LAINNYA Untuk kepuasan client, kami PT. SINARDO PRATAMA memberikan pelayanan maksimal berupa pengiriman material untuk wilayah JABODETABEK dengan tepat waktu tanpa biaya tambahan, dan selalu siap melakukan Quality Test untuk semua produk yang ditawarkan serta dapat melengkapi Sertifikat produk yang di jual.

PT. SINARDO PRATAMA
Jl. Gunung Sahari Selatan 
Komp. Mega Glodok Kemayoran Lt. GF Blok A11 No.2
Kemayoran, Jakarta Pusat
Telp     : 021 2913 5143
Fax      : 021 2913 5744
Marketing: Togi Rahmad
Mobile : 082122129193
Email     togirahmad@yahoo.co.id
Marketing:Martha
Mobile  :081385590755
Email    marthamanalu71@gmail.com

 
  ","
              Jl. Gunung Sahari Selatan Komp. Mega Glodok Kemayoran Lt. GF Blok A10 No.11Kemayoran, Jakarta PusatMartha Hp : 081385590755Togi Hp : 082122129193 ",Jakarta Pusat,DKI Jakarta,+62 821-2212-9193,None,None
PT Yokatta Makmur Perkasa,"
                                    PREMIUM GOLD
                                ",Box Penyimpanan & Pallet,"
              YTH adalah sebuah merk yg di kembangkan oleh PT. Yokatta Makmur Perkasa... Yang dimana perusahan yang memproduksi aneka macam peralatan plastik dan peralatan lain nya,semua pruduk nya 100% made in indonesia... Selain di bidang perplastikan PT.Yokatta Makmur Perkasa Group merintis karir di mulai produksi spartpart motor dengan lebel YTH dimana produk ini sudah beredar di seluruh indonesia. maka dari itu dengan keberhasilan di bidang sparepartnya,  PT. Yokatta Makmur Perkasa Group mulai mengembangkan hasil Produksinya dengan aneka plastik  dan melebelkan hasil produksi nya dengan YTH ,perusahaan ini sudah mempelajari pasaran yg di butuh kan konsumen sehingga dengan memberanikan dan yakin pada produksi nya dengan YTH.  berikut hasil produksi yang di kembangkan PT.Yokatta Makmur Perkasa Group,dan kami akan selalu mengembang hasil produksi demi memenuhi segala kebutuhan konsumen.  Kami PT. Yokatta memproduksi keranjang/kerambah ayam boiler sebagai keranjang angkut ayam dengan design dan lebel YTH memiliki 2 grade dan 2 ukuran,Keranjang buah yg sangat cocok untuk para agen buah supplier buah untuk menjaga buah2 agar rapih dan selalu dengan kondisi baik memiliki 2 ukuran dan 2 grade, Keranjan industri/multifungsi yg tidak kalah memiliki beraneka ragam ukuran dan memiliki 2 grade untuk menyesuaikan kebutuhan industri/usaha anda....CP 085281377777Email yokatta.mp38@gmail.comwww.yokattayth.com            ","
              Jl. Peta Selatan Ruko Indah 1, Blok B5 , kalideres jakarta barat 11840            ",Jakarta Barat,DKI Jakarta,+62 852-8137-7777,None,None
PT. MITRA ASIA PACKING ( MAP),"
                                    PREMIUM GOLD
                                ",Box Penyimpanan & Pallet,"
              PT. Mitra Asia PackingAdalah perusahaan nasional produsen kemasan terbuat dari kayu seperti pallet, peti, gulungan kabel, dan balok baik pengganjal komoditi eksport yang telah mendapat mendapat akreditasi ISPM#15 dari Barantan kementrian Pertanian Republik Indonesia.Kemasan tersebut telah mendapat perlakuan HT (Heat treatment) atau MB (Fumigasi Methil Bromida) untuk pengganjal barang ekspor.Visi : Menjadi perusahaan yang handal dan unggul dibidang perdagangan kemasan kayu dan jasa          sertifikasi (ISPM#15 ID-042)Misi : Memberikan Pelayanan terbaik Jasa Serifikasi dan pengadaan kemasan kayu yang                       berkualitas demi memenuhi kebutuhan dan kepuasan pelanggan.Kelebihan PT. MITRA ASIA PACKING- Dikelola oleh tenaga yang berpengalaman- Workshop dan Fasilitas milik sendiri- Memiliki oven pengiring kayu 2 chamberSalamA. Chaerul SalehDirekturHp. 0811925822email : chaerul@mitraasiapacking.co.id           chaerul@mitrapacking.com            ","
              Gedung KPIJl. Tegal Parang Utara No. 3 Mampang             ",Jakarta Selatan,DKI Jakarta,+62 813-1033-4178,+62 811-925-822,None
