Name,Membership,Category,Description,Address,City,Province,telp1,telp2,telp3
SYAKIILA KONVEKSI BANDUNG,"
                                    PREMIUM GOLD
                                ",Umroh & Haji,"
PRODUKSI MENGGUNAKAN BAHAN SESUAI PESANAN DAN KEBUTUHAN, PROSES JAHIT RAPI DI SETIK / RANTE, PROSES BORDIR KOMPUTER / SABLON, PROSES PACKING STIM DAN PLASTIK, Konveksi Produsen, Vendor Konveksi, Pabrik Konveksi, Konveksi Produksi, Konveksi Pembuatan, Jasa Konveksi, Pusat Konveksi, Tempat Konveksi, Konveksi Pembuatan, Beres produksi | Proses Produksi | Siap Kirim | Konveksi Bikin | Konveksi Buat | Konveksi Pesanan | Konveksi order | Pakaian Media Promosi, Reuni, Family Gathering, Dan Pakaian Media Lainnya . KAOS PRODUKSI | PRODUKSI KAOS | KAOS BANDUNG | KAOS MURAH | KAOS OBLONG | KAOS SABLON | SABLON KAOS | KAOS BORDIR | KAOS POLOS | KAOS T-SHIRT | KAOS RAGLAN | KAOS RAGLAN LENGAN PANJANG | KAOS RAGLAN LENGAN 3/4 | KAOS RAGLAN LENGAN PENDEK | KAOS RAGLAN SABLON | KAOS EVENT | KAOS PROMOSI | KAOS PARTAI | KAOS PILKADA | KAOS KAMPANYE | KOSTUM TIM | BIKIN KAOS | KAOS POLO | KAOS KERAH | WANGKY | POLO SHIRT | PRODUKSI POLO SHIRT | POLO SHIRT BORDIR | POLO SHIRT SABLON | POLO SHIRT KANTOR | POLO SHIRT GATHERING | POLO SHIRT SERAGAM | POLO SHIRT KARYAWAN | POLO SHIRT EVENT | BAJU KERAH | BAJU KAOS BERKERAH | BAJU KAOS POLO | POLO SHIRT MURAH | KAOS POLO | KAOS POLO MURAH Selain Itu Kami Juga Memproduksi Jenis Pakaian Lain Seperti : JAKET | JAKET KOMUNITAS | JAKET KELAS | JAKET TRAINING | JAKET KAMPUS | JAKET BOMBER | JAKET BASEBALL | JAKET GUNUNG | JAKET PARASUT | JAKET HOODIE | JAKET ANGKATAN | JAKET MURAH | JAKET LEVIS | JAKET BORDIR | JAKET SABLON | JAKET PARKA | JAS | JAS ALMAMATER | JAS SEKOLAH | JASKET | JAS HUJAN | JAS HUJAN MURAH | JAS HUJAN BANDUNG | ROMPI | ROMPI PROMOSI | ROMPI KAMPANYE | ROMPI SAFETY | ROMPI PELAMPUNG | ROMPI PROYEK | ROMPI MURAH | WEARPACK | WEARPACK TAMBANG | WEARPACK PROYEK | WEARPACK SEKOLAH | WEARPACK TERUSAN | WEARPACK SETELAN | WEARPACK MURAH | COVERALL | SWEATER | SWEATER KELAS | SWEATER DISTRO | SWEATER KOMUNITAS | SWEATER TIM | SWEATER SABLON | SWEATER BORDIR | SWEATER MURAH | SWEATER JAKET | JAKET SWEATER | SWEATER HOODIE | SWEATER SAKU DORAEMON | KEMEJA | KEMEJA MURAH | KEMEJA PDL | KEMEJA PDH | KEMEJA LAPANGAN | KEMEJA PROYEK | KEMEJA SAFETY | KEMEJA KELAS | KEMEJA KAMPUS | KEMEJA KANTOR | KEMEJA SERAGAM | KEMEJA DENIM | KEMJA BORDIR | KEMEJA SEKOLAH | KEMEJA OSIS | TOPI | TOPI MURAH | TOPI BASEBALL | TOPI RIMBA | TOPI BORDIR | TOPI SABLON | TOPI BANDUNG | TAS | TAS SEKOLAH | TAS RANSEL | TAS SELEMPANG | TAS TRAVEL BAG | TAS UMROH DAN HAJI |  TAS GOODIE BAG | TAS MURAH | TRAINING | JAKET TRAINING | TRAININGSPACK | CELANA TRAINING | CELANA PANJANG | PAYUNG | PAYUNG GLOP | PAYUNG LIPAT | TOGA | BAJU TOGA | JUBAH TOGA | dan produk garmen lainnya.Kami menawarkan pembuatan pakaian sebagai media promosi dan media lainnya yang anda butuhkan dengan berbagai pilihan model, bahan, dan teknik pembuatannya. Dalam pengerjaan produk, kami menyesuaikan bahan sesuai dengan keinginan anda. Biasanya dalam satu jenis produk terdapat beberapa macam pilihan model, bahan, dan teknik pembuatan yang akan menentukan harga dan kualitas bahan itu sendiri. Harga ekonomis dan kualitas yang ekslusif sudah menjadi prinsip dan tanggung jawab kami sebagai mitra kerja anda. Semoga Layanan Online ini menjadi sebuah solusi Untuk mempermudah transaksi dan Mempersempit jarak antara kami kepada Konsumen dan calon konsumen yang Berada di daerah yang cukup jauh Adalah tugas kami untuk memberikan hasil terbaik demi memberikan kepuasan kepada klien-klien kami sampai saat ini.Untuk Info Pemesanan / Order:Lebih Lanjut Dapat Menghubungi kontak Kami Di Nomor :
SYAHRIAL 081394416148 TLP/WAIG : rial_syakiilakonveksiEmail: syakiila_ tshirt@yahoo.comPASIRKALIKI BARAT NO.08A RT.07 RW.15KELURAHAN SADANG SERANG KOTA BANDUNG, BANDUNG
KAMI BERHARAP, SEMOGA  MEDIA ONLINE SYAKIILA KONVEKSI BANDUNG DAPAT MENJADI MITRA KERJA SAMA DAN  SARANA UTK MEMPERMUDAH Bapak/ Ibu/ Anda/ Saudara . UNTUK PEMESANAN / ORDER, SABLON ATAU BORDIR. DALAM KOTA BAHKAN LUAR KOTA BANDUNG SALAM SUKSES SELALU ","
              PASIRKALIKI BARAT NO.08A RT.07, RW.15 KELURAHAN SADANG SERANG KOTA BANDUNG             ",BANDUNG,Jawa Barat,+62 813-9441-6148,None,None
Karoseri Kenka,"
                                    PREMIUM GOLD
                                ",Umroh & Haji,"
Info Untuk Pembuatan Mobil:
Karoseri Box Pendingin Freezer,
Karoseri Box Pendingin Chiller, 
Karoseri Box Pendingin Frozen, 
Karoseri Box Cold Storage, 
Karoseri Box Refrigeration, 
Karoseri Box Cool Storage, 
Karoseri Box Fiber, 
Karoseri Box Cold Storage, 
aroseri Mobil Toko, 
Karoseri Food Truck, 
Karoseri Wingbox, 
Karoseri Box Besi, 
Karoseri Box Alumunium, 
Karoseri Self Loader, 
Karoseri Mixer, 
Karoseri Trailer, 
Karoseri Bak Besi, 
Karoseri Tangki, 
Karoseri Vacuum Tank .. dll
 
Hotline : 0812.951.888.53 / 0812.9696.3488
 
Note :
 
1.Harga yang tertera adalah batas minimum
2.Batas Minimum di tentukan dari unit yang digunakan ( Pick up - Medium Truck - Truck Besar )
3.Untuk type khusus, harga juga di tentukan dari perlengkapan yg di inginkan ","
              Jl M T Haryono Km 6,5 no 8 A 
Kelurahan Taman sari
Kecamatan Setu Bekasi            ",Bekasi,Jawa Barat,+62 812-9518-8853,None,None
MOHAWK & GLEES BAG,"
                                    PREMIUM GOLD
                                ",Umroh & Haji,"
              Mohawk & Glees Bag menyediakan berbagai macam tas yang sesuai dengan kebutuhan pecinta gadget maupun tas wanita. Mohawk Bag menyediakan : - Tas Laptop - Tas Gadget - Backpack - Tas Kamera - Purse Hardisk - dan tas gadget lainnya Glees Bag menyediakan berbagai tas fashion dan wanita seperti : - Tas Fashion - Tas Wanita - Clutch - Tas selempang - Pouch - Purse - Tas Wanita - Tas Fashion            ","
              Papan Kencana 1 No 51A            ",Bandung,Jawa Barat,+62 811-2283-008,None,None
