Name,Membership,Category,Description,Address,City,Province,telp1,telp2,telp3
CV. JAYA MAKMUR ABADI,"
PREMIUM RUBY
",Kemasan Kaleng,"
CV. Jaya Makmur Abadi, perusahaan yang bergerak dibidang perdagangan umum Material Konstruksi & material lainnya, dan telah berpengalaman lebih dari 10 Tahun. 
Berdiri sejak Tahun 2005 dengan nama Jaya Makmur Abadi, dan diresmikan pada tahun 2010 oleh notaris Edward Agustin menjadi CV. Jaya Makmur Abadi. 
CV. Jaya Makmur Abadi bekerja sama dengan beberapa Pabrik & Distributor Material dan hingga kini sudah melayani lebih dari 900 pelanggan, yang terdiri dari pelanggan pribadi/perusahaan baik dari dalam & luar daerah di Indonesia. 
 
Visi & Misi : 


Menciptakan sistem perusahaan yang sistematis & fleksibel dalam hal pelayanan.
Menciptakan lapangan kerja & Sumber daya Manusia yang terampil, profesional& handal. 
Menciptakan pelayanan & kerjasama yang berkesinambungan dengan pelanggan.
Menjadi perusahaan multinasional yang dapat memberi sumbangsih terhadap perekonomian di Indonesia. 

CV. Jaya Makmur Abadi.General Supplier & Trading : Besi Beton & Baja. Rangka Baja Ringan & Atapnya.Aluminium Kusen Pintu & Jendela.Plywood & Kayu lainnya.Pipa Paralon & Pipa Lainnya. 
Keramik & Granit.Perlengkapan Sanitary. Aksesories Pintu & Jendela.
Segala jenis Kaca Bangunan.Aluminium Composite Panel.Kawat Baja & Besi. 
Karpet Import & VINYL. Kusen, Pintu & Jendela Kayu. Windows Fashion.Mekanikal Elektrikal.Meubelair Kantor & Sekolah.
Pipa HDPE.Pipa Air Panas.HPL.Cat.Pipa Gorong-Gorong.Plat Kapal.Dll.
Untuk melengkapi kebutuhan pelanggan, kami juga menyediakan Jasa Kontraktor, Jasa Arsitek & Jasa Konsultan.
Untuk informasi lebih jelas, dapat menghubungi Marketing kami.
Terima kasih. www.jayamakmurabadi.co.id
CV. Jaya Makmur Abadi 
Jl. Brigjend Katamso No. 2 Samarinda. Kalimantan Timur 75117.Telp : 0541-7802915Fax. : 0541-766315Email : sales@jayamakmurabadi.co.id
 

 
 ","
              Head Office :Jl. Brigjend Katamso No. 2. Samarinda. Kalimantan Timur ",Samarinda ,Kalimantan Timur,+62 823-5215-3244,+62 813-4942-8940,+62 852-4900-5619
RAJAWALI MITRA SEGEL,"
                                    PREMIUM GOLD
                                ",Kemasan Kaleng,"
Rajawali Mitra Segel adalah sebuah perusahaan yang berlokasi di Tangerang, Indonesia. Perusahaan kami menyediakan berbagai jenis segel drum besi / plastik (Steel / Plastic Cap-Seal), ring plastik (Plastic O-Ring), timah dan kawat segel (Tin and Wire Seal), alat segel drum besi (Tooling / Crimping Tool), tutup drum besi (Steel Drum Plug / Closures) dan alat pembuka tutup drum (Drum Plug Opener).Kami juga melayani jasa sablon atau emboss segel drum besi dengan LOGO perusahaan Anda.Untuk informasi lebih lanjut mengenai produk kami, silahkan hubungi kami di nomor-nomor berikut. Office: (021) - 5400 247 / 5400 588 Fax: (021) - 5400 764 Mobile:  0819 3298 9851 (Bp. Risfan) ","
              Ruko Taman Mahkota Blok A2 No. 29, Jl. Hussein Sastranegara
Kel. Benda, Kec. Benda, Tangerang, Indonesia            ",Tangerang,Banten,+62 819-3298-9851,None,None
PT. DENKO WAHANA SAKTI,"
PREMIUM BLUE ONYX
",Kemasan Kaleng,"
              Welcome to PT Denko Wahana Sakti PT Denko Wahana Sakti didirikan pada Bulan November Tahun 1992. Berawal dari sebuah kantor di daerah Ketapang, Jakarta Pusat yang bergerak dalam bisnis penjualan Turbin Ventilator, Castor Wheel serta beberapa produk Material Handling PT Denko Wahana Sakti sebagai Holding Company dari DENKO GROUP melakukan ekspansi dengan menambah bidang bisnis penjualan yang baru dan membuka cabang yang di Kota Surabaya pada Tahun 1994, kemudian di Kota Bandung pada Tahun 1997 dengan nama PT Denko Wahana Prima. Dan PT. Denko Wahana Sakti Semarang berdiri pada tanggal 1 Mei 2008 untuk memenuhi kebutuhan produk-produk denko di area Jawa Tengah dan Yogyakarta Divisi Belden PT Denko Wahana Sakti merupakan Distributor berbagai jenis kabel dengan brand Belden yang merupakan brand terkemuka di pasar kabel saat ini. Kami menjual Kabel UTP Belden, rs485,rj45 dan rs232 Belden, Coaxial rg8 dan rg11, fiber optic belden, Patch Cord, Patch Panel, modular cat6 dan Face Plate dengan kantor di Jakarta, Surabaya dan Semarang ( melayani area Jawa Tengah dan daerah istimewa Yogyakarta ) Divisi Material Handling Kami juga menjual berbagai produk material handling seperti Hand Pallet Truck, Manual stacker, full electric stacker, electric pallet truck, aluminium work platform, drum porter, hand truck prestar, drum handler, drum tipper, drum gripper, trolly 3 susun, hand truck, pallet truck with scale, mini forklift, vertical lift, Hand truck, scissor lift, hand stacker full electric, hand stacker manual, hand drum lift, hand drum lift semi electric, lift table, trolly, tangga elektrik, turbine ventilator, semi electric stacker, hand pallet, tangga electric, hand stacker semi electric, forklift, pallet mesh, forklift, reach truck, pallet mover,electric tractor, towing dan hand pallet Divisi Dalton Tools Kami adalah distributor chainsaw, hand tool, Ladder, jack equipment, dustbin, gergaji pohon, mesin las, genset tiger, generator spakins, kunci pas, gergaji kayu, air compressor, welding machine, tang, mesin las inverter, kunci ring, engine water pump, mesin las, dongkrak botol, water pump, generator, genset , tong sampah, dongkrak buaya, bootle jack, floor jack, jack stand dan tangga Divisi Chastor Wheel Kami juga membantu anda untuk menyediakan roda trolley / chastor wheel berbagai tipe untuk kebutuhan industrial serta kebutuhan untuk roda scafolding, bed rumah sakit, troley supermarket, troley bandara dan laini-lainnya. Merk-merk terbaik yang kami sediakan diantara, Roda Nansin, Nippon, Star Rollen, Shengteng / STG, Shenpay, Sumo, Helver, Global dan Roda Triple-S. Divisi Turbin Ventilator Tersedia juga ditempat kami alat sirkulasi udara / turbin ventilator merk DENKO yang akan membantu mengeluarkan udara panas, kelembaban dan bau tidak sedap pada ruangan pabrik, ruangan produksi dan ruangan rumah anda. Menjadikan udara didalam ruangan pabrik, gudang dan rumah anda menjadi lebih nyaman dan segar. Kami telah membangun bisnis jangka panjang dengan pelanggan kami diseluruh Indonesia, jika anda tertarik dengan beberapa model dan tipe produk yang kami tawarkan didalam website ini, silahkan hubungi kami. Kami siap memberikan layanan konsultasi kepada anda, untuk memilih produk teknik berkualitas TERBAIK dengan harga yang TERMURAH dan tentunya bisa memenuhi kebutuhan anda saat ini. Terimakasih. PT DENKO WAHANA SAKTI Contact Person : Helmi Efendi, ST Office : Jalan Banjardowo Tengah Blok C No 8 Genuk, Semarang 50117, Jawa Tengah INDONESIA Fax : 024-76580141 Email 1 : pt_dws_semarang@yahoo.co.id Email 2 : helmi_effendi@denko.co.id Jam Kantor : Senin - Ju'mat : 08.00 - 17.00 Cara Pembayaran : Tunai, Pembayaran tempo bisa saja dilakukan bila kami telah survey ke tempat anda dan semuanya memenuhi kriteria yang kami telah tetapkan.            ","
              Jalan Banjardowo Tengah - Kompleks Industri Banjardowo Blok C No 8 Genuk, Semarang, Jawa Tengah INDONESIA            ",Semarang,Jawa Tengah,+62 812-3592-407,None,None
UD. SABIQ JAYA DRUM,"
                                    PREMIUM GOLD
                                ",Kemasan Kaleng,"
              Kami adalah perusahaan pembuat drum aspal kapasitas 14- - 155 kg dengan mengikuti standart pertamina atau sesuai desain spesifikasi yang di inginkan customer.Spesifikasi Drum Aspal : Ketebalan Material Plat 0,6 - 0,7 mmKetinggian 85 - 87 cm Diameter Ccup/Ring 48 - 50 cmDiameter tutup 12cm atau 17cm7 - 8 kg / mengikti satuan Kilogram Kami memberikan garansi untuk kualitas drum/siap mengganti apabila ada drum aspal yang tidak sesuai standart order/terlalu tipis bahan materialnya atau bocor.Hubungi kami di :Telp : 08157778345 / 081911454330            ","
              Jalan Situnggul Desa Adiwerna RT.24 RW.05 Kecamatan Adiwerna Kabupaten Tegal 52194            ",Kabupaten Tegal,Jawa Tengah,+62 819-1145-4330,None,None
PT. ANUGRAH PUTRA KENCANA,"
PREMIUM RUBY
",Kemasan Kaleng,"
PT. Anugrah Putra Kencana adalah perusahaan yang bergerak dalam bidang perdagangan umum atau industry supply seperti : kimia industri, kimia analis, glassware ( alat-alat laboratorium ), laboratorium instrument, laboratorium equipment, furniture lab ( lemari Asam, wall bench, island bench, balance table, lemari kimia, lemari glassware ), timbangan analis, chain dan kebutuhan industry lainnya.Kami memiliki principal dari Jerman, Rusia, Korea, Japan, China, Taiwan, India, dan juga beberapa pemasok lokal yang mendukung bisnis kami sampai sekarang.PT. Anugrah Putra Kencana corporation specializes in the field of general trading / supply industries such as chemical industry, chemical analysts, laboratory glassware equipments, laboratory instruments / equipments, laboratory furniture ( Fume hood, wall benches, island benches , balance tables, chemicals storage cabinet, glassware storage cabinet ),  analytical balance and chain.We have principals from the following countries: Germany, Russia, Korea, Japan, China, Taiwan, and India, as well as local suppliers who continue in supporting our business.  ","
              Pergudangan Segitigamas Pintu 6 UKM center Jl. Samsung IIc Blok C3i            ",Bekasi,Jawa Barat,+62 821-1399-3562,+62 877-4142-8040,+62 896-0555-3944
PT. KARYA VINDO ABADI,"
                                    PREMIUM GOLD
                                ",Kemasan Kaleng,"
              PT KARYA VINDO ABADI adalah perusahaan yang bergerak pada bidang General Trading, Engineering dan Contractor. Sebagai langkah awal dari bidang usaha yang kami geluti adalah khususnya dalam bidang Engineering pada project maupun Maintenance equipment dan pipa yaitu Sand Blasting, Painting & Coating, serta Electrical and Instrumention works. Dengan dukungan tenaga tenaga ahli dan berpengalaman di bidang tersebut kami siap memberikan jasa terbaik kami pada berbagai sektor industri yaitu : ➢ Oil and Gas Plant ➢ Petrochemicals Plant ➢ Chemicals Plant ➢ Textile Plant ➢ Power Plant ➢ Pharmaceutical Plant ➢ Geothermal Plant ➢ Food & Beverage Plant ➢ Steel Mill ➢ Refineries Plant ➢ Fertilizer Plant ➢ Sugar Industry ➢ Pulp & Paper Industry Dengan kepercayaan yang diberikan, kami berharap dapat memberikan pelayanan dengan mutu yang terbaik pada perusahaan Anda. Konstruksi untuk Mechanical,Electrical dan Instrumentation ▪ Fabrikasi dan Install Cable Tray & Cable Duct. ▪ Cable pulling (HV & LV) Overhead and Underground ▪ Pemasangan Panel,SwitchGear, MCC,Lighting at Building and Plant. ▪ Grounding cable,rod,cadwel connection, lightening arrester ▪ Cable Terminasi HV/LV dan control panel/motor. ▪ Cable Test Hi-pt Test ▪ Cable Pulling dari CCR ke JB field ke equipment instrumentasi ▪ Pemasangan Panel Instrument ▪ Analyser ▪ Loop Check dan Testing ▪ Check Oil Transformer ▪ Motor Overhaul ▪ Pump Alignment ▪ Install /Uninstall Control Valve, Manual Valve ▪ Valve Recondition ▪ PSV(Safety Valve) Recondition dan Sertifikasi ▪ Install Alat (Equipment Installation)kantor pusat : Jl. Kebonsari IV No.15A, Surabayakantor cabang : Cluster Oleaster D 21, Gading Serpong, Tangerang            ","
              Jl. Kebonsari IV No.15A            ",Surabaya,Jawa Timur,+62 812-9787-9846,None,None
