Name,Membership,Category,Description,Address,City,Province,telp1,telp2,telp3
CV. JAYA MAKMUR ABADI,"
PREMIUM RUBY
",Sticker,"
CV. Jaya Makmur Abadi, perusahaan yang bergerak dibidang perdagangan umum Material Konstruksi & material lainnya, dan telah berpengalaman lebih dari 10 Tahun. 
Berdiri sejak Tahun 2005 dengan nama Jaya Makmur Abadi, dan diresmikan pada tahun 2010 oleh notaris Edward Agustin menjadi CV. Jaya Makmur Abadi. 
CV. Jaya Makmur Abadi bekerja sama dengan beberapa Pabrik & Distributor Material dan hingga kini sudah melayani lebih dari 900 pelanggan, yang terdiri dari pelanggan pribadi/perusahaan baik dari dalam & luar daerah di Indonesia. 
 
Visi & Misi : 


Menciptakan sistem perusahaan yang sistematis & fleksibel dalam hal pelayanan.
Menciptakan lapangan kerja & Sumber daya Manusia yang terampil, profesional& handal. 
Menciptakan pelayanan & kerjasama yang berkesinambungan dengan pelanggan.
Menjadi perusahaan multinasional yang dapat memberi sumbangsih terhadap perekonomian di Indonesia. 

CV. Jaya Makmur Abadi.General Supplier & Trading : Besi Beton & Baja. Rangka Baja Ringan & Atapnya.Aluminium Kusen Pintu & Jendela.Plywood & Kayu lainnya.Pipa Paralon & Pipa Lainnya. 
Keramik & Granit.Perlengkapan Sanitary. Aksesories Pintu & Jendela.
Segala jenis Kaca Bangunan.Aluminium Composite Panel.Kawat Baja & Besi. 
Karpet Import & VINYL. Kusen, Pintu & Jendela Kayu. Windows Fashion.Mekanikal Elektrikal.Meubelair Kantor & Sekolah.
Pipa HDPE.Pipa Air Panas.HPL.Cat.Pipa Gorong-Gorong.Plat Kapal.Dll.
Untuk melengkapi kebutuhan pelanggan, kami juga menyediakan Jasa Kontraktor, Jasa Arsitek & Jasa Konsultan.
Untuk informasi lebih jelas, dapat menghubungi Marketing kami.
Terima kasih. www.jayamakmurabadi.co.id
CV. Jaya Makmur Abadi 
Jl. Brigjend Katamso No. 2 Samarinda. Kalimantan Timur 75117.Telp : 0541-7802915Fax. : 0541-766315Email : sales@jayamakmurabadi.co.id
 

 
 ","
              Head Office :Jl. Brigjend Katamso No. 2. Samarinda. Kalimantan Timur ",Samarinda ,Kalimantan Timur,+62 823-5215-3244,+62 813-4942-8940,+62 852-4900-5619
MITRA ABADI PRINTING,"
                                    PREMIUM GOLD
                                ",Sticker,"
Kami adalah perusahaan yang bergerak di bidang produksi etiket, label printing, barcode label.Kami siap membantu Perusahaan Bapak/Ibu yang membutuhkan etiket/label/barcode untuk setiap kemasan produk baik itu kemasan botol, drum, kaleng, kotak, dll.Serta memenuhi kebutuhan etiket/label/barcode untuk produk :1. Makanan dan minuman.2. Obat-obatan dan kosmetika.3. Perawatan tubuh.4. Otomotif.5. Perkakas alat rumah tangga.6. Elektronika.7. Garmen dan tekstil. ","
              Office:Jl. Empu Kanwa Raya No.15, Cibodas - TangerangFactory:Kawasan Sentra Prima Teknopark Blok A/20. Jl. Palem Manis Raya, Gandasari, Jatiuwung - Tangerang            ",Tangerang,Banten,+62 856-7729-580,None,None
PD RAVIBORDIR Indramayu ,"
                                    PREMIUM GOLD
                                ",Sticker,"
PD RAVI BORDIR Adalah perusahaan satu-satunya yg ada di kabupaten Indramayu JAWABARAT. Yang sudah terkenal dengan hasil kwalitas dan ketepatan produksi, juga desain nya. kami sudah berjalan SEJAK tahun 1998. Kami adalah perusahaan yg bergerak dalam bidang produksi & penjualan secara langsung DI TOKO KAMI , maupun ON LINE secara BISNIS. Bidang kami Dalam pembuatan perlengkapan TNI.POLISI.POLPP.DISHUB.SECURITY SEKOLAH PASKIBRA mulai dari Topi. Jaket. Rompi. Kaos. Tas/ ransel. Sepatu PDL/ PDH. Wearpakc. Kemeja. Training. Helm. Logam Gantungan Kuci. Jam Dinding, juga menerima Pembuatan Jas.Jasket. Tenda Pramuka. Tenda Dome. Tenda Kerucut. BORDIR LOGO SEKOLAH Dinas Organisasi. DLLFB : Ravibordir IndramayuPD Ravi BordirIndramayu Jawa barat HP wa 081 324 73 1399 Hp wa 0857 2016 8603 ","
              JL. SILIWANGI (PINTU MASUK BTN PAOMAN ASRI no 60)KEC/Kab. INDRAMAYU kode Pos 45212 Jawa barat IndonesiaHp wa  081324731399 - 085720168603 dekat 500 meteran dekat dengan kantor Bupati Indramayu Jawa barat            ",INDRAMAYU - JAWABARAT INDONESIA. ,Jawa Barat,+62 813-2473-1399,None,None
Cetak Continuous Form Kertas Roll Thermal | 081316710440,"
                                    PREMIUM GOLD
                                ",Sticker,"
Global Sentra Utama adalah perusahaan percetakan & Security Printing yang melayani jasa percetakan seperti : Continuous Form, Roll Paper, Slip Gaji, Bill Of Lading, Faktur Pajak Standart, Billing Telepon, Faktur Pajak Sederhana, Kupon, Faktur Penjualan, Airway Bill, Tagihan, Kwitansi, Bill Forms, Surat Jalan, Rekening Koran, Billing Restoran, Computer Envelope Forms, Stiker, Ijasah, Buku, sertifikat, Hologram Etc Ø Roll Paper Product : • Telstruk, Roll Parkir, Roll Atm, Roll EDC, Roll Fax, Etc Kertas Kasir, Kertas Thermal, Kertas Struk, Kertas Roll, Cashier Paper, Kertas Fax, Label Thermal Stiker, Stiker Label, Kertas Roll 1ply, Kertas Roll 2ply, Kertas Roll 3ply, Cetak Kertas Kasir, Kertas Termal Kertas Kasir Thermal, Thermal Paper Ukuran 57 mm ( lebar) X 50 mm ( diameter) Ukuran 80 mm ( lebar) X 80 mm ( diameter) Ukuran 80 mm ( lebar) X 140 mm ( diameter) Ukuran 110 mm ( lebar) X 30 mm ( diameter) Dan Lain-Lain Ukuran Continuous Form standard dengan satuan ukuran Inch : * 9 1/ 2"" x 11"" * 14 7/ 8"" x 11"" * 9 1/ 2 x 11/ 2 Jenis Kertas Continuous form berdasarkan bahan kertas : * Kerta HVS * Kertas NCR Jumlah Rangkap : * 1 ply sampai dengan 10 play Ukuran Kertas Continuos Form dapat juga disediakan dengan ukuran lain : * 9 1/ 2 x 12 * 9 1/ 2 x 13 ( Folio) * 9 1/ 2 X 11 Double Pin ( satu lembar terbagi 4) * 9 1/ 2 x 11/ 2 Kami didukung oleh tenaga kerja yang profesional dan alat-alat yang canggih, sehingga mampu memberi pelayanan yang terbaik dalam harga, waktu, dan kualitas. Hubungi sales kami : Telp : 081316710440 / WA 08176454000 : Office : 021-88950650 Email : sales@megamakmur.com www.megamakmur.com ","
              sales@megamakmur.com |
Industrial Town Cikarang | Pin BBM : 767D68D5 | WA : 081316710440 / 08176454000
            ",Bekasi,Jawa Barat,+62 813-1671-0440,None,None
CV. PUTRA BAZERO,"
                                    PREMIUM GOLD
                                ",Sticker,"
CV. Putra Bazero  adalah penyedia mesin digital printing yang terlengkap di kota Surabaya, mulai dari Mesin Out Door Human, Flora, Indoor Roland, Epson, Sublim Epson & Roland, DTG Epson, Mesin UV, HP LATEX, Cutting Roland , Bahan – Bahan Printing, Tinta , After Sales (Support Teknisi) dan lain-lain kebutuhan Bisnis Digital Printing.
VISI : 
- Pegembangan Bisnis Ke Depan Yang Lebih Baik ( Better Future Business Development )
MISI :
- Sesuai dengan visi di atas, maka kehadiran kami untuk melengkapi dan memberikan solusi untuk kebutuhan bisnis di tahun ke depan yang semakin maju, bersaing dan berkembang setiap saat.
 
COMPANY HISTROY
Setelah mempunyai pengalaman lebih dari beberapa tahun dalam menekuni bidang Digital Printing, Informasi dan Teknologi, serta menjalin hubungan baik dan erat dengan sejumlah produsen pemegang merk , dan hubungan baik dengan konsumen. CV PUTRA BAZERO didirikan pada tahun 2019, berlandaskan pada kepuasan konsumen yang kami layani dalam beberapa tahun ini kami memberikan inovasi produk yang berkembang saat ini. Maka tepat apabila kami mengusung visi ( Better Future Business Development )
 dengan tujuan antara lain :
1. Mengembangkan Sumber Daya Manusia dalam mendukung / menunjang kebutuhan konsumen yang akan datang
2. Memberikan layanan purna jual servis, di tunjang oleh tenaga-tenaga terampil yang membantu sesuai kebutuhan konsumen
3. Menganalisa kebutuhan konsumen yang akan datang 
4. Memberikan solusi dan konsep yang terukur ke konsumen untuk bisnis dimasa mendatang
 
Kami sangat yakin dengan point-point yang kami terapkan di atas, maka CV. PUTRA BAZERO akan bergerak maju dan berkembang bersinergi seiring perkembangan Teknologi dan Informasi. Untuk membantu kebutuhan konsumen saat ini dan masa akan datang. ","
              Gg. Bhineka E No.25, Bulak Banteng, Kec. Kenjeran, Kota SBY, Jawa Timur 60127            ",Surabaya,Jawa Timur,+62 812-3565-671,None,None
JOGJA SAFETY AND MECHANICAL ELECTRICAL EQUIPMENTS,"
                                    PREMIUM GOLD
                                ",Sticker,"
SELAMAT DATANG DI PERUSAHAAN JOGJA SAFETY AND MECHANICAL ELECTRICAL EQUIPMENTS
 
Kami adalah perusahaan yang bergerak dalam bidang pengadaan, perawatan dan perbaikan peralatan keamanan, mekhanikal elektrikal dan perlengkapan pemadaman kebakaran untuk rumah tangga, perkantoran, industri, pertokoan dan perhotelan. Perusahaan kami didukung oleh tenaga ahli, profesional dan berpengalaman lebih dari 10 tahun. 
Kami sangat mengutamakan kecepatan pelayanan, kepuasan konsumen dan bertanggung jawab dengan garansi produk dan pekerjaan minimal 1 ( Satu) Tahun. Bidang usaha kami antara lain :
1. Peralatan Safety ( Safety Equipment) "" Tabung Alat Pemadam Api ( APAR dan APAB) Fire Hydrant System, Fire Alarm System, Fire Sprinkler System, Cctv, Brankast, Pintu Khasanah, Filling Kabinet Tahan Api, Komponen Dan Spare Part Serta Asesoris Fire Hydrant, Baju Tahan Api / Panas, Fire Blanket Dan Berbagai Peralatan 
2.Alat Keselamatan Kerja Misalnya : Safety Shoes ( Sepatu Safety ) , Kaos Tangan, Kacamata Sitostatika, Ear Muff, Dll. 
3. Peralatan Mekhanikal Elektrikal ( Mechanikal Electrical Equipments) Instlasi Penyalur petir, Genset, Panel otomatis genset ( AMFdanATS) , instalasi penangkal petir, instalasi grounding sistem, panel listrik DLL. Bidang Usaha yang kami laksanakan khususnya di lingkungan rumah tangga, instansi Pemerintah maupun Swasta dan Perorangan termasuk Usaha di lingkungan PT. PERTAMINA Hotel, Rumah Sakit, Apotek, Rumah Makan/ Restorant, Pasar, Laboratorium, Industri, Pengrajin, Pertokoan, Perumahan Realistate, Gedung Kampus/ Sekolah, Spbu - Sppbe - Agen Minyak Tanah / Eliji - Transportir Minyak, Dll.
 
Pekerjaan Yang Kami Laksanakan Adalah Meliputi pengadaan, perawatan dan perbaikan : 
1. Alat pemadam Api ( APAR/ APAB) portable ataupun troly 
2. Instalasi dan Pengadaan Fire Hidrant system, Instalasi Springkler, panel Hidrant,
 Acesories hidrant 
3. Instalasi dan Pengadaan CCTV, Security Alarm, 
4. Instalasi dan Pengadaan Fire Alarm Konvensional, Semi Adressible dan Full 
5. Instalasi dan Pengadaan Penangkal/Penyalur petir Konvensional dan Elektrostatik 6. Rambu - rambu K3 Safety Sign dan Tanda APAR 
7. Perawatan Alat Pemadam Api dan Refill/Pengisian Ulang APAR Jasa yang kami berikan ditujukan untuk meningkatkan Total Product Maintenance ( TPM) yang mendukung fungsi dan optimalnya mesin ( peralatan) serta meningkatkan kinerja mesin yang pada akhirnya dapat memberikan nilai tambah.
Perusahan CV. CIPTA RAHAYU PRATAMA didukung oleh tenaga ahli dan berpengalaman minimal 10 tahun yang lebih mengedapankan pelayanan dan tanggung jawab. Pengertian Repair dan Maintenance ( Perawatan dan Perbaikan) adalah suatu usaha/ tindakan yang sifatnya aktif dengan tujuan memelihara kebersihan dan perawatan peralatan beserta perlengkapannya dan Pada akhirnya bermanfaat untuk : 
* Meningkatkan fungsi alat lebih baik 
* Umur mesin secara teknik lebih awet 
* Nilai ekomomis lebih efisien Sehingga pada akhirnya akan memberikan nilai tambah dibidang ekonomis dan produktivitas mesin/ peralatan lebih optimal. 
Dengan melakukan perawatan dan perbaikan secara teratur yang secara rutin mudah-mudahan akan memberikan keadaan peralatan yang lebih baik ditinjau dari nilai fungsi, ekonomis, sistetika dan efisiensi dan Pada akhirnya akan memberikan keuntungan yang lebih besar
1. Phone: 0274-882493
2. 081 2277 222 98 (simpati + WA) 
3. 081 126 554 33 (Hallo + WA) 
4. 085 100 844 757 ( As)
5. Pin BB : D507F47Dwww.jogjasafety.com - www.agencctvjogja.com ","
              Jl. Kaliurang Km. 8,5 No.20 (depan toko Buku social Agency) Dayu Sinduharjo Ngaglik Sleman Yogyakarta 55581            ",Sleman,Daerah Istimewa Yogyakarta,+62 812-2772-2298,None,None
KERTAJAYA LABEL,"
                                    PREMIUM GOLD
                                ",Sticker,"
              KERTAJAYA LABEL ADALAH PERUSAHAAN YANG BERGERAK DI BIDANG PEMBUATAN LABEL BUKAN HANYA DI JAKARTA KAMI JUGA MENERIMA PESANAN DARI SELURUH WILAYAH INDONESIA DAN KAMI MENERIMA DALAM SKALA BESAR (PARTAI) MAUPUN KECIL (MINIM) DAN KAMI MENYEDIAKANPEMBUATAN LABEL DI SEMUA JENIS :*LABEL BORDIR/WOVEN/RAJUT*LABEL POLYESTER BORDIR*LABEL SATEN BORDIR*LABEL SATEN PRINT*LABEL NILON PRINTKERTAJAYA LABEL SIAP MEMENUHI KEBUTUHAN ANDA KHUSUSNYA BAGI ANDA YANG BERGERAK DI BIDANG FASHION SEPERTI :KONVEKSI/GARMENT DLL.LABEL PAKAIAN INI SANGAT BERMANFAAT UNTUK SEGALA MACAM JENIS PAKAIAN*PAKAIAN DALAM (SPORT BRA/BH/UNDERWEAR/LEGGING/TENGTOP DLL.)*PAKAIAN WANITA*PAKAIAN PRIA*PAKIAN ANAK2DEMI PELAYANAN TERBAIK KAMI JUGA MEMBERIKAN KEMUDAHAN BAGI ANDA YAITU :*GRATIS DESIGN*GRATIS EXAMPLEKERTAJAYA LABELHP : 081289817269 (WA)email :kertajayalabel@gmail.comKEPUASAN ANDA ADALAH PRIORITAS KAMI            ","
              Jl. Kepu Dalam V No.17Kemayoran, Jakarta Pusat            ",Jakarta Pusat,DKI Jakarta,+81 289-81-7269,None,None
Ben Berkarya,"
                                    PREMIUM GOLD
                                ",Sticker,"
Selamat Datang di Website Ben Berkarya. Kami merupakan perusahaan yang berdiri sejak 2012 bergerak dalam industri Alat Proteksi Diri dan Keamanan, Alat Pertahanan Diri, Eye Protection, Face Protection, First Aid Kit, Alat Detector, Hearing Protection, Masker, Rompi, Helmet, Fire Extinguisher, Marka Jalan, Safety Shoes, Marine Equipment, Safety Sign, Head Protection, Wearpack, Sarung Tangan, EEBD (Emergency Escape Breathing Escape), Eye Wash, Body Harnes, GPS dan Navigasi, Material Handling, dll.Kami Adalah Perusahaan Berkembang Yang Melayani Penjualan Secara Eceran Dan Grosir Ke Seluruh Indonesia. Menyediakan Segala Perlengkapan Untuk Keselamatan Kerja (Safety Equipment) Dan Perlengkapan Perkapalan (Marine). Kami Juga Menerima Pesanan Khusus Untuk Seragam Kerja,Pdh/Pdl Dan Menerima Pesanan Khusus Kabel Tray.Email : info@ben.co.idTelp : (021) 29070534WA : 08118886817 ","
              MGK Kemayoran Lantai GF Blok A3 No.2 Jalan Angkasa Kav.B6 Kota Baru Bandar Kemayoran, Jakarta Pusat            ",Kemayoran,DKI Jakarta,08118886817,None,None
