Name,Membership,Category,Description,Address,City,Province,telp1,telp2,telp3
PT SENTRO BINAR FASILITAS,"
                                    PREMIUM GOLD
                                ",Disinfektan,"
              SENTRO BINAR FASILITASPerusahaan yang bergerak di jasa cleaning service seperti- Pest Control- Rope Access cleaning- Gardeneer- Polish Marmer/GranitDll            ","
              Jl Pasir Putih 17 Sawangan, Depok, Jawa Barat            ",Depok,Jawa Barat,+62 812-8937-8345,None,None
akhdan cleaning complete,"
PREMIUM BLUE ONYX
",Disinfektan,"
Aco Cleaning adalah perusahaan yang bergerak dibidang jasa kebersihan,pertamanan,pest control, dan jasa-jasa lainnya. Kami siap melayani dengan sepenuh hati untuk kepuasan Perusahaan Anda. 
 
Kami menyediakan beberapa layanan seperti : 
- CLEANING SERVICE
- CLIMBING SERVICE
- PEST CONTROL
- SUPPLIER PERALATAN CLEANING
- RENTAL TANAMAN HIAS
- LANDSCAPE GARDENING
- LAYANAN PEMBUATAN & PENGADAAN PERABOTAN
 
Untuk informasi detail , segera hubungin Kami di : 
Akhdan Cleaning Complete
+62 812 2888 8040
  ","
              Jl. Kenanga Indah No. 10 Malang            ",Malang,Jawa Timur,+62 812-2888-8040,None,None
PT. Lico Inovasi Talenta,"
                                    PREMIUM GOLD
                                ",Disinfektan,"
              PT Lico Inovasi Talenta merupakan Perusahaan yang memiliki Badan hukum yang didirikan berdasarkan Undang-Undang No.40 Tahun 2007 tentang Perseroan Terbatas ( PT) , yang bergerak dalam bidang jasa Kebersihan ( Outsourcing Cleaning Service) yang saat ini semakin banyak dibutuhkan dikalangan perusahaan, dan didukung oleh Tenaga Profesional dengan pengalaman yang cukup, serta sistem Recruitment yang mengedepankan Pengembangan Sumber Daya Manusia. Bergerak di Bidang Jasa Kebersihan ( Outsourcing Cleaning Service) secara Indoor dan Outdoor, dari sebuah TALENTA yang dikembangkan secara INOVATIF dalam mencapai Visi dan Misi yang diemban oleh Perusahaan, PT. LICO INOVASI TALENTA berusaha berkembang dalam meningkatkan Jasa serta Pelayanannya. Untuk mencapai tingkat kenyamanan lingkungan kerja diperlukan suatu Sistem dan Prosedur pengelolaan secara terpadu, sehingga seluruh kegiatan pengelolaan Sistem Kebersihan, termasuk koordinasi dan pengendaliannya menjadi satu kesatuan yang telah terintegrasi dalam suatu sistem yang akan kami tawarkan untuk Perusahaan Anda. Beberapa jasa yang kami tawarkan seperti : Cleaning Service, GC ( General Cleaning) Kristalisasi Marmer / Granit, GC Alcobon / Pembersihan Kaca Gedung atau Ruko, GC Kolam Renang, GC Keramik, GC Lantai Vinyl, GC Parquet, GC Karpet Gedung, GC Alcobon, GC Kursi Kantor / Sofa, GC Batu Alam, GC After Construksi, dan Jasa Parkir. Dengan jasa yang kami tawarkan tersebut, perusahaan kami telah melakukan pekerjaan Jasa di beberapa area / tempat, seperti : Gedung Indosurya Center, Town House Springhills, Cafe Tee9-Plaza Indosurya, Office Nusindoprima Indah, Perumahan Greencourt, Hin' s Hotel, Rumah Cik Ditiro-Indosurya Group, Putra Motor Yamaha, Dirgantara Motor Yamaha, Putra BSD Yamaha, Salon Roger-Senopati, Office Pondok Indah, Rumah Menteng-Indosurya Group, Office Kelapa Gading, Rumah Cinere, dan diberbagai tempat lainnya. Pelaku usaha memandang outsourcing merupakan satu-satunya solusi dari problem efisiensi perusahaan dalam menghadapi kompetisi sebagai akibat dinamisnya lingkungan bisnis, maka perusahaan harus beradaptasi untuk menyesuaikan dengan perubahan lingkungan bisnis yang semakin lama semakin fokus untuk meningkatkan kualitas produksinya.            ","
              WTC MANGGA DUA LT.2 BLOK A NO.26            ",DKI JAKARTA,DKI Jakarta,+62 822-9990-9501,+62 816-1487-274,None
Home Sweet Home Indonesia,"
                                    PREMIUM GOLD
                                ",Disinfektan,"
              Homesweethome.co.id menjadi solusi pengadaan peralatan dan perlengkapan rumah dan gedung yang lengkap dan berkualitas. Layanan terbaik dan kecepatan pengiriman barang menjadi salah satu keunggulan kami. Hubungi kami 24 jam untuk menjawab setiap pertanyaan anda. Untuk info lebih lanjut silahkan kirimkan email ke marketing@ homesweethome.co.id. kami melayani pengiriman barang serta jasa pemasangan unit keseluruh kota dan pelosok Indonesia.            ","
              Rukan Niaga Boulevard Metland Menteng Blok I1 no.26 Raya Bekasi Km.26 Jakarta Timur            ",Jakarta Timur,DKI Jakarta,+62 811-1185-538,None,None
Kamarmandiku.com,"
                                    PREMIUM GOLD
                                ",Disinfektan,"
              Apakah Anda Sedang mencari Perlengkapan- peralatan kamar mandi serta dapur yang berkualitas dan bergaransi? .Kini telah hadir Kamar Mandiku.com, yang akan membantu anda menemukan perlengkapan kamar mandi yang lengkap dan dengan model yang terbaru.Dengan Dukungan dari produk terkenal serta terpercaya Seperti: Roca bathroom, Teka,Midea, Grohe,Toto, American Standard, Wilo, Bold, Biotaff, Taff, Biofil, Hitachi, Sanei, Chrysolite, Meridian, Wika, Solahart, Honeywell, Daalderop, Penguin ,Tecnogas Waterco, Profil Tank, Grohe, Crestial, 3M, Edwards, Broco, Wasser, Toclas, Yamaha, samsung, yale dll.Kamar Mandiku.com akan membantu mewujudkan semua mimpi anda. Kemudahan transaksi serta harga yang kompetitif menjadikan pelayanan kami berbeda dengan toko lain pada umumnya. MOTTO : "" Tinggal klik barang langsung dikirim"" . Begitu mudahnya ! ! . Sehingga anda akan menghemat waktu yang berharga serta uang yang tidak sedikit untuk berburu perlengkapan kamar mandi yang anda inginkan. Kamar Mandiku.com juga memberikan gratis desain kamar mandi, gratis pemasangan serta gratis jasa pengiriman. Trade in ( tukar Tambah ) , Jasa Renovasi serta dukungan instalasi. Dengan pengalaman lebih dari 9 tahun, kamar mandiku.com telah melayani seluruh konsumen di Indonesia, bahkan mancanegara seperti malaysia & Brunai. Kejujuran serta tanggung jawab menjadi modal utama kami untuk terus maju & berkembang. Disertai dukungan sistem informasi yang canggih kami siapkan untuk memberikan Pelayanan terbaik kami. Nikmati dan temukan apa yang sedang anda cari, hubungi kami jika ada yang mungkin menjadi pertanyaan, 24 jam kami akan menjawab segala pertanyaan dan masukan anda. Akhir kata senang bisa berkenalan dengan anda semua. Selamat berbelanja, harapan kami anda akan senang dengan pelayanan kami. Salam Sukses            ","
              Rukan Niaga Boulevard  Metland  menteng blok i1 No.26  Raya Bekasi Km.26 Jakarta Timur            ",DKI Jakarta,DKI Jakarta,+62 811-1185-538,None,None
