Name,Membership,Category,Description,Address,City,Province,telp1,telp2,telp3
SAKA MEDICAL,"
PREMIUM RUBY
",Laundry,"
Profil Saka Enginering 

Spesialis fabrikasi Peralatan rumah Sakit
Saka Enginering adalah sebuah perusahaan yang bergerak dalam bidang Pembuatan fasilitas peralatan untuk Rumah sakit. Perusahaan kami membuat berbagai macal peralatan Medical Equipment dan Furniture Rumah sakit untuk berbagai macam keperluan. Semua produk kami diproduksi di dalam negeri dengan Kualitas Unggul serta Sistem pembuatan yang maksimal dan pressisi.Saka enginering berdomisili di kabupaten Bogor yaitu di daerah Cibinong dengan Alamat Green view. Blok h. No. 3 JL. KH. M Sanun Harapan jaya Cibinong Kab Bogor
Produk Alat rumah sakit kami digunakan untuk RSUD, Klinik, Puskesmas dan Berbagai fasilitas Pelayanan Kesehatan yang lainnya.
Mempercayakan Pembuatan hospital Equipment kepada Saka Engineering merupakan sebuah pilihan yang tepat dan bijaksana.
Karena Perusahaan kami telah berpengalaman menangani klien yang memerlukan Furniture rumah sakit sesuai dengan Spesifikasi Teknis yang diperlukan maupun Budget yang diberikan
Bidang Usaha Saka engineering
Alat Alat Kesehatan
Hospital furniture
Ambulance
IPAL Rumah Sakit
Incenerator
Aerator
WTP Rumah Sakit
Pengolahan Air Limbah
Dalam Perjalanan menekuni bidang pembuatan Alat Kesehatan ini perusahaan kami berhasil memproduksi berbagai peralatan Hospital Equipment dan furniture Rumah Sakit
Visi dan misi kami yaitu menciptakan inovasi produk Alat Kesehatan Lokal nasional yang berorientasi kepada kualitas dan Performa.
Komitment kami yaitu membuat produk Furniture rumah sakit yang simple, Mudah dioperasikan serta harga Murah.
Sehingga Siapapun juga dapat menikmati produk berkualitas dengan harga yang terjangkau demi pemerataan tingkat Kesehatan sesuai program pemerintah
 
Produk Saka Enginering
- Bed Pasien Manual dan Elektrik
- Bed Side Cabinet
- Gynaecology
- Linen Hamper carriage
- Mortuary Referigetaror
- Incubator manual dan elektrik
- Scrub station
- Emergency Trolley
- Food trolley
- UV Lamp Room Sterilizer
- Medicine Cabinet
- Doctors Tool
- Waiting chair
- Locker
- Ambulance Set
- Ipal Rumah Sakit Biotechnology
- Incenerator
 
- WTP Rumah SakitSaka Enginering membuka kesempatan bagi semua distributor dan agen Alat kesehatan di luar daerah untuk bekerjasama menjadi mitra pemasaran Produk Hospital Equipment dan furniture rumah sakit kamiMemilih produk saka Enginering berarti telah mengutamakan penggunaan produk produk berkualitas dalam negeri.Hubungi kamiSaka EngineeringCall / WA : 081283756527

 ","
              Green View @Cibinong Blok  H No. 3 Jl. KH. M Sanun, Harapan Jaya Cibinong Kab. Bogor            ",kab bogor,Jawa Barat,+81 283-75-6527,None,None
PT. REXINDO OTOTEKNIK,"
                                    PREMIUM GOLD
                                ",Laundry,"
PT. REXINDO OOTEKNIK incorporated in Bekasi, Indonesia to fulfill any rapid development of diverse modern industry commands an ever-increasing need for industrial plants and success of these industries is highly dependent on cooperation with the right partner for the business. 
 
PT. REXINDO OOTEKNIK established since 2012 by a group of engineers who have experience in the various fields of engineering that could support any industrial needs especially on Engineering, Technical Services, Instrumentation & Control and Industrial Supplies. 
We have some experiences of supplying products in varies kind of industries, such as Oil & Gas, Chemical, Power Generation, Petrochemical, Fertilizer, Coal & Mining, Pharmaceutical, Food Industries, Petrcochemical, etc. 
 
Our team of sales engineers possess many years of experience in assisting clients in automated processes to enhance product quality, increase productivity, reduce waste, improve safety, and to meet regulatory requirements. The result is a solution tailored to meet the unique needs of our customers. 
 
Therefore we represent some agency from International Company that related with our main business. ","
              Office & Workshop : Jl. Toyogiri Selatan No.77 Kel. Jatimulya Kec. Tambun Selatan Bekasi Timur Jawa Barat 17515 – INDONESIA.Phone:  (021) 82746125  Faximile: (021) 82435319Branch Office : Villa Mutiara Bogor I Blok C1/19  Kel. MekarwangiKec. Tanah Sareal Jawa Barat 16168 – INDONESIA.Phone (0251) 7595433.HP/WA : +62 812 9119 2569            ",Bekasi,Jawa Barat,+62 812-9119-2569,None,None
Setrika Uap Maxxi,"
PREMIUM RUBY
",Laundry,"
Kami Pabrik / Produsen Setrika Uap Gas, Mesin Pengering Gas Konversi dan Meja Khusus Setrika Uap dengan Brand Maxxi yang terletak di Kota Surabaya Berdiri Sejak Tahun 2012, Asli Buatan Anak Bangsa Indonesia
Pelayanan, After Sales Dan Kualitas Barang Yang Kami Utamakan
Visi Kami adalah Amanah dalam Penjualan, Pelayanan dan After Sales / Garansi Produk Sehingga Para Pelaku Usaha Puas dengan Layanan Produk Kami
Misi Kami adalah Kesuksesan Usaha dan Kemudahan untuk Para Pelaku Usaha dalam Pengoperasionalan Produk Kami
Selama bertahun-tahun kami menjadi produsen utama untuk Pengusaha Laundry, Gorden, Konveksi, Garment dan Taylor di Dalam dan Luar Indonesia.
Kami Menyediakan :
- Setrika Uap Gas
- Mesin Pengering Gas / Konversi
- Meja Khusus Setrika Uap
- Paket Usaha Laundry
- Sparepart Setrika Uap
 
Setrika Uap Maxxi
Jl. Semampir Tengah 1 no 14, Sukolilo – Surabaya
Telp. 081289246123
*pengiriman seluruh indonesia ","
              Jl. Semampir Tengah 1 no 14, Surabaya            ",Surabaya,Jawa Timur,+62 812-8924-6123,None,None
UD. SIDO MUMBUL,"
                                    PREMIUM GOLD
                                ",Laundry,"
              UD. SIDO MUMBULPerusahaan kami bergerak di bidang distribusi barang pecah belah / bolo pecah, plastik rumah tangga, peralatan / alat dapur ( kitchen wares) dan kebersihan ( cleaning equipments) , perlengkapan rumah tangga ( house wares / home appliances) dan kebutuhan industri ( industrial wares) lebih dari 30 tahun di Pasar Turi, Surabaya. Kami menjual barang-barang produksi lokal dan impor seperti barang-barang aluminium, kaca, plastik, stainless steel, perkakas, dll. dengan harga dan kuantiti partai ( grosir) untuk dijual kembali ( reseller price).Beberapa merek barang yang kami jual adalah Hock, Lion Star, Maspion, Global Eagle, Green Leaf, Dian Sari, Owl Plast, Technoplast, Bull Star dan masih banyak lagi. Untuk informasi lebih lengkap bisa dilihat pada halaman Katalog Produk kami atau bisa langsung datang ke kantor kami pada hari Senin - Sabtu pada pukul 10: 00 - 17: 00 WIB di jalan Dupak 63, kompleks pertokoan Mutiara Dupak C-22, Surabaya.  Dengan dukungan supplier lokal dan nasional, kami siap untuk memenuhi kebutuhan usaha anda. Kontak kami segera untuk berbisnis dengan kami.Kami juga melayani kebutuhan hotel, rumah sakit, cafe, restoran & katering.Untuk pemesanan produk dapat dilakukan via telepon, short message service ( SMS) , Yahoo! Messenger, Blackberry Messenger ( BBM) dengan sistem pembayaran cash ( transfer bank / kontan) . Pembayaran dapat dilakukan setelah mendapat konfirmasi dari kami atas ketersediaan jumlah produk yang dibutuhkan. Apabila anda serius, dimohon untuk tidak mengirimkan e-mail kepada kami tanpa melakukan konfirmasi terlebih dahulu.  Tersedia kualitas produk biasa, menarik, murah, kuat dan berkualitas tergantung merk dan kebutuhan. Untuk area surabaya kami dapat mengirim, untuk konsumen luar kota dan luar pulau dapat dikirim lewat ekspedisi yang telah disepakati bersama. JAKARTA - BANDUNG - YOGYAKARTA - MAGELANG - SOLO - DENPASAR - SEMARANG - MALANG - SURABAYA - BANYUWANGI - PASURUAN - PROBOLINGGO - JEMBER - PRABUMULIH - MEDAN - JAMBI - PEKANBARU - MAKASSAR - BALIKPAPAN - PONTIANAK - BANJARMASIN - BATAM - PALEMBANG - LAMPUNG - SAMARINDA - PADANG - MATARAM - KALABAHI - MANADO - JAMBI - ACEH - PANGKALAN BUN - KUALA PEMBUANG - BATU LICIN - SAUMLAKI - TUAL - GORONTALO - TANJUNG SELOR - TOLI TOLI - AMBON - BATAM - PANGKALPINANG - WAINGAPU - WAIKABUBAK - KUPANG - ATAMBUA - DILI - PALU - SAMPANG - BANGKALAN - SUMENEP - JAYAPURA - SORONG - BIAK - MANOKWARI - MERAUKE - BAU BAU - TERNATE - TOBELO - KENDARI UD. SIDO MUMBUL - Jln. Dupak 63 / Pertokoan Mutiara Dupak C-22, (031) 5469330 / 081938685700, Surabaya. PIN BBM = 7C5F4B40 / 5B69FFC6 / 228B81D4 WA = +6282143438684 LINE = herry.sutanto E-mail = ud_sido_mumbul@yahoo.com / herrychenzhongqiang@gmail.com Jam Kerja = Senin - Sabtu 10:00 - 17:00 WIB, Hari Minggu / Besar Libur            ","
              Jln. Dupak 63 / Pertokoan Mutiara Dupak C-22, (031) 546-9330 / 0819-3868-5700, Surabaya.
PIN BBM = 7C5F4B40 / 5B69FFC6
WA = 0821-4343-8684
LINE = herry.sutanto            ",Surabaya,Jawa Timur,+62 814-3438-684,None,None
ESTEEM SUPPLIES,"
                                    PREMIUM GOLD
                                ",Laundry,"
ESTEEM SUPPLIES melayani aneka kebutuhan untuk Hotel, Rumah Sakit, kebutuhan Spa dan Media Promosi anda. PRODUK - PRODUK KAMI ADALAH SBB : A. KEBUTUHAN HOTEL 1. DENTAL KIT - JET * SUPER * JORDAN * CRYSTAL* SUMI 2. SLIPPER / SANDAL HOTEL : TOWEL/ HANDUK * WAFFEL * SPONS * SPONS EMBOSS 3. SHOWER CAP PLASTIC, SHOWER CAP SPUNBOND & SHOWER CAP ULET 4. LAUNDRY BAG / SANITARY BAG UNTUK HOTEL - PLASTIK * SPUNBOND 5. KOREK API BATANG & KOREK API CERUTU / CIGAR MATCHES 6. RAZOR + SHAVING CREAM 7. PAYUNG HOTEL 8. HANDUK & KESET HOTEL 9. EMERY BOARD / KIKIR KUKU 10. LOOFAH ( sponge mandi untuk hotel) 11. VANITY KIT ( cotton bud) B. KEBUTUHAN SPA 1. DISPOSABLE UNDERWEAR / PANTYS / CELANA LULUR 2. KEMBEN / KAMISOL 3. SEPREI 4. KIMONO / BATH ROPE C. PROMOSI 1. TAS BAHAN SPUNBOND 2. TAS RANSEL 3. TAS UNTUK PAKET RUMAH SAKIT 4. TAS PROMOSID. BAHAN BAKU KAIN 1. KAN WAFFLE / WAFEL/ WAVEL 2. BAHAN SPUNBOND / PURING / PUR 3. KAIN HANDUK UNTUK BAHAN SANDAL 4. SPONS - BUSA ANGIN Dengan standart kualitas yang kami miliki, kami berusaha memberikan pelayanan yang terbaik yang mendukung sarana promosi perusahaan anda. Untuk informasi lebih lanjut, silakan menghubungi kami di no telp 081 2163 8008  atau email jryenny_ yunita@ yahoo.com /  Line: yenny.jry ","
              Jl. Rungkut Asri Timur VI No. 30 ( RK IV B13 )            ",Surabaya,Jawa Timur,+62 812-1638-008,None,None
Selatan Jaya Plastik Surabaya,"
                                    PREMIUM GOLD
                                ",Laundry,"
Selatan Jaya Merupakan Distributor Plastik Di Surabaya, Kami jual harga grosir produk Barang Plastik, Barang Perlengkapan Makan minum, Perlengkapan Mandi, Perlengkapan masak Dapur, alat kebersihan, Perlengkapan Rumah Tangga, Produk Pecah Belah Dll. 
Hubungi Kami : 
SELATAN JAYA PLASTIK 
0313520648 / 0313542351 / 081331351580
Songoyudan 31b, Surabaya Surabaya Jawa Timur , Indonesia

Produk Melamin, Stainless Steel, Alumunium, Merk Pabrik Napolly, Tms, Ag, Ks, Kaisha, Ikimura, Maspion, Lion Star, Calista, Olympia, Produk China, Dll
 
Kategori Produk Yang Kami Jual
 
Perlengkapan Ruang Tamu:
Kursi Plastik, Meja, Lemari, Keset, Karpet, Sapu, Pel Gagang, Sekrop Plastik, Asbak Melamin.
 
Perlengkapan Di Ruang Makan:
Keranjang Plastik Industri Krat, Sendok, Garpu, Piring, Mangkok, Toples Plastik, Mug, Gelas, Cangkir, Teko, Ceret, Lunch Box, Tempat Sendok, Tempat Sambal, Tutup Sayur Segi, Tutup Sayur Bulat, Jumbo Tras, Eskan, Thermos, Rantang, Wakul, Ompreng, Sealware, Water Jug, Baki, Rantang Catering.
 
Perlengkapan Dapur:
Wajan Alumunium, Kompor Hock, Panci, Kuali, Priuk, Pisau , Rice Cooker, Mixer, Magic Com, Blender, Magic Jar, Rice Bucket, Tudung Saji, Tempat Nasi, Dandang, Oven, Serbet, Industri Krat, Rak Piring, Tampa, Nampan, Niru, Baki, Erus, Eros, Entong, Sutil, Kitchen Set, Panggangan, Sumbu Kompor, Pressure Cooker
 
Perlengkapan Kamar Mandi:
Tempat Sabun, Bak Bayi, Ember, Timba, Baskom, Waskom, Tong Air, Gayung, Kaca Pretty, Gentong, Jirigen.
 
Perlengkapan Kamar:
Gantungan Baju, Hanger, Jepit Baju.
 
Perlengkapan Rumah Tangga:
Keranjang Pakaian, Rak Sepatu, Keranjang Sampah, Pot Bunga, Kursi Taman, Kursi Anak, Kursi Makan, Kursi Bakso, Celengan, Tikar, Kemucing, Container, Bola, Big Boxer, Saringan, Tandon.
 
  ","
              surabaya            ",surabaya,Jawa Timur,+62 813-3135-1580,None,None
PT. SAMUDERA SARANA LOGISTIK CABANG SURABAYA,"
                                    PREMIUM GOLD
                                ",Laundry,"
Kami adalah PT Samudera Sarana Logistik Surabaya anak perusahaan Cabang PT. Samudera Indonesia Group, Tbk. Kami telah memiliki pengalaman sejak tahun 1980-an dan didirikan secara resmi pada 1991 Bisnis utama kami adalah; - Kontainer Depot - Modifikasi Kontainer Bekas - Maintenance and Repair Container - Reefer ServiceKami menawarkan modifikasi kontainer yang dibuat oleh tim profesional dan berpengalaman di bidangnya. Definisi Modifikasi Kontainer ( Portacamp) : Kontainer Office atau PortaCamp adalah sebuah bangunan yang dirancang dan dibangun untuk menjadi bergerak daripada terletak secara permanen. Bangunan portabel dapat di buat sesuai kebutuhan serta dapat dipindahkan atupun digunakan di kemudian hari.Kelebihan portacamp: - Perumahan permanen / sementara (tidak perlu IMB)- Sebagai bangunan kantor sementara - Sebagai kantin atau kafetaria hanya dengan ruang kecil yang diperlukan - Dapat dipindahkan atau dikirimkan seluruh Indonesia Produk Modifikasi Kontainer kami: Ruangan kantor, kamar Medis, Lounge, Kitchen, Canteen, Cold Storage, Laundry, Kamar Mandi, Kamar Tidur, Toilet, Gudang, Chiller & Frozen, Isotank, 10 ft dry dan 10 ft reefer dan sebagainya sesuai permintaan dari customer Pelanggan kami: - PT. Freeport Indonesia - PT. Medco Geothermal Indonesia ( Medco Energy) - PT. McConnell Dowell Indonesia - PT. Antareja Resources - PT. Sclumberger Geophisics Nusantara - PT. Elnusa - PT. Apexindo Pratama Duta - PT. Alam Bersemi Sentosa - PT. Sapta Indra Sejati - PT. Thiess Indonesia - PT. Sodexo Indonesia Dll  ","
              Jalan Greges Jaya III No. 2-4-6 Greges            ",Surabaya,Jawa Timur,+62 812-1388-6878,+62 821-2568-0449,None
PT.KARYA ABADI INTIBUANA,"
                                    PREMIUM GOLD
                                ",Laundry,"
Kami adalah partner terbaik untuk  pengadaan berbagai kebutuhan bahan kimia industri & laboratorium Lab glassware Kebutuhan industri.Perusahaan kami melayani penjualan ke seluruh wilayah indonesia.Duran,Pyrex,Vitlab,Merck,Smartlab,Sigma Aldrick-Fluka,Hanna Instrument,Chemical Teknis,Draeger,Whatman,Orion,Kessler,Koehler,Brand,CHEMets,Dll.Beberapa produk yang kami supply

Beaker glass 
Lab.bottle 
Measuring cylinder
Centrifuge Tube
Botol PET 80ml
Bottle sample HDPE
Kaleng sample 4L,1L
Sarung tangan benag 5 Polos
Sarung tangan dotta kuning
Kain lap majun jahit warna
Kain lap majun jahit putih
Kain lap majun lembaran warna 
Kain lap majun putih
Ear Plug /pelindung telinga
Isopropyl alcohol-IPA teknis
Toluene
Acetone
Methanol
Demin water-Aquades
Buffer solution -Merck
Conductivity standart solution -Hanna
Hydranal composite 5
Hydranal coulomat AG
Hydranal coulomat CG
Hydranal water standart 0.1
Iron tes -Merck
Sulafate test S04-Merck
Methanol -Merck
Silver nitrate solution -Merck
Titriplex III -Merck
Filter paper -Whatman
Easicult combi-Orion
Thermometer
Hydrometer
Dll

Untuk permintaan penawaran harga dan ketersediaan stok silahkan hubungi kamitelp. 0353 289 8511wa. 082244477780,082122922706email.sales1@kadint.com,info@kadint.com            ","
               Bojonegoro            ",BOJONEGORO,Jawa Timur,+62 822-4447-7780,None,None
PT. JAYA UTAMA SANTIKAH,"
PREMIUM RUBY
",Laundry,"
PT. Jaya Utama Santikah adalah perusahaan Perseroan terbatas yang bergerak dibidang Perdagangan Umum dan Jasa. Perusahaan kami telah berdiri sejak 1997 di Jawa Timur dengan nama CV. Jaya Santikah, dan ditahun 2008 kami telah berkembang menjadi PT. Jaya Utama Santikah dan kami sekarang memiliki kantor di Jakarta.
 
Sesuai dengan moto kami yaitu membantu akan kebutuhan dalam bidang Jasa Perawatan Kebersihan dan Keindahan pada setiap lingkungan yang dibutuhkan. Seperti halnya yang kami tawarkan Jasa Kebersihan Gedung, Jasa Perawatan Taman Jakarta semua hal itu tentunya dibutuhkan sebuah management khusus agar kegiatan yang berjalan sesuai dengan apa yang diharapkan.
 
Dan kami menyadari tidak semua kantor atau gedung memiliki management khusus kebersihan dan perawatan seperti ini, dan pastinya untuk membentuk management ini juga dibutuhkan sumber daya yang profesional dan memahami setiap langkah apa saja yang harus dilakukan. Dan semua tahap itu tentunya membutuhkan proses yang panjang, untuk mempersingkat waktu dan meminimakan pembiayaan dalam memenuhi kebutuhan perawatan kebersihan kami siap membantu Anda dalam jasa penyedia cleaning service, jasa cleaning service terbaik, jasa perawatan taman Jakarta, jasa kebersihan gedung, jasa kurir antar barang dan distributor alat cleaning service sebagai produk perdagangan kami. ","
              Jl. Daan Mogot KM19 Kebon Besar Batuceper, kota Tanggerng,             ",Smart Market Daan Mogot Blok B No. 5,DKI Jakarta,+62 811-1833-992,+62 812-8998-071,None
Water Basis Pratama,"
                                    PREMIUM GOLD
                                ",Laundry,"
              Kami menyediakan berbagai macam jenis kantong plastik ( plastik sampah, plastik infeksius/ plastik medis, kantong muntah, kantong laundry ) berupa kantong dan rol-rolan. Berbagai warna dan jenis. Jenisnya HD, PE dan PP serta karung plastik. Kami juga menyediakan kertas sak / zak semen. Kami juga melayani cetak / sablon untuk plastik / karung plastik. JIka anda berminat silakan hubungi saya, Ibu Dewi di 021-29405384 .            ","
              Kresek Indah , Jl. Melati Blok M No.12 RT 006/012, Duri Kosambi, Cengkareng, Jakarta Barat, DKI Jakarta 11750            ",Jakarta Barat,DKI Jakarta,+62 812-9959-398,None,None
BINA JAYA PLASTIK || SABLON PLASTIK PRINTING MURAH JAKARTA,"
                                    PREMIUM GOLD
                                ",Laundry,"
PERUSAHAAN KAMI DI BIDANG CETAK KANTONG PLASTIK PRINT TEMPAT CETAK KANTONG PLASTIK PRINT PLASTIK PLASTIK POLOS PLASTIK HP, PLASTIK SUPERMARKET PLASTIK TOKO BAJU PLASTIK TALI PRESS PLASTIK POND OVAL, PLASTIK GAGANG PLASTIK KRESEK PLASTIK MURAH PLASTIK BIBIT TANAMAN PLASTIK , BERKUALITAS PLASTIK, POLYBAG PLASTIK BIBIT TANAMAN PLASTIK SAMPAH CETAK PLASTIK HD, CETAK PLASTIK PE PLASTIK WARNA TAS SPUNBOND PLASTIK SOFTHANDLE PLASTIK DISTRO, PLASTIK UNTUK DISTRO, PLASTIK KANTONG BAJU, PLASTIK PEMBUNGKUS BAJU, PLASTIK UNTUK BUNGKUS BAJU, PLASTIK HP, PLASTIK alamat Alamat : Jl. Jelambar Indraloka 5, No 1875, Jakarta BaraNomer Handphon / WA. 081280163911/ 081229367057 Atas Nama : Bpk, Egi Suprianto / Bpk, Anton . naik kearah jakarta jabrat behenti di samping Halte "" Busway Indosiar"" tanya tukang ojek minta alamat ke indraloka 5, kurang lebih biaya buat ngojek Rp. 10.000, - atau hubungi kontak kami nanti kami jemput depan Halte Indosiar. UNTUK PEMESANAN MINIMAL ORDER 5000 PCS/ LEMBAR DP 50% DARI NOMINAL JUMBLAH UANG PEMESENAN KANTONG PLASTIK CETAK / BUAT LOGO tas plastik sablon tas plastik cetak tas plastik printing tas plastik logo CETAK SABLON PLASTIK CETAK MODEL PLONG, CETAK SABLON MODEL PLASTIK TALI PRES, CETAK SABLON MODEL CETAK SABLON PLASTIK KRESEK, CETAK SABLON MODEL PLASTIK BELANJA, CETAK SABLON MODEL PLASTIK PLONG TENGAH, CETAK SABLON, MODEL PLASTIK OVAL, TENGAH, CETAK SABLON MODEL PLASTIK BOLONG TENGAH, PLASTIK BURAM, PLASTIK TRANPARAN, PLASTIK MODEL JCO, PLASTIK BENING, PLASTIK KACA, PLASTIK MODEL ALFA, PLASTIK MODEL INDOMART, PLASTIK LLDPE, PLASTIK HD WARNA MERAH, PLASTIK WARNA HITAM, PLASTIK WARNA KUNING, PLASTIK WARNA IJO, PLASTIK WARNA BIRU, PLASTIK WARNA CREM, PLASTIK KRESEK, TAS PROMOSI, PLASTIK MODEL KEMASAN SAYURAN, PLASTIK PE PLASTIK HD PLASTIK UNTUK BENIH PADI BENIH KANGKUNG BENIH CABE PLASTIK PUPUK PLASTIK UKURAN CASTEM / KASTEM UKURAN SMAL UKURAN SMOL UKURAN PLASTIK A4 UKURAN A3 CETAK PLASTIK TENG TENG PLASTIK TENG TENGAN CETAK PLASTIK MODEL TALIPRES PLASTIK KEMASAN CETAK LAMINASI CETAK SEPARASI 8 WARNA 10 WARNA CETAK KANTONG PLASTIK, KANTONG PLASTIK, PRINTING PLASTIK, SABLON PLASTIK, SHOPPING BAG, POLYBAG, LAUNDRY BAG, KANTONG KRESEK, SUPERMARKET BAG, SUPPLIER PLASTIK, DISTRIBUTOR PLASTIK, KANTONG KRESEK, PLASTIK KRESEK, POLY BAG, KANTONG BELANJA, TOKO PLASTIK, PRODUKSI PLASTIK, PERCETAKAN KANTONG PLASTIK, PERCETAKAN PLASTIK, PLASTIK HD, PLASTIK PE, PLASTIK OPP, PLASTIK PP, PLASTIK LAUNDRY, ROTOGRAVURE BINAJAYA PLASTIK. Perusahaan Kami bergerak dibidang jasa promosi, percetakan dan sablon sejak tahun 2000 dan sudah melayani ratusan konsumen dari berbagai wilayah di indonesia. BINAJAYA PLASTIK. MELAYANI PESANAN ANDA DALAM BIDANG PROMOSI DAN BIDANG KEPERLUAN KANTONG PLASTIK BUAT USAHA ANDA. SEGERA HUBUNGI KONTAK KAMI SEKARANG JUGA SEDIA PLASTIK CETAK LOGO PESENAN KONSUMEN menerima pesenan kantong shoping bags plastik dengan model variasi unik-unik menerima partai kecil dan partai besar dan mutu kualitas terjamin bagus dan kami juga bisa membuatkan edit logo nya sampai yang bagus model unik juga jenis plastik CETAK KANTONG PLASTIK, KANTONG PLASTIK, PRINTING PLASTIK, SABLON PLASTIK, SHOPPING BAG, POLYBAG, LAUNDRY BAG, KANTONG KRESEK, SUPERMARKET BAG, SUPPLIER PLASTIK, DISTRIBUTOR PLASTIK, KANTONG KRESEK, PLASTIK KRESEK, POLY BAG, KANTONG BELANJA, TOKO PLASTIK, PRODUKSI PLASTIK, PERCETAKAN KANTONG PLASTIK, PERCETAKAN PLASTIK, PLASTIK HD, PLASTIK PE, PLASTIK OPP, PLASTIK PP, PLASTIK LAUNDRY, ROTOGRAVURE contoh ukuran plastik redi stok oval tanpa lipat samping uk.L16 x P24, . HD oval 032. uk.L20 x P30, . HD oval 032. uk.L25 x P35, . HD oval 0 32. uk.L30 x P39, . HD oval 032. oval pake lipat sampng uk.L43/ L35 x P40, . HD oval 035 uk.L43/ L35 x P48, . HD oval 04 uk.L55/ L45 x P48, . HD oval 05. model oval tanpa lipet samping uk. L20 x P27, . HD model oval tanpa lipet samping 035. uk. L25 x P35, . HD model oval tanpa lipet samping 035. uk. L30 x P30, . HD model oval tanpa lipet samping 004. uk. L30 x P35, . HD model oval tanpa lipet samping 004. uk. L30 x P37, . HD model oval tanpa lipet samping 004. uk. L30 x P40, . HD model oval tanpa lipet samping 004. uk. L35 x P35, . HD model oval tanpa lipet samping 004. uk. L35 x P37, . HD model oval tanpa lipet samping 004. uk. L35 x P40, . HD model oval tanpa lipet samping 004. uk. L35 x P45, . HD model oval tanpa lipet samping 004. uk. L35 x P50, . HD model oval tanpa lipet samping 005. uk. L40 x P40, . HD model oval tanpa lipet samping 005. uk. L40 x P45, . HD model oval tanpa lipet samping 005. uk. L45 x P45, . HD model oval tanpa lipet samping 006.. model oval lipet samping uk.L26/ L20 x P27, . HD model oval lipet samping 035. uk.L32/ L25 x P35, . HD model oval lipet samping 035. uk.L40/ L30 x P30, . HD model oval lipet samping 004. uk.L40/ L30 x P35, . HD model oval lipet samping 004. uk.L40/ L30 x P37, . HD model oval lipet samping 004. uk.L40/ L30 x P40, . HD model oval lipet samping 004. uk.L45/ L35 x P35, . HD model oval lipet samping 004. uk.L45/ L35 x P37, . HD model oval lipet samping 004. uk.L45/ L35 x P40, . HD model oval lipet samping 004. uk.L45/ L35 x P45, . HD model oval lipet samping 004. uk.L45/ L35 x P50, . HD model oval lipet samping 005. uk.L45/ L40 x P40, . HD model oval lipet samping 005. uk.L50/ L40 x P45, . HD model oval lipet samping 005. uk.L55/ L45 x P45, . HD model oval lipet samping 006.. model tali pres uk.L26/ L20 x P27, . HD Talipres 035. uk.L32/ L25 x P35, . H D Talipres 035. uk.L40/ L30 x P30, . HD Talipres 004. uk.L40/ L30 x P35, . HD Talipres 004. uk.L40/ L30 x P37, . HD Talipres 004. uk.L40/ L30 x P40, . HD Talipres 004. uk.L45/ L35 x P35, . HD Talipres 004. uk.L45/ L35 x P37, . HD Talipres 004. uk.L45/ L35 x P40, . HD Talipres 004. uk.L45/ L35 x P45, . HD Talipres 004. uk.L45/ L35 x P50, . HD Talipres 005. uk.L45/ L40 x P40, . HD Talipres 005. uk.L50/ L40 x P45, . HD Talipres 005. uk.L55/ L45 x P45, . HD Talipres 006.. model singlet uk.L27/ L15 x P35, . HD singlet 03. uk.L29/ L17 x P36, . HD singlet 03. uk.L36/ L24 x P38, . HD singlet 03. uk.L40/ L28 x P48, . HD singlet 0 3. uk.L49/ L35 x P55, . HD singlet 035. uk.L60/ L40 x P60, . HD singlet 037. uk.L65/ L45 x P65, . HD singlet 04. uk.L70/ L50 x P75, . HD singlet 045.. ini ukuran plastik tebal 05 harus di pesen khusus pake minim order. model oval tanpa lipat plastik tebal uk. L16 x P24, . HD oval 05. uk. L20 x P30, . HD oval 05. uk. L25 x P35, . HD oval 05. uk. L30 x P39, . HD oval 05. uk. L43/ L35 x P40, . HD oval 05. uk. L43/ L35 x P48, . HD oval 05. uk. L55/ L45 x P48, . HD oval 05.. plastik tali press uk. L26/ L20 x P27, . HD Talipres 05. uk. L32/ L25 x P35, . H D Talipres 05. uk. L38/ L30 x P37, . HD Talipres 05. uk. L43/ L35 x P39, . HD Talipres 05. uk. L45/ L35 x P48, . HD Talipres 05. uk. L50/ L40 x P48, . HD Talipres 05.. Plastik singlet uk. L27/ L15 x P35, . HD singlet 05. uk. L29/ L17 x P36, . HD singlet 05. uk. L36/ L24 x P38, . HD singlet 05. uk. L40/ L28 x P48, . HD singlet 05. uk. L49/ L35 x P55, . HD singlet 05. uk. L60/ L40 x P60, . HD singlet 05. uk. L65/ L45 x P65, . HD singlet 05. uk. L70/ L50 x P75, . HD singlet 05.. plastik klip obat ukuran redi stok uk. L3 x P5. plastik klip uk. L4 x P6. plastik klip uk. L5 x P8. plastik klip uk. L6 x P10. plastik klip uk. L7 x P10. plastik klip uk. L8 x P10. plastik klip uk. L8, 7 x P13. plastik klip uk. L10 x P15. plastik klip uk. L11 x P17. plastik klip uk. L12 x P20. plastik klip uk. L16 x P20. plastik klip uk. L20 x P30. plastik klip uk. L25 x P35. plastik klip uk. L30 x P40. plastik klip uk. L35 x P41. plastik klip. UKURAN MODEL OVAL PLASTIK KLIP OBAT JENIS PE BENING REDI STOK Uk 25x35 + 7 04 Uk 28x36 + 7 04 Uk 30x38 + 7 05 Uk 30x40 + 7 06 Uk 35x40 + 7 07, -. jenis plastik pp tipis harga 26000/ kg mini pesen 1ball berat 25kg uk. L10 x P15 tebal 04 uk. L10 x P20 tebal 04 uk. L12 x P25 tebal 04 uk. L15 x P30 tebal 04 uk. L20 x P30 tebal 04 uk. L20 x P35 tebal 04 uk. L20 x P40 tebal 04 uk. L25 x P35 tebal 04 uk. L25 x P45 tebal 04 uk. L28 x P40 tebal 04 uk. L28 x P45 tebal 04 uk. L30 x P45 tebal 04 uk. L30 x P50 tebal 04 uk. L35 x P50 tebal 04 uk. L38 x P55 tebal 04 uk. L40 x P60 tebal 04 uk. L45 x P65 tebal 04 uk. L50 x P75 tebal 04 uk. L60 x P100, tebal 04. jenis plastik pp tebal kripik uk. L12 x P25 tebal 08 plastik kripik uk. L15 x P30 tebal 08 plastik kripik uk. L15 x P20 tebal 08 plastik kripik uk. L20 x P35 tebal 08 plastik kripik. jenis Plastik OPP uk. L10 X P25: tebal 0.03 mm uk. L10.5 x P18: tebal 0.03 mm uk. L10.5 x P25: tebal 0.03 mm uk. L11 x P15: tebal 0.03 mm uk. L11 x P18: tebal 0.03 mm uk. L11 x P25: tebal 0.03 mm uk. L11.5 x P25: tebal 0.03 mm uk. L12 x P15: tebal 0.03 mm uk. L12 x P25: tebal 0.03 mm uk. L12.5 x P25: tebal 0.03 mm uk. L13 x P15: tebal 0.03 mm uk. L13 x P18: tebal 0.03 mm uk. L13 x P25: tebal 0.03 mm uk. L13.5 x P25: tebal 0.03 mm uk. L14 x P18: tebal 0.03 mm uk. L14 x P25: tebal 0.03 mm uk. L14.5 x P25: tebal 0.03 mm uk. L15 x P25: tebal 0.03 mm uk. L15.5 x P18: tebal 0.03 mm uk. L16 x P25: tebal 0.03 mm uk. L16.5 x P25: tebal 0.03 mm uk. L17 x P25: tebal 0.03 mm uk. L17.5 x P25: tebal 0.03 mm uk. L18 x P25: tebal 0.03 mm uk. L18.5 x P25: tebal 0.03 mm uk. L19 x P25: tebal 0.03 mm uk. L19.5 x P25: tebal 0.03 mm uk. L20 x P30: tebal 0.03 mm uk. L20.5 x P30: tebal 0.03 mm uk. L21 x P30: tebal 0.03 mm uk. L21.5 x P30: tebal 0.03 mm uk. L22 x P30: tebal 0.03 mm uk. L22.5 x P30: tebal 0.03 mm uk. L23 x P30: tebal 0.03 mm uk. L23 x P35: tebal 0.03 mm uk. L24 x P35: tebal 0.03 mm uk. L6 x P15: tebal 0.03 mm uk. L7 x P15: tebal 0.03 mm uk. L7 x P25: tebal 0.03 mm uk. L7.5 x P25: tebal 0.03 mm uk. L8 x P25: tebal 0.03 mm uk. L8.5 x P15: tebal 0.03 mm uk. L8.5 x P25: tebal 0.03 mm uk. L9 x P15: tebal 0.03 mm uk. L9.5 x P25: tebal 0.03 mm. UKURAN KARUNG BERAS. 45 x 75 Karung beras susu 25KG 40 x 70 Karung beras susu 20KG 50 x 75 Karung beras susu 40KG 56 x 90 Karung beras susu 50KG 60 x 100 Karung beras susu 70KG 60 x 90 Karung beras susu 60KG 75 x 115 Karung beras susu 100KG 35 x 53 Karung beras susu 10KG 47 x 70 Karung beras susu 20KG. HARGA CALL / SMS / BBM KONTAK KAMI AGAR KAMI BISA MEMBANTU DALAM PESANAN YANG ANDA PESAN. ukuran plastik polybag plastik tanaman minim pesen 25kg, 1bal harga 25000/ kg uk. 48/ 24x50 tebal 10 mcrn plastik tanaman warna hitam uk. 40/ 20x40 tebal 10 mcrn plastik tanaman warna hitam uk. 36/ 18x35 tebal 10 mcrn plastik tanaman warna hitam uk. 32/ 16x30 tebal 10 mcrn plastik tanaman warna hitam uk. 26/ 13x25 tebal 10 mcrn plastik tanaman warna hitam uk. 20/ 10x20 tebal 05 mcrn plastik tanaman warna hitam uk. 16/ 8x15 tebal 05 mcrn plastik tanaman warna hitam. uk. ukuran; Plastik OPP Kiloan Plastik OPP Kiloan Ukuran : Sesuai dengan permintaan Ketebalan : Sesuai dengan permintaan Kemasan : 1: Roll minim berat: 75 kg Untuk ukuran umum, harga per kg adalah @ Rp 55.000, / kg-.. PLASTIK BUAH Plastik Buah 25 cm x 35 cm Ukuran : 25 cm x 35 cm ( 2kg) Kemasan : 6 Roll Plastik Buah 30 cm x 40 cm Ukuran : 30 cm x 40 cm ( 2kg) Kemasan : 6 Roll = = = = = = = = = = = = = = = = = = = HDPE 10 cm x 20 cm Ukuran : 10 cm x 20 cm Ketebalan : 0.03 mm Warna : Putih transparan Kemasan : 25 kg Rp. 32 500.00 Banyaknya: HDPE 12 cm x 25 cm Ukuran : 12 cm x 25 cm Ketebalan : 0.03 mm Warna : Putih transparan Kemasan : 25 kg Rp. 32 000.00 Banyaknya: . HDPE 120 cm x 180 cm Ukuran : 120 cm x 180 cm Ketebalan : 0.03 mm Warna : Putih transparan Kemasan : 25 kg Rp. 34 500.00 Banyaknya: HDPE 15 cm x 30 cm Ukuran : 15 cm x 30 cm Ketebalan : 0.03 mm Warna : Putih transparan Kemasan : 25 kg Rp. 32 000.00 Banyaknya: . Produk Kami | Kami menyediakan Plastik Klip, Ziplock Bag, Plastik HD, Plastik PP, Plastik Sampah, Plastik Cor, Plastik Bibit, Plastik Obat, Plastik Transparant, Plastik Klip, Klip Plastik, Ziplock Bags, Zipper Plastik Bags, plastic zipper bags, zipper plastic bags Kelebihan produk kami ( Plastik Klip, Klip Plastik, Ziplock Bags, Zipper Plastik Bags ) Produk kami ( Plastik Klip, Klip Plastik, Ziplock Bags, Zipper Plastik Bags, plastic zipper bags, zipper plastic bags HDPE 20 cm x 35 cm Ukuran : 20 cm x 35 cm Ketebalan : 0.03 mm Warna : Putih transparan Kemasan : 25 kg Rp. 32 000.00 Banyaknya: . HDPE 30 cm x 40 cm Ukuran : 30 cm x 45 cm Ketebalan : 0.03 mm Warna : Putih transparan Kemasan : 25 kg Rp. 32 000.00 Banyaknya: . HDPE 30 cm x 45 cm Ukuran : 30 cm x 45 cm Ketebalan : 0.03 mm Warna : Putih transparan Kemasan : 25 kg Rp. 32 000.00 Banyaknya: . HDPE 35 cm x 50 cm Ukuran : 35 cm x 50 cm Ketebalan : 0.03 mm Warna : Putih transparan Kemasan : 25 kg Rp. 32 000.00 Banyaknya: . plastik klip ukurannya 4 x 6 cm 5 x 8 6 x 10 7 x 10 8, 7 x 13 10 x 15 11 x 17 12 x 20 16 x 25 20 x 30 25 x 35 30 x 40 selain ukuran tersebut bisa juga dipesan. HDPE 40 cm x 60 cm Ukuran : 40 cm x 60 cm Ketebalan : 0.03 mm Warna : Putih transparan Kemasan : 25 kg Rp. 32 000.00 Banyaknya: . HDPE 50 cm x 75 cm Ukuran : 50 cm x 75 cm Ketebalan : 0.03 mm Warna : Putih transparan Kemasan : 25 kg Rp. 32 000.00 Banyaknya: . HDPE 50 cm x 75 cm Ukuran : 50 cm x 75 cm Ketebalan : 0.03 mm Warna : Putih transparan Kemasan : 25 kg Rp. 32 000.00 Banyaknya: . HDPE 50 cm x 75 cm Ukuran : 50 cm x 75 cm Ketebalan : 0.05 mm Warna : Putih transparan Kemasan : 25 kg Rp. 32 000.00 Banyaknya: HDPE 60 cm x 100 cm Ukuran : 60 cm x 100 cm Ketebalan : 0.03 mm Warna : Putih transparan Kemasan : 25 kg Rp. 32 000.00 Banyaknya: HDPE 60 cm x 100 cm Ukuran : 60 cm x 100 cm Ketebalan : 0.05 mm Warna : Putih transparan Kemasan : 25 kg Rp. 32 000.00 Banyaknya: HDPE 75 cm x 130 cm Ukuran : 75 cm x 130 cm Ketebalan : 0.05 mm Warna : Putih transparan Kemasan : 25 kg Rp. 34 500.00 Banyaknya: HDPE 75 cm x 130 cm Ukuran : 75 cm x 130 cm Ketebalan : 0.03 mm Warna : Putih transparan Kemasan : 25 kg Rp. 32 000.00 Banyaknya: HDPE 80 cm x 120 cm Ukuran : 80 cm x 120 cm Ketebalan : 0.03 mm Warna : Putih transparan Kemasan : 25 kg Rp. 34 500.00 Banyaknya: HDPE 90 cm x 120 cm Ukuran : 90 cm x 120 cm Ketebalan : 0.03 mm Warna : Putih transparan Kemasan : 25 kg Rp. 34 500.00 Banyaknya: = = = = = = = = = = = = = = = = = = = = = = = = = = = Kantong Plastik 15 cm x 25 cm Ukuran : 15 cm/ 25 cm x 25 cm Ketebalan : 0.03 mm Warna : Hitam Jumlah lembar : + 260 lembar / kg Kemasan : 25 kg Rp. 685 000.00 Banyaknya: Kantong Plastik 15 cm x 25 cm Ukuran : 15 cm/ 25 cm x 25 cm Ketebalan : 0.03 mm Warna : Putih Jumlah lembar : + 260 lembar / kg Kemasan : 25 kg Rp. 760 000.00 Banyaknya: Kantong Plastik 17 cm x 30 cm Ukuran : 17 cm/ 28 cm x 30 cm Ketebalan : 0.03 mm Warna : Putih Jumlah lembar : + 225 lembar / kg Kemasan : 25 kg Rp. 760 000.00 Banyaknya: Kantong Plastik 17 cm x 30 cm Ukuran : 17 cm/ 28 cm x 30 cm Ketebalan : 0.03 mm Warna : Merah Jumlah lembar : + 225lembar / kg Kemasan : 25 kg Rp. 686 000.00 Banyaknya: Kantong Plastik 17 cm x 30 cm Ukuran : 17 cm/ 28 cm x 30 cm Ketebalan : 0.03 mm Warna : Hitam Jumlah lembar : + 225 lembar / kg Kemasan : 25 kg Rp. 685 000.00 Banyaknya: Kantong Plastik 24 cm x 40 cm Ukuran : 24 cm/ 37cm x 40 cm Ketebalan : 0.03 mm Warna : Putih Jumlah lembar : + 148 lembar / kg Kemasan : 25 kg Rp. 760 000.00 Banyaknya: Kantong Plastik 24 cm x 40 cm Ukuran : 24 cm/ 37 cm x 40 cm Ketebalan : 0.03 mm Warna : Merah Jumlah lembar : + 148 lembar / kg Kemasan : 25 kg Rp. 686 000.00 Banyaknya: Kantong Plastik 24 cm x 40 cm Ukuran : 24 cm/ 37 cm x 40 cm Ketebalan : 0.03 mm Warna : Hitam Jumlah lembar : + 148 lembar / kg Kemasan : 25 kg Rp. 585 000.00 Banyaknya: Kantong Plastik 28 cm x 48 cm Ukuran : 28 cm/ 42 cm x 48 cm Ketebalan : 0.03 mm Warna : Putih Jumlah lembar : + 92 lembar / kg Kemasan : 25 kg Rp. 760 000.00 Banyaknya: Kantong Plastik 28 cm x 48 cm Ukuran : 28 cm / 42 cm x 48 cm Ketebalan : 0.03 mm Warna : Merah Jumlah lembar : + 92 lembar / kg Kemasan : 25 kg Rp. 686 000.00 Banyaknya: Kantong Plastik 28 cm x 48 cm Ukuran : 28 cm/ 42 cm x 48 cm Ketebalan : 0.03 mm Warna : Hitam Jumlah lembar : + 92 lembar / kg Kemasan : 25 kg Rp. 585 000.00 Banyaknya: Kantong Plastik 35 cm x 55 cm Ukuran : 35 cm/ 53 cm x 55 cm Ketebalan : 0.03 mm Warna : Putih Jumlah lembar : + 56 lembar / kg Kemasan : 25 kg Rp. 760 000.00 Banyaknya: Kantong Plastik 35 cm x 55 cm Ukuran : 35 cm/ 53 cm x 55 cm Ketebalan : 0.03 mm Warna : Merah Jumlah lembar : + 56 lembar / kg Kemasan : 25 kg Rp. 600 000.00 Banyaknya: Kantong Plastik 40 cm x 60 cm Ukuran : 40 cm/ 60 cm x 60 cm Ketebalan : 0.04 mm Warna : Putih Jumlah lembar : + 46 lembar / kg Kemasan : 25 kg Rp. 660 000.00 Banyaknya: Kantong Plastik 40 cm x 60 cm Ukuran : 40 cm/ 60 cm x 60 cm Ketebalan : 0.04 mm Warna : Merah Jumlah lembar : + 46 lembar / kg Kemasan : 25 kg Rp. 586 000.00 Banyaknya: Kantong Plastik 40 cm x 60 cm Ukuran : 40 cm/ 60 cm x 60 cm Ketebalan : 0.04 mm Warna : Hitam Jumlah lembar : + 46 lembar / kg Kemasan : 25 kg Rp. 485 000.00 Banyaknya: Kantong Plastik 50 cm x 75 cm Ukuran : 50 cm/ 76 cm x 75 cm Ketebalan : 0.08 mm Warna : Putih Jumlah lembar : + 22 lembar / kg Kemasan : 25 kg Rp. 670 000.00 Banyaknya: Kantong Plastik 50 cm x 75 cm Ukuran : 50 cm/ 76 cm x 75 cm Ketebalan : 0.08 mm Warna : Hitam Jumlah lembar : + 22 lembar / kg Kemasan : 25 kg Rp. 500 000.00 Banyaknya: Kantong Plastik 50 cm x 75 cm Ukuran : 50 cm/ 76 cm x 75 cm Ketebalan : 0.08 mm Warna : Merah Jumlah lembar : + 22 lembar / kg Kemasan : 25 kg Rp. 600 000.00 Banyaknya: = = = = = = = = = = = = = = = = = = = = = = = = Styrofoam Kemasan : Gabus Kecil Quantity : 100 pack Minimal Order 1 Packing : 1000 pieces Rp. 450 000.00 Banyaknya: Styrofoam Kemasan : Gabus Besar Quantity : 100 pack Minimal Order 1 Packing : 1000 pieces Rp. 550 000.00 Banyaknya: Styrofoam Kemasan : Gabus Sekat Quantity : 100 pack Minimal Order 1 Packing : 1000 pieces Rp. 550 000.00 Banyaknya: Styrofoam Kemasan : HB Quantity : 200 pack Minimal Order 1 Packing : 2000 pieces Rp. 560 000.00 Banyaknya: Styrofoam Kemasan : MO Quantity : 100 pack Minimal Order 1 Packing : 1000 pieces Rp. 420 000.00 Banyaknya: Styrofoam Kemasan : M2 Quantity : 250 pack Minimal Order 1 Packing : 2500 pieces Rp. 560 000.00 Banyaknya: Styrofoam Kemasan : P6 Quantity : 250 pack Minimal Order 1 Packing : 2500 pieces Rp. 580 000.00 Banyaknya: Styrofoam Kemasan : P75 Quantity : 250 pack Minimal Order 1 Packing : 2500 pieces Rp. 630 000.00 Banyaknya: Styrofoam Kemasan : P9 Quantity : 100 pack Minimal Order 1 Packing : 1000 pieces Rp. 850 000.00 Banyaknya: Styrofoam Kemasan : TR3 Quantity : 250 pack Minimal Order 1 Packing : 2500 pieces Rp. 750 000.00 Banyaknya: ukuran plastik polybag plastik tanaman minim pesen 25kg 1bal harga 25000/ kg uk. 48/ 24x50 tebal 10 mcrn plastik tanaman warna hitam uk. 40/ 20x40 tebal 10 mcrn plastik tanaman warna hitam uk. 36/ 18x35 tebal 10 mcrn plastik tanaman warna hitam uk. 32/ 16x30 tebal 10 mcrn plastik tanaman warna hitam uk. 26/ 13x25 tebal 10 mcrn plastik tanaman warna hitam uk. 20/ 10x20 tebal 05 mcrn plastik tanaman warna hitam uk. 16/ 8x15 tebal 05 mcrn plastik tanaman warna hitam HD PE PP OPP LLDPE oxium degradabel jenis plastik HD SINGLET HD SOFHENDEL HD OVAL PE SINGLET PE SOFHENDEL PE OVAL jenis plastik super market careffurr plastik alfa plastik superrindo HD singlet oxium degradabel jenis plastik super market PE singlet jenis plastik super market oxium degradabel singlet jenis plastik obat plastik klip cetak plastik printing plastik sablon plastik prin shoping bags plastik boutiq plastik promosi plastik kebutuhan kantor plastik shoping bags plastik gudang plastik super plastik polibag plastik tanaman plastik pupuk plastik beras plastik kripik plastik corr bangunan plastik onderdil mobil onder motor plastik toko baju plastik kebutuhan rumah sakit plastik kebutuhan akupuntur plastik bungkus pakan burung plastik bungkus sayuran organik kualitas unggul DLL Anda bisa mengklik "" Info Perusahaan "" , "" Katalog Produk "" dan "" Hubungi Kami "" untuk melihat isi dan informasi lain dari situs cetak plastik printing plastik sablon plastik prin shoping bags plastik boutiq plastik promosi plastik kebutuhan kantor plastik shoping bags plastik gudang plastik super plastik polibag plastik tanaman pupuk plastik beras plastik kripik plastik cor. TOKO CETAK KANTONG PLASTIK Perusahaan kami lebih memfokuskan jenis produk pada shopping bag plastik, akan tetapi kami juga menerima order jenis produk yang lain. Harga sablon plastik yang kami tawarkan selain relatif murah dan juga dapat dinegosiasikan kembali. Perusahaan kami selalu berusaha menjaga hubungan baik dengan para klien dan langganan, sehingga menjadi suatu kesepakatan bahwa kepercayaan anda kepada kami adalah suatu asset yang sangat berharga bagi kami. dan tidak ternilai harganya. Segera hubungi kontak kami segera mudah cukup hubungi kami melalui telphone anda sekarang juga dan anda akan mendapatkan jawabannya bersama kami. salam sukses binajayaplastik@ yahoo.com info web : info@ binajayaplastik.com ","
              Jl. Jelambar Indraloka Gang 5 No 1875, Jakarta Barat            ",Jakarta Barat,DKI Jakarta,+62 812-8016-3911,None,None
Duta Plastik Printing,"
                                    PREMIUM GOLD
                                ",Laundry,"
Selamat datang di www.dutaplastikprinting.com
DUTA PLASTIK PRINTINGMUHAMMAD SUYATNO
Alamat : Jl.NN.Rawa Kramat, Rt04/04 no 10 cengkareng barat - jakarta barat NO.HP : 081316888892, 087888775592 , 085711400392 WA     : 081316888892, 087888775592 Email   : dutaplastik123@ gmail.comKami bergerak di dalam bidang jasa :· shopping bag· cetak kantong plastik· plastik softhandle· printing plastik· tempat cetak kantong plastik· plastik polybag· plastik kresek· plastik HD· plastik PE· plastik OPP· plastik PP· plastik laundry· plastik promosikami menyediakan berbagai plastik berbagai ukuran dan berbagai warna, cocok untuk tas promosi, tas pameran, tas belanja di toko maupun di perusahaan anda tentunya, barang bermutu bekualitas internasional, harga terjangkau, kami juga menerima partai kecil dan partai besar, perusahaan kami juga menerima cetak plastik dan spunbond partai kecil dan partai besar. perusahaan ini bergerak di bidang printing plastik dan produksi pp polos ( non printing) atau biasanya di sebut sablon plastik.Perusahaan Kami Berdiri sejak tahun 2006. Kami siap melayani orderan dengan minimal order yang terjangkau sampai besar dengan harga yang murah dan kualitas yang terbaik. untuk ukm atau home industri tidak usah merasa sungkan untuk hub kami. kami akan mambantu anda untuk menciptakan packaging yang bagus dan mempromosikan product anda kami juga melayani design gambar jasa yang kami sediakan adalah, design gambar, design logo, job order, bisa membuat dari ukuran kecil sampai besar, quantity kecil-besar.Jenis Bahan Plastik   : HD PE PP OPP LLDPE oxium degradabelJenis & Model Plastik : HD Singlet, HD Softhandle, HD Oval, PE SingletCocok untuk Supermarket, Alfamart, Indomart, Retaurant, Superindo, Apotek, Toko Baju.Macam – macam kantong Spundbond Ready Stock :1. Model Pegangan Plong : ukuran 20 x 24, ukuran 25 x 35, ukuran 30 x 402. Model Pegangan Talipres pakai lipat samping : ukuran 25x35, ukuran 30x40, ukuran 38 x 45, ukuran 45 x 55.Cetak plastik printing, plastik sablon, plastik print shoping bags, plastik boutique, plastik promosi, plastik kebutuhan kantor, plastik shoping bags, plastik gudang, plastik super, plastik polibag, plastik tanaman, plastik pupuk, plastik beras, plastik kripik, plastik corr bangunan, plastik onderdil mobil, plastik toko baju, plastik kebutuhan rumah saki,t plastik kebutuhan akupuntur, plastik bungkus pakan burung, plastik bungkus sayuran organik kualitas unggul, dll. ","
              Jl. NN rawa kramat rt 04/04 no. 10 cengkareng barat - cengkareng , jakarta barat            ",Jakarta Barat,DKI Jakarta,+62 813-1688-8892,None,None
BUMI INDAH PUTRA,"
                                    PREMIUM GOLD
                                ",Laundry,"
              INFO PRODUK :Rony Hamid 085280079118            ","
              (Kantor Pemasaran) : Graha Bumi Indah  Jl. Inspeksi Kalimalang Kav. Agraria Blok E No. 80/10 Duren Sawit - Jakarta Timur     (Workshop)  : Jl. Kejaksaan Blok d No.85 RT.011/ 11 Pondok Bambu - Duren Sawit, Jakarta Timur |            ",Jakarta,DKI Jakarta,085280079118,None,None
Kamarmandiku.com,"
                                    PREMIUM GOLD
                                ",Laundry,"
              Apakah Anda Sedang mencari Perlengkapan- peralatan kamar mandi serta dapur yang berkualitas dan bergaransi? .Kini telah hadir Kamar Mandiku.com, yang akan membantu anda menemukan perlengkapan kamar mandi yang lengkap dan dengan model yang terbaru.Dengan Dukungan dari produk terkenal serta terpercaya Seperti: Roca bathroom, Teka,Midea, Grohe,Toto, American Standard, Wilo, Bold, Biotaff, Taff, Biofil, Hitachi, Sanei, Chrysolite, Meridian, Wika, Solahart, Honeywell, Daalderop, Penguin ,Tecnogas Waterco, Profil Tank, Grohe, Crestial, 3M, Edwards, Broco, Wasser, Toclas, Yamaha, samsung, yale dll.Kamar Mandiku.com akan membantu mewujudkan semua mimpi anda. Kemudahan transaksi serta harga yang kompetitif menjadikan pelayanan kami berbeda dengan toko lain pada umumnya. MOTTO : "" Tinggal klik barang langsung dikirim"" . Begitu mudahnya ! ! . Sehingga anda akan menghemat waktu yang berharga serta uang yang tidak sedikit untuk berburu perlengkapan kamar mandi yang anda inginkan. Kamar Mandiku.com juga memberikan gratis desain kamar mandi, gratis pemasangan serta gratis jasa pengiriman. Trade in ( tukar Tambah ) , Jasa Renovasi serta dukungan instalasi. Dengan pengalaman lebih dari 9 tahun, kamar mandiku.com telah melayani seluruh konsumen di Indonesia, bahkan mancanegara seperti malaysia & Brunai. Kejujuran serta tanggung jawab menjadi modal utama kami untuk terus maju & berkembang. Disertai dukungan sistem informasi yang canggih kami siapkan untuk memberikan Pelayanan terbaik kami. Nikmati dan temukan apa yang sedang anda cari, hubungi kami jika ada yang mungkin menjadi pertanyaan, 24 jam kami akan menjawab segala pertanyaan dan masukan anda. Akhir kata senang bisa berkenalan dengan anda semua. Selamat berbelanja, harapan kami anda akan senang dengan pelayanan kami. Salam Sukses            ","
              Rukan Niaga Boulevard  Metland  menteng blok i1 No.26  Raya Bekasi Km.26 Jakarta Timur            ",DKI Jakarta,DKI Jakarta,+62 811-1185-538,None,None
INtersarana Indokita (INIGLODOK),"
                                    PREMIUM GOLD
                                ",Laundry,"
              www.iniglodok.com Usaha dari pengembangan indokita teknik ; intersarana1 , Nilfastindo dan Pora Perabot. Pengembangan ini untuk mempermudah pelayanan pembelian sukucadang,mesin,utilities dan accesories. Customer selalu menjadi prioritas Kami dalam usaha pengembangan bisnis.Untuk mempermudah pelayanan bisa menghubungi di  Customer service :+62 21 6329866. & 021 22638375 ----------------------------------------------------------------------------------------------------www.iniglodok.com Enterprises of indokita development techniques; intersarana1, Nilfastindo and Pora perabot. This development is to facilitate the purchase of service parts, machines and accesories. Our customer is always a priority in business development efforts.we giving a cost compatible price with the other.We always effort for giving our customers satisfaction.trustworthy and reliable.From Customers ,We grow up.Customer Service : 021  6329866 & 22638375Sales 1  08561003778  (Whatsapp-Line)Sales 2. 081285012211 (Whatsapp-Line) ","
              JL. Hayam Wuruk GLODOK CITY 3rd floor Blok BKS No 64. & 4th Floor Blok BKS No 08 Jakarta 11120LTC Lindeteves Glodok Jl Hayam Wuruk 127 Glodok Jakarta .Koridor F Lt,1  Blok B Pameran            ",Jakarta,DKI Jakarta,+62 856-1003-778,None,None
ProPlastik,"
                                    ANGGOTA BASIC
                                ",Laundry,"
ProPlastik supply dan grosir barang barang plastik untuk kebutuhan komersial : Laundry, Garment, Hotel, Tersedia Hanger baju berupa Hanger baju kawat dan hanger baju plastik , Jepitan Baju. Cara Membeli/Pemesanan Via : 

BBM : 7D345D70 / 75572276


WA/SMS : 087809812800 / 081218771555


Email : proplastik@yahoo.co.id


Facsimile : 021 5631639

Barang ready stock dikirim 1-3 hari kerja. Barang pesanan memerlukan waktu 1-2 minggu proses produksi Harga franco Jakarta Ongkos kirim kurir/ekspedisi/cargo ditanggung pembeli sesuai tarif tujuan alamat pengiriman, perhitungan berdasarkan volume barang/ berat barang + biaya packaging bila diperlukan. Pembayaran: Transaksi akan dikirim bila pembayaran sudah lunas. Transaksi barang pesanan pembayaran dp 50% sisanya dilunasi setelah barang siap dikirim. Pembayaran hanya dengan transfer. Konfirmasi bukti pembayaran dengan Fax/Email/WA/BBM Pembayaran dianggap lunas setelah tercatat dalam rekening kami. Garansi: Barang yang tidak sesuai pesanan dapat ditukar Barang yang rusak akibat kesalahan produksi dapat ditukar Penukaran dapat dilakukan setelah barang yang akan ditukar diterima ditempat kami dalam beberapa hari kerja sesuai keteresediaan barang.Contoh: Sample Produk Gratis, cukup bayar ongkos kirim saja sesuai alamat pengiriman.            ","
              Jl. Jelambar Selatan No.29            ",Jakarta Barat,DKI Jakarta,+62 878-0981-2800,None,None
