Name,Membership,Category,Description,Address,City,Province,telp1,telp2,telp3
CV. JAYA MAKMUR ABADI,"
PREMIUM RUBY
",Rumah,"
CV. Jaya Makmur Abadi, perusahaan yang bergerak dibidang perdagangan umum Material Konstruksi & material lainnya, dan telah berpengalaman lebih dari 10 Tahun. 
Berdiri sejak Tahun 2005 dengan nama Jaya Makmur Abadi, dan diresmikan pada tahun 2010 oleh notaris Edward Agustin menjadi CV. Jaya Makmur Abadi. 
CV. Jaya Makmur Abadi bekerja sama dengan beberapa Pabrik & Distributor Material dan hingga kini sudah melayani lebih dari 900 pelanggan, yang terdiri dari pelanggan pribadi/perusahaan baik dari dalam & luar daerah di Indonesia. 
 
Visi & Misi : 


Menciptakan sistem perusahaan yang sistematis & fleksibel dalam hal pelayanan.
Menciptakan lapangan kerja & Sumber daya Manusia yang terampil, profesional& handal. 
Menciptakan pelayanan & kerjasama yang berkesinambungan dengan pelanggan.
Menjadi perusahaan multinasional yang dapat memberi sumbangsih terhadap perekonomian di Indonesia. 

CV. Jaya Makmur Abadi.General Supplier & Trading : Besi Beton & Baja. Rangka Baja Ringan & Atapnya.Aluminium Kusen Pintu & Jendela.Plywood & Kayu lainnya.Pipa Paralon & Pipa Lainnya. 
Keramik & Granit.Perlengkapan Sanitary. Aksesories Pintu & Jendela.
Segala jenis Kaca Bangunan.Aluminium Composite Panel.Kawat Baja & Besi. 
Karpet Import & VINYL. Kusen, Pintu & Jendela Kayu. Windows Fashion.Mekanikal Elektrikal.Meubelair Kantor & Sekolah.
Pipa HDPE.Pipa Air Panas.HPL.Cat.Pipa Gorong-Gorong.Plat Kapal.Dll.
Untuk melengkapi kebutuhan pelanggan, kami juga menyediakan Jasa Kontraktor, Jasa Arsitek & Jasa Konsultan.
Untuk informasi lebih jelas, dapat menghubungi Marketing kami.
Terima kasih. www.jayamakmurabadi.co.id
CV. Jaya Makmur Abadi 
Jl. Brigjend Katamso No. 2 Samarinda. Kalimantan Timur 75117.Telp : 0541-7802915Fax. : 0541-766315Email : sales@jayamakmurabadi.co.id
 

 
 ","
              Head Office :Jl. Brigjend Katamso No. 2. Samarinda. Kalimantan Timur ",Samarinda ,Kalimantan Timur,+62 823-5215-3244,+62 813-4942-8940,+62 852-4900-5619
CV.ALVIWAN,"
                                    PREMIUM GOLD
                                ",Rumah,"
CV. ALVIWAN merupakan perusahaan yang bergerak dalam bidang properti, khususnya properti komersil dengan komitmen ke depan menjadi pengembang properti terkemuka dengan membangun Pusat Perdagangan, Perkantoran, Perumahan, Tanah dan Properti komersial lainnya di lokasi-lokasi strategis.
 
Berdiri sejak tahun 2010, perusahaan kami selalu mengedepankan kualitas. Melalui berbagai program dari perusahaan, perusahaan kami telah berhasil menjadi penyedia properti yang terpercaya.
 
Sebagai perusahaan pengembang properti komersial terkemuka kami menyediakan solusi bisnis properti secara terpadu dengan mengedepankan inovasi produk yang memuaskan.
Didukung oleh kerjasama tim yang handal dengan keahlian dan pengalaman yang luas di bidangnya masing-masing, Azkazaki Group Property mengembangkan produk properti berkualitas yang senantiasa diakui dan dipercaya oleh para pembeli.
 
CV. ALVIWAN memberikan produk perumahan berupa rumah siap huni dan tanah kavling siap bangun. Dengan produk semacam ini, diharapkan kualitas bangunan menjadi sebagaimana yang diinginkan, serta jaminan kualitas dan tidak meninggalkan unsur pelayanan yang memuaskan dan sesuai dengan kebutuhan masyarakat pada saat ini.
 
VISI :
Menjadi perusahaan properti terbaik di Indonesia.
 
MISI :
Mengembangkan perusahaan agar semakin dipercaya oleh masyarakat luas. ","
              SETRO 6 KAV A1            ",SURABAYA,Jawa Timur,+62 812-3148-990,None,None
