Name,Membership,Category,Description,Address,City,Province,telp1,telp2,telp3
zeropromosi,"
                                    PREMIUM GOLD
                                ",Kemasan Botol,"
              Perkenalkan kami Zeropromosi.com merupakan penyedia aneka souvenir seperti: - souvenir kantor - souvenir ultah - souvenir pernikahan Produk kami terdiri dari flashdisk, payung, tumbler, pulpen, mug/gelas, powerbank, tali id card dan banyak lainnya Kami sudah berpengalaman dibidang barang promosi & souvenir dengan selalu memenuhi deadline yang ketat serta yang tidak kalah penting adalah HARGA KOMPETITIF. Min order 100pcsharga blm termasuk cetakJika ada yang belum jelas dan ingin ditanyakan bisa langsung menghubungi kami di:mkt 1 WA / Tlp : 0877 8186 7176mkt 2 WA / Tlp : 0877 8185 7176Email : zeropromosi@gmail.comLine : @zeropromosi (harus pake @)            ","
              Jl. Arcadia Daan Mogot Blok H7 No.16,  Batuceper, Kec. Batuceper, Kota Tangerang, Banten 15122, Indonesia            ",Tangerang,Banten,087781857176,087781867176,081808064176
PT. Hanja Prima Loka,"
                                    PREMIUM GOLD
                                ",Kemasan Botol,"
              PT. Hanja Prima Loka sudah beroperasi sejak tahun 2001. Kami memproduksi Galon dengan bahan Polycarbonate ( PC) yang tersedia dengan berbagai jenis yaitu Prime Grade, Medium Grade dan Lower Grade. Produk yang kami tawarkan tidak hanya galon, tetapi juga pelengkap kebutuhan Galon seperti tutup galon, tissue, segel ( printing dan sablon) , dan juga sticker untuk memenuhi kebutuhan konsumen. Kami memenuhi kebutuhan konsumen  Air Minum Dalam Kemasan ( AMDK) yang bermerek maupun air minum isi ulang ( galon polos) .            ","
              Komplek Pergudangan Nusa Indah Blok A No. 21. Jln. Husein Sastranegara, Jurumudi            ",Tangerang,Banten,08558800556,None,None
PT. Haliplast Century Indonesia,"
                                    PREMIUM GOLD
                                ",Kemasan Botol,"
Perusahaan kami memproduksi tutup galon dengan bahan murni LDPE. Kami melayani permintaan tutup galon polos maupun merk untuk Air Minum Dalam Kemasan ( AMDK) di seluruh wilayah Indonesia. Tersedia banyak varian warna cerah untuk permintaan polos maupun merk AMDK.Contact Person :PT. Haliplast Century IndonesiaMobile¬†: 0857¬†1921¬†1427 // 0815-8812-741 ( Call/WA )Email¬†¬†: haliplast.century@gmail.comWebsite : www.suppliertutupgalon.com ","
              Jurumudi, Tangerang            ",Jakarta,Banten,+62 815-8812-741,None,None
PT PUTRA ANDALAN JAYA,"
                                    PREMIUM GOLD
                                ",Kemasan Botol,"
              Sprinkler irigasi taman, kebun, supplier / distributor / jual sprinkler, kontraktor pemasangan sistem irigasi dan konsultan. Irigasi sprinkler adalah sistem penyiraman tanaman otomatis, alat siram, alat semprot air, sprinkler head, sprinkler taman, sprinkler golf, sprinkler kebun pertanian, rain gun / pop up sprinkler lapangan olahraga, roof garden, drip irigasi vertical wall garden, mist spray untuk green house, nursery kelapa sawit, dust suppression for mining / road, mist / kabut. Produk sprinkler golf, sprinkler taman, impact sprinkler, pop up sprinkler, rotary sprinkler, nozzle, drip sistem, sistem tetes, micro sprinkler, spuyer walet, spray jet, 4 way fogger, fitting, rain big gun, disc filter, fertilizer injector, dosing pump, pressure reducing valve, air relief valve, controller / timer, solenoid valve / remote control valve, quick qoupling valve, box valve, rain sensor, soil moisture sensor, batere/ solar controller Authorised Distributor Hunter, USA * Sprinkler system untuk landscape dan agriculture, Senninger, USA *Wobbler sprinkler dan Mining sprinkler. Antelco , Australia * Mini spray system, landscape , horticulture Azud, Spain * Disc filter, agriculture products Dosatron, France * Fertigation water powered dosing pump Ez-Flo, USA * Fertigation product Irriforce-Yuzuak * Traveller Irrigator, Big Gun, Fogco, USA * Fog cooling and mist special effect, Bermad  * Irrigation valve. Personal berpengalaman dalam proyek irigasi sejak 1997, design dan kontraktor: Landscape: irigasi sprinkler perumahan pribadi, lahan komersial, taman kota, vertical garden, roof garden, memorial park, jalur busway, lapangan olahraga sepak bola,Perkebunan: irigasi impact sprinkler nursery kelapa sawit, drip system, mist system green house, rain gun / big gun dengan pipa aluminium / galvanis , travelling irigasi Pertambangan, dust suppresion untuk pile area, jalan berdebu Golf Course: system sprinkler golf, central controller, satellite, decoder, pump station. Consultant dan designer, kami yang pertama dan satu satunya perusahaan irigasi di Indonesia yang menggunakan licence professional CAD irrigation design software dengan standar pipa yang umum dipakai di Indonesia, standar AW, JIS, SNI untuk pipa uPVC, HDPE dan PPR. Keuntungan dari Irigasi Automatis Apakah Irigasi? Pada awalnya irigasi pertanian melibatkan penggalian kanal dan mengalirkan air sungai ke lahan dan dikenal dengan irigasi terbuka. Dalam perkembangan dipakai irigasi sprinkler yang digunakan pada lahan pertanian, golf course, taman rumah, taman rekreasi maupun lapangan olahraga. Kegunaan sprinkler adalah menyediakan air seperlunya bagi tanaman dan rumput. Irigasi sprinkler mendominasi penggunaan irigasi automatis didunia. Jenis sprinkler antara lain pop up spray head sprinkler, rotor dengan teknologi rain curtain, rotary nozzle, impact sprinkler umumnya digunakan di halaman rumah, taman lingkungan dan golf course sampai ke big gun, rotating sprinkler, moveable irrigator yang lebih besar untuk penggunaan di lahan komersial maupun pertanian seperti lahan tebu, kentang dan jagung. Irigasi automatis low volume juga mulai terkenal karena dengan cara pemakaian yang tepat system ini dapat mencapai efisiensi penggunaan air sampai 98% . Irigasi low volume menggunakan, drip emitter, dripline, bubbler dan micro spray memberikan kebutuhan air secara tepat, perlahan dan merata, langsung ke akar tanaman. Penggunaan controller dan electric valve akan mengatur schedule penyiraman sesuai dengan kondisi cuaca dan kebutuhan tanaman. Seiring dengan perkembangan green building konsep maka trend memanfaatkan lahan hijau dengan cara menggunakan vertical green wall dan roof top garden memerlukan konsep irigasi tersendiri. Tersedianya alat fertilizer injector akan sangat membantu pemupukan. Pertamanan adalah aset yang berharga dan indah bagi lingkungan kita. Taman yang didesign dengan benar akan meningkatkan kualitas hidup di rumah tinggal dan komunitas kita dalam banyak hal antara lain: Menyediakan area yang aman dan berkualitas tinggi untuk bermain, berolahraga dan bersantai. Meningkatkan nilai jual perumahan. Lapangan rumput, perdu dan pepohonan mengurangi tingkat polusi kebisingan sampai dengan 50% . Irigasi sprinkler automatis adalah komponen yang sangat penting dalam pertamanan, menghemat waktu dan penyiraman dengan lebih efisien, lebih tepat sasaran dan lebih merata berdasarkan kebutuhan masing masing tanaman. Hemat waktu : Sistem akan melakukan semua tugas penyiraman untuk anda. Jadwal penyiraman yang teratur akan menghasilkan tanaman yang lebih sehat, lebih hijau dan rerumputan yang lebih merata pertumbuhannya. Hemat air : Automatis system menggunakan lebih sedikit air dari pada penyiraman manual. Hemat biaya : Tagihan air lebih hemat dan tanaman akan hidup lebih indah dan lama. Penyiraman secara manual sepertinya lebih hemat biaya dari pada automatis, tetapi bukan cara yang efisien untuk penyiraman, dan dapat berakibat seperti: Tanaman yang mengering bahkan mati karena kekurangan air. Tanaman mengalami stress yang dapat mengakibatkan kematian akibat kelebihan penyiraman atau jadwal penyiraman yang tidak beraturan. Air terbuang percuma akibat waktu penyiraman terlalu lama dan kemungkinan penyiraman pedestrian, jalan setapak maupun garasi. Biaya lebih tinggi untuk pemakaian air, dan meningkatkan biaya tenaga kerja Memilih Kontraktor Irigasi Keputusan yang paling penting, Investasilah secara bijaksana Pemasangan system irigasi sprinkler secara professional merupakan cara bijaksana untuk membuat taman indah dan akan membuat hidup lebih mudah. Untuk memaksimalkan investasi anda pastikan system di design dan dipasang secara benar oleh tenaga yang ahli dan berpengalaman dibidangnya. Mohon diingat, bahwa masih banyak hal lain yang diperlukan untuk sebuah system sprinkler bukan hanya sprinkler saja. Pemilihan product yang tepat, ukuran pemipaan, pompa, dan alat penunjang lainnya memerlukan suatu profesionalisme tersendiri bukan sekedar tukang pasang pipa biasa. Kontraktor irigasi akan mendesign dan memasang system automatic sprinkler anda dan memastikan produk yang tepat digunakan pada taman anda. Design dan pemasangan merupakan faktor utama yang akan mempengaruhi performance dan umur pemakaian secara keseluruhan.            ","
              Sentra Gading Serpong Blok SG 3 / 23 Jl Boulevard Gading Serpong            ",Tangerang,Banten,+62 878-7883-6908,None,None
Dunia Rak Minimarket,"
                                    PREMIUM GOLD
                                ",Kemasan Botol,"
Produsen Perlengkapan Supermarket atau Minimarket, kami menyediakan semua kebutuhan Pendukung supermarket atau minimarket Anda. yang sudah ada sejak Tahun 2010, lokasi di Tangerang Banten ","
              pondok alam permai blok E8 No 22 Gembor            ",Tangerang,Banten,+62 821-1364-7899,None,None
PT. ANUGRAH PUTRA KENCANA,"
PREMIUM RUBY
",Kemasan Botol,"
PT. Anugrah Putra Kencana adalah perusahaan yang bergerak dalam bidang perdagangan umum atau industry supply seperti : kimia industri, kimia analis, glassware ( alat-alat laboratorium ), laboratorium instrument, laboratorium equipment, furniture lab ( lemari Asam, wall bench, island bench, balance table, lemari kimia, lemari glassware ), timbangan analis, chain dan kebutuhan industry lainnya.Kami memiliki principal dari Jerman, Rusia, Korea, Japan, China, Taiwan, India, dan juga beberapa pemasok lokal yang mendukung bisnis kami sampai sekarang.PT. Anugrah Putra Kencana corporation specializes in the field of general trading / supply industries such as chemical industry, chemical analysts, laboratory glassware equipments, laboratory instruments / equipments, laboratory furniture ( Fume hood, wall benches, island benches , balance tables, chemicals storage cabinet, glassware storage cabinet ),  analytical balance and chain.We have principals from the following countries: Germany, Russia, Korea, Japan, China, Taiwan, and India, as well as local suppliers who continue in supporting our business.  ","
              Pergudangan Segitigamas Pintu 6 UKM center Jl. Samsung IIc Blok C3i            ",Bekasi,Jawa Barat,+62 821-1399-3562,+62 877-4142-8040,+62 896-0555-3944
CV.BINTANG BOTOL PLASTINDO,"
                                    PREMIUM GOLD
                                ",Kemasan Botol,"
CV.BINTANG BOTOL PLASTINDO
Usaha yang bergerak dibidang packaging pembuatan botol plastik. Kami melayani Partai besar dan Partai kecil dengan harga yang kompetitif. From our home to yours. Our Products are : 
‚Ä¢ Hdpe PET‚Ä¢ Botol Herbal‚Ä¢ Botol Kosmetik ‚Ä¢ Botol Air Mineral‚Ä¢ Botol Oli & Minyak Rem‚Ä¢ Botol hotel  dan masih banyak lagi lainnyaa
All stuff made by order only, you can give any measurements of your bottle and we will make it.
Contact UsEmail  : Bintangbotolplastik@gmail.comPhone               : 0816533839 085720000439 Whatsapp          : +62 822 2220 5499BBM                 : D3549910
www.bintangbotolplastik.net www.bintangbotolplastindo.com ","
              jl.alternatif cibubur Cileungsi km.7 No.63C.Cileungsi Bogor 16820 sebrang Telkom Cileungsi            ",bogor,Jawa Barat,+62 816-533-839,+62 857-2000-0439,None
Omah Dodolan Fiafi,"
                                    PREMIUM GOLD
                                ",Kemasan Botol,"
              Berdiri sejak awal Agustus 2020. Dengan 4 orang tenaga kerja yang menjadi motor dalam usaha di Omah Dodolan FIAFI ini.Berusaha menyediakan minuman sehat yang terbuat dari buah asli tanpa bahan pengawet, pewarna dan perasa. Meskipun terbilang baru, tetapi bertekad untuk segera bertumbuh dan berkembang agar bisa menjadi UMKM yang naik kelas.            ","
              Taman Bekasi Asri blok F no 9, RT 03/RW.29, Kel. Pengasinan, Kec. Rawalumbu, Bekasi 17115            ",Bekasi,Jawa Barat,085889688462,None,None
CV.changdong Indonesia,"
                                    PREMIUM GOLD
                                ",Kemasan Botol,"
CV.Changdong Indonesia di dirikan pada tgl 05 Mei 2007, Tujuan didirikan perusahaan adalah memproduksi mesin-mesin pertanian, perkebunan, perikanan, Industri Kecil Menengah dan Usaha Kecil Menengah. demi mendukung percepatan pertumbuhan ekonomi masyarakat menengah kebawah serta membuka lapangan kerja baru. Pada saat ini, CV.Changdong Indonesia memproduksi mesin-mesin pertanian antara lain :
- Power Thresher- Mesin Pengurai Sabut Kelapa- Mesin Pencacah Sampah Organik ( APPO)- Mesin Press Kemasan Hidrolik- Mesin Pres Kemasa- Mesin Pencetak Pellet- Mesin Press Batako- Mesin Paving Blok Hidrolik- Mesin Pencacah Plastik- Mesin Granulator- Mesin Press Bata Merah- Mesin Mixer- Mesin Pirolisis Arang- Mesin Gongsengan Kopi- Mesin Pemipil Jagung- Mesin Hammer Mill atau Penghalus Jagung- Dan masih banyak yang lainnya
Lokasi CV. Changdong Indonesia terletak di Jl. Gondang No.13 RT 01/RW 10 Kecamatan Mustika Jaya, Kota Bekasi -Jawa Barat  CV. Changdong Indonesia memilih bahan baku seperti Plat Mild steel, Kanal UNP, Plat Strip dan Besi Beton, Stainless steel dengan memilih kualitas yang baik. Dan kami juga menerima segala permintaan bahan baku dari setiap costumer kami. Didukung pula oleh Teknisi yang berpengalaman dan terlatih. Pada saat ini CV.Changdong Indonesia menghasilkan produk dan kapasitas disesuaikan dengan permintaan pasar. Konsumen CV.Changdong Indonesia adalah Petani, Pengusaha, Pemerintahan, Swasta dan Rekanan dari pemerintahan di seluruh Indonesia. Visi CV. ChangdongIndonesia: ‚Äú Mengutamakan kepuasan pelanggan atas layanan kami ‚Äù Misi CV. Changdong Indonesia : ‚Äú Meningkatkan mutu dan kualitas, Efisiensi yang ramah lingkungan ‚ÄùUntuk Informasi Lebih Lanjut Hubungi
CV Changdong IndonesiaJl. Gondang No.13, RT 01/RW10 KecamatanMustika Jaya,Kota Bekasi -  Jawa Barat 17158Hp : 085287938886 - 081280097909 - 08788728889
 ","
              JL. Gondang No.13 Kec Mustika Jaya Kota Bekasi -  Jawa Barat             ",Bekasi,Jawa Barat,+62 852-8793-8886,None,None
CV. HERRY JAYA UTAMA,"
                                    PREMIUM GOLD
                                ",Kemasan Botol,"
              CV. HERRY JAYA UTAMA ( freza_ wa@ yahoo.co.id) Sebagai Sole Agent / Distributor, Jual alat kesling / laboratorium product : Haz Dust, Wohler / woehler, Kimo Instruments, E Instruments, HI-Q, Staplex, Sensit Technologies, Vzor, Partech UK Instruments, dengan ini kami menjual peralatan sebagai berikut : MENJUAL : ALAT SAFETY ALAT TEHNIK CIPIL ALAT INSTRUMENTS ALAT LINGKUNGAN HIDUP ALAT KESEHATAN ALAT UJI AIR ( WATER TEST KIT ) ALAT UJI MAKANAN ( FOOD DETECTION KIT ) ALAT UKUR INTENSITAS SUARA SOUND LEVEL METER ALAT UKUR KEBISINGAN DI AREA KERJA ALAT LABORATURIUM KESEHATAN ALAT UJI EMISI / GAS BUANG INSENERATOR RANSEL TAS PUNGGUNG PEMADAM KEBAKARAN MICROSCOPE ALAT UKUR NOISE DOSIMETER ALAT UKUR KEBISINGAN PERSONAL VIBRATION METER ALAT UKUR GETARAN HUMIDITY METER ALAT UKUR KELEMBABAN ALAT UKUR SUHU ALAT UKUR KECEPATAN ALIRAN UDARA LUX METER ALAT UKUR INTENSITAS CAHAYA ALAT UKUR KEDALAMAN TANGKI MINYAK WBGT METER ALAT UKUR IKLIM KERJA DEEP STICk MIST BLOWER STIHL CHAINSAW STIHL TMBANGAN KURSI RODA SPECTROPHOTOMETER MICROSCOPE BLOOD LEAD TEST INCUBATOR WATER ANALYS Kami Juga Menyediakan IPAL untuk puskesmas atau rumah sakit.            ","
              Komplek Samudera Indonesia A3 no. 6 Jl. Tole Iskandar            ",Depok,Jawa Barat,+62 812-1226-5508,None,None
CV Pratama Sains Global,"
                                    PREMIUM GOLD
                                ",Kemasan Botol,"
              CV Pratama Sains Global merupakan perusahaan yang bergerak di bidang distributor alat-alat Laboratorium farmasi, Kami menyediakan Laboratori glassware dari berbagai merk seperti Pyrex, Schott Duran, merk lokal, Laboratory plasticware serta bahan kimia JT Baker, Merck, Tedia, RRC. Kami juga menyediakan instrument ‚Äì instrument untuk analisa obat, air, makanan, dll seperti Analitycal Balance, Spectrophotometer, pH meter, Turbidimeter, HPLC , Ruang Asam, Climatic Chamber, Incubator, Autoclave, AAS, Laminar Air Flow, Centrifuge, mikrosentrifuge, mikropipette, Cincin Du nouy, Alat Disolusi, alat disintegrasi, Furnace, sprydryer, Viscometer Brougkfile, Coating Pan, Hotplate, Incubator, Refrigerator, Orbital Shaker, Water bath, stirer high speed, Corong Uji sudut Granule, Moister analyzer, Mikroskop yazumi , Single punch tablet press machine, Tap Density , Granule Sieve Shaker With Machine mikroskop mulitimedia, Suppo melting point, Air Sampler, Decloaking Chamber dll dari berbagai merk. Kami juga menerima maintenance( service dan kalibrasi alat laboratorium) . Untuk lebih lengkapnya Bapak / Ibu kami mohon perkenannya untuk mengunjungi kami diblogger pratamasainsglobal.blogspot.com untuk informasi alamat perusahaan dibawah ini: Office :Perumahan Cimahi City View Blok A No.5 Rt 02 Rw 12 Padaasih Cosarua Kab.Bandung BaratTel. ( 022) 82783624- 081802024436-085720595887-081222344774,Email : Pratamasains_ global@ yahoo.co.idhttps://pratamasainsglobal.indonetwork.co.id            ","
              PERUMAHAN CIMAHi CITY VIEW BLOK A NO.5 
 RT 01 RW 012
 PADAASIH,CISARUA
KAB.BANDUNG BARAT  JAWA BARAT            ",BANDUNG BARAT,Jawa Barat,None,None,None
PT. Hinoka Alsindo,"
                                    PREMIUM GOLD
                                ",Kemasan Botol,"
Memproduksi Mesin Mesin Pertanian, Mesin Perkebunan, Mesin Industri Kecil Menengah, Mesin Perikanan, dan Mesin mesin Lainnya. | Mesin Kompos | Mesin Pencetak Pellet | mesin Power tresher | Mesin Chopper | Mesin Paving Block | Mesin interlocking | Mesin Pulper Kopi | Mesin Huller Kopi | Mesin Sangrai Kopi | mesin pres santan | mesin ayakan tepung | ","
              Jl. Siliwangi No. 133  Kel. Spanjang Jaya Kec. Rawa Lumbu081212086288081294125622 ",Bekasi,Jawa Barat,+62 812-1208-6288,+62 812-9412-5622,None
Graha Mulia Teknik,"
PREMIUM RUBY
",Kemasan Botol,"
Graha Mulia Teknik Berawal sejak tahun 1998 kami bergerak dibidang Plastic Injection dengan kapasitas mesin kecil 40-120 ton. Seiring tingginya permintaan klien dan persaingan dari China tahun 2008 kami mulai berekspansi pada bengkel konstruksi ringan dengan melayani pembuatan Molding untuk mesin Plastic Injection skala menengah dan cetakan untuk mesin-mesin industri lainnya seperti mesin hidrolis dan mesin punch.  
 
Berbekal mesin Bubut, Milling, Grinding, Sekrap, EDM, CNC Freiss kami melayani pengerjaan logam dengan ukuran presisi dan detail hingga skala dibawah 1 milimeter (mm). Didukung dengan tenaga yang berpengalaman dan mesin Plastic Injection merk Taiwan serta Jepang terkini kami sanggup memberikan hasil produksi yang efisien dengan kualitas dan standart seperti yang diinginkan oleh Klien.
 
Standart keamanan yang baik kami perhatikan agar pekerja merasa nyaman dan aman ketika bekerja. Pengolahan limbah dengan benar dan aman juga menjadi prioritas di perusahaan kami. Semua limbah industri kami olah dengan maksimal agar tidak mencemari lingkungan dan tidak membahayakan para pekerja. 
 
Kami terus bergerak untuk mempunyai kualitas dan standart yang lebih baik agar terus mampu bersaing dan ikut serta memajukan industri UMKM di Indonesia.
 
Berikut Daftar Klien Kami :
¬∑ Trisensa Ceramics
¬∑ Nazava Water Filters
¬∑ Golden P.E.T
¬∑ LA COCK
¬∑ Mixmex shuttlecocks
¬∑ Indococks
¬∑ New Star
¬∑ Sun Power
¬∑ Triliun
 
 
 
-----
 
Hubungi Kontak Kami Sekarang untuk Dapatkan Penawaran Terbaik dan Harga Bersaing (CALL/WHATSAPP).
‚Ä¢ Phone : 0811-3088868
‚Ä¢ e-Mail : grahamuliateknik@gmail.com 
 ‚Ä¢ Website : www.grahamuliateknik.com ","
              Graha Mulia Tekniküìç Jl. Raya Medokan no 12, Surabaya 60111Tirta Graha Muliaüìç Jl. Kendangsari H/27, Surabaya 60292            ",Surabaya,Jawa Timur,+62 819-1105-5757,None,None
CV MITRA USAHA MANDIRI,"
                                    PREMIUM GOLD
                                ",Kemasan Botol,"
              CV MITRA USAHA MANDIRI bergerak dalam bidang filter air yang mengolah air baku menjadi air siap minum, Pompa, Depo Air Minum Isi Ulang, AMDK, Mesin RO Reverse Osmosis, perlengkapan aksesoris kolam renang dan Tabung filter beserta aksesorisnya.Kami mengolah air baku menjadi air tawar :- Air Laut- Air Sumur- Air PDAM- Air Payau- Air Danau- Air Limbah dan sebagainya.Temukan berbagai produk terbaik kami sesuai kebutuhan anda. pastinya dengan kualitas dan harga terbaik yang anda bisa dapatkan.            ","
              Jl. Pucang Anom no.22, Surabaya.            ",Surabaya,Jawa Timur,+82 2-3333-4224,+62 812-3459-0404,None
Mitra Usaha Mandiri CV,"
                                    PREMIUM GOLD
                                ",Kemasan Botol,"
Kami adalah perusahaan produsen dan penyalur barang-barang keperluan industri dan rumah tangga, diantaranya :
- Pengolahan air bersih dan air minum diantaranya : filter air bersih, filter air PAM, filter air sumur, filter air sungai, filter air danau, filter air limbah, filter softener, filter demineraliser, filter besi dan mangan, filter demin TDS = 0, filter penjernih air rumah tangga, filter RO alkalin, filter kolam renang, mixed bed filter, filter ultra filtrasi dan lain-lain.
- Filter Media, diantaranya : Pasir silika Bangka, pasir silika Lampung, pasir silika Tuban, pasir silika Rembang, gravel silika, batu silika, tepung silika, pasir aktif, resin kation, resin anion, resin softener, resin mixed bed, resin Purolite, resin amberlite, resin dowex, resin lewatit, karbon aktif AXO, karbon aktif KSH, karbon aktif powder, karbon aktif granular, karbon aktif tempurung kelapa, karbon aktif batu bara, karbon aktif premium, karbon aktif davao, karbon aktif Haycarb, antrasit filter media lokal, antrasit filter media import, ferrolite, manganese green sand, zeolit dan manganese green sand plus. 
- Mendesain Dan Merakit Pembuatan Air Demin Dari Bahan Abaku Air Laut, Air Payau, Air Tawar Dll.
- Mendisain Dan Merakit Pengolahan Air Baku Menjadi Air Minum Sehat Dengan Kualifikasi Tertentu, Seperti Air Alkali (Ph 8), Air Anti Oksidan, Air Murni (Tds)Kami menyediakan Mesin Ro Air Laut, Mesin Ro Air Payau, Mesin Desalinasi Air Laut, Mesin Penyulingan Air Laut, Mesin Pengolah Air Laut Menjadi Air Tawar, Mesin Swromesin Ro Murah, Jual Pasir Silika Murah, Agen Pasir Silika, Distributor Pasir Silika. ","
              Jl. Pucang Anom no. 22, Surabaya             ",Surabaya,Jawa Timur,+62 812-3459-0404,+62 822-3333-4224,None
UD. SIDO¬†MUMBUL,"
                                    PREMIUM GOLD
                                ",Kemasan Botol,"
              UD. SIDO MUMBULPerusahaan kami bergerak di bidang distribusi barang pecah belah / bolo pecah, plastik rumah tangga, peralatan / alat dapur ( kitchen wares) dan kebersihan ( cleaning equipments) , perlengkapan rumah tangga ( house wares / home appliances) dan kebutuhan industri ( industrial wares) lebih dari 30 tahun di Pasar Turi, Surabaya. Kami menjual barang-barang produksi lokal dan impor seperti barang-barang aluminium, kaca, plastik, stainless steel, perkakas, dll. dengan harga dan kuantiti partai ( grosir) untuk dijual kembali ( reseller price).Beberapa merek barang yang kami jual adalah Hock, Lion Star, Maspion, Global Eagle, Green Leaf, Dian Sari, Owl Plast, Technoplast, Bull Star dan masih banyak lagi. Untuk informasi lebih lengkap bisa dilihat pada halaman Katalog Produk kami atau bisa langsung datang ke kantor kami pada hari Senin - Sabtu pada pukul 10: 00 - 17: 00 WIB di jalan Dupak 63, kompleks pertokoan Mutiara Dupak C-22, Surabaya. ¬†Dengan dukungan supplier lokal dan nasional, kami siap untuk memenuhi kebutuhan usaha anda. Kontak kami segera untuk berbisnis dengan kami.Kami juga melayani kebutuhan hotel, rumah sakit, cafe, restoran & katering.Untuk pemesanan produk dapat dilakukan via telepon, short message service ( SMS) , Yahoo! Messenger, Blackberry Messenger ( BBM) dengan sistem pembayaran cash ( transfer bank / kontan) . Pembayaran dapat dilakukan setelah mendapat konfirmasi dari kami atas ketersediaan jumlah produk yang dibutuhkan. Apabila anda serius, dimohon untuk tidak mengirimkan e-mail kepada kami tanpa melakukan konfirmasi terlebih dahulu. ¬†Tersedia kualitas produk biasa, menarik, murah, kuat dan berkualitas tergantung merk dan kebutuhan. Untuk area surabaya kami dapat mengirim, untuk konsumen luar kota dan luar pulau dapat dikirim lewat ekspedisi yang telah disepakati bersama. JAKARTA - BANDUNG - YOGYAKARTA - MAGELANG - SOLO - DENPASAR - SEMARANG - MALANG - SURABAYA - BANYUWANGI - PASURUAN - PROBOLINGGO - JEMBER - PRABUMULIH - MEDAN - JAMBI - PEKANBARU - MAKASSAR - BALIKPAPAN - PONTIANAK - BANJARMASIN - BATAM - PALEMBANG - LAMPUNG - SAMARINDA - PADANG - MATARAM - KALABAHI - MANADO - JAMBI - ACEH - PANGKALAN BUN - KUALA PEMBUANG - BATU LICIN - SAUMLAKI - TUAL - GORONTALO - TANJUNG SELOR - TOLI TOLI - AMBON - BATAM - PANGKALPINANG - WAINGAPU - WAIKABUBAK - KUPANG - ATAMBUA - DILI - PALU - SAMPANG - BANGKALAN - SUMENEP - JAYAPURA - SORONG - BIAK - MANOKWARI - MERAUKE - BAU BAU - TERNATE - TOBELO - KENDARI UD. SIDO MUMBUL - Jln. Dupak 63 / Pertokoan Mutiara Dupak C-22, (031) 5469330 / 081938685700, Surabaya. PIN BBM = 7C5F4B40 / 5B69FFC6 / 228B81D4 WA = +6282143438684 LINE = herry.sutanto E-mail = ud_sido_mumbul@yahoo.com / herrychenzhongqiang@gmail.com Jam Kerja = Senin - Sabtu 10:00 - 17:00 WIB, Hari Minggu / Besar Libur            ","
              Jln. Dupak 63 / Pertokoan Mutiara Dupak C-22, (031) 546-9330 / 0819-3868-5700, Surabaya.
PIN BBM = 7C5F4B40 / 5B69FFC6
WA = 0821-4343-8684
LINE = herry.sutanto            ",Surabaya,Jawa Timur,+62 814-3438-684,None,None
Selatan Jaya Plastik Surabaya,"
                                    PREMIUM GOLD
                                ",Kemasan Botol,"
Selatan Jaya Merupakan Distributor Plastik Di Surabaya, Kami jual harga grosir produk Barang Plastik, Barang Perlengkapan Makan minum, Perlengkapan Mandi, Perlengkapan masak Dapur, alat kebersihan, Perlengkapan Rumah Tangga, Produk Pecah Belah Dll. 
Hubungi Kami : 
SELATAN JAYA PLASTIK 
0313520648 / 0313542351 / 081331351580
Songoyudan 31b, Surabaya Surabaya Jawa Timur , Indonesia

Produk Melamin, Stainless Steel, Alumunium, Merk Pabrik Napolly, Tms, Ag, Ks, Kaisha, Ikimura, Maspion, Lion Star, Calista, Olympia, Produk China, Dll
 
Kategori Produk Yang Kami Jual
 
Perlengkapan Ruang Tamu:
Kursi Plastik, Meja, Lemari, Keset, Karpet, Sapu, Pel Gagang, Sekrop Plastik, Asbak Melamin.
 
Perlengkapan Di Ruang Makan:
Keranjang Plastik Industri Krat, Sendok, Garpu, Piring, Mangkok, Toples Plastik, Mug, Gelas, Cangkir, Teko, Ceret, Lunch Box, Tempat Sendok, Tempat Sambal, Tutup Sayur Segi, Tutup Sayur Bulat, Jumbo Tras, Eskan, Thermos, Rantang, Wakul, Ompreng, Sealware, Water Jug, Baki, Rantang Catering.
 
Perlengkapan Dapur:
Wajan Alumunium, Kompor Hock, Panci, Kuali, Priuk, Pisau , Rice Cooker, Mixer, Magic Com, Blender, Magic Jar, Rice Bucket, Tudung Saji, Tempat Nasi, Dandang, Oven, Serbet, Industri Krat, Rak Piring, Tampa, Nampan, Niru, Baki, Erus, Eros, Entong, Sutil, Kitchen Set, Panggangan, Sumbu Kompor, Pressure Cooker
 
Perlengkapan Kamar Mandi:
Tempat Sabun, Bak Bayi, Ember, Timba, Baskom, Waskom, Tong Air, Gayung, Kaca Pretty, Gentong, Jirigen.
 
Perlengkapan Kamar:
Gantungan Baju, Hanger, Jepit Baju.
 
Perlengkapan Rumah Tangga:
Keranjang Pakaian, Rak Sepatu, Keranjang Sampah, Pot Bunga, Kursi Taman, Kursi Anak, Kursi Makan, Kursi Bakso, Celengan, Tikar, Kemucing, Container, Bola, Big Boxer, Saringan, Tandon.
 
  ","
              surabaya            ",surabaya,Jawa Timur,+62 813-3135-1580,None,None
ANSHELL PLASTIC & PACKAGING,"
                                    PREMIUM GOLD
                                ",Kemasan Botol,"
Selamat Datang di Website PT Anshell Jaya. Kami merupakan perusahaan yang berdiri sejak 2013 bergerak dalam industri Botol Kosmetik, Botol Minuman Dan Minyak Goreng, Botol Minuman , Botol Farmasi, Aneka toples PET, Botol Pupuk Pertanian. Kami berada di Jl Ruko Kingstwon KK-2 Citra Raya. Temukan berbagai produk terbaik kami (Kemasan Botol, botol minuman, botol pupuk, plastik PET, botol kosmetik, Botol murah) dengan kualitas dan harga jual terbaik yang bisa Anda dapatkan. ","
              Ruko Kingstown KK-02 Citraraya            ",Surabaya,Jawa Timur,+62 851-0058-2398,None,None
UD Dwi Tunggal Perkasa,"
                                    PREMIUM GOLD
                                ",Kemasan Botol,"
              DWI PRODUK ukm kerajinan logam berdiri sejak Th 2001, memproduksi : alat alat dapur : parut, serok, sotil, hanger, japit, centong dll. Sekarang merintis usaha dagang dengan nama UD DWI TUNGGAL PERKASA Guna menjembatani UKM - UKM di wilayah kami dalam hal pemasaran produknya , sehingga tidak terjadi permainan harga oleh tengkulak. kunjungi http: / / ngunutproduction.blogspot.com , http: / / parutmillenium.blogspot.com melayani pembelian grosir , mengirim ke seluruh pelosok nusantara . buat para retailer di daerah gunakan kesempatan ini untuk mendapatkan harga langsung dari produksen.            ","
              jln.  Fajar  Lingkungan  10  Rt 02  Rw 04  Ngunut            ",tulungagung,Jawa Timur,+81 3-3587-7045,None,None
CV EMBA PLAST,"
                                    PREMIUM GOLD
                                ",Kemasan Botol,"
CV EMBA PLAST adalah Perusahaan yang bergerak di Bidang Packaging Cosmetic & Pharmasi.Kami menyediakan Kemasan dengan berbagai Ukuran, seperti Pot Cream Lokal dan Import dengan Harga Paling Kompetitif.Packaging Cosmetic kami lebih mengutamakan kualitas terbaik dari bahan yang terbuat dari PP , PS , PET , dan Acrilyc.
 
Ukuran botol kosmetik yang tersedia mulai dari 20 ml - 600ml. Ukuran Pot Kosmetik :
‚Ä¢ 10 gram
‚Ä¢ 12,5 gram
‚Ä¢ 100 gram
‚Ä¢ 125 gram
‚Ä¢ 250 gram 
‚Ä¢ Dan lain lain
 
Kami juga melayani Dekorasi Produk : Hot Stamping , Printing dan Stiker. Alamat kami di : Perumahan Golden Berry Regency Blok DG 07 Menganti Gresik, Jawa Timur, Indonesia. No Telfon atau No HP/WhatsApp : 085850647998 dan 082264142079.
 
 
Tags : Pabrik Kemasan Kosmetik , Kemasan Kosmetik Murah , Pabrik Kemasan Kosmetik Surabaya , Supplier Botol Kosmetik , Kemasan Kosmetik Unik , Jual Botol Kosmetik Surabaya , Supplier Botol Kosmetik , Pot Kosmetik , Pabrik Pot Cream , Jual Botol Kosmetik Surabaya , Pot Cream Acrylic , Pot Cream Acrylic , Pot Acrylic 10 gram , Jual Pot Cream Acrylic , Pabrik Pot Cream , Jual Pot Cream 10 gram , Jual Pot Salep Murah , Jual Botol Kosmetik Surabaya , Jual Tube Kosmetik , Jual Botol Komestik Import , Harga Sewa Scaffolding di Surabaya , Perhitungan Sewa Scaffolding , Sewa Scaffolding Terdekat ","
              Perumahan Golden Berry Blok DG 07 Menganti Gresik, Jawa Timur, Indonesia            ",GRESIK,Jawa Timur,+62 858-5064-7998,+62 822-6414-2079,None
JATIM SABLON,"
                                    PREMIUM GOLD
                                ",Kemasan Botol,"
 
Selamat Datang di Website JATIM SABLON. Kami merupakan perusahaan yang bergerak dalam industri Gelas Plastik, Gelas Kertas, Gelas Plastik PP, Sendok Plastik, Kertas Nasi, Kotak Makan Custom. Kami berada di Kawasan Jombang Jawa Timur.
Kami berkomitmen terhadap kualitas, waktu dan pelayanan terbaik kepada pelanggan karena tujuan kami adalah kerja sama jangka panjang yang saling menguntungkan. ","
              JL. Anggrek no.4 RT/RW 2/1 Dsn. Mojoduwur Selatan Ds. Mojoduwur Kec. Mojowarno            ",Jombang,Jawa Timur,+62 816-5489-620,None,None
PT. CIPTA TUNAS SAKTI,"
                                    PREMIUM GOLD
                                ",Kemasan Botol,"
              PT. Cipta Tunas sakti merupakan perusahaan khusus menyediakan plastic packaging dengan kwalitas standart nasional dan internasional.Kami mensuply dan mendistribusikan plastic packaging di seluruh wilayah indonesia kami juga sangat berpengalaman di bidang plastic packaging selama 18 tahun sehingga bisa menjadi jaminan untuk produk pesanan anda. Produk kami antara lain, PVC Shrink, POF Shrink, PE Shrink, Stretch Film, OPP Tape, Strrapping band, PE Foam, Polycell, Lid Cup, PET Green Embos, Label, Segel, Tissue galon, Plastik HD, Plastik PE, Plastik PP, Kantong Sampah, Polybag, Plastik Vacum, Standing Pouch, OPP Bag, Perforeted Bag, CPP Transparan, seal sapu, seal sodok, Plastik preform, Galon, Botol plastik, Gelas plastik. Kami akan memberikan jaminan kualitas dan layanan yang optimal.terima kasih atas kunjungan anda dan silakan melihat produk2 kami, jika ada pertanyaan silakan hubungi kami Terimakasih, Cipta Tunas Sakti            ","
              Jl.Sedayu  No. 23C            ",Surabaya,Jawa Timur,+62 822-3250-2667,None,None
PT.KARYA ABADI INTIBUANA,"
                                    PREMIUM GOLD
                                ",Kemasan Botol,"
Kami adalah partner terbaik untuk  pengadaan berbagai kebutuhan bahan kimia industri & laboratorium Lab glassware Kebutuhan industri.Perusahaan kami melayani penjualan ke seluruh wilayah indonesia.Duran,Pyrex,Vitlab,Merck,Smartlab,Sigma Aldrick-Fluka,Hanna Instrument,Chemical Teknis,Draeger,Whatman,Orion,Kessler,Koehler,Brand,CHEMets,Dll.Beberapa produk yang kami supply

Beaker glass 
Lab.bottle 
Measuring cylinder
Centrifuge Tube
Botol PET 80ml
Bottle sample HDPE
Kaleng sample 4L,1L
Sarung tangan benag 5 Polos
Sarung tangan dotta kuning
Kain lap majun jahit warna
Kain lap majun jahit putih
Kain lap majun lembaran warna 
Kain lap majun putih
Ear Plug /pelindung telinga
Isopropyl alcohol-IPA teknis
Toluene
Acetone
Methanol
Demin water-Aquades
Buffer solution -Merck
Conductivity standart solution -Hanna
Hydranal composite 5
Hydranal coulomat AG
Hydranal coulomat CG
Hydranal water standart 0.1
Iron tes -Merck
Sulafate test S04-Merck
Methanol -Merck
Silver nitrate solution -Merck
Titriplex III -Merck
Filter paper -Whatman
Easicult combi-Orion
Thermometer
Hydrometer
Dll

Untuk permintaan penawaran harga dan ketersediaan stok silahkan hubungi kamitelp. 0353 289 8511wa. 082244477780,082122922706email.sales1@kadint.com,info@kadint.com            ","
               Bojonegoro            ",BOJONEGORO,Jawa Timur,+62 822-4447-7780,None,None
PT. Atlantic Biruraya,"
                                    PREMIUM GOLD
                                ",Kemasan Botol,"
Perusahan bergerak dibidang air minum dalam kemasan ( AMDK) . Cheers Alkaline Powered merupakan pelopor produk air minum dengan kandungan alkaline dan memiliki pH yang seimbang untuk membantu melancarkan metabolisme dalam tubuh. ","
              Jalan Raya Surabaya - Malang Km 52.2 Pandaan            ",Pasuruan,Jawa Timur,None,None,None
CV Bersama Jaya,"
",Kemasan Botol,"
CV Bersama Jaya adalah perusahaan dalam bidang sablon dengan menggunakan teknik manual, mesin dan rotrogravure.Kami melayani sablon dan printing gelas plastik, paper cup, lid sealer, kantong plastik, map, tas, dll.
Kami sudah berpengalaman dalam bidang sablon selama lebih dari 5 tahun.
Pengerjaan paling lama di perusahaan kami maximal 7 hari kerja sudah selesai.
Silahkan sablon gelas plastik, sablon papercup, sablon lunchbox anda, dsb. ","
              Jl Gajayana 573 A
Kel Dinoyo Kec Lowokwaru
Malang Jatim            ",Malang,Jawa Timur,None,None,None
MINA ALKALINE WATER,"
PREMIUM RUBY
",Kemasan Botol,"
              Mina Alkaline Water merupakan poduk air minum kesehatan yang diproduksi oleh PT. Karya Bangsawan Indonesia.Mina Alkaline Water sendiri bersumber dari mata air murni yang telah melalui proses Bio Ionisasi dan Alkali sehingga menghasil air minum kesehatan dengan pH8 dan Ph10 yang dapat menemani hari anda dan menjaga tubuh tetap sehat.Dengan mengusung slogan ""CINTAI GINJALMU MINUM MINA TIAP HARI"" kami memperkenalkan sekaligus mengajak masyarakat indonesia untuk lebih peduli terhadap kualitas air minum yang dikondumsi mengingat pentingnya kualitas air bagi kesehatan tubuh.            ","
              Jl. Danau Jempang Blok B3 No 29 Bendungan Hilir, Tanah Abang Jakarta Pusat 10210 Telpon 021-57903548 ",Jakarta Selatan,DKI Jakarta,087772000507,081215401465,None
PT. Indonesia Bersih Rapi,"
PREMIUM RUBY
",Kemasan Botol,"
              ""PRAKATA""PT. INDONESIA BERSIH RAPI,  merupakan perusahaan perseroan terbatas, bergerak dalam Jasa perawatan taman, jasa kebersihan, dan jasa office boy/girl didirikan pada tahun 2019 yang sebelumnya bernama C. JAYA SANTIKAH yang didirikan pada tahn 1997 di JAWA TIMUR.AREA PERAWATAN TAMAN, JASA KEBERSIHAN/CLEANING SERVICE DAN OFFICE BOY GIRL SBB :1. Perkantoran2. Perumahan3. Mall4. Hotel5. Rumah sakit6. Sekolahan7. Bandara8. Stasiun9. Perbenkan10. Restorandan lainnya            ","
              Jl. Daan Mogot KM19 Smart Market Daan Mogot Blok B Nomor 05            ",Jakarta Barat,DKI Jakarta,+62 812-8998-071,+62 811-1833-992,08118457755
PT. JAYA UTAMA SANTIKAH,"
PREMIUM RUBY
",Kemasan Botol,"
PT. Jaya Utama Santikah adalah perusahaan Perseroan terbatas yang bergerak dibidang Perdagangan Umum dan Jasa. Perusahaan kami telah berdiri sejak 1997 di Jawa Timur dengan nama CV. Jaya Santikah, dan ditahun 2008 kami telah berkembang menjadi PT. Jaya Utama Santikah dan kami sekarang memiliki kantor di Jakarta.
 
Sesuai dengan moto kami yaitu membantu akan kebutuhan dalam bidang Jasa Perawatan Kebersihan dan Keindahan pada setiap lingkungan yang dibutuhkan. Seperti halnya yang kami tawarkan Jasa Kebersihan Gedung, Jasa Perawatan Taman Jakarta semua hal itu tentunya dibutuhkan sebuah management khusus agar kegiatan yang berjalan sesuai dengan apa yang diharapkan.
 
Dan kami menyadari tidak semua kantor atau gedung memiliki management khusus kebersihan dan perawatan seperti ini, dan pastinya untuk membentuk management ini juga dibutuhkan sumber daya yang profesional dan memahami setiap langkah apa saja yang harus dilakukan. Dan semua tahap itu tentunya membutuhkan proses yang panjang, untuk mempersingkat waktu dan meminimakan pembiayaan dalam memenuhi kebutuhan perawatan kebersihan kami siap membantu Anda dalam jasa penyedia cleaning service, jasa cleaning service terbaik, jasa perawatan taman Jakarta, jasa kebersihan gedung, jasa kurir antar barang dan distributor alat cleaning service sebagai produk perdagangan kami. ","
              Jl. Daan Mogot KM19 Kebon Besar Batuceper, kota Tanggerng,             ",Smart Market Daan Mogot Blok B No. 5,DKI Jakarta,+62 811-1833-992,+62 812-8998-071,None
Buana Jaya,"
PREMIUM RUBY
",Kemasan Botol,"
Buana Jaya Menjual perlengkapan untuk rumah burung walet andaBudidaya walet kini semakin marak diminati masyarakat, karena memiliki daya jual yang tinggi. Sudah banyak yang mengetahui bahwa air liur walet yang menjadi sarangnya, diyakini memiliki khasiat untuk kesehatan dan dapat juga diolah menjadi makanan dan minuman.  Namun, budidaya walet bukanlah perkara yang mudah. Banyak hal yang harus diperhatikan agar walet mau menempati rumah atau gedung yang sudah disediakan untuk jangka waktu yang lama. Untuk itu, dibutuhkan beragam perlengkapan rumah walet, sesuai dengan kebutuhan dan fungsinya.  Kami merupakan perusahaan yang menjual perlengkapan rumah walet dengan kualitas terjamin dan harga bersaing.  Berikut ini beberapa perlengkapan rumah walet yang Kami sediakan : - Sprayer; tipenya adalah lurus mata empat, lurus lubang satu, bengkok mata empat - Biofad - Extrafooding - Pakan walet - Saringan penutup lubang - Rekaman suara burung; berupa flash disk / SD card / CD - Pembasmi hama walet : Lisulet, Basulet, Cyperkiller, Solfac, Conant, dan lain sebagainya - Galah kaca - Sarang burung imitasi - Thermometer - Mesin kabut - Lampu, dan lain sebagainya  Komitmen kami adalah untuk selalu memberikan pelayanan terbaik untuk para pelanggan, menyediakan produk terjamin dan berkualitas tinggi. 
 
 Untuk informasi lebih lanjut, silakan hubungi Kami pada data berikut : BUANA JAYA Telepon : 021 565 8102 / 0852 1450 8168 / 0819 3215 1538 WhatsApp : 0812 9229 218 Email : marcella_buanajaya@yahoo.co.id Alamat : Jalan Taman Ratu Indah Blok B4 No. 27, Duri Kepa, Kebon Jeruk, Kota Jakarta Barat ","
               Jalan Taman Ratu Indah Blok B4 No. 27, Duri Kepa, Kebon Jeruk, Kota Jakarta Barat            ",Jakarta Barat,DKI Jakarta,+62 812-9229-218,None,None
TEKNIK MANDIRI,"
PREMIUM BLUE ONYX
",Kemasan Botol,"
Teknik Mandiri adalah sebuah perusahaan yang khusus memfokuskan diri dalam memenuhi kebutuhan industri,Rumah tangga,Proyek dan Automotive di bidang produk mechanical, electrical,handtools,welding,safety,dan Lifting pneumatic Equipment  Visi: Menjadi yang terbaik di antara yang terbaik.  Misi: Menjadikan Teknik Mandiri sebagai partner Industry, Rumah Tangga, Proyek dan Automotive dalam menghadapi tantangan dan menyongsong kesempurnaan dimasa depan.  Kami bekerja keras dan selalu melakukan yang terbaik untuk melayani pelanggan-pelanggan dimanapun dan kapanpun dalam memberikan informasi yang akurat dan solusi yang tepat pada saat dibutuhkan.Info Produk & Order Hubungi :Phone : 021-5644267    Mobile : 0812 1214 3333( Call/WA)Email : teknikmandiriindo@gmail.com ","
              Jl. Setia Warga 8 No.40 Rt 10/11 Grogol Petamburan, Jakarta Barat            ",Jakarta Barat,DKI Jakarta,+62 812-1214-3333,None,None
pt.inti karya karisma,"
                                    PREMIUM GOLD
                                ",Kemasan Botol,"
              PT.INTI KARYA KARISMA adalah suatu perusahaan dagang yang berkembang sangat pesat, khususnya dalam bidang penyediaan barang dan alat - alat untuk kebutuhan industri yang ada di Indonesia, meliputi bidang Valev - Valev, Automation System dan Electrical Components Seperti : PNEUMATIC & HYDRAULICS : SMC, KOGANEI, CKD, KURODA, TAIYO, TACO, ROSS, AIRTAC, TOYOOKI, AUTOGIKEN, DAIKIN, UCHIDA, YUKEN, NOK F- TEC, FUJIKURA, JUNRON, MARUHA, NACHI, SHINDENGEN, MAC, ERACON ( NEW ERA ) PISCO, KONDOH, FOTEK, CHANTO, PNEUMAX, SANG- A, MAC, NUMATICS, MYOTOKU, AURORA CONVUM, KONAN, FUJI SEIKI, KINGSTON, JUNRON, KCC, YPC, BIMBA, FABCO- AIR Etc. CLUTCH & BRAKE ELECTROMAGNETIC : OGURA, SHINKO, OSAKI DENGYOSA, SUNTES, MITSUBISHI, AIRFLEK, PLANOX, MIKKI PULLEY, STROMAG, GUMMI, FAWICK, EATON, AUTOGARD, STEARN, ORTLINGHAUS, SIME, BINDER, COREMO, ANTEC, PINTS BAMAG, WARNER, MAYR, AIR CHAMP ELECTRIC & MOTOR : MITSUBISHI, YASKAWA, FUJI ELECTRIC, HITACHI, TOSHIBA, NIKKI DENSO, TSUKASA, TAMAGAWA SEIKI, NISSEI, OGURA, OMRON, RORZE, SANYO DENKI, SAWAMURA, TAMAGAWA SEIKI, ORIENTAL, VEXTA, PANASONIC, YAMATAKE, SHINKO, SHIMPO, NIDEC, MIKI PULLEY, ITOH, MAKISHINKO, TSUBAKI, PATLITE, USHIO, IDEC IZUMI, HANYOUNG, PHILIPS, OSRAM, TOYO FAN, TDK, KOINO, ALPS, NIKKAI ( NKK ) SENSOR & CONTROLS : OMRON, SUNX, SHINKO, KEYENCE, RIKEN, NATIONAL, YAMATAKE, SEEKA, HONEYWELL, IFM, KOYO, EUROTHERM, PEPPERL+ FUCHS, BALLUFF, PILZ, SICK, TURCK, DATASENSOR, TAKENAKA, IDEC IZUMI, KOINO, TOYO , NIPPON AUTOMATION POWER SUPPLIES : COSEL, NEMIC LAMBDA, OMRON, MATSUSHITA, MEAN WELL, ASTEC, MURR, SPELLMAN, ZENTRO, XP Power Supplies COOLANT PUMP : MITSUBISHI, NIPPON OIL PUMP, FUJI ELECTRIC, TERAL TROCHOID PUMP : NIPPON OIL PUMP, FUJI, MITSUBISHI BEARING : THK, IKO, NSK, NB, NMB, EZO, KURODA, SAMICK, HIWIN, NTN Etc TEMPERATURE CONTROL : RKC, TOHO, SHIMADEN, FUJI ELECTRIC, HONEYWELL, ASAHI KEIKI, YOKOGAWA, AMETEK, DYWER, TESCOM, SHIMAX, OPTEK Keuntungan dari pelayanan kami adalah sbb: Untuk permintaan penawaran harga silahkan e- mail ke : PT.INTI KARYA KARISMA Hp : 081286783132, 081218651189 Tlp : 021- 50408997 E- mail : pt.intikaryakarisma@ yahoo.co.id            ","
              Mega Glodok Kemayoran            ",Jakarta,DKI Jakarta,+62 812-8678-3132,None,None
Metrix Inspira,"
                                    PREMIUM GOLD
                                ",Kemasan Botol,"
              PT. Metrix Inspira sebagai agent dan distributor di Indonesia produk dan jasa untuk SARTORIUS METAL DETECTOR // SARTORIUS CHECKWEIGHER // COGNEX CAMERA VISION SYSTEM // PACKWAY CARTON SEALER // MATTHEWS MARKING SYSTEM , menyediakan solusi untuk perusahaan di beragam industri. Untuk pertanyaan silahkan email ke : arif.mulyono@ metrixinspira.co.id -- arif.metrix@ gmail.com -- PIN BB : 7D8CB6AD * * Silahkan download Catalog product pada menu Katalog Product submenu Unduhan * * = = = = = = = = = = = = = = = = = = = = P-R-O-D-U-C-T = = = = = = = = = = = = = = = = = = = = = = = = = 1. SARTORIUS , BOEKELS . From Germany = = = = = a] METAL DETECTOR * * MDB / SECUS Series * * * * MDE Series * * * * VISTUS Series * * * * Tablet Detector * * * * Needle Detector * * - Food / makanan / bakery - Tablet Metal detector - Alumunium foil / film / chiki / snack ringan - Flour / Tepung terigu - Tobacco / tembakau / clove / cengkeh - Resin / Biji Plastic / PET / PP - Coffee / Coklat / Teh - Timber / wood - Crumb Rubber RSS , SIR 10 , SIR 20 , SIR 30 - Metal test card untuk kalibrasi unit Metal Detector - Maintenance / Jasa service b] . CHECK WEIGHER [ high speed weighing up to 600 product / minute ] * * ECONUS * * * * WM Series * * * * EWK Series * * * * SYNUS * * * * CO SYNUS * * * * FLEXUS * * - Capacity 1 Kg tolerance 0, 1 gram - Capacity 2 Kg tolerance 0, 2 gram - Capacity 5 Kg tolerance 0, 5 gram - Capacity 7 Kg tolerance 1 gram - Capacity 35 Kg tolerance 20 gram - Capacity 60 Kg tolerance 50 gram - Capacity 120 Kg tolerance 50 gram = = = = = 2. COGNEX CAMERA VISION SYSTEM from USA = = = = = Checker Vision sensor low end series Dataman barcode reader series Sensor Barcode Insight Vision System series = = = = = 3. DOMINO Ink jet Printer Industrial from UK = = = = = A120GP up to 3 lines A220GP up to 5 lines = = = = = 4. PACKWAY Packaging System from Taiwan = = = = = Carton Sealer Carton Erector Pallet Wrapping Strapping machine = = = = = 5. MATTHEWS MARKING SYSTEM = = = = = - MINI - MIDI - MAXI = = = = = = = = = = REFERENCE CUSTOMER : = = = = = = = = = = PT. PINAGO UTAMA ; PT. MARDEC MUSI LESTARI ; PT. KARIAS TABING KENCANA ; PT. BITUNG GUNA SEJAHTERA ; PT. DJARUM KUDUS ; PT.CANDRA ASRI CHEMICAL ; PT.SAMPIT ; PT.SANTANG RAYA INDONESIA ; PT.HOK TONG ; PT BUMI NUSA MAKMUR ; PT BENTOEL PRIMA ; PT OTSUKA INDONESIA ; PT HM SAMPOERNA ; PT UNILEVER INDONESIA ; PT BADJA BARU ; PT VANMELLE PERFETTI ; dlll...            ","
              Jl. Cireundeu Raya No 57 Pisangan Ciputat Timur Tangerang selatan            ",Tangerang Selatan,DKI Jakarta,+62 812-9610-5200,None,None
PT ANDALAN BANGUN SEJAHTERA,"
                                    PREMIUM GOLD
                                ",Kemasan Botol,"
              Penjelasan Ringkas : PT. ANDALAN BANGUN SEJAHTERA Jl. Sumur Batu Raya no. 1 Kemayoran Jakarta Pusat Indonesia - 10640 Telp : 021 - 42803207, 4227517 Fax : 021 - 42803208 Contact Person : Marketing : email : sales@andalanbangun.com Marketing : Bpk Juni Mobile : +62811 198 0702 Kami menyediakan alat-alat laboratorium & Intrument untuk berbagai keperluan dan kebutuhan dari berbagai merek alat-alat laboratorium berupa: Microbiology, Chemical and Reagent, Laboratory and Scientific Equipment, Medical Equipment, dan Glassware. Product : HACH, MEMMERT, OHAUS, KETT, KERN, TAKEMURA, EPPENDORF, BOECO, JULABO, CORNING, AXYGEN, PYREX, IWAKI, WHATMAN, SOCOREX, BRAND, IKA, ADVANTEC, DIFCO, MERCK CHEMICAL, SIGMA ALDRICH, DURAN, LOVIBOND, INTERSCIENCE, SEWARD, HETTICH, METTLER TOLEDO, ALL AMERICAN, ATAGO, AZ Instrument, BROOKFIELD, CRITERION, EXTECH, FUNKE GERBER, GEMMY, GFL, GILSON, HANNA, HIRAYAMA, RION, USBECK, GOSSELIN, DAIHAN LABTECH, THERMOSSCEINTIFIC, etc., ‚Ä¢ GENERAL LAB PRODUCT : BEAKERS - Plastic Beaker - Glass Beaker BOTTLES - Aspirator Bottle - BOD Bottle - Round Bottle - Media Bottle - Reagent Bottle - Sample Bottle - Serum Bottle - Specimen Bottle - Universal Bottle - Wash Bottle CRUCIBLES - Porcelain Crucibles - Silica Crucibles - Platinum Crucibles - Crucible Tong DESICATORS - Desiccators ( Non-Vacuum) - Desiccators ( Vacuum) FUNNELS - Powder Funnels - Utility Funnels - Buchner Funnels - Separating Funnels FLASKS - Baffled Shake Flask - Conical Flask - Dewar Flask - Distillation Flask - Filtering Flask - Flat Bottom Flask - Iodine Flask - Kjeldahl Flask - Round Bottom Flask - Tissue Culture Flask - Volumetric Flask MEASURING CYLINDERS - Plastic Measuring Cyclinder - Glass Measuring Cyclinder PIPETTES - Pasteur Pipette - Transfer Pipette - Measuring Pipette - Volumetric Pipette - Micropipette - Pipette Filler TUBES & VIALS - Capillary Tubes - Centrifuge Tubes - Cryo Tubes - Culture Test Tubes - Durham Tubes - Nessler Tubes - Specimen Tubes - Test Tubes - Scintillation Vials - Others Vials TUBING & CONNECTORS - Tubing Connectors - Rubber Tubing - Silicone Tubing - Teflon Tubing STOPPERS - Cork Stopper - Rubber Stopper - Silicone Stopper - Steristopper - Teflon Stopper SYRINGES - Plastic Syringes - Glass Syringes - Micro Syringes - Syringe Filters PETRI DISHES - Plastic Petri Dish - Glass Petri Dish - Moisture Dish BURETTES - Glass Burettes - Automatic Burretes - Bottle-Top Burettes - Micro Burretes FILTER PAPERS & MEMBRANCES - Cellulose Filters - Glass Microfiber Filters - Membrane Filters INDICATOR PAPERS - Litmus Papers - Cobalt Chloride Paper - pH Paper - Universal Indicator Paper MEASURING INSTRUMENTS - Micrometers - Internal & External Calipers - Vernier Calipers - Thickness Gauges BALANCES & SCALES - Pocket Balances - School Balances - Precision Balances - Analytical Balances - Moisture Balances - Spring Scales - Platform Scales - Hanging Scales METER - pH Meters - EC & TDS Meters - ORP Meters - Combo Meters - DO Meters - COD Meters - Photometers - Turbidity Meters - Lux Meter - Moisture Meters THERMOMETER & THERMO-HYGRO - Laboratory Thermometers - Dial Thermometers - Medical Thermometers - Max-Min Thermometer - Wall Thermometers - Infrared Thermometers - Digital Thermometers - Thermocoupe Thermometers - Thermo-Hygrometers - Data Loggers CENTRIFUGES - Small Centrifuges - Hematocrit Centrifuge - Microlitre Centrifuges - Benchtop Centrifuges - Floorstanding Centrifuges CRUSHING INSTRUMENTS - Blenders - Grinders - Homogenizers - Stomachers - Test Sieves STERILIZERS - Glass Bead Sterilizer - Steam Sterilizer - Sterilizing Tube - Sterilizer Accessories OVENS - Universal Ovens - Vacuum Ovens INCUBATORS - Precision Incubator - Cooled Incubator - CO2 Incubator - BOD Incubator - Shaking Incubator LABORATORY BATHS - Oil Bath - Sand Bath - Shaking Water Bath - Ultrasonic Cleaner Bath - Water Bath HEATING INSTRUMENTS - Bunsen Burners - Dry Block Heaters - Heating Mantles - Hot Plates MIXING INSTRUMENTS - Magnetic Stirrers - Overhead Stirrers - Shakers ROTARY EVAPORATORS - Vertical Type - Diagonal Type MICROSCOPES - Monocular Microscopes - Binocular Microscopes - Stereo Microscopes - Microscope Glass Slides - Microscope Cover Slips - Prepared Microscope Slides REFRACTOMETERS - Brix Refractometers - Digital Brix Refractometers - Salinity Refractometers - Digital Salinity Refractometer - Honey Refractometer VISCOMETERS - U-Tube Viscometers - Rotational Viscometers WATER PURIFICATION SYSTEMS - Water Distiller - Water Deionizer OTHERS ‚Ä¢ Air Analysis ‚Ä¢ Air Cleaning ‚Ä¢ Airflow Meters ‚Ä¢ Animal Care ‚Ä¢ Apparel ‚Ä¢ Aquametry ‚Ä¢ Asphalt ‚Ä¢ Atomic Absorption ‚Ä¢ Autoclaves ‚Ä¢ Bacon Bombs ‚Ä¢ Bags ‚Ä¢ Balances ‚Ä¢ Barometers ‚Ä¢ Beakers ‚Ä¢ Blenders ‚Ä¢ Blood Collection ‚Ä¢ BOD ‚Ä¢ Boiling Chips ‚Ä¢ Borescopes ‚Ä¢ Bottles ‚Ä¢ Bottletop Dispensers ‚Ä¢ Buchner Funnels ‚Ä¢ Burets ‚Ä¢ Burners ‚Ä¢ Calculators ‚Ä¢ Calipers ‚Ä¢ Calorimeters ‚Ä¢ Centrif uge Tubes ‚Ä¢ Centrifuges ‚Ä¢ Centrifugeware ‚Ä¢ Chemicals ‚Ä¢ Chlorine Analyzers ‚Ä¢ Chlorine Meters ‚Ä¢ Clamps & Supports ‚Ä¢ Cleaning ‚Ä¢ Clinical Analysis ‚Ä¢ COD ‚Ä¢ Colorimeters ‚Ä¢ Conductivity ‚Ä¢ Conductivity Meters ‚Ä¢ Controllers ‚Ä¢ Counters ‚Ä¢ Crucibles ‚Ä¢ Crushing ‚Ä¢ Cryogenics ‚Ä¢ Cultur e Media ‚Ä¢ Culture Tubes ‚Ä¢ Cuvettes ‚Ä¢ Cylinders ‚Ä¢ Dairy Testing ‚Ä¢ Deionization / Distillation ‚Ä¢ Desiccators ‚Ä¢ Discontinued items ‚Ä¢ Dispensers & Pipetters ‚Ä¢ Dissolved Oxygen ‚Ä¢ Dri-Baths ‚Ä¢ Drug Testing ‚Ä¢ Dry Baths ‚Ä¢ Drying Ovens ‚Ä¢ Educational Products ‚Ä¢ Electrochemistry ‚Ä¢ Emergency Equipment ‚Ä¢ Environmental Chambers ‚Ä¢ Evaporating Dishes ‚Ä¢ Extraction Equipment ‚Ä¢ Extraction Thimbles ‚Ä¢ Filtration ‚Ä¢ FisherBrand ‚Ä¢ Flame Photometers ‚Ä¢ Flash Point ‚Ä¢ Flasks ‚Ä¢ Flocculators ‚Ä¢ Flowmeters ‚Ä¢ Fluorimeters ‚Ä¢ Food Analysis ‚Ä¢ Food Processing ‚Ä¢ Freezers ‚Ä¢ Fume Hoods ‚Ä¢ Funnels ‚Ä¢ Furnaces ‚Ä¢ Furniture ‚Ä¢ Gas Chromatography ‚Ä¢ Gas Regulators ‚Ä¢ General Laboratory ‚Ä¢ Glassware ‚Ä¢ Glassware Dryers ‚Ä¢ Glove Boxes ‚Ä¢ Gloves ‚Ä¢ Graduated Cylinders ‚Ä¢ Hardness Testers ‚Ä¢ Haws ‚Ä¢ Health Care ‚Ä¢ Heating ‚Ä¢ Heating Blocks ‚Ä¢ Heating Elements ‚Ä¢ Heating Mantles ‚Ä¢ Heating Tapes/ Mats/ Blankets ‚Ä¢ Histology ‚Ä¢ Homogenizers ‚Ä¢ Hot Plates & Stirrers ‚Ä¢ Humidity ‚Ä¢ Hydrometers ‚Ä¢ Hygrometers ‚Ä¢ Ice Makers ‚Ä¢ Imhoff Cones ‚Ä¢ Incubators ‚Ä¢ Information ‚Ä¢ ISE ‚Ä¢ Jars ‚Ä¢ Karl Fischer Titrators ‚Ä¢ Kneader ‚Ä¢ Lab Jacks ‚Ä¢ Labeling ‚Ä¢ Laboratory Reactors ‚Ä¢ Les ‚Ä¢ Life Science ‚Ä¢ Light Meters ‚Ä¢ Liquid Handling ‚Ä¢ Magnetic Stirrers ‚Ä¢ Magnets ‚Ä¢ Materials Testing ‚Ä¢ Medical Products ‚Ä¢ Melting Point ‚Ä¢ Microscopes ‚Ä¢ Milk Testing ‚Ä¢ Mixing ‚Ä¢ Moisture Analyzers ‚Ä¢ Mortars and Pestles ‚Ä¢ Multiparameter Meters ‚Ä¢ Multiwell Plates ‚Ä¢ Organizers ‚Ä¢ ORP ‚Ä¢ Ovens ‚Ä¢ PCR/ Life Science ‚Ä¢ Penetrometers ‚Ä¢ Petri Dishes ‚Ä¢ Petroleum Testing ‚Ä¢ pH Buffer Standards ‚Ä¢ pH Controllers ‚Ä¢ pH Electrodes ‚Ä¢ pH Meters & Testers ‚Ä¢ pH Transmitters ‚Ä¢ Photometers ‚Ä¢ Pipet Fillers ‚Ä¢ Pipet Washers ‚Ä¢ Pipets ‚Ä¢ Pipettes ‚Ä¢ Pipetting ‚Ä¢ Pitchers ‚Ä¢ Plastic Labware ‚Ä¢ Plumbing Fixtures ‚Ä¢ Polarimeters ‚Ä¢ Porcelain ware ‚Ä¢ Pressure Meters ‚Ä¢ Process Instrumentation ‚Ä¢ Pumps ‚Ä¢ Pumps & Dispensers ‚Ä¢ Pyrometers ‚Ä¢ Racks ‚Ä¢ Recorders ‚Ä¢ Refractometers ‚Ä¢ Refrigerators & Freezers ‚Ä¢ Reverse Osmosis Information ‚Ä¢ Rheology ‚Ä¢ Rockers ‚Ä¢ Rotary Evaporators ‚Ä¢ Rotators ‚Ä¢ Rubber Stoppers ‚Ä¢ Rubber Tubing ‚Ä¢ Safety ‚Ä¢ Sample Handling ‚Ä¢ Sample Preparation ‚Ä¢ Separatory Funnels ‚Ä¢ Serum Vial Seals ‚Ä¢ Serum Vial Stoppers ‚Ä¢ Serum Vials ‚Ä¢ Shakers ‚Ä¢ Sieves and Shakers ‚Ä¢ Siphons & Pumps ‚Ä¢ Slide Warmers ‚Ä¢ Soil Sampling ‚Ä¢ Soil Testing ‚Ä¢ Solutions ‚Ä¢ Sound Meters ‚Ä¢ Soxhlet Extractors ‚Ä¢ Specimen Containers ‚Ä¢ Spectrophotometers ‚Ä¢ Standards ‚Ä¢ Steam Baths ‚Ä¢ Sterilizers ‚Ä¢ Stir Bars ‚Ä¢ Stirring ‚Ä¢ Stirring Hot Plates ‚Ä¢ Stirring Plates ‚Ä¢ Stoppers ‚Ä¢ Tachometers ‚Ä¢ TDS Testers ‚Ä¢ Teflon Labware ‚Ä¢ Temperature & Humidity ‚Ä¢ Test Papers ‚Ä¢ Test Tube Racks ‚Ä¢ Test Tubes ‚Ä¢ Thermal Cyclers ‚Ä¢ Thermistor Products ‚Ä¢ Thermocouples ‚Ä¢ Thermometers ‚Ä¢ Thermoreactors ‚Ä¢ Timers and Stopwatches ‚Ä¢ Titrators ‚Ä¢ Tools ‚Ä¢ Trays ‚Ä¢ Tube Racks ‚Ä¢ Tubing ‚Ä¢ Turbidity Meters ‚Ä¢ Ultrasonic Cleaners ‚Ä¢ Vacuum Pumps ‚Ä¢ Vials ‚Ä¢ Videos ‚Ä¢ Viscosity ‚Ä¢ Vortex Mixers ‚Ä¢ Vwr ‚Ä¢ Water Baths ‚Ä¢ Water Chillers ‚Ä¢ Water Purification ‚Ä¢ Water Testing ‚Ä¢ Weather ‚Ä¢ Weights dan Kebutuhan instrument pendukung Laboratorium            ","
              JL. Sumur Batu No.1 RT.01 - RW.06 Kel.Sumur Batu - Kec.. Kemayoran            ",Jakarta Pusat,DKI Jakarta,+62 811-1980-702,None,None
"PT Mega Promosindo Telp : 081316710440, 021-88950650 ","
                                    PREMIUM GOLD
                                ",Kemasan Botol,"
Mega Promosindo adalah group dari mega makmur sentosa perusahaan yang bergerak di bidang trading Percetakan, barang Promosi , Percetakan souvenir atau merchandise Seperti: Mug, Jam, Payung, USB Flash Disk, Power Bank, Pin, ID Card, Tas, Godie Bag, Topi, Kaos, Polo T-Shirt, Buku Agenda, Kalender dan masih banyak lagi produk lainya. Barang kami merupakan produk lokal dan impor yang memiliki keunikan tersendiri Mega Promosindo berdiri sejak tahun 2000 sehingga memiliki pengalaman yang cukup di bidang ini, dengan demikian kami dapat mensuplai barang-barang tepat waktu dengan harga bersaiang dan kualitas yang dapat diandalkan dengan dibantu tenaga kerja yang berpengalaman dan didukung mesin cetak yang cukup modern. Selain Percetakan perusahaan ini bergerak di bidang: Pabrik Kaos, Pabrik Jaket, Pabrik Topi, Pabrik Baju Olahraga, Pabrik Jeans, Pabrik Kaos Polo, Pabrik Polo Shirt, Konveksi Kaos, Konveksi Kaos Polo-Polo Shirt, Konveksi Jaket, Konveksi Celana, Konveksi Seragam ( uniform) , Konveksi Garment, Konveksi Jeans, Garment Seragam, Garment Kemeja, Garment Jaket, Garment Promosi Mengerjakan produksi untuk beraneka jenis pakaian di pabrik/ konveksi sendiri seperti: Seragam : Pakaian Seragam Kerja, Seragam Promosi, Seragam Karyawan, Pakaian Safety, Seragam Kantor, Seragam Lapangan, Seragam Cleaning Service, Seragam Security/ Satpam Pabrik, Pakaian Seragam Teknisi Pabrik, Baju Team Olahraga, Seragam Pemda ( PNS) , Seragam SPBU, Seragam Operator Pabrik, Kemeja: Kemeja Promosi, Kemeja Safety, Kemeja Formal, Kemeja kualitas Garmen, Kemeja F1, Kemeja Kantor, Kemeja Lapangan, Kemeja Reflector, Kemeja Tropical, Kemeja High Twist, Kemeja Safari, Kemeja PDH, Kemeja PDL, Kemeja Otomotif, Kemeja Pabrik, Polo Shirt: Polo Shirt Promosi, Polo Shirt Souvenir, Polo Shirt Golf, Polo Shirt Pique, Polo Shirt Merchandise, Polo Shirt kualitas Ekspor ( Export) , Polo Shirt Seragam, Polo Shirt kualitas Garmen, Polo Shirt Eksklusif, Polo Shirt Pabrik Jaket: Jaket Promosi, Jaket Semi Jas, Jacket Formal, Jaket Safety, Jaket Club, Jaket Casual, Jaket Olahraga, Jaket Polo, Jaket Balap, Jaket kualitas Ekspor ( Export) , Jaket Reflector ( Jaket tambang) , Jaket Loreng, Jaket Pabrik, Jaket Kerja, Jaket Lapangan, Jaket Double side, Jaket Micro Fibre, Jaket Parasit, Jaket Taslan, Jacket Waterproof, Jaket Cold Storage, Jaket fleece, Jacket sport, Jaket Training, Jaket Kontingen, Jaket Atlet, Jaket Almamater, Jaket Mahasiswa, Jaket Canvas, Jaket Kantor, Topi: Topi Promosi, Topi Souvenir, Topi Rimba, Topi Golf, Topi Eksklusif, Topi Pekerja Pabrik, Topi Instansi, Topi Laken Wol, Topi Canvas, Topi Raphel, Kaos T-Shirt: Kaos Oblong, Kaos Polo, Kaos Krah ( Wangki) , Kaos kualitas garmen, Kaos Katun ( cotton) , Kaos Pilkada, Kaos Promosi, Kaos Kampanye, Kaos Sablon, Konveksi Kaos Merchandise, Kaos Formula 1, Kaos olahraga, Kaos Souvenir, Pabrik Kaos murah, Kaos Loreng ABRI, Pabrik Kaos katun Carded, Konveksi Kaos T-Shirt Polos, Pabrik Kaos Bola, T Shirt Promosi, Pabrik Kaos Promo, Kaos Pabrik, Kaos Seragam, Kaos Seluler, Kaos Pariwisata, Kaos Komunitas, Kaos Order, Pesan Kaos, Produksi Kaos, Kaos Family Gathering, Pabrik Kaos PE, Kaos Hyget, Kaos Full Print, Kaos body fit, Kaos Pameran, Kaos Rohani, Kaos Kelas, Pabrik Kaos Bandung, Konveksi Kaos Wanita, Kaos Spandex, dsb. Celana Kerja, Celana PDL, Celana Formal, Celana Pabrik Rompi Promosi, Rompi Order, Tas Promosi, Konveksi Tas Seminar, Konveksi Tas Travel, Tas Pinggang, Baju Pabrik, Baju Wisuda, Baju Keki, Baju Safari, PDH ( Pakaian Dinas Harian) , PDL ( Pakaian Dinas Lapangan) , Konveksi Celana Jeans, Konveksi Kemeja Jeans, Konveksi Jaket Jeans, Pabrik Jeans, dsb, Dengan atribut sablon dan bordir komputer. Untuk kebutuhan Order Perusahaan, Rumah Sakit, Militer, Perusahaan Pertambangan ( Mining) , Team Olahraga, Garment, Pabrik- Pabrik, Perusahaan Produsen, Kantor, Dinas, dll. Sales Marketing : 081316710440 WA :08176454000 E-mail : sales@megapromosindo.com ","
              Kemayoran Jakarta Pusat            ",Jakarta Pusat,DKI Jakarta,+62 813-1671-0440,None,None
PT. AGRO DAHLIA PROFITAMAS,"
                                    PREMIUM GOLD
                                ",Kemasan Botol,"
PT. Agro Dahlia Profitamas Adalah Perusahaan Nasional yang merupakan Pusat dan Suplier berbagai jenis Pupuk nonsubsidi, Bibit, Benih dan Pestisida / agrochemical. Berdiri sejak Tahun 2009 dan sampai saat ini di Tahun 2021 semakin berkembang dan Terpercaya sudah lebih dari 10 Tahun.Meskipun berlokasi di Kalimantan, namun dengan Jaringan Distribusi barang dan Jaringan Ekspedisi Pengiriman yang luas Kami dapat melayani Pembelian Customer di seluruh Wilayah Indonesia di luar Kalimantan seperti Sumatera, Pekanbaru, Sulawesi bahkan Pulau Papua dengan biaya kirim yang murah terutama untuk Jumlah yang besar.Pestisida yg tersedia seperti Herbisida, Insektisida, Fungisida dan Rodentisida baik jenis padat maupun cair dengan berbagai macam merek. Antara lain sebagai berikut :
Herbisida Berbahan Metil Metsulfuron : Ally 20 WDG, Metsulindo 20 WP, Centally 20WG, Metaprima 20 WG, Trendy 20 WP dan lain lainHerbisida Berbahan Aktif Glifosat : Roundup 486 SL, Elang 480 SL, Block Up 486 SL, Run Up 486 SL, Geliat 486 SL, Kill up 480 SL+ Metil Metsulfuron, Kleenup 480 AS, Rondaplus 360/ 5SL, Prima Up 480 SL, Primax 480 SL, Basmi up 370 SL, Centop 540 SL, Bitop 531 SL, Centaris 240 SL, Setting 240 SLHerbisida2, 4 D Dimetil Amina : Lindomin 865 SL, DMA 6 865 SL, CBA 6 865 SLHerbisida Berbahan Aktif Parakuat : Gramoxone 276 AS, Top Zone 276 SL, Redzone 276 SL, Gerxone 288 SL, Herbatop 276 AS, Mupxone 276 AS, Primaxone 276 SL, Primaxone Plus 280 SL, Paratop 276 SL dllInsectisida Berbahan Aktif Karbofuran : Furadan 3G, Primadan 3G, Purdan Plus 6GInsectisida berbahan aktif Propineb : Antracol 70wp, Centracol 70wp, CBACool 70wpInsectisida Berbahan Aktif Deltamethrin : Decis 2, 5 EC dllFungisida Berbahan Aktif Mankozeb : Dithane 80 WP, Bazoka 80 WP dllInsectisida Berbahan Aktif Dimehipo : Spontan 400 SL, Centadine 450 SL dllBerbahanAktif Triklofir : Garlon 670 EC, Centalon 670 EC, Trikos 670 ECInsectisida Berbahan Karbaril : Sevin 85 SInsectisida Berbahan Aktif Profenofos : Curacron 500EC Insectisida Berbahan Aktif Lamda Sihalotrin : Matador 25 EC, Indodor 50 ECInsectisida Lain : Virtako, Score 250 EC, Ridomil MZ 68 WG, Centazole 250 EC, Pegasus, Metindo Rodentisida ( Racun Tikus) : Ratgone, Klerat, Starkum.Chemical Water Treatment untuk PDAM maupun Tambang seperti :Tawas, Kaporit Tablet dan Kaporit Cair, Soda Ash, Caustik Soda, PAC, Hydrate Lime / Kapur Tohor, Phosporic Acid dan lain lain.
Alat Semprot / Knapsack Sprayer : Solo Indonesia Type 425, Solo 425 Plasindo License Germany, Solo Swan, Sprayer PB 16 & PB 16 Made in Malaysia.Juga berbagai Sprayer Elektrik kapasitas 16 liter dengan merk CBA Elektrik, Banzai, Barito dan lain lain.
Kelengkapan Pertanian dan Perkebunan Lain Seperti :Paranet, Plastik UV, Polybag berbagai Ukuran, Alat tanam jagung, Terpal Kualitas terbaik, Mangkok Sadap Karet, Dodos, Egrek, Cangkul, Masker Dan Banyak Lagi.Kami juga Merupakan Distributor Tunggal untuk Wilayah Kalsel-Teng untuk Pupuk hayati cair merk Agrobost dan Pembenah Tanah cair merk HumagoldAdapun Pupuk Nonsubsidi,Pupuk Yang Kami sediakan terdiri dari :1. Pupuk Urea Nonsubsidi ProduksiPT. Pupuk Kaltim (PKT), PT.Kujang dan PT. Pusri dengan Kandungan N 46%2. Pupuk Phosphat SP 36, TSP 46 dan Rock Phosphat kandungan P2O5 26-28% berbagai merk.3. NPK 16-16-16 Merk Mutiara, Yaramila, Pak Tani, Dinar, Natures, Mahkota, Zamrud, Pelangi dll.4. NPK 15-15-15 Merk Ferticomp, Mahkota, kebomas, Zamrud dll.5. NPK 15-15-6-4 Merk Ferticomp dan Mahkota dan Hikay6. NPK 12-12-7-2TE merk Ferticomp, Mahkota dan Hikay 7. NPK 13-6-27-4TE merk Ferticomp, Mahkota dan Hikay8 Dolomit mesh 60, 80, mesh 100.9. kapur pertanian ( Kaptan.) produksi petrokimia Gresik dan Ferticomp10. KCL / MOP Import merk Mahkota, Hykay, Mestindo dll.11. Pupuk Kieserit, Pupuk ZA merk Mahkota, Daun Sawit dll.12. Pupuk Kandang.13. Pupuk Kompos Evergreen.14. Pupuk Kompos dengan spesifikasi sesuai kebutuhan.Kami juga menyediakan berbagai Jenis Bibit dan Benih tanaman Untuk Pengadaan / Tender SepertiBibit Kehutanan :Bibit Gaharu, Bibit Karet, Bibit Sengon, Bibit Jabon, Mahoni, Meranti dll.Bibit Perkebunan : Bibit Jengkol, Bibit Lengkeng Okulasi, Bibit lengkeng King long, Bibit Mangga Okulasi, Bibit Rambutan cangkok, Bibit Cempedak, Durian, Bibit Kopi, Bibit Kakao dan lain lainKami juga Distributor Besar dan Ready Stock untuk Benih Kacangan LCC atau Legume Covercrops / Benih Kacangan penutup tanah semua Jenis sepertiCM, PJ, MB, CP, CRJ, MC, CC.Juga benih benih kehutanan seperti :Benih Turi, Gamelina, Sengon Solomon, Sengon Laut, Sengon Buto, Jabon, Petai Cina dan lain lain.Motto Kami adalah :""One Stop Solution For Plantation""Cukup bekerjasama dengan Kami, segala kebutuhan Pertanian dan Perkebunan Anda akan Kami Penuhi.Terlengkap dan Termurah.Untuk Pembelian Partai atau Jumlah Banyak, akan Kami berikan harga Khusus. Segera Hubungi kami untuk Negosiasi lebih lanjut.Para Customer Kami :ASTRA Grup, PAMA Grup, ADARO Grup, SALIM Grup, PT. INHUTANI, Amara Plantation, Bumi Indo Grup, Agro Forestry Group, PT. Adindo Hutani Lestari, PT. Surya Langgeng Sejahtera, PT. Cassava Borneo Sukses Plantation, PT. Swadaya Sapta Putra, PT. Sepalar Yasa Kartika, Agro Indo Group, Nusa Ina Grup, Hasnur Plantation, Sinar Mas Plantation,PT.Lifere Agro Kapuas, PT. Bumitama Gunajaya Agro Group, JHONLINE Group,  PT. Baramulti Sukses Sarana, PT. Antang Gunung Meratus Dan Lain Lain.Kami Juga Melayani Pembuatan Jaminan supply / Dukungan Untuk Keperluan Tender atau lelang pada Proyek proyek pemerintahan di Seluruh Wilayah Indonesia.Bisa memenuhi Solusi Pertanian dan Perkebunan anda Adalah Tujuan Kami.Pemberitahuan: Terhitung Per 1 November 2013 Kantor Lama yang beralamat di Jl. H. Hasan basri Ruko no.1 kav.3 Banjarmasin Pindah ke alamat baru ke : Jl. Raya Pulau Laut No.74 Banjarmasin Kalimantan Selatan( Dekat POLDA Kal-Sel)Telepon 0511- 3360777Contact Person Hp atau Whatsapp 081952968899, 08115007999Email : agrodahliaprofitamas@gmail.com            ","
              Jl. Raya Pulau Laut No.74,Telepon 05113360777,WhatsApp 08115007999            ",Banjarmasin,Kalimantan Selatan,+62 811-5007-999,None,None
