Name,Membership,Category,Description,Address,City,Province,telp1,telp2,telp3
PT. Sahabat Profesi dan Bisnis Indonesia,"
                                    PREMIUM GOLD
                                ",Pelatihan,"
 PT. SAHABAT PROFESI DAN BISNIS INDONESIA (SPBI) bergerak di bidang usaha pengembangan bisnis strategis berbasis Intellectual capital meliputi Human Capital, Struktural Capital dan Relational Capital pada organisasi profit dan atau non profit, Menyediakan tenaga ahli, fasilitator, perangkat penunjang pengembangan Intelectual Capital,  human capital, event organizer dan bimbingan dalam bentuk motivating, consulting, training serta coaching. 
Website ini berisikan berbagai informasi produk dan jasa standarisasi, peningkatan dan pengembangan kompetensi kerja melalui asesment center, motivasi, pelatihan dan sertifikasi BNSP, Hypnotherapy, NLP, Coaching dan lainnya yang diharapkan dapat menjadi salah satu referensi bagi para mitra bisnis juga yang ingin menstandarkan dan meningkatkan kompetensi kerja pegawainya dari level bawah sampai pucuk pimpinan.
Website ini juga berisikan informasi bagi siapapun juga yang berkeinginan untuk pengembangan diri soft kompetensi dan hard kompetensi baik secara mandiri, lingkup organisasi, bisnis serta siapapun yang memilih mendalami profesi sertifikasi kompetensi BNSP, Hypnotherapy, NLP, Coaching, atau menapaki karier baru melalui pengetahuan, baik sebagai praktisi, atau sebagai Trainer. 
PT. SPBI telah memiliki legalitas sebagai berikut :
AHU    : 002785.AH.01.01
NIB     : 0220202181577 
NPWP  : 940581986412000
 
VISI
Sahabat Profesi & Bisnis Indonesia merupakan perusahaan swasta nasional yang fokus dalam bidang konsultan manajemen, event organizer, training center, asesment center, inkubator bisnis, inkubator trainerpreuner dan inkubator leadership wisdom terbaik dan terpercaya di Indonesia
MISI
Sahabat Profesi & Bisnis Indonesia mitra usaha memperbaiki, menumbuhkan dan mengembangkan seluruh aspek kinerja SDM & Bisnis pada Organisasi, Pemerintahan, BUMN, Swasta, Koperasi, Sekolah dan Masyarakat Indonesia dan mancanegara.
SEJARAH
Sahabat Profesi & Bisnis Indonesia awalnya merupakan provider training ELS Institute berdiri sejak April 2010 di Kota Depok, yang telah memiliki puluhan ribu alumni, kerjasama dan mitra asosiasi seperti IBH, Neo NLP Society, NLP Coach Association, PRAHIPTI, GRADASI, P-HATTRA Indonesia, LSP Quantum HRM International, LSP MPSDM, LSP Pelatinas, LSP UMKM WI, LSP MENBISKA, LSP Koperasi Nusantara, LKP-LKP Nasional dan Lokal, hingga saat ini telah bermetamorfosis menjadi badan hukum perseroan terbatas dengan nama PT. Sahabat Profesi & Bisnis Indonesia disingkat SPBI.
PRODUK dan JASA
1. Jasa motivasi, pelatihan, coaching dan sertifikasi (publik training, In-House training, Outdoor training).
2. Jasa evaluasi psikologi (konsultasi psikologi karyawan, rekrutmen, seleksi, penempatan dan inventarisasi, psikologi assesmen)
3. Jasa konsultasi manajemen (Human Resources, Production & Operation, Sales & Marketing, Finance & Accounting, dll)
4. TUK (Tempat Uji Kompetensi) Manajemen & Pengembangan SDM, Kepelatihan Instruktur, UMKM, Manajemen Bisnis, K3, dll)
Jasa pendampingan Bisnis, konsultasi, coaching, mentoring memperbaiki dan menumbuhkembangkan bisnis.
5. Inkubator Entrepreneur untuk menciptakan pengusaha sukses mulia yang memiliki bisnis yang maju dan unggul.6. Inkubator Trainerpreneur untuk menciptakan fasilitator pengembangan SDM dan Bisnis.
7. Inkubaror Leadership based spirit Life, Mind, Body are one system, mengawal peradaban sukses mulia.
8. Jasa coaching manajemen (Human Resources, Production & Operation, Sales & Marketing, Finance & Accounting, dll)
9. Jasa event organizer (acara resmi, semi formal, resepsi, wisuda, HUT organisasi, outdoor learning, outbond dll)
10. Jasa finger print analisis in born karakter, potensi, kompetensi dan pengembangan self mastery, profesional.
 
ALAMAT
Perkantoran Kencana Putri Lt. Dasar R.B, Jl. Akses UI No.99 Kelapadua Tugu, Cimanggis, Depok 16451,
Telp. (021) 87926343, HP. 08118013579, 0816692317
 
Email :
saprobis@gmail.com,cs@spbi.co.id,
Situs : http://www.spbi.co.id ","
              Perkantoran Kencana Putri Lt. Dasar R.B, Jl. Akses UI No.99 Kelapadua Tugu, Cimanggis, Depok 16451Telp. (021) 87926343, HP/WA. 08118013579            ",Depok,Jawa Barat,+62 811-8013-579,+62 816-692-317,+62 811-100-317
PT. BINA AREA PERSADA,"
PREMIUM RUBY
",Pelatihan,"
              Kami dari PT. Bina Area Persada yang bergerak dibidang Outsourcing. Kami menawarkan tenaga Security, Cleaning Service dan Driver. Selain itu kami juga menawarkan Sistem keamanan berbasis IT yang dapat mengamankan ruko, gedung perkantoran hingga pabrik dari tindakan kriminal, kebakaran, banjir dll.            ","
              Jl. Gayungsari barat XI Blok GD No. 13            ",Surabaya,Jawa Timur,08111546010,None,None
Barista,"
                                    PREMIUM GOLD
                                ",Pelatihan,"
              Menjual kopi terbaik retail maupun partai, Kopi mentah, kopi sangrai, bubuk kopi, Blend, salah satu kopi terbaik didunia yang dipersembahkan oleh Indonesia ( kopi Luwak Single Origin Arabika Robusta Liberica excelsa Special tersedia dari Gayo, Mandailing, Lintong, Sidikalang, Bengkulu, Jambi, Dolok Sanggul, Lampung, Jawa Priangan, Jawa Jampit, Jawa Kayumas, Jawa Blawan, Jawa Pancoer, Jawa Karlos, Arjuno, Jawa Sindoro Sumbing, Jawa Dampit, Jawa Rengganis, Jawa Gondoarum, Bali Kintamani, Bali Pupuan, Sambas, Toraja, Kalosi, Sapan, Marinding, Bittuang, Enrekang, Bajawa Flores, Mangggarai, Kupang, Sumbawa, Papua Wamena Baliem Paniai Gayo : medium smooth body, sweet & spicy artinya kekentalan yg pas dengan tipe rasa “ Exotic taste ” yakni cita rasa perpaduan rempah dan buah-buahan. Lintong : full-bodied, soft acidity, hints of fresh herbs & spices , yakni berkarakter kental dengan keasaman yg lembut dan Rasa yg terkesan mirip sayuran. Mandheling : deep full body, earthy with bittersweet chocolate, yakni karakter kopi dengan kekentalan yg agak deep, aroma khas seperti kopi yg lama disimpan ( uniknya mandheling ) dan cita rasa cokelat pada ujung ketika selesai menengguk kopi. Sumatra – intense flavor, with cocoa, earth and tobacco notes Java – good, heavy body, with a lasting finish and herbaceous notes Bali – sweeter than other Indonesian coffees, with nut and citrus notes Sulawesi – good sweetness and body, with warm spice note Toraja Marinding : Excellent aroma and flavor, balance body and acidity, Caramel hints and long finish Flores  - heavy body, sweetness, chocolate, and tobacco notes Papua -  heavy body, chocolate, earth, and spicy finish  Berikut daftar 11 kopi premium Indonesia # Kopi Gayo - Ciri: full bodied, Kekentalan bagus dan keasaman seimbang, rasa cokelat, rasa rempah kompleks, good aftertaste # Kopi Mandailing ( Mandheling) - Ciri: Kekentalan lebih ringan dibanding gayo, keasaman seimbang, rasa cokelat cocoa, tembakau, asap, tanah, dan kayu. # Kopi Lintong - Ciri: Kekentalan bagus, keasaman medium keatas, rasa buah-sayur dengan rasa akhir manis. # Kopi Jawa ( Java) - Ciri: Aroma bagus, kekentalan dan keasaman medium, rasa seimbang dengan rasa akhir herbal dan rempah ringan # Kopi Priangan ( Preanger) - Ciri: Kekentalan dan keasaman medium ringan, rasa dominan gula jawa / sugar browning, short acidity hints of lemony-strawberry # Kopi Toraja - Ciri: Rasa harum bunga floral, keasaman lebih tinggi ( sweet tomatoes, berry-raisin) , lezat, caramel, sweet corn # Kopi Kalosi - Ciri: Kekentalan bagus, keasaman rendah, rasa cokelat dengan sedikit kesan jeruk, rasa tertinggal sedang, tidak mudah dilupakan # Kopi Bali Kintamani - Ciri: kekentalan dan keasaman medium ringan, ada rasa jeruk ( citrus) buah matang pohon dan floral menyenangkan. Short aftertaste, rasa tertinggal cepat # Kopi Flores Bajawa - Ciri: Kekentalan tinggi dan keasaman rendah, rasa cokelat dan vanili dengan karamel alamiah # Kopi Baliem/ Wamena - Ciri: Kekentalan tinggi, keasaman tinggi, balance, rasa cokelat dengan sentuhan tembakau sedikit vanilli, sedikit lemon, aroma kuat, rasa yg kuat, long aftertaste, rasa tertinggal lama. # Kopi Luwak - Lokasi: Sumatera Utara, Sumatera Selatan, Jawa Tengah, Jawa Timur, Bali, dan Tana Toraja. Pengiriman ke Jawa, Sumatera, Kalimantan, Sulawesi, Irian Jaya, Papua, Makassar, Bali, Lombok, Mataram, Jakarta, Surabaya, Medan, Bandung, Pekanbaru, Riau, Bangka, Belitung, Banjarmasin, Sampit, Palangkaraya, Balikpapan, Samarinda, Sampit, Kerinci, Padang, Banten, Tangerang, Cirebon, Cimahi, Manado, Menado, Maluku, Ambon, Pangkalan Bun, Jambi, Padang, Aceh, Batam, Bintan, Nusa Dua, Pangkal Pinang, Tanjung Pinang, Ternate, Biak, Fakfak, Madura, Sampang, Sambas, Bangkalan, Semarang, Salatiga, Sidoarjo, Ngawi, Solo, Kediri, Tarakan, Mojokerto, Denpasar, Kuta, Palembang, Lampung, Kupang, Brebes, Jogjakarta, Yogyakarta, Solo, Salatiga, Malang, Jember, Blitar, Jombang, Banyuwangi, Martapura, Magelang. Aek Kanopan, Arga Makmur, Arosuka, Balige, Banda Aceh, Bandar Lampung, Bagansiapiapi, Baganbatu, Bandar Seri Bintan, Bangkinang, Bangko, Banyuasin, Batam, Baturaja, Batusangkar, Bengkalis, Bengkulu, Binjai, Bintuhan, Bireuen, Blambangan Umpu, Blangpidie, Blang Kejeren, Bukittinggi, Calang, Curup, Daik, Dolok Marawa, Dumai, Gedong Tataan, Gunung Sitoli, Gunung Sugih, Gunung Tua, Idi Rayeuk, Indralaya, Jambi, Jantho, Kabanjahe, Kalianda, Karang Baru, Tinggi, Kayu Agung, Kepahiang, Kisaran, Koba, Kota Agung, Kotabumi, Kota Pinang, Kuala Tungkal, Kutacane, Lahat, Lahomi, Langsa, Lhokseumawe, Lhoksukon, Limapuluh, Liwa, Lotu, Lubuk Basung, Bendaharo, Linggau, Pakam, Sikaping, Manggar, Manna, Martapura, Medan, Menggala, Mentok, Metro, Meulaboh, Meureude, Muara Aman, Muara Bulian, Muara Bungo, Muara Dua, Muara Enim, Muara Sabak, Muara Tebo, Muaro Sijunjung, Mukomuko, Padang, Padang Aro, Padang Panjang, Padang Sidempuan, Pagaralam, Painan, Palembang, Pandan, Pangkalan Kerinci, Pangkal Pinang, Panguruan, Panyabungan, Pariaman, Parit Malintang, Pasir Pengarayan, Payakumbuh, Pekanbaru, Pematang Siantar, Prabumulih, Pringsewu, Pulau Punjung, Ranai, Rantau Prapat Raya, Rengat, Sabang, Salak, Sarila, Sarolangun, Sawahlunto, Sei Rampah, Sekayu, Selat Panjang, Sengeti, Siak Sri Indrapura, Sibolga, Sibuhuan, Sidikalang, Sigli, Simpang Ampek, Simpang Tiga Redelong, Sinabang, Singkil, Sipirok, Solok, Stabat, Subulussalam, Sukadana, Suka Makmue, Sungailiat, Sungai Penuh, Takengon, Tais, Tanjung Balai ( Sumatera Utara) , Tanjung Balai Karimun ( Kepulauan Riau) , Tanjung Enim, Tanjung Pandan, Tanjung Pinang, Tapaktuan, Tarempa, Tarutung, Tebing Tinggi ( Sumatera Utara) , Teluk Dalam, Teluk Kuantan, Tembilahan, Toboal, Tuapejat, Ujung Tanjung            ","
              OperasionalBuka Senin - Sabtu 10.00 - 17.00 / Open Monday - Saturday 10am - 5pm | Tutup  Minggu dan Hari Libur Nasional / Closed Sunday and Public Holiday |House Of Coffee @Barista_ID +6281231259116 | Griya Kebraon Barat 13 CD no. 17 Surabaya (Samping Menara Masjid Madina Luhur)            ",Surabaya,Jawa Timur,+62 812-3125-9116,None,None
AGRO LAWU INTERNATIONAL,"
                                    PREMIUM GOLD
                                ",Pelatihan,"
              AGRO LAWU INTERNATIONAL adalah, komunitas kelompok petani talas satoimo/ talas jepang/ talas safira/ talas Tasa atau bahasa latinnya adalah "" Colocasia Esculenta var Antiquarum "" . AGRO LAWU INTERNATIONAL telah memiliki kebun bibit inti dan kebun plasma. AGRO LAWU INTERNATIONAL juga menyediakan tenaga trampil dan berpengalaman dalam bidang budidaya tanaman talas Satoimo/ Talas Jepang. Budi daya talas satoimo ini telah ditekuni sejak tahun 2005 hingga sekarang dengan wilayah penanaman di wilayah P. Jawa, Bali, Sulawesi, Sumatera dan Kalimantan. Pelatihan pembuatan kompos organik merupakan kegiatan rutin dilakukan dan di aplikasikan kelapangan oleh Agro Lawu International. Alamat : AGRO LAWU INTERNATIONAL Kelurahan Sarangan, Kecamatan Plaosan, Kabupaten Magetan. Jatim. Alamat pelatihan : Jl. Raya Sukanagalih no. 88 Hanjawar-Cimacan Jawa Barat 43255 Faks : ( 0263) 2950101 Contact person : 0813 867 42828 ( Bp. Andi)            ","
              Lara Sati, Kelurahan Sarangan RT/RW - 06/01  Kecamatan Plaosan  Kabupaten Magetan            ",Magetan,Jawa Timur,+62 813-8674-2828,None,None
DEPOT SAFETY,"
                                    PREMIUM GOLD
                                ",Pelatihan,"
              c/o. PT. Citra Total Proteksindo 
Bergerak di bidang Keselamatan dan Kesehatan Kerja [ PJK3 ] Bidang Proteksi Kebakaran. Bidang Kegiatan : Pemasangan dan Perawatan Proteksi Kebakaran meliputi Alat Pemadam Api Ringan (APAR), Instalasi Deteksi Alarm, Hydrant System, Sprinkler System dan System Pemadam Otomatik Integrated.
*ALAT PEMADAM API* Pengecekan, perawatan, servis dan isi ulang, Alat Pemadam Api Kebakaran ( APAR ) dengan berbagai macam merk antara lain : Alat Pemadam Api MAXGUARD, Yamato, Gunnebo, SERVVO, ARINDO, INDOKA, VIKING, PYROMAX, APPRON, CHUBB, STARVVO, VULCAN, FIROTECT, ALPINDO, GUARDALL, PROTECT, dll. Dengan segala jenis media racun api yang digunakan, seperti : ABC POWDER, BC POWDER, HCFC 123, HALOTRON, NAF P IV, CARBON DIOXIDE CO2, BUSA AB, FAOM LIQUID ( AFFF ), Vulcan AF 21, AF 31 (WATER BASED), AF 11, dll. 
Dengan berbagai type, seperti : Portable, Trolly ( Pakai Roda) & Thermatic System, dengan harga yang kompetitif, ekonomis, bergaransi dan jaminan kualitas yang baik sesuai kebutuhan anda, melayani antar jemput atau layanan ditempat Anda.
*FIRE ALARM SYSTEM*
Jasa Pemasangan Baru Instalasi Fire Alarm System dan Jasa Pengecekan Teknis, Perawatan (Maintenance) Fire Alarm System, dengan berbagai macam merk antara lain : APPRON, HOOSEKI, HORINGLIH, HONGCHANG, NOTIFIER, dll.
*FIRE HYDRANT SYSTEM*
Jasa Pemasangan Baru Instalasi Fire Hydrant System dan Jasa Pengecekan Teknis, Perawatan (Maintenance) Fire Hydrant System, dengan berbagai macam merk antara lain : Fire Hydrant APPRON, VENUS, X-FIRE, HOOSEKI, GUNNEBO, ZEKI, OZEKI, ALPINDO, FIROTECT, dll.
*FIRE SPRINKLER SYSTEM*
Jasa Pemasangan Baru Instalasi Fire Sprinkler System dan Jasa Pengecekan Teknis, Perawatan (Maintenance) Fire Sprinkler System, dengan berbagai macam merk antara lain : Fire Sprinkler APPRON, TYCO, SHILLA, NATIONAL, VIKING, dll.
*FIRE INSTALATION SYSTEM*
Jasa Pemasangan Baru Instalasi Fire System dan Jasa Pengecekan Teknis, Perawatan (Maintenance) Fire System, dengan berbagai macam jenis fire system antara lain :  FIRE FOAM SYSTEM, NOVEC 1230 KIDDE, NOVEC 1230 EDWARD, FM 200, CO2 FIRE SYSTEM, FIRE WATER SYSTEM, FIRE DETECTION SYSTEM, HYGOOD, KIDDE SERIES, TYCO, NATIONAL, SYSTEM SENSOR, HONEYWELL, FENWAL, dll.
*VISI DAN MISI*
Menjadi perusahaan keamanan yang terdepan dalam bidang Suplier Alat Proteksi Keamanan dan Service serta instalatir segala macam peralatan keamanan bidang proteksi kebakaran. Memberikan nilai kepuasan terbaik bagi pelanggan melalui harga terbaik, kompetitif, produk dan pelayanan berkwalitas serta garansi yang panjang terjamin mutu produk yg berkelas. ","
              Jl. Sugeng Jeroni No. 72  Yogyakarta            ",Jogja,Daerah Istimewa Yogyakarta,+62 811-2508-699,None,None
