Name,Membership,Category,Description,Address,City,Province,telp1,telp2,telp3
PT. Jaya Persada Nusantara,"
PREMIUM RUBY
",Perpajakan & Akuntansi,"
PT. Jaya Persada Nusantara Jasa Kontraktor Lapangan Olahraga yang berdiri lebih dari 33 tahun, Spesialisasi jasa kontraktor Pembuatan Lapangan dan Renovasi sarana Lapangan Olahraga yang meliputi Kontraktor lapangan tenis, Kontraktor lapangan basket, Kontraktor lapangan futsal, Kontraktor lapangan badminton, Kontraktor lapangan voli, kontraktor lapangan lintasan lari, Kontraktor lapangan Squash, Area bermain anak-anak dan Kontraktor lapangan multifungsi.PT. Jaya Persada Nusantara siap memberikan solusi untuk Anda mewujudkan lapangan olahraga yang paling ideal dengan biaya yang terjangkau dengan Kualitas yang Baik. Produk dan jasa yang kami tawarkan adalah produk khusus pelapisan permukaan sarana lapangan olahraga beserta jasa di aplikasikan di tempat, dengan spesialisasi material He’Pro™ Rubber Cushion Technology USA yang dapat memperbaiki beton yang rusak separah apapun, Lapangan / Lantai Aspal yang rusak, Retak tanpa harus Dibongkar Secara Keseluruhan/total. Produk kami dapat diaplikasikan baik untuk kebutuhan lapangan indoor maupun lapangan outdoor, karena teknologi He’Pro™ Surface memiliki resistensi yang kuat terhadap sinar ultraviolet dan air hujan. Kami dapat mewujudkan harapan anda untuk meminimumkan biaya, karena kami memiliki teknologi Coating dari teknologi USA / asing namun sarat kandungan material lokal, sehingga klien kami dapat menghemat biaya, menikmati lapangan olahraga berkualitas dengan harga yang ekonomis. Kami juga melayani jasa renovasi lapangan / perbaikan lapangan olahraga baik lapangan tenis, lapangan badminton, lapangan futsal, lapangan basket, lapangan voli, lapangan lintasan lari, lapangan Squash, Area bermain anak-anak dan lapangan multifungsi dengan metode terbaru yang lebih ekonomis, tanpa perlu dibongkar ulang.Anda dapat mengubungi kami untuk informasi lebih lanjut dan terinci untuk mendapatkan Estimasi biaya. Pengalaman kami Sejak Tahun 1977 dalam sport court surfacing technology di seluruh Indonesia, kami adalah partner yang tepat untuk perusahaan Anda dalam melakukan kerja sama di pembuatan atau renovasi Lapangan Olahraga khususnya renovasi lapangan / perbaikan lapangan olahraga baik lapangan tenis, lapangan badminton, lapangan futsal, lapangan basket, lapangan voli, lapangan lintasan lari , lapangan Squash, Area bermain anak-anak dan lapangan multifungsi. Hubungi kami segera untuk mewujudkan keinginan Anda di dalam produk dan jasa yang Anda perlukan pada lapangan olahraga dengan produk He’Pro™ Surface yang berkualitas, tahan lama, gesekan dan Tahan terhadap sinar ultraviolet.Contact Person :Hermawan BudionoTelp. : 021-5375585 / 081285175563 / 08164824272Fax  : 021-5377364Website : www.jaya-sportbuilder.com www.kontraktorolahraga.comEmail : info@ jaya-sportbuilder.com        jaya_sportbuilder@yahoo.com        jayapersada7@gmail.com ","
              Komp. Ruko BSD Blok RF 2 No.19 Sektor 1-2 Serpong            ",Tangerang,Banten,+62 816-4824-272,None,None
Raja Fiber Indonesia,"
                                    PREMIUM GOLD
                                ",Perpajakan & Akuntansi,"
              SELAMAT DATANG ! di Sentra Kerajinan Waterslide JAWA TENGAH Anda telah menemukan sebuah situs yang memberikan informasi terlengkap dan terupdate mengenai produk-produk fiber berkualitas dan terpercaya.Hanya kami Raja Fiber yang mampu memberikan solusi terbaik bagi kemajuan dan keberlangsungan bisnis Anda. Jika anda membutuhkan jasa kami dalam mengkonsep dan mendesain bisnis waterpark, segera hubungi Raja Fiber di nomor HP.0817 9475 943 atau HP.0821 3660 8248 untuk membantu Anda dalam merencanakan dan membangun bisnis waterpark. Kami Bergerak Dibidang Pembuatan Waterboom, Waterpark Mulai Dari Perencanaan, Lanscaping, Fiber, Kontruksi Sipil, Mechanical Electical, Filter dan Plumbing System.Kami adalah kontraktor yang bergerak di bidang pengembangan villa & resort seluruh Indonesia Kontraktor Waterpark & Waterboom yang terpercaya sejak tahun 2006.Raja Fiber mempunyai workshop pabrikasi fiberglass sendiri sehingga Anda tidakperlu khawatir dengan produk wahana seluncuran fiberglass yang Aman, Awet, dan Berkualitas. Raja Fiber melayani berbagai produk Fiber Reinforcement Plastic ( FRP) dengan beragam desain dan ukuran seperti: 1.Waterslide 2.Waterboom 3.Waterpark 4.Playground 5.Kiddie ride 6.Tempat sampah 7.Cargo box 8.Boat, perahu dan kano ( canoe) 9.Hand Power Boat ( Popeye Boat) 10.Perahu Angsa 11.Kolam Renang Beton | Concrete | Batu Alam 12.Kolam Renang Fiberglass | Fibreglass Pools | Composite Pools 13.Made by order Produk kami berkualitas dengan pelayanan terbaik dan harga terjangkau.Kami juga melayani design, siteplan, dan pembangunan water boom di berbagai daerah. Kami spesialis membuat waterslide ekstrem.Dengan membangun wahana water slide yang tidak biasa namun memiliki tantangan yang mengundang adrenalin seperti black thunder slide, tornado slide, tsunami slide/ half pipe, boomerango slide, aqua loop slide dll. Raja Fiber , Pusat Produksi Fiberglass Berkualitas dan Terjangkau Selamat dan Sukses ! OFFICE & MARKETING Dk.Cebukan RT4 RT5 Ds.Sonorejo Kec.Grogol Kab.Sukoharjo 57552 JAWA TENGAH Tlp : 0271 7880 866 Fax: 0271 7880 866 SMS Center: 0817 9475 943 - 0821 3660 8248  WA 082136608248 Email: rajafiber.info@ gmail.com SMS/WA CENTER 24 JAM: Ketik : Nama[ spasi] Kota[ spasi] Pertanyaan KIRIM Ke: 0821 3660 8248 Dengan QUICKSMS SERVER dalam hitungan menit Anda akan mendapatkan respon jawaban dari Team IT Raja Fiber Merk dan Produk RAJA FIBER INDONESIA Hak Cipta dilindungi undang-undang Nomor 19 Tahun 2002 Desain Industri dilindungi undang-undang Nomor 31 Tahun 2000 Fatwa MUI Nomor 1 Tahun 2003 tentang Hak Cipta Fatwa MUI Nomor 1/ MUNAS VII/ MUI/ 15/ 2005 tentang HAKI. . Informasi PAKET BIAYA Membangun Waterpark Disertai RAB Download di: http: / / www.rajafiber.wordpress.com http: / / www.slideshare.net/ rajafiber            ","
              Workshop 1Dk.Cebukan RT4 RW5 Ds.Sonorejo Kec.Grogol            ",Sukoharjo,Jawa Tengah,+62 821-3660-8248,None,None
RAJA LAMPU,"
                                    PREMIUM GOLD
                                ",Perpajakan & Akuntansi,"
SELAMAT DATANG DI WEBSITE RAJA LAMPU!Kami Raja Lampu adalah sentra kerajinan tiang lampu dan lampu hias Jawa Tengah.Menyediakan berbagai macam produk tiang lampu dengan beragam desain yang menarik.Raja Lampu adalah vendor terpercaya untuk produk Tiang Lampu Taman, Tiang Lampu PJU, Tiang Antik, Lampu Hias, Lampu LED, Lampu PJU Tenaga Surya, Lampu Dekoratif dan Perlengkapan Penerangan Luar Ruangan.Bingung Membuat Desain Tiang Lampu? Raja Lampu mempunyai koleksi desain tiang lampu dan lampu hias lebih dari 1000 desain yang dapat anda lihat di website kami. Tidak perlu bingung mencari referensi desain, karena di website Raja Lampu semua ada. Mau membuat model tiang lampu custom, kami spesialisasi di bidang tiang lampu dan lampu hias. Cukup kirimkan sketsa yang Anda buat, kami berikan RAB Beakdown lengkap dengan Analisa Harga dari desain tiang lampu Anda.Bingung Membuat HPS, RAB, DED Proyek Penerangan Jalan? Kami didukung oleh vendor dan sumber daya manusia yang cukup memadai untuk membantu Anda dalam membuat perencanaan penerangan jalan dan lain lain. Membuat HPS, RAB atau DED sebagai dokumen lelang dan perencanaan dapat Anda konsultasikan dan diskusikan dengan kami GRATIS! Manfaatkan fasilitas konsultasi GRATIS tersebut untuk membantu Anda dalam membuat perencanaan lelang penerangan jalan, taman kota, lampu hias kota, lampu jembatan, lampu sorot gedung dan lain lain. Jangan terjebak dalam perencanaan anggaran atau RAB yang asal asalan yang dapat berakibat fatal pada saat dilaksanakan pemeriksaan sehingga Anda bebas dari kasus kasus mark up anggaran.Bingung Membuat Spesifikasi Material Tiang Lampu atau Lampu Hias? Raja Lampu adalah sentra kerajinan tiang lampu dan lampu hias.Produk kami memiliki material khusus yang tidak dimiliki oleh sembarang vendor. Sehingga spesifikasi dapat Anda KUNCI sehingga kontraktor tidak asal asalan dalam membeli produk tiang lampu atau lampu hias.Pusat Kerajinan Tiang Lampu dan Lampu Hias Jawa Tengah Raja Lampu telah menciptakan lebih dari 100 desain tiang lampu jalan, lampu taman, lampu SPBU, lampu lanskap, lampu hias dan lampu tenaga surya. Raja Lampu menjual tiang lampu PJU dengan beragam desain dan ukuran.Terbuat dari material BSP, Steel Plate dan Custom.Finishing hot dipp galvanized atau cat dapat dipilih sesuai kebutuhan Anda. Biasa digunakan untuk area jalan raya sebagai fasilitas penerangan umum pengguna jalan, lapangan parkir, perumahan, taman dan taman kota dan lain-lain. Tiang lampu jalan Raja Lampu banyak diaplikasikan untuk :Tiang Lampu PJU, Tiang Lampu Tenaga Surya, Tiang Lampu Jalan Tol, Tiang Lampu Pabrik, Tiang Lampu Jalan Perumahan, Tiang Lampu Taman, Tiang Lampu Sorot, Tiang Lampu Antik Malioboro, dan Tiang Lampu Kawasan Pantai.Raja Lampu menyediakan tiang lampu PJU berikut perlengkapan elektrikalnya seperti:Kap Lampu/Armature, Lampu Kabel NYM, Kabel NYFGBY, Kabel NYY, Bohlam Lampu Mercury, Bohlam Lampu HPLN, Bohlam Lampu SON-T, Bohlam Lampu LED, Ballast Ignitor, Kapasitor Time, Swicth Fotocell Sensor, MCB Box Panel dll.Proses produksi tiang lampu PJU melalui tahap QC yang ketat sehingga hasilnya sesuai dengan spesifikasi yang di perlukan. Raja Lampu menjual tiang lampu PJU untuk proyek penerangan jalan, proyek dinas PU, proyek dinas tata kota, proyek pabrik, proyek pertambangan dll.Raja Lampu siap menjadi main suplier dan distributor bagi kontraktor kontraktor yang membutuhkan tiang lampu dengan kualitas teruji dan desain inovatif. Kami memberikan jasa desain gratis tiang lampu PJU atau sesuai kebutuhan.
Informasi Harga:Kirim Gambar Produk ke rajalampu.info@ gmail.com atau BBM 51960992Format : Kode Gambar - Tinggi ( m) - Jml Pesanan - Nama – KotaJumlah pesanan minimal adalah 30 unitKontak Marketing HP.0817 9475 943-0821 3660 8248 atau Tlp.0271 7880866SMS Center 24 Jam KETIK : Nama[ spasi] Kota[ spasi] Pertanyaan KIRIM Ke: 0821 3660 8248 - 0817 9475 943HARGA DAN SPESIFIKASI SEWAKTU WAKTU DAPAT BERUBAH TANPA PEMBERITAHUAN TERLEBIH DAHULU.
 
KONFIRMASIKAN KE MARKETING KAMI UNTUK UPDATE HARGA TERBARU Dengan QUICKSMS SERVER dalam hitungan menit Anda akan mendapatkan respon jawaban dari Team IT Raja Lampu
WORKSHOP :Cebukan RT4 RW5, Sonorejo Grogol,Sukoharjo 57552 JAWA TENGAHHP : 0821 3660 8248Tlp/ Fax: 0271 7880 866SMS Center: 0817 9475 943 - 0821 3660 8248Email: rajalampu.info@ gmail.com
 
  ","
              Cebukan RT4 RW5 Sonorejo Grogol            ",Sukoharjo,Jawa Tengah,+62 821-3660-8248,None,None
Trijaya Arsitek (081 330 2099 63),"
                                    PREMIUM GOLD
                                ",Perpajakan & Akuntansi,"
TRIJAYA ALUMINIUM( Aluminium and Glass Specialist )TRIJAYA ALUMINIUM bergerak di bidang jasa pembangunan Konstruksi, Exterrior, dan Interrior Gedung.Kami telah dipercaya Membangun & mempercantik gedung perkantoran, pusat perbelanjaan, showroom, pabrik, gudang, ruko, rumah tinggal dan fasilitas umum lainnya seperti rumah sakit, tempat ibadah, dan pom bensin (SPBU).Pekerjaan kami telah tersebar tidak hanya di pulau Jawa, tetapi hingga ke Madura, Sumatra, Bali, NTB, NTT, Sulawesi, Kalimantan, Papua.Percayakan pekerjaan :  - Konstruksi Baja - Aluminium Composite Panel (ACP) - Pintu jendela aluminium - Pintu kaca Tempered - Partisi kaca - Shower glass - Curtain wall - Spider System - Kanopy Kaca - Reling Tangga Kaca  - lantai kaca / atap kaca - Reklame - Letter Timbul - Neon Sign - Neon boxke kami yang telah terbukti mengutamakan kwalitas dan ketepatan waktu dalam pengerjaanya. Dapatkan harga yang kompetitif hanya di kami TRIJAYA ALUMINIUM, Didukung oleh tenaga ahli yang telah mempunyai teknik dan pengalaman dalam menangani berbagai proyek skala kecil, menengah maupun besar, Kami percaya bisa memberikan pelayanan terbaik, yang akan membantu memberikan saran & panduan di setiap proses, sehingga impian atau ide Anda bisa terwujud sesuai yang diharapkan.Goal nya adalah harga yang kompetitif dan reasonable, efisien dalam biaya dan waktu tanpa meninggalkan aspek estetika.Selain melayani Jasa pembangunan kami juga melayani penjualan material :Aluminium Composite Panel - Alucobond, Aluclad, Cladbond, Alucopan, Alcopan,- Goldstar, Seven, Alumetal, Alustar,- Winmetal, Maco, Aluprima, AlumebondAluminium Kusen- YKK, incom, Indal- Alexindo, Alko, HP MetalKaca- Asahi, Mulia, Tempered & Non tempered- Clear, Printing, Glass tone, Lacobel, Tinted- Mirror, Black Mirror, Sunergy, One Way- Stopsol, Laminated, TemperedBesi- WF, CNP, Pipa Besi, Hollow Besi, Besi Siku, Plat dllHubungi :Layanan 24jamMoch. Indra PrasetyoHp. 081 330 2099 63Kantor. 031 8490 309Web. www.trijayaaluminium.com ","
              Jagir Sidoresmo VI /140            ",Surabaya,Jawa Timur,+81 3-3020-9963,None,None
CV. MULYA SCALE,"
                                    PREMIUM GOLD
                                ",Perpajakan & Akuntansi,"
              Perusahaan kami bergerak dalam bidang Spesialist Industri, Import, Supply dan Jasa Service Timbangan Elektronik / Digital untuk semua merk dan type Timbangan Digital / Truck Scale / Jembatan Timbang dengan berbagai macam merk, type dan kapasitas, Kami menjual berbagai macam dan merk Timbangan, Indikator dan Load Cell dari kapasitas kecil ( Lab) sampai besar ( Jembatan Timbang) sesuai dengan kebutuhan Industri. Kami juga melayani service / repair timbangan berbagai merk dan berbagai kapasitas terutama JEMBATAN TIMBANG. Dengan didukung oleh tenaga professional yang spesialis dan berpengalaman di bidang timbangan. Kami akan memberikan pelayanan dengan baik, Pengalaman kami telah terbukti dalam hal pelayanan customer, baik di kota Surabaya, Jawa Timur, dan kota besar lainnya di seluruh Indone 1. Timbangan Laboratory : Analytical Balance, Balance Scale, Micro Balance 2. Timbangan Produksi : Simple Weighing, Counting Scale, Pricing Scale 3. Timbangan Produksi : Platform Bench Scale, Hybrid Scale, Pallet Scale 4. Timbangan Gudang : Floor Scale, Crane Scale, Forklift Scale 5. Timbangan Truk : Pitless Type, Pit Type, Shallow Pit Type 6. Timbangan Sistim : Batching Scale, Hopper Scale, Filling Scale 7. Timbangan Mesin : Conveyors Scale, Check Weighing, Tank Scale 8. Part : Loadcell, Indicator, Juction Box, Extenal Display 9. Aksesoris : Mounting, Software, Printer 10. Dan Lain - Lain Menjual / Menerima SErvice / Tera segala merkTimbangan, Indikator serta loadcell dari kapasitas sampai besar( timbangan laborat sampai jembatan timbang) . AND - HOSSE-L - ZEMIC - AVERY - SONIC - EXCELLENT - GSC - CAS - UScell - GREAT SCALE - KELI - KUBOTA - CELTRON - PT - TEDEA - GRAINS - PRESICA - UWE - CARDINAL - HBM - VISHAY - USCELL - VMC - TOLEDO - SARTORIUS DLL HARGA BERSAING...BUKTIKAN ! ! ! ! ! ! CV. MULYA SCALE JL. LARANGAN KENJERAN SURABAYA 085100848948 - 081231634657 EMAIL : mulyascale@yahoo.co.ikd            ","
              Jl. Larangan III/22 - KENJERAN - SURABAYA            ",SURABAYA,Jawa Timur,+62 812-3163-4657,None,None
percetakan murah surabaya ,"
                                    PREMIUM GOLD
                                ",Perpajakan & Akuntansi,"
              berbagai macam produk percetakan yang kami terima Secara garis besar, produk dan jasa yang kami tawarkan bisa dikelompokkan ke dalam bidang-bidang berikut: Printing ( percetakan) . Bidang percetakan yang kami tawarkan memiliki spektrum yang luas, seluas kebutuhan cetak yang berkembang pada masyarakat modern. Paling tidak kami biasa mengelompokkannya ke dalam 5 kebutuhan cetak :

Promosi, yaitu kebutuhan cetak yang berkaitan dengan media sosialisasi sebuah layanan atau produk, seperti kalender, brosur, poster, paper bag, pamflet, undangan, flyer, hanging mobile, company profile, atau katalog, company profile, danm lainnya.
Penerbitan, yaitu kebutuhan cetak yang berkaitan dengan usaha-usaha penerbitan seperti bulletin, majalah, tabloid, buku, agenda, dan lainnya.
Packaging, yaitu kebutuhan cetak yang berkaitan dengan kemasan sebuah produk misalnya kemasan pakaian ( baju, songkok, sarung) , kemasan makanan ( roti dan donat) , kemasan barang atau kemasan lainnya ( inner box) .
Administrasi, yaitu kebutuhan cetak yang berhubungan dengan administrasi seperti ID Card, kartu nama, atau form administrasi, dan lainnya. Jasa, yaitu layanan berupa jasa kerja di bidang percetakan seperti jasa desain grafis, jasa cetak atau jasa plong.
Publishing ( penerbitan) . layanan cetak seperti media buletin dan majalah yang muncul secara periodik, ataupun buku yang terbit di waktu tertentu saja. Advertising ( media pariwara) . Pada bidang ini kami menawarkan pembuatan: Merchandise ( kaos, mug, gantungan kunci, dan lainnya.) In Door ( art visual, x-banner, sticker vynil / cutting, dan lainnya.) Out Door ( umbul- umbul, spanduk, banner, baliho, billboard, neon sign/ box, dan lainnya) Komunikasi audiovisual ( cd interaktif, iklan radio, iklan televisi, company profile, dan lainnya) Lain-lain ( pembuatan logo perusahaan)

hubungi kami ---->>> 081217715726 , 085100812174website : www.sinarimajinasi.com            ","
              jl. rambutan 14 rt.5 rw 2 geluran taman sidoarjo             ",Surabaya,Jawa Timur,+62 812-1771-5726,None,None
Artax Solusindo,"
                                    PREMIUM GOLD
                                ",Perpajakan & Akuntansi,"
Perkenalkan kami dari Artax Solusindo, perusahaan yang bergerak dalam bidang jasa perpajakan dan pembukuan yang berdiri pada tahun 2019. Awal dibentuknya Artax Solusindo, kami berkomitmen untuk memberikan pelayanan Jasa Perpajakan untuk Orang Pribadi dan Perusahaan dalam berbagai bidang dan tingkatan bisnis yang membutuhkan jasa konsultasi, pelaporan dan perhitungan perpajakan. Seiring dengan berkembangnya bisnis pada saat ini, banyak bermunculan perusahaan-perusahaan rintisan (start up) yang membuat kami mengembangkan usaha kami di bidang Accounting Service dan Penggajian (Payroll) Pegawai. Salah satu tujuan Artax Solusindo hadir adalah agar setiap perusahaan mendapatkan kemudahan dalam menangani pekerjaan yang rutin dilaksanakan, seperti penghitungan gaji pegawai.
 
Artax Solusindo mengutamakan edukasi dengan pelayanan terbaik kepada setiap klien yang telah mempercayakan kebutuhan perpajakan dan pembukuan kepada kami. Artax Solusindo memiliki sumber daya manusia yang terbaik di setiap bidangnya. Dengan demikian, Artax Solusindo berupaya memberikan hasil yang terbaik dalam menjadi rekan bisnis setiap kliennya.-Arlieny Karunia, S.E. (CEO & Founder)-Website: www.artaxsolusindo.com ","
              Jl. Mawar 2, Cengkareng BaratJakarta BaratDKI Jakarta            ",Jakarta Pusat,DKI Jakarta,+62 811-9187-990,None,None
