Name,Membership,Category,Description,Address,City,Province,telp1,telp2,telp3
CV. JAYA MAKMUR ABADI,"
PREMIUM RUBY
",Kontraktor,"
CV. Jaya Makmur Abadi, perusahaan yang bergerak dibidang perdagangan umum Material Konstruksi & material lainnya, dan telah berpengalaman lebih dari 10 Tahun. 
Berdiri sejak Tahun 2005 dengan nama Jaya Makmur Abadi, dan diresmikan pada tahun 2010 oleh notaris Edward Agustin menjadi CV. Jaya Makmur Abadi. 
CV. Jaya Makmur Abadi bekerja sama dengan beberapa Pabrik & Distributor Material dan hingga kini sudah melayani lebih dari 900 pelanggan, yang terdiri dari pelanggan pribadi/perusahaan baik dari dalam & luar daerah di Indonesia. 
 
Visi & Misi : 


Menciptakan sistem perusahaan yang sistematis & fleksibel dalam hal pelayanan.
Menciptakan lapangan kerja & Sumber daya Manusia yang terampil, profesional& handal. 
Menciptakan pelayanan & kerjasama yang berkesinambungan dengan pelanggan.
Menjadi perusahaan multinasional yang dapat memberi sumbangsih terhadap perekonomian di Indonesia. 

CV. Jaya Makmur Abadi.General Supplier & Trading : Besi Beton & Baja. Rangka Baja Ringan & Atapnya.Aluminium Kusen Pintu & Jendela.Plywood & Kayu lainnya.Pipa Paralon & Pipa Lainnya. 
Keramik & Granit.Perlengkapan Sanitary. Aksesories Pintu & Jendela.
Segala jenis Kaca Bangunan.Aluminium Composite Panel.Kawat Baja & Besi. 
Karpet Import & VINYL. Kusen, Pintu & Jendela Kayu. Windows Fashion.Mekanikal Elektrikal.Meubelair Kantor & Sekolah.
Pipa HDPE.Pipa Air Panas.HPL.Cat.Pipa Gorong-Gorong.Plat Kapal.Dll.
Untuk melengkapi kebutuhan pelanggan, kami juga menyediakan Jasa Kontraktor, Jasa Arsitek & Jasa Konsultan.
Untuk informasi lebih jelas, dapat menghubungi Marketing kami.
Terima kasih. www.jayamakmurabadi.co.id
CV. Jaya Makmur Abadi 
Jl. Brigjend Katamso No. 2 Samarinda. Kalimantan Timur 75117.Telp : 0541-7802915Fax. : 0541-766315Email : sales@jayamakmurabadi.co.id
 

 
 ","
              Head Office :Jl. Brigjend Katamso No. 2. Samarinda. Kalimantan Timur ",Samarinda ,Kalimantan Timur,+62 823-5215-3244,+62 813-4942-8940,+62 852-4900-5619
PT. TRIPUTRA JAYA MAKMUR,"
PREMIUM RUBY
",Kontraktor,"
PT. TRIPUTRA JAYA MAKMUR General Supplier, Contractor & Sub-Contractor Sipil- Arsitektur - Mekanikal & Elektrikal. 
Mulai berkarya dalam bidang Perdagangan umum barang & Jasa untuk melayani infrastruktur di Kalimantan Timur sejak tahun 2005, berawal dengan nama CV. TRIPUTRA JAYA MAKMUR diresmikan pada tahun 2015 oleh Notaris Samarinda. Kemudian pada Tahun 2020, mendirikan perusahaan PT. TRIPUTRA JAYA MAKMUR.Kami menawarkan Jasa Kontraktor & Sub-kontraktor khusus wilayah Kalimantan dengan keterangan pekerjaan sebagai berikut :ARSITEKTUR 

Perumahan tunggal dan Koppel serta perawatannya.
Perumahan multi hunian beserta perawatannya.
Bangunan pergudangan dan industry beserta perawatannya
Bangunan komersial beserta perawatannya.
Bangunan non perumahan serta perawatannya.
Fasilitas pelatihan sport di luar gedung, tempat rekreasi serta perawatannya.
Pertamanan serta perawatannya.
Pemasangan aksesoris bangunan serta perawatannya.
Pekerjaan dinding dan jendela serta perawatannya.
Pekerjaan interior termasuk perawatannya.
Pengerjaan logam.
Pengerjaan kayu.
Pengerjaan bangunan dan gedung.
Pengerjaan Kaca & Aluminium.
Pengerjaan Aluminium Composite Panel

ELEKTRIKAL

Pembangkit tenaga listrik semua daya beserata perawatannya.
Pembangkit tenaga listrik dengan daya maksimal 10MW beserta perawatannya.
Jaringan transmisi tenaga listrik baru dan terbarukan beserta perawatannya.
Jaringan transmisi tenaga listrik tegangan tinggi dan ekstra tegangan.
Jaringan transmisi telekomunikasi serta perawatannya.
Instalasi kontrol dan instrumentasi serta perawatannya.
Instalasi listrik gedung dan pabrik serta perawatannya.
Instalasi listrik lainnya serta perawatannya.

 MEKANIKAL

Instalasi pemanasan, ventilasi udara dan AC serta perawatannya.
Perpipaan air dalam bangunan serta perawatannya.
Instalasi pipa gas dalam bangunan serta perawatannya.
Insulasi dalam bangunan serta perawatannya.
Instalasi lift dan escalator serta perawatannya.
Pertambangan dan manufaktur serta perawatannya.
Instalasi thermal, bertekanan, minyak, gas, pekerjaan rekayasa serta perawatannya.
Konstruksi alat angkut dan alat angkat serta perawatannya.
Konstruksi perpipaan minyak, gas, dan energy serta perawatannya.
Fasilitas produksi penyimpanan minyak dan gas serta perawatannya.
Jasa penyedia peralatan konstruksi.

 PEKERJAAN SIPIL

Jalan raya dan jalan lingkungan serta perawatannya.
Lapangan terbang dan runway serta perawatannya.
Jembatan serta perawatannya.
Terowongan serta perawatannya.
Jalan bawah tanah serta perawatannya.
Pelabuhan dan dermaga serta perawatannya.
Drainase kota serta perawatannya.
Bendungan serta perawatannya.
Irigasi dan drainase serta perawatannya.
Pengerukan dan pengurukan serta perawatannya.
Pekerjaan penghancuran.
Pekerjaan penyiapan dan pengupasan lahan.
Pekerjaan penggalian dan pemindahan.
Pekerjaan pemancangan.
Pekerjaan pondasi.
Pekerjaan kerangka atap serta perawatannya.
Pekerjaan pembetonan.
Pekerjaan konstruksi baja serta perawatannya.
Pekerja pelaksana khusus lainnya.

Untuk informasi lebih jelas, hubungi Marketing kami. Email : triputrajayamakmurindonesia@yahoo.com
  ","
              Head Office :Panin Tower 8th Floor Jl. Jenderal Sudirman No.7 Klandasan Ilir, Balikpapan.Branch Office :Jl. Brigjend Katamso No. 2A Samarinda. ", ,Kalimantan Timur,+62 858-4906-8419,+62 831-5376-6410,None
PT. Jaya Persada Nusantara,"
PREMIUM RUBY
",Kontraktor,"
PT. Jaya Persada Nusantara Jasa Kontraktor Lapangan Olahraga yang berdiri lebih dari 33 tahun, Spesialisasi jasa kontraktor Pembuatan Lapangan dan Renovasi sarana Lapangan Olahraga yang meliputi Kontraktor lapangan tenis, Kontraktor lapangan basket, Kontraktor lapangan futsal, Kontraktor lapangan badminton, Kontraktor lapangan voli, kontraktor lapangan lintasan lari, Kontraktor lapangan Squash, Area bermain anak-anak dan Kontraktor lapangan multifungsi.PT. Jaya Persada Nusantara siap memberikan solusi untuk Anda mewujudkan lapangan olahraga yang paling ideal dengan biaya yang terjangkau dengan Kualitas yang Baik. Produk dan jasa yang kami tawarkan adalah produk khusus pelapisan permukaan sarana lapangan olahraga beserta jasa di aplikasikan di tempat, dengan spesialisasi material He‚ÄôPro‚Ñ¢ Rubber Cushion Technology USA yang dapat memperbaiki beton yang rusak separah apapun, Lapangan / Lantai Aspal yang rusak, Retak tanpa harus Dibongkar Secara Keseluruhan/total. Produk kami dapat diaplikasikan baik untuk kebutuhan lapangan indoor maupun lapangan outdoor, karena teknologi He‚ÄôPro‚Ñ¢ Surface memiliki resistensi yang kuat terhadap sinar ultraviolet dan air hujan. Kami dapat mewujudkan harapan anda untuk meminimumkan biaya, karena kami memiliki teknologi Coating dari teknologi USA / asing namun sarat kandungan material lokal, sehingga klien kami dapat menghemat biaya, menikmati lapangan olahraga berkualitas dengan harga yang ekonomis. Kami juga melayani jasa renovasi lapangan / perbaikan lapangan olahraga baik lapangan tenis, lapangan badminton, lapangan futsal, lapangan basket, lapangan voli, lapangan lintasan lari, lapangan Squash, Area bermain anak-anak dan lapangan multifungsi dengan metode terbaru yang lebih ekonomis, tanpa perlu dibongkar ulang.Anda dapat mengubungi kami untuk informasi lebih lanjut dan terinci untuk mendapatkan Estimasi biaya. Pengalaman kami Sejak Tahun 1977 dalam sport court surfacing technology di seluruh Indonesia, kami adalah partner yang tepat untuk perusahaan Anda dalam melakukan kerja sama di pembuatan atau renovasi Lapangan Olahraga khususnya renovasi lapangan / perbaikan lapangan olahraga baik lapangan tenis, lapangan badminton, lapangan futsal, lapangan basket, lapangan voli, lapangan lintasan lari , lapangan Squash, Area bermain anak-anak dan lapangan multifungsi. Hubungi kami segera untuk mewujudkan keinginan Anda di dalam produk dan jasa yang Anda perlukan pada lapangan olahraga dengan produk He‚ÄôPro‚Ñ¢ Surface yang berkualitas, tahan lama, gesekan dan Tahan terhadap sinar ultraviolet.Contact Person :Hermawan BudionoTelp. : 021-5375585 / 081285175563 / 08164824272Fax  : 021-5377364Website : www.jaya-sportbuilder.com www.kontraktorolahraga.comEmail : info@ jaya-sportbuilder.com        jaya_sportbuilder@yahoo.com        jayapersada7@gmail.com ","
              Komp. Ruko BSD Blok RF 2 No.19 Sektor 1-2 Serpong            ",Tangerang,Banten,+62 816-4824-272,None,None
Keep Smile Playground,"
                                    PREMIUM GOLD
                                ",Kontraktor,"
              Keep Smile adalah unit usaha manufaktur PT Reka Bersama Solusindo yang bergerak dibidang pembuatan wahana waterpark, themes art, sipil umum, kontruksk baja, landscaping, dan peralatan permainan anak seperti indoor ‚Äì outdoor playground, peralatan permainan air, outbond, dll. MENGAPA HARUS KEEP SMILE? ( KEUNGGULAN KOMPETITIF) 1. Harga bersaing ( boleh diadu) 2. Tingkat keamanan yang tinggi ( high safety) 3. Estetika yang indah dan membuat anak betah untuk belajar sambil bermain 4. Kualitas yang baik 5. Produk dapat disesuaikan dengan kebutuhan pelangganCall/wa :082211680000 /0817117009 /0817117002            ","
              Jl.Pahlawan Raya 35A, Taman Rempoa, Rempoa-Ciputat (samping mama laundry)            ",Tangerang Selatan - Jakarta Selatan (perbatasan),Banten,0817117009,+82 2-116-8000,0817117002
ZULINDO JAYA MANDIRI,"
PREMIUM RUBY
",Kontraktor,"
ZULINDO JAYA MANDIRI merupakan Perusahaan yang Siap Membantu Anda dalam Bidang :‚Ä¢ Penyediaan, Pemasangan dan Perawatan Filter AHU‚Ä¢ Pengadaan dan Perawatan berbagai Type AC‚Ä¢ Pengerjaan Konstruksi Besi, Aluminium, Stainless‚Ä¢ Kontraktor HV AC untuk Ruang Operasi, Ruang Isolasi dan Ruang CCSD (Pusat Sterilisasi)Dan telah Melayani Berbagai Instansi dan Perusahaan Ternama, Khususnya di Area Jawa Tengah. Beberapa diantaranya :‚Ä¢ RSUD KRMT WONGSONEGORO‚Ä¢ RSUD IR SUKARNO SUKOHARJO‚Ä¢ RSI KENDAL‚Ä¢ RS Kariadi‚Ä¢ RS Roemani‚Ä¢ RS Elisabeth‚Ä¢ Telkom‚Ä¢ PT Indofood‚Ä¢ Ciputra‚Ä¢ Perusahaan Farmasi dan Mall di SemarangUntuk diluar Jawa Tengah beberapa diantaranya :‚Ä¢ RS Bunda Lhoksumawe, Makasar dan Kalimantan.""Pelayanan Terbaik, Tepat, Efisien adalah Semangat Kami""-----Hubungi Kontak Kami Sekarang untuk Dapatkan Penawaran Terbaik dan Harga Bersaing (CALL/WHATSAPP).
‚Ä¢ Phone : 0813-2542-2349 (Peni Eka Prastyawati)
‚Ä¢ e-Mail : zulindo.jayamandiri@gmail.com‚Ä¢ Website : www.ZulindoFilterSemarang.com
 ","
              KANTOR PUSATüìç Jln. Condrokusumo Raya No. 21-D Bongsari Semarang BaratPHONE / WHATSAPP‚òéÔ∏è 0813-2542-2349‚Äî            ",SEMARANG,Jawa Tengah,+62 813-2542-2349,None,None
PT PANGESTU MEGA GRAHA,"
                                    PREMIUM GOLD
                                ",Kontraktor,"
              PT PANGESTU MEGA GRAHA, anak perusahaan dari PANGESTU GROUP yang bergerak dalam bidang fabrikasi konstruksi baja untuk gudang ataupun pabrik dan konstruksi bidang sipil. Sebagai perusahaan yang bergerak di bidang jasa konstruksi dan di bidang jasa penunjang konstruksi ( pra-konstruksi ) , kami memberikan pekerjaan pelayanan sebagai berikut : 1. Penyediaan Lahan tanah untuk industri sesuai kebutuhan dengan lokasi strategis, dekat pelabuhan internasional dengan harga terjangkau. 2. Pengurusan perijinan Industri ( IMB, ijin HO, UKL-UPL, SIUP, TDP, IUI ) sampai dengan perijinan Kawasan Berikat. 3. Pekerjaan Pengurugan, galian tanah dan pemerataan lahan. 4. Pekerjaan Pembersihan Lahan. 5. Desain, fabrikasi, pemasangan pekerjaan konstruksi rangka atap baja. 6. Pekerjaan konstruksi bidang sipil ( bangunan gedung, kantor, selokan, paving, pagar ) . 7. Instalasi Listrik / electrical.            ","
              JL. MAJAPAHIT NO 76            ",SEMARANG,Jawa Tengah,+62 877-3426-3783,None,None
Karya Hutama Mandiri,"
                                    PREMIUM GOLD
                                ",Kontraktor,"
Karya Hutama Mandiri adalah Specialis dibidang Property, mulai dari Design Denah Lantai, Gambar Tampak, Potongan, Perhitungan Konstruksi dan RAB (Rancangan Anggaran Biaya).Kami memulai Usaha Jasa Konstruksii sejak tahun 1989, mulai dari Pembangunan Gudang, Ruko, Rumah Tinggal Mewah, Perkantoran, Gedung Pertemuan.Visi kami adalah Bertekad untuk menjadi sebuah perusahaan jasa konstruksi dengan kualifikasi & kompetensi, serta berorientasi bisnis secara Profesional.Misi kami adalah Menjadi perusahaan yang terdepan dalam bidangnya dengan selalu memberikan pelayanan, mutu dan kualitas serta solusi yang terbaik guna kepuasan dan harapan setiap pelanggan kami.---*Note : Hubungi Kami Sekarang untuk Dapatkan Penawaran Terbaik dan Harga Bersaing. ","
              Jagalan Solo, Jawa Tengah, Indonesia            ",Solo,Jawa Tengah,+62 851-0232-0077,None,None
Sentra Kerajinan Wahana Waterboom Composite,"
                                    PREMIUM GOLD
                                ",Kontraktor,"
Sentra Kerajinan Wahana Waterboom Composite.Kami memproduksi beraneka ragam model wahana seluncuran untuk waterboom dan waterpark. Dengan menggunakan material composite yang terbukti lebih tahan lama.Kami menerima Jasa Konsultasi Waterpark, Jasa Perencanaan Waterpark dan Jasa Pembangunan Waterpark.
Jenis Jenis Wahana Waterboom yang kami produksi :

Wahana Tornado Slide
Wahana Space Bowl Slide
Wahana King Cobra Slide
Wahana Slip n Fly
Wahana Kamikaze Slide
Wahana Free Fall Slide
Wahana Thrill Slide
Wahana Spiral Body Slide
Wahana Rafting Slide
Wahana Tube Slide
Wahana Race Multilane Slide
Wahana Adventure Slide
Wahana Big Jump Slide
Wahana Ember Tumpah
Wahana Family Slide
Wahana Bermain Anak RPTRA
Playground RPTRA
Alat Fitness Outdoor RPTRA
Patung Composite
Ornamen Composite
Custom Product

GARANSI 1 TAHUN (service & spare part)GARANSI 5 TAHUN (ketersediaan spare part)
Untuk mendapatkan Informasi dan Cara Pemesanan silahkan menghubungi kami melalui: Tlp/SMS : 0821 3660 8248 (09.00-15.00) Whatsapp : 0821 3660 8248 (09.00-21.00) email : sales.rajafiber@gmail.com, rajafiber.info@gmail.com ","
              Dukuh Cebukan RT 04/05 Desa Sonorejo Sukoharjo Jawa Tengah            ",Sukoharjo,Jawa Tengah,+62 821-3660-8248,None,None
FOCUS MANDIRI PERDANA,"
                                    PREMIUM GOLD
                                ",Kontraktor,"
Dear Costumer,
CV. FOCUS MANDIRI PERDANA sebagai perusahaan yang sedang berkembang bergerak di bidang JASA KONSTRUKSI SIPIL & MEKANIKAL ENGINEERING yang telah berbadan hukum dan berdomisili di Kota Surabaya. 
 
Sejalan dengan VISI dan MISI perusahaan dalam memberikan layanan, kami selalu berpegang pada asas manfaat yang optimal bagi pengguna jasa. Dengan didukung para profesional muda yang optimis, dinamis dan berkomitmen tinggi.
Bidang Kegiatan CV. FOCUS MANDIRI PERDANA :
A. Jasa Kontraktor Sipil Gedung
B. Jasa Konstruksi Baja
C. Jasa Perencana & Pengawasan
D. Jasa Fabrikasi & Instalasi Mekanikal Elektrikal Industri
 
Best Regards, 
 
CV. FOCUS MANDIRI PERDANA
Civil construction & mechanical engineering
Web : www.focus-contractor.com
Email : focus.mperdana@ gmail.com
 
Office : 
Jl. Manyar Tirtoasri I No. 4 Surabaya 60117
 
Telp. : 
031‚Äì 99445468
 
HOTLINE : 081 1334 9454
 
: kontraktor sipil surabaya | kontraktor surabaya | kontraktor mekanikal| kontraktor pergudangan | kontraktor gudang | konstruksi baja | jasa konstruksi | kontraktor rumah | kontraktor rumah surabaya | kontraktor perumahan | kontraktor ruko | kontraktor elektrikal | renovasi bangunan | renovasi gedung | jasa renovasi kantor | jasa renovasi | jasa renovasi rumah | jasa renovasi interior | jasa renovasi surabaya | jasa renovasi rumah surabaya | jasa bangun rumah surabaya | renovasi ruko | paving blok | konstruksi billboard | konstruksi neon box | konstruksi neon sign | konsultan perencana | desain interior | konsultan | desain lansekap | konsultan proyek | konsultan pengawas | desain | desain rumah | jasa desain | desain gedung | desain gudang | desain ruko | jasa pengurusan imb surabaya 
  ","
              Jl. Manyar Tirtoasri I No. 4 Surabaya            ",60117,Jawa Timur,+62 811-3349-454,None,None
PT SEAN INDONESIA,"
                                    PREMIUM GOLD
                                ",Kontraktor,"
PT SURYA ENERGI ANUGERAH NUSANTARA INDONESIA ( PT SEAN INDONESIA ) was established in  2017, and rapidly grew into and aggressive and commited distributor of industrial, General Contractor, Mechanical & Electrical, Civil and Construction, Logistic Solutions, Design and Supply. 
In the General Contractor, Mechanical & Electric, Civil and Construction, Design & Supply, PT SEAN INDONESIA has M1 category ( Grade 5 ) & NFPA Member* Scope of work PT SEAN INDONESIA *
‚Ä¢ GENERAL CONTRACTOR, MECHANICAL & ELECTRIC, CIVIL & CONSTRUCTION, DESIGN & SUPPLY ( M1 category ‚Äì Grade 5 ) ‚Äì NFPA MEMBER
‚Ä¢ SAFETY SPECIALIST of FIXED FIRE FIGHTING SYSTEM, FIRE DETECTION & GENERAL ALARM SYSTEM
‚Ä¢ SAFETY SPECIALIST of BUILDING, INDUSTRIAL ,MARINE FIRE PROTECTION SYSTEM & EQUIPMENT AND LIFE SAVING
‚Ä¢ A PROFESSIONAL SUPPLIER for INDUSTRIAL SECTIONAL DOORS, LOADING DOCK SYSTEMS, HIGH SPEED DOORS, & AUTOMATION SYSTEM
‚Ä¢ MATERIAL HANDLING, WAREHOUSE EQUIPMENT & SAFETY EQUIPMENT
‚Ä¢ STORAGE RACKING SYSTEM, SOLUTION OF AS/RS, AUTOMATION EQUIPMENT,  WAREHOUSE PROTECTION ‚Ä¢ MPM PLASTIC PROTECTIONS‚Ä¢ SOLAR PANEL, SOLAR SYSTEM, SOLAR INVERTER, SOLAR COMPONENT
‚Ä¢ RENTAL FORKLIFT, HAND PALLET  - SERVICE AND SPARE PART
‚Ä¢ APPLIANCES CUSTOMIZED FILTRATION, WORK OF RUBBER SEALS, VITTON, PU, NBR, GRAPHITE, NYLON etc
‚Ä¢ SEAN Conveyor Product's gravity roller conveyors are available in many sizes and configurations. Gravity roller will convey light, medium, and heavy loads that have firm flat bottoms such as cartons, totes, cases, skids, drums, etc.
Through ingenious design and quality that‚Äôs proven and tested, Sean Indonesia is the supplier for product to many Foreign Based Companies ( PMA ) in the manufacturing, Pharmaceutical, Chemical ,cigarette Industrial and others. 
We company‚Äôs commitment is simple and yet something that we sincerely wish for all of our customers, Principals, employees, and shareholder... ‚Äú  We serve, innovation and solution ‚Äú  ","
               Office : The Taman Dhika Cluster Boulevard BL 8 No. 8 , Jl Kesatrian Buduran - Sidoarjo 61252            ",Sidoarjo,Jawa Timur,+82 12-228-5168,None,None
COLOSSAL ART INDONESIA,"
                                    PREMIUM GOLD
                                ",Kontraktor,"
CV. Colossal Art Indonesia
merupakan perusahaan kontraktor yang bergerak khusus pada design dan produksi Pekerjaan Kayu, Metal, Fiber, dan Kriya untuk menunjang skup proyek Interior ‚Äì Arsitektur, Pameran ‚Äì Eksebisi, Dekorasi, Fiber Modeling, Advertising, dan General Contractor. Dengan Sistem manajemen ter-integrasi dan terancana serta di tunjang dengan tenaga ahli di bidangnya pada tiap - tiap workshop produksi.
WORKSHOP PRODUKSI 
Untuk memastikan ketepatan delivery aplikasi konsep design, mulai tahun 2008 Colossal Art Indonesia membangun beberapa workshop independent yang terus berkembang yang khusus menangani aplikasi produksi proyek Interior ‚Äì Arsitektur, Pameran ‚Äì Eksebisi, Dekorasi, Fiber Modeling, Advertising, dan General Contractor. Dengan adanya supply chain management yang terintegrasi di harapkan dapat menghasilkan sebuah produk yang berkualitas dan harga yang bersaing sehingga menghasilkan Competitive Advantage yang durable.
Colossal Art Indonesia memiliki 4 workshop yang khusus menangani spesifikasi pekerjaan yang berbeda, yaitu :
1. Workshop Khusus Pekerjaan Kayu 
Workshop independent milik sendiri yang khusus menangani semua pekerjaan kayu, multiplek, MDF, PB, IB dan pekerjaan kayu lainnya, mulai dari fabrikasi hingga finishing ( HPL, Vinyl, Duco, Melamic, Digital Printing) dikerjakan di workshop ini. Di dukung dengan tenaga ‚Äì tenaga ahli di bidangnya dan peralatan yang memadai dan fasilitas gudang yang mencukupi sehingga di harapkan dapat mengaplikasikan design untuk produk kayu yang maksimal. Workshop ini untuk mensuport proyek Interior ‚Äì Arsitektur, Pameran ‚Äì Eksebisi, Dekorasi, Fiber Modeling, Advertising, dan General Contractor.
2. Workshop Khusus Pekerjaan Metal 
Workshop independent milik sendiri yang khusus menangani semua pekerjaan Besi, Stainless, Aluminium, ACP, Trust dan pekerjaan metal lainnya, mulai dari fabrikasi ( Cutting, Welding, Cor, Bubut, dll) hingga finishing ( Coating Powder, Spry coating, dll) dikerjakan di workshop ini. Di dukung dengan tenaga ‚Äì tenaga ahli di bidangnya dan peralatan yang memadai dan fasilitas gudang yang mencukupi sehingga di harapkan dapat mengaplikasikan design untuk produk metal yang maksimal. Workshop ini untuk mensuport proyek Interior ‚Äì Arsitektur, Pameran ‚Äì Eksebisi, Dekorasi, Fiber Modeling, Advertising, dan General Contractor.
3. Workshop Khusus Pekerjaan Fiber, Kaca dan Acrylic
Workshop independent milik sendiri yang khusus menangani semua pekerjaan Fiber, Kaca dan Acrylic, mulai dari fabrikasi & Modeling hingga finishing ( Cutting Laser, Emboss, Polin, Bevel, Gravir, dll) dikerjakan di workshop ini. Di dukung dengan tenaga ‚Äì tenaga ahli di bidangnya dan peralatan yang memadai dan fasilitas gudang yang mencukupi sehingga di harapkan dapat mengaplikasikan design untuk produk metal yang maksimal. Workshop ini untuk mensuport proyek Interior ‚Äì Arsitektur, Pameran ‚Äì Eksebisi, Dekorasi, Fiber Modeling, Advertising, dan General Contractor.
4. Workshop Khusus Pekerjaan Furnishing & Kriya 
Workshop independent milik sendiri yang khusus menangani semua pekerjaan Furnishing mulai dari Steyrofoam, kain, kulit, Corrugated, Baloon, craft, foam, dacron dikerjakan di workshop ini. Di dukung dengan tenaga ‚Äì tenaga ahli di bidangnya dan peralatan yang memadai dan fasilitas gudang yang mencukupi sehingga di harapkan dapat mengaplikasikan design untuk produk furnishing yang maksimal. Workshop ini untuk mensuport proyek Interior ‚Äì Arsitektur, Pameran ‚Äì Eksebisi, Dekorasi, dan General Contractor.
Dengan memiliki workshop produksi sendiri kami dapat memastikan kualitasnya. Kami sudah berdedikasi sejak 2008 menjadi sub kontraktor dari berbagai mitra konsultan interior dan arsitektur ternama di berbagai daerah di indonesia. Kami akan berikan solusi terbaik agar dapat bermanfaat bagi perkembangan dan kemajuan bersama. ","
              Jln Gunung Muria No.6 16/07 Krembung            ",Sidoarjo,Jawa Timur,+62 822-4005-0012,+62 822-3305-0020,None
PT. DIKATAMA PUTRA PERKASA,"
PREMIUM RUBY
",Kontraktor,"
              PT. DIKATAMA PUTRA PERKASA adalah perusahaan General Trading dan General Enginering yang bergerak dibidang distributor CONVEYOR SYSTEM, DISTRIBUTOR BELT ( ESBELT, AMERAL, HABASIT, NANG) .Perusahaan ini juga menyediakan beberapa jenis DESIGN CONVEYOR yang diperlukan oleh perusahaan anda dalam pengadaan mesin operasional kerja.Dalam hal ini kami menawarkan beberapa katalog produk, diantaranya adalah :BELT CONVEYORFLATE CONVEYORROLLER CONVEYORCHAIN CONVEYORMESIN ANNEALINGBUCKET ELEVATOR CONVEYORRUBBER ROLLERRUBBER GOODS : RUBBER BUSTINGS, RING, SEALS, HOUSE HOLD GOODS.ENGINEERING WORK, dllUntuk lebih detail dan informasi lebih lanjut silahkan hubungi kami pada data berikut:DIKATAMA PUTRA PERKASATelp : 021-8759250fax  : 021-87909876ANDIKA PRATAMA( MARKETING)Tlp : (021) 8759250, 87911560HP : 0857 7878 9600Email : andika.rotari@ yahoo.co.id            ","
              Jl. Raya Bogor Kp.Kabendungan No.15 Km.39, RT.02/RW.02, Pabuaran, Cilodong, Kota Depok, Jawa Barat 16916            ",JAKARTA,Daerah Istimewa Yogyakarta,+62 857-7878-9600,+62 878-7878-9600,None
PT. Total Abadi Solusindo ( Authorized Distributor & General Contractor ),"
                                    PREMIUM GOLD
                                ",Kontraktor,"
              PT. Total Abadi Solusindo adalah Perusahaan yang bergerak di bidang Industrial Automation System & Electrical Component, instruments juga Controls. Perusahaan kami mampu memenuhi semua kebutuhan Industri baik dalam segi penjualan maupun pelayanan. SUPPORT BRAND & ALL MANUFACTURE: AC INVERTER DRIVES : YASKAWA ALLEN BRADLEY ABB MITSUBISHI SIEMENS OMRON SCHNEIDER HITACHI TOSHIBA LS/ LG HYUNDAI PANASONIC SUMITOMO FUJI ELECTRIC LENZE EMERSON FISHER DELTA DANFOSS SANYO DENKI SUOER TECO VACON BOSCH REXROTH EATON KEB AKAO UNICO INVT EWM KACO QUICK CUTES SANKEN BALDOR WELGEN SUNFAR XANTREX PLASMA VICTRON MECHRON ERGUS GENIUS WELDMAN INVERTEK SMA LAMA RCHE TEK-DRIVE PROMAC MIYACHI NOVA ELECTRIC SEW WINNER TAIYO SOLARMAX TELEMECANIQUE THERMAL ARC BRECON WEG ORIENTAL VEXTA NISSEI NORD SANTERNO PARKER SSD IMO PLC ( Programmable Logic Controllers ) : MITSUBISHI OMRON ABB ALLEN BRADLEY SIEMENS IDEC SCHNEIDER KOYO KEYENCE HITECH HITACHI FOXBORO FATEK LS/ LG DELTA NAIS GEFRAN FINDER GE FANUC NATIONAL YOKOGAWA PANASONIC MATSUSHITA UNITRONICS FUJI ELECTRIC TELEMECANIQUE AKIRA HAMILTON MONITOR / HMI ( Human Machine Interface ) : PROFACE WEINTEK HITECH HAKKO KINCO WECON ALLEN BRADLEY MITSUBISHI OMRON SCHNEIDER SIEMENS HITACHI YASKAWA ABB GE FANUC DELTA M2i BEIJER PEPPERL+ FUCHS EATON CIMON FATEK MAPLE SYSTEM KRONO TECH XYCOM ADVANTECH PARKER WEINVIEW PANASONIC RS AUTOMATION - RS OEMAX AU OPTRONICS UNITRONICS TEMPERATURE CONTROLLER : AZBIL YAMATAKE OMRON IFM RKC EUROTHERM SHINKO SICK SIKA FOX E+ E REX TOHO TOKY FUJI ELECTRIC MURR EMKO BETA WEST OMEGA JUMO HYODA TURCK ETAC DELTA FOTEK SUNIL S IRCO SIGMA BAUMER FLUKE WATLOW YAMARI COMARK NAGANO GOSSEN FENWALL FUJITA FI NETEK BURKERT SINYEI AUTONICS SIEMENS MILTRONICS SHIMADEN KERONICS ASHCROFT HANYOUNG SHENG MA ROSEMOUNT HONEYWELL HENGSTLER DATASENSOR SAGINOMIYA SPIRAX SARCO SENSORTRONICS WIKA ENDRESS+ HAUSER SHINKO TECHNOS SANYO TEDEA-HUNTLEIGHT DANFOSS HAYASHI GENERAL INSTRUMENT SANWOH TAKAMISAWA TIPPKEMPER KROHNE WEICHI SENSOR & CONTROL : AZBIL YAMATAKE IFM SICK TURCK OPTEX TAKEX TAKENAKA SUNX GEMS SENSOR IDEC TOKY NAIS KOYO HONEYWELL KEYENCE WECO NAIS PARKER KONICS DATASEN SOR KFPS GEFRAN JOHNSON CONTROLS AUTONICS ANLY DANAHER CIKACHI MICROSWITCH WILLIAM CONTROLS SENSORTRONICS DOTECH TELCO SEEKA INFRA FOTEK LEUZE TOKYO SENSOR RIKEN BAUMER BINDER SENTEC FUTRON SUMTAK BANNER HOKUYO SUNGHO BALLUFF VISOLUX HANYOUNG UB SEIKI SCHUTER ROSEMOUNT AECO NGK DATALOGIC PULSOTRONICS ORION HEIDENHAIN MET ROL DENSO NATIONAL KANSAI WENGLOR OMEGA WATLOW TIPPKEMPER KOMORI FUTEK TELEM ECANIQUE ELTROTEC VIGOR HAMILTON PEPPERL+ FUCHS DATA HARVEST MICRO DETECTOR CONTRINEX TEDEA HUNTLEIGHT SINYEI E+ E ELEKTRONIK KROHNE SIEMENS SCHNEIDER ORION LEUZE ALLEN BRADLEY CARLO GAVAZZI OMRON FUJI ELECTRIC DATALOGIC ROTARY ENCODER & COUNTER : NIDEC NEMICON KOYO TAMAGAWA TAMAGAWA SEIKI SUMTAK HEIDENHAIN OMRON KUBLER HENGSTLER IKA WEST LS MECAPION TOK FUTEK MAHR REP VERTEX TAKEDA THOMAS DEUBLIN SAKURA HAYASHI KASH IYAMA FULLER SHOWA GIKEN DUF-NORTON FUJI SEIKI WILLIAM CONTROL MTL NSD PEPPERL+ FUCHS VISOLUX IFM HUBNER LIKA AVTRON ELCIS TURCK BAUMER ELTRA BALLUFF HOHNER EMETA JDA BEI TEKEL FOTEK DYNAPAR RAYTEC NORTHSTAR SICK EDWARDS STEGMANN DA NAHER PRESSURE & FLOWMETER : FUJI ELECTRIC DWYER KROM SCHRODER MARSH BELLOFRAM SHIMPO IMADA VDO ENERPAC POLYFLEX HERCULES KEM TOSHIBA FLOMEC TURB O ABB NAGANO FUTRON ROSEMOUNT KONICS VEGA GEMS SENSOR KOBOLD ENDRESS+ HAUSER HONEYWELL AB IFM JUMO WIKA SICK OMEGA SUNIL TURCK FUTEK HYODA MARSH A NCHOR BAUMER FISHER NORGREN ASCHROFT OPTEX FA DANFOSS REXPOWER YOSHITAKE HUNTLEIGHT KURTZ SAGINOMIYA SUGINO ASAHI OSAKA TAIYO-HERION TELEMECANIQUE PARKER FINETEK ADTEK EMA LUTRON NOSHOK ADTECH KE LLER K-TEK BARTON SIGNET SCHNEIDER TAKUWA KERONICS SIEMENS-MOORE PENN JOHNSON AIGO MAGNETROL YTC DITECH E+ E MILTRONICS NIPPON ELECTRIC BURKERT TOKICO NITTO TOKYO KEISO ELSTER CROWN NIAGARA KEM-KUEPPERS NUFLO VORTEK ULTRASONIC PEACOCK VEGA BAR WATER METER & TESTER : HANNA WATERFLO BBE B GBX YUKO ASAHI ITRON FUZHOU HORIBA AMICO BOSCO BMETE R TACO EUTECH SHINJU B' BRAND B-METERS KENT SCHLUMBERGER SAPPEL EESIFLO INVENSYS MEINECKE HELLIGE LA MOTTE AQUA METRO FLUKE CHAMPION SONY TREND HI-LO BAKER ASKER HIOKI FUJI SEIKI TOGOSHI ATTONIC TECLOCK DELTA TOYOSEIKI TACHOMETERS : ONO-SOKKI LINE SEIKI HENGSTLER WEST SHIMPO FEMA LUTRON AVTRON KURAMOTO KADOGUCHI SANWA PROV A/ TES RHEINTACHO DYNALCO SANPOMETER PNEUMATIC-HYDRAULICS-PUMPS-VALVE : SMC SUNTES KOGANEI NOP ( NIPPON OIL PUMP ) TERAL TAIYO CKD DAIKIN YUKEN AIRTAC TOYOOKI YTC TACO HITACHI KONAN CHANTO FESTO PISCO ROTORK NORGREN NEW ERA NOK F-TEC AURORA PARKER/ KURODA ASCO ROSS DUNGS JUFAN DELTRON HINAKA NITTO KOYO CR YPC TPC C & C VESTA VERSA WABCO SANKO WATTS AIRTEC HAFNER CONVUM MINDMAN HERCULES SUMITO MO FUJIKURA HUMPHREY NUMATICS UB SEIKI JOUCOMATIC NIHON SEIKI FUJI SEIKI REXROTH EATON NACHI BOSCH RIKEN OGURA BALDOR KAYABA ENERPAC TOKIMEC HO RIUCHI NIHON SPINDLE MAC HERION YPL BIFOLD KANEKO KEIHIN HONEYWELL TOHO TOYO ULVAC ASAHI BANJO ARGUS FABCO ISUKA MAXON ROTEX SHOWA HIROSE YAMATO JOHNSON THOMPSON WEC O SAMSON PASCAL KOSMEK SPIRAX SARCO BODIN EBARA HONDA MARCH KOKEN HANIL SANWA VOGEL ORION FINDER TERADA UC HIDA STUART WILDEN YANMAR ZENITH KOMATSU MITSUBA DAISHIN MONOFLO SIEMENS SUN TEC EBARA POWER CLUTCH & BRAKE : OGURA OSAKI DENYOSHA SHINPONIA SUNTES TSUBAKI MIKI PULLEY MITSUBISHI EATON YASKAWA REXROTH NIIKA TRANTEX MATRIX LENZE NEKEN AIR CHAMP WARNER AIRFLEX CAMCO STROMAG KEB SANYO PLANOX POWER SUPPLY AC-DC CONVERTER : MEANWELL COSEL FINE SUNTRONIX SANYO DENKI OMRON ALLEN BRADLEY SIEMENS TDK-LAMBDA NEMIC LAMBDA IDEC IDEC IZUMI MURR SANKI UNIPOWER METRONIX SANKEN ETA RAFFLES KIKUSUI POWER-ONE PULS EMERSON AEC ARTESYN GOSSEN YAMADA XP FUJI ELECTRIC ITOH LA MARCHE TAPE DISPENSER : ELM YAESU STROBOSCOPE : SHIMPO POKAI MONARCH INSTRUMENT FLUKE LANDTEK APEX MICROSCOPE : OLYMPUS MEIJI KYOWA LEICA INDUCTION MOTOR - SERVO MOTOR - GEAR MOTOR - AC-DC MOTOR & AIR MOTOR : TOSHIBA SIEMENS HITACHI MITSUBISHI YASKAWA LENZE SUMITOMO TSUBAKI YOKOGAW A ALLEN BRADLEY TAMAGAWA STEGMANN CEM SHANGYANG PANASONIC FUJI ELECTRIC ABB HONEYWELL SHINANO ORIENTAL BARCOL-AIR TMEIC SKK SIGMA SEW GTR B ALDOR SNT TVT HORZ BAUER NISSEI SITI XAJONG BISON FLENDER YASKOW TRAMEC DINA MIC TSUKASA BODINE SPG WEG KEB AEG TECO TOYO VDO DAEWO BENTLY ENERPAC GAST H AMILTON RELIANCE FENNER MIKI PULLY SAWAMURA VEXTA HIGEN RORZE ELECTROL SHINKO BAUMULLER ELCO LS MARATHON BOSCH TELEMECANIQUE METRONIX NIDEC TAIYO GLOBE VIBRATOR MOTOR : URAS ADK QUANTUM ITAVIBRAS AVITEQ YASKAWA AEG TRM TORCH VIMEC VIBTEC SIG NAL LIGHTS : PATLITE M-SYSTEM WATANABE AUTONICS HANYOUNG ARROW SHINHO ADTECH SAFETY RELAY : PILZ IDEC IZUMI LEUZE RIKEN AB SIEMENS OMRON SCHNEIDER MITSUBISHI ABB SICK PHOENIX IFM EATON CROUZET EUCHNER HENGSTLER RS COMPONENTS KEYENCEE ALTECH MAUSER PANASONICS WEIDMULLER HONGFA PEPPERL+ FUCHS WENGLOR MURR FARNELL FINDER HITECH MTL INSTRUMENT ZIPPSWITCH FESTO GE CARLO GAVAZZI TAKEX LS FUJI OLGEN SANYU OKITA SUNGHO WILMAR TOKY TOKIN FUJITSU HON EYWELL NATIONAL TOYO SEIKI MATSUSHITA KRAUS & NAIMER FOTEK FINE SUNTRONIX GEMS GRINDING WHEEL : NORITAKE NRS KOYO FUJI MIURA MIWA ANCHOR MITSUI UNTER NORTON Keuntungan dari Pelayanan Kami adalah sbb : - Harga yang kami tawarkan lebih bersaing. - Stock yang cukup lengkap. - Kualitas dan keaslian barang terjamin / Asli dan Brand New - Barang dapat kami kirim sesuai dengan tanggal kebutuhan - Untuk Barang yang membutuhkan import/ indent dari luar, kami memiliki waktu pengiriman lebih cepat. - Kemudahan dalam pembayaran. - Engineering yang handal Untuk Permintaan Penawaran Harga & Stock Silahkan Hubungi Team' S Sales kami Dibawah ini : 
Marketing :1. Yadi. Mobile : + 62-81297691617
Phone : 021 ‚Äì 80808849 Ext.208
2. Ahmad Sudarman.
Mobile : + 62-81282819147
Phone : 021 ‚Äì 80808849 Ext.209PT. TOTAL ABADI SOLUSINDO
Authorized Distributor & Energy Management ContractorJl.Dr.Krt Radjiman Widyodiningrat Ruko D'Arcade Blok A19D‚ÄôMansion Jatinegara Indah Central Bussiness Park, Pulo Jahe, Cakung , Jakarta Timur 13930Phone   : +62-21-80808849 |Fax.  +62-21-80808848Email   : info@totalabadisolusindo.co.idEmail   : sales@totalabadisolusindo.co.idWeb     : www.totalabadisolusindo.comSUPPORT ALL BRAND & ALL MANUFACTURE :
|INVERTER|PLC|HMI|SOFT STARTER|AC SERVO|SENSOR & CONTROLLER|POWER SUPPLY|CIRCUIT BREAKER & CONNECTOR|TACHOMETER|FILTER|BATTERY CHARGER||ENCODER & COUNTER|SCALE & INDICATOR||FLOW METER|TESTER|WATER METER|SIGNAL LAMP|SAFETY RELAY|LOADCELL|FAN & BLOWER|INSTRUMENTS|GENSET||MODULE|VALVE|PUMP|PNEUMATIC & HYDRAULIC|PRESSURE TRANSMITTER|CLUTCH & BRAKE|ELECTRIC MOTOR|SHOCK ABSORBER|GRINDING WHELL|PANEL|PIPE|CABLE|
  ","
              Jl.Dr.Krt Radjiman Widyodiningrat Ruko D'Arcade Blok A19Jatinegara Indah Central Bussiness Park, Pulo Jahe, Cakung , Jakarta Timur 13930            ",DKI Jakarta,DKI Jakarta,+81 297-69-1617,None,None
TUTON ARSITEK,"
                                    PREMIUM GOLD
                                ",Kontraktor,"
TUTON ARSITEK & INTERIOR
Berdiri sejak tahun 2015 perusahaan yang bergerak di bidang jasa interior, jasa arsitek, jasa pembuatan furniture.Visi kami memberikan hasil terbaik untuk kepuasan konsumenMisi kami memberikan design terbaik dalam setiap pekerjaan yang kami kerjakan            ","
              Jl Condet Raya No. 88Balekambang, Condet, Jakarta Timur (Depan Kantor BRI)  email: bee.tuton@gmail.com            ",Jakarta Timur,DKI Jakarta,085773989505,None,None
