Name,Membership,Category,Description,Address,City,Province,telp1,telp2,telp3
zeropromosi,"
                                    PREMIUM GOLD
                                ",Tali,"
              Perkenalkan kami Zeropromosi.com merupakan penyedia aneka souvenir seperti: - souvenir kantor - souvenir ultah - souvenir pernikahan Produk kami terdiri dari flashdisk, payung, tumbler, pulpen, mug/gelas, powerbank, tali id card dan banyak lainnya Kami sudah berpengalaman dibidang barang promosi & souvenir dengan selalu memenuhi deadline yang ketat serta yang tidak kalah penting adalah HARGA KOMPETITIF. Min order 100pcsharga blm termasuk cetakJika ada yang belum jelas dan ingin ditanyakan bisa langsung menghubungi kami di:mkt 1 WA / Tlp : 0877 8186 7176mkt 2 WA / Tlp : 0877 8185 7176Email : zeropromosi@gmail.comLine : @zeropromosi (harus pake @)            ","
              Jl. Arcadia Daan Mogot Blok H7 No.16,  Batuceper, Kec. Batuceper, Kota Tangerang, Banten 15122, Indonesia            ",Tangerang,Banten,087781857176,087781867176,081808064176
PD KING PLASTIK,"
                                    PREMIUM GOLD
                                ",Tali,"
Produksi berbagai macam produk  extrusion antara lain media MBBR / kaldnes, sedotan  dan Tali Rafia berbagai macam pilihan dan warna ( hitam, abu2, merah, biru, hijau, kuning, pink, ungu, putih, coklatt) roll/ gelondongan 40 - 50kg dan kemasan roll kecil sesuai permintaan antara 3 ons s/ d 1 kg melayani penjualan kiloan ( karungan) maupun yang sudah dipacking sesuai permintaan.. Cocok bagi anda yang masih mencari peluang usaha home industri, kami juga menyediakan mesin gulung tali, perakitan mesin extrusion, mesin tali rafia dan mesin sedotan. mesin penghasil sedotan, tali rafia, dll dgn harga bersaing
Kami menerima pesanan produk khusus (costum profil extrusion) seperti profil2, hollow, pipa, price tag dll            ","
              Jl. H Joan No. 46 Pondok Jagung, Graha Raya, Bintaro, Serpong            ",Tangerang,Banten,+62 851-0072-0039,None,None
PT. BEN GOLAN BERKARYA,"
PREMIUM RUBY
",Tali,"
Selamat Datang di Website PT. Ben Golan Berkarya. Kami merupakan perusahaan yang bergerak dalam industri Alat Proteksi Diri dan Keamanan, Alat Pertahanan Diri, Eye Protection, Face Protection, First Aid Kit, Alat Detector, Hearing Protection, Masker, Rompi, Helmet, Fire Extinguisher, Marka Jalan, Safety Shoes, Marine Equipment, Safety Sign, Head Protection, Wearpack, Sarung Tangan, EEBD (Emergency Escape Breathing Escape), Eye Wash, Body Harnes, GPS DAN NAVIGASI, Material Handling, dll.Kami Adalah Perusahaan Berkembang Yang Melayani Penjualan Secara Eceran Dan Grosir Ke Seluruh Indonesia. Menyediakan Segala Perlengkapan Untuk Keselamatan Kerja (Safety Equipment) Dan Perlengkapan Perkapalan (Marine). Kami Juga Menerima Pesanan Khusus Untuk Seragam Kerja,Pdh/Pdl Dan Menerima Pesanan Khusus Kabel Tray.

MEDAN:
Jl. Gunung Krakatau No.83 Glugur Darat II Kec. Medan Timur - Medan Sumatera Utara 20238
 
JAKARTA:
MGK Kemayoran Lantai GF Blok A3 No.2 Jalan Angkasa Kav.B6 Kota Baru Bandar Kemayoran, Jakarta Pusat
 
BALI:
Simpang 6, Jl.Pulau Rembulan No 15 Denpasar - Bali  ","
              Jl. Gunung Krakatau No.83 Glugur Darat II Kec. Medan Timur - Medan            ",Medan,Sumatera Utara,+62 811-909-805,None,None
CV. SAMUDERA TEKNIKINDO SELARAS,"
                                    PREMIUM GOLD
                                ",Tali,"
CV SAMUDERA TEKNIKINDO SELARAS merupakan perusahaan yang bergerak dibidang general trading (General Supplier) dengan 2 (dua) divisi yaitu Perbaikan / Maintenance machine Industri khusus Electrical dan Import product part machine. 
CV SAMUDERA TEKNIKINDO SELARAS memiliki kualitas yang handal dan harga yang sangat ekonomis dan cocok untuk industries dan semua pabrik manufacturing. Adapun merk yang kami supply, diantaranya : Omron, Mitutoyo, Keyence, Yokogawa, SMC, Nagano Keiki, Panasonic, Hanyoung, LG / LS, Fuji Electric, Mitsubishi, Hanyound, Yamatake / Azbil, Klar Stern, Taffware, Panasonic, Hitachi, Siemens, Emerson, Taiyo Parker, Sipik, Shinko, Idec, Sanyo Denki / Dyna Ace, NMB, Daito / Fanuc, NTN, THK, Swan, Oriental Motor, CDK, Luyang, Sick, Bando V-Belt, Yamamoto, Steins, dan masih banyak produk lainnya dari berbagai merk yang kami sediakan, mulai  dari China, Jepang, Taiwan, Korea dan Produk Europa lainnya.
Untuk informasi dan pemesanan silahkan hubungi kami :
CV SAMUDERA TEKNIKINDO SELARAS
Jl. Tarum Barat 2, Ruko Pasar Bersih B-7 (Pintu 11) Kawasan Industri Jababeka II, Jayamukti, Cikarang, Bekasi - Jawa Barat
Phone : 081287602917 // 081219415790 (Call / WA)
Tlp : +62 21 2945 3721 // +62 21 2945 3722
Email : samuderateknikindo@yahoo.com
Website : www.samuderateknikindo.co.id ","
              Office : Jl. Tarum Barat 2, Ruko Pasar Bersih B-7 (Pintu 11) Kawasan Industri Jababeka II, Jayamukti, Cikarang, Bekasi - Jawa Barat ",Cikarang,Jawa Barat,+62 812-1941-5790,None,None
PD RAVIBORDIR Indramayu ,"
                                    PREMIUM GOLD
                                ",Tali,"
PD RAVI BORDIR Adalah perusahaan satu-satunya yg ada di kabupaten Indramayu JAWABARAT. Yang sudah terkenal dengan hasil kwalitas dan ketepatan produksi, juga desain nya. kami sudah berjalan SEJAK tahun 1998. Kami adalah perusahaan yg bergerak dalam bidang produksi & penjualan secara langsung DI TOKO KAMI , maupun ON LINE secara BISNIS. Bidang kami Dalam pembuatan perlengkapan TNI.POLISI.POLPP.DISHUB.SECURITY SEKOLAH PASKIBRA mulai dari Topi. Jaket. Rompi. Kaos. Tas/ ransel. Sepatu PDL/ PDH. Wearpakc. Kemeja. Training. Helm. Logam Gantungan Kuci. Jam Dinding, juga menerima Pembuatan Jas.Jasket. Tenda Pramuka. Tenda Dome. Tenda Kerucut. BORDIR LOGO SEKOLAH Dinas Organisasi. DLLFB : Ravibordir IndramayuPD Ravi BordirIndramayu Jawa barat HP wa 081 324 73 1399 Hp wa 0857 2016 8603 ","
              JL. SILIWANGI (PINTU MASUK BTN PAOMAN ASRI no 60)KEC/Kab. INDRAMAYU kode Pos 45212 Jawa barat IndonesiaHp wa  081324731399 - 085720168603 dekat 500 meteran dekat dengan kantor Bupati Indramayu Jawa barat            ",INDRAMAYU - JAWABARAT INDONESIA. ,Jawa Barat,+62 813-2473-1399,None,None
CV. Asstraco,"
PREMIUM RUBY
",Tali,"
CV. ASSTRACO SURABAYA berdiri sejak tahun 1988 dengan tujuan untuk membantu mengembangkan perekonomian masyarakat di Indonesia, khususnya di bidang Plastik. CV. ASSTRACO SURABAYA telah melayani konsumen dengan motto 4K : Komitmen, Kualitas, Kecepatan, dan Ketepatan.
Seiring berjalannya waktu, CV. ASSTRACO menjadi General Supplier terpercaya di Surabaya. Berbagai produk baru kami luncurkan hanya untuk kepuasan konsumen, diantaranya : Tali PE, Tali Tampar, Selang air Milliard, Terpal Plastik berbagai macam ukuran, Kain Layar, Kain Gelaran, berbagai macam Waring berkualitas tinggi seperti : Waring Hitam, Waring Paranet, Polinet / Safety Net dan lain-lain.
Kami Menjual : Karung Plastik,Tali,Terpal Plastik,Besi Baja,Selang Milliard,Kain Layar. ","
              Margomulyo permai blok AH-22 AsemRowo            ",Surabaya,Jawa Timur,+62 812-2294-5151,None,None
DUTA TEKNIK,"
                                    PREMIUM GOLD
                                ",Tali,"
DUTA TEKNIK merupakan Perusahaan yang Bergerak dalam Bidang Industrial Power Transmission Supplies seperti :• ELECTRC MOTOR (DINAMO PENGGERAK)• VIBRATOR MOTOR• SPEED REDUCERS / GEAR MOTORS• GEARBOX• COUPLINGS• CHAIN HOIST• CHAIN BLOCK• ELECTRIC TROLLEY• V-BELT• PULLEY• TAPERLOCK PULLEY• SPROCKET• CHAIN• CLUTCH AND BRAKES• PUMPS• INVERTERS• ROLLER CONVEYOR• CONVEYOR BELT and Keperluan Industri Lainnya.
-----
 
Hubungi Kontak Kami Sekarang untuk Dapatkan Penawaran Terbaik dan Harga Bersaing (CALL/WHATSAPP)
• Phone : (031) 5317-226 (Customer Support)
• e-Mail : dutateknik17b@gmail.com
• Website : www.DutaTeknik.co.id
 ","
              • Branch Office : Jln. Raden Saleh No. 17 B Surabaya, Jawa Timur, Indonesia• Phone : 0822-5738-8188 (Call or WhatsApp)            ",SURABAYA,Jawa Timur,+62 878-5291-1180,+62 822-5738-8188,None
CV. TERUS JAYA GORDEN,"
                                    PREMIUM GOLD
                                ",Tali,"
              Kami berdiri sejak tahun 2000 di Surabaya, dengan langkah usaha lebih lanjut pada tahun 2008, kami membuka divisi produksi dimana para pelanggan akan menikmati harga rendah yang kami tawarkan. Kami bergerak di bidang aksesoris Gorden, antara lain: Rel gorden, tali tasel, Renda gorden, aneka macam hook gorden, dan variasi gorden. Tali untuk mebel dan lain-lainnya.            ","
              Jl. Gembong No 36A            ",Surabaya,Jawa Timur,+62 813-3223-3677,None,None
U.D. GEMBONG TEBASAN,"
                                    PREMIUM GOLD
                                ",Tali,"
              Spare part Jeep : Kami menyediakan segala suku cadang Jeep AMERIKA / spare part Jeep Amerika. Mulai dari suku cadang Jeep Ford ( 41-43) , Jeep 44 ( 44-47) , Jeep Willys CJ 3A , CJ 3B , Jeep Mambo , Mitsubishi Jeep , Jeep CJ5 , Jeep CJ6 , Jeep CJ7 , Jeep Wrangler YJ , Wrangler TJ , Jeep Cherokee , Grand Cherokee. Kami juga menyediakan segala keperluan peralatan OFFROAD dan ACCESORIESnya. Produk2 yang lainnya : Jerigen , jurigen , jerry can , winch , towing , Hi Lift Jack , Hitch ball , coupler , remote winch , wireless untuk winch , roller winch , Snatch block , synthetic rope , tali nylon , seling nylon , shackle , kaca spion , kampas kopling , pangkon mesin dll Spare part Jeep / Suku cadang Jeep : Jln. Gembong Tebasan No.9 Surabaya HP : 08123538311 / 087852781414 BB : 25CB91F7 www.sparepartjeep.com            ","
              GEMBONG TEBASAN No .9            ",SURABAYA,Jawa Timur,08123538311,None,None
CV. MAJU JAYA MARINE,"
                                    PREMIUM GOLD
                                ",Tali,"
CV. MAJU JAYA MARINE merupakan Toko Perlengkapan Kapal di Surabaya yang menjual Segala Barang Kebutuhan Marine.
 
-----
 
Hubungi Kontak Kami Sekarang untuk Dapatkan Penawaran Terbaik dan Harga Bersaing (CALL/WHATSAPP)
• Phone : 0813-3501-1024 (Marketing)
• e-Mail : marketing.majujayamarine@gmail.com
• Website : www.MajuJayaMarine.com
 ","
              • Head Office : Jln. Kaliagung 1 Blok F-17 (Komplek Kaliagung Megah) Surabaya, Jawa Timur, Indonesia• Phone : 0813-3501-1024 (Call or WhatsApp)            ",SURABAYA,Jawa Timur,+62 813-3501-1024,None,None
PT. CIPTA TUNAS SAKTI,"
                                    PREMIUM GOLD
                                ",Tali,"
              PT. Cipta Tunas sakti merupakan perusahaan khusus menyediakan plastic packaging dengan kwalitas standart nasional dan internasional.Kami mensuply dan mendistribusikan plastic packaging di seluruh wilayah indonesia kami juga sangat berpengalaman di bidang plastic packaging selama 18 tahun sehingga bisa menjadi jaminan untuk produk pesanan anda. Produk kami antara lain, PVC Shrink, POF Shrink, PE Shrink, Stretch Film, OPP Tape, Strrapping band, PE Foam, Polycell, Lid Cup, PET Green Embos, Label, Segel, Tissue galon, Plastik HD, Plastik PE, Plastik PP, Kantong Sampah, Polybag, Plastik Vacum, Standing Pouch, OPP Bag, Perforeted Bag, CPP Transparan, seal sapu, seal sodok, Plastik preform, Galon, Botol plastik, Gelas plastik. Kami akan memberikan jaminan kualitas dan layanan yang optimal.terima kasih atas kunjungan anda dan silakan melihat produk2 kami, jika ada pertanyaan silakan hubungi kami Terimakasih, Cipta Tunas Sakti            ","
              Jl.Sedayu  No. 23C            ",Surabaya,Jawa Timur,+62 822-3250-2667,None,None
ELJE PERDANA PT.,"
PREMIUM RUBY
",Tali,"
              FIRE SAFETY EVACUATION, ESCAPE, RESCUE, ALAT PEMADAM KEBAKARAN API HYDRANT PILLAR , PEMADAM API BOLA, ALAT KEAMANAN KESELAMATAN KERJA, BREATHING APPARATUS PERNAPASAN, JAS HUJAN, KANTONG MAYAT, BAJU NOMEX IIIA, HARVIK SEPATU BOOTS, KINGS, ALAT EVAKUASI STAIR WAY, EVAC CHAIR EVAC+ CHAIR 300H AMB, 600H AMB, 500, ESCAPE CHUTE SELUBUNG PELUNCUR, ESCAPE ROPE, ESCAPE SMOKE HOOD, FIRE SUIT, FIRE ALARM, SMOKE HEAT DETECTOR TESTER, FIREND, HOSE REEL, BOX FIRE TROLLEY , CABINET CUSTOMIZED, STAINLESS STEEL, VALVE.HUB.+ 62.21.5330430; 5359481; 53671197; 70714755DIDIRIKAN SEJAK SEPTEMBER 1991, SEBAGAI PEMASOK ALAT PENGAMAN KEBAKARAN DI BERBAGAI INDUSTRI DAN PROYEK DI INDONESIA. DALAM USAHA KAMI UNTUK DIMUNGKINKAN SEBUAH PAKET BERSUMBER TUNGGAL BAGI PARA PELANGGAN DAN KAMI TERUS MEMPERLUAS JANGKAUAN SERVICE SERTA PRODUK-PRODUK KAMI. DALAM BIDANG USAHA YANG TIDAK MENTOLERIR KEGAGALAN, KAMI MENSUPLAI PRODUK-PRODUK BERKUALITAS, DENGAN TUJUAN MENGOPTIMALKAN PENGAMANAN UNTUK MENYELAMATKAN JIWA MANUSIA SERTA UNTUK MENEKAN KERUGIAN KERUGIAN SEMINIMAL MUNGKIN. JIKA TERJADI SESUATU MALAPETAKA KEBAKARAN DAN ATAU KECELAKAAN INDUTRI, GEDUNG TINGGI.PT. ELJE PERDANA MENAWARKAN SOLUSI, SERVIS SERTA PRODUK PRODUK YANG BERANEKA RAGAM SBB:* PERLENGKAPAN SYSTEM EVAKUASI DARI SELUBUNG PELUNCUR INGSTROM, KURSI PELUNCUR PADA TANGGA DARURAT EVAC+ CHAIR, SAL SAVE A LIFE Escape Rope, SISTIM PETUNJUK EVAKUASI, TERANG DALAM KEGELAPAN / GLOW IN THE DARK. ( PIGMENT, PAINT, ABS/ PE PLASTIC BATCH, SIGN ETC.)* FIRE ALARM CONVENTIONAL, APPRON, HONG CHANG, HORINGLIH, Independent Type : KIDDE Fire Sentry, BRK/ FIRST ALERT, BOSCH.* TANDU JUNKIN, LAMBANO.* HAWS EYE/ FACE WASH & SHOWER STATION.* SAM WON CONSTRUCTION SAFETY BELT.* SPASCIANI SELF CONTAINED BREATHING APPARATUS 200 Bar, 300 Bar.* ZETEX ALUMINIZED RESCUE SUIT, Approach, Fire Entry Suit.* ZETEX series 2000, 3000 FIRE ENTRY SUIT, FIREND FIRE BLANKET, GLOVES.* PACIFIC FIREMAN HELMET.* ALPHA INDUSTRIES AIR FORCE JACKET.* FIREND FIRST AID KIT.* FIREND HOSE REEL.* OSW HOSES : FIRE HOSE SYNTEX 500, SYNTEX UNIDUR,* SMOKE DETECTOR TESTER HOME SAFEGUARD. SOLO* FIRE EXTINGUISHERS FIREND AND REFILLING segala merek.* FIREND MAGIC BALL FIIRE EXTINGUISHER EX JAPAN* FIREND MAGIC SACHET FIRE EXTINGUISHER EX JAPANUNTUK MENGENAL LEBIH LANJUT SILAHKAN BUKA WEBSITE KAMI :www.eljefiresafety4all.comJIKA ADA KESULITAN DAPAT MENGHUBUNGI KAMI DI EMAIL : elje@centrin.net.id            ","
              Prisma  Kedoya  Plaza  Block C no 1, Jl. Raya Pejuangan Sisi Tol Kebon Jeruk, ( 1 Kompleks dengan Food Hall Supermarket & BCA )            ",Jakarta Barat,DKI Jakarta,+62 811-8714-755,None,None
PT.SURRAMA TRIDAYA MANDIRI,"
PREMIUM BLUE ONYX
",Tali,"
Surrama Tridaya Mandiri adalah Kontrol & Instrumentasi perusahaan memberikan kualitas produk dan layanan kepada industri. Filosofi kami adalah untuk bekerja dalam kemitraan dengan kami pelanggan untuk memastikan bahwa kami memberikan solusi yang tepat untuk memenuhi kebutuhan Anda kebutuhan bisnis. Kami menawarkan berbagai produk kepada pelanggan kami. Ini adalah tujuan kami untuk memastikan bahwa Anda diberikan saran terbaik untuk membantu Anda memilih solusi yang tepat atau jasa untuk memungkinkan Anda untuk melakukan kegiatan bisnis Anda efektif dan efisien. pelanggan kami berhak permintaan kualitas tinggi, harga terbaik dan waktu respon segera. Oleh karena itu Kami menempatkan penekanan yang sangat tinggi pada tidak hanya memenuhi tuntutan ini tetapi juga pada penyediaan penekanan kuat pada layanan pelanggan dan customer care. Pada Kontrol STM kami berkomitmen untuk melayani kebutuhan pelanggan kami di atas semua pertimbangan lain. Kami percaya bahwa rumus untuk keberhasilan bisnis kami secara langsung terkait dengan keberhasilan kami bisnis pelanggan. 
Kontrol STM ' Pelanggan Charter'
• Pelanggan adalah yang paling penting orang di kantor kami.• Pelanggan tidak tergantung pada kita; kita tergantung padanya.• Pelanggan tidak gangguan terhadap pekerjaan kami, ia adalah tujuan itu. Dia melakukan kita nikmat dengan memberikan kita kesempatan untuk memecahkan masalahnya.• Konsumen bukanlah seseorang untuk berdebat atau sesuai dengan akal. Tidak ada yang pernah memenangkan argumen dengan pelanggan.• Pelanggan harus dibuat merasa seolah-olah mereka adalah orang-orang yang paling penting di dunia kita. Perhatian pribadi kami kepada pelanggan kami melebihi yang dari pesaing lainnya.For More Info Contact Us :PT. Surrama Tridaya MandiriCiti Square Business Park Blok E No. 6Jl. Peta Selatan RT 010 RW 001, Kalideres, Kalideres, Jakarta Barat, DKI Jakarta, Indonesia 11840Telp    : +62-21-22520556 (Hunting)Fax     : +62-21-22526597 ","
              Citi Square Business Park Blok E No. 6 Jl. Peta Selatan RT 010 RW 001, Kalideres            ",Jakarta Barat,DKI Jakarta,+62 878-8572-0277,None,None
CV.TUGU PERMATA,"
                                    PREMIUM GOLD
                                ",Tali,"
              CV.TUGU PERMATA adalah perusahaan yang bergerak di bidang penyediaan Alat Safety atau Perlengkapan Safety, antara lain : Safety Helmet, Safety Shoes, Hand Glove, Body Harness, Rubber Cone, Convex Mirror, Road Barrier, Safety Glasses, Earplug, APAR, Hand Metal Detector, DLL.Kami Juga Menyediakan ALat Kebersihan,Kawat Loket Dan Besi Rak Siku Lobang.            ","
              CV.TUGU PERMATAGedung Mega Glodok Kemayoran ( MGK ) Lantai GF Blok C5No.03Jl.Angkasa Kav B-6 Kemayoran,Jakarta Pusat.Telp : ( 021 ) 29070470 Email : tugupermata@yahoocoid""For Response : WA : 081384722205 / 081906808999""            ",Kemayoran Jakarta Pusat,DKI Jakarta,08138422205,None,None
Ben Berkarya,"
                                    PREMIUM GOLD
                                ",Tali,"
Selamat Datang di Website Ben Berkarya. Kami merupakan perusahaan yang berdiri sejak 2012 bergerak dalam industri Alat Proteksi Diri dan Keamanan, Alat Pertahanan Diri, Eye Protection, Face Protection, First Aid Kit, Alat Detector, Hearing Protection, Masker, Rompi, Helmet, Fire Extinguisher, Marka Jalan, Safety Shoes, Marine Equipment, Safety Sign, Head Protection, Wearpack, Sarung Tangan, EEBD (Emergency Escape Breathing Escape), Eye Wash, Body Harnes, GPS dan Navigasi, Material Handling, dll.Kami Adalah Perusahaan Berkembang Yang Melayani Penjualan Secara Eceran Dan Grosir Ke Seluruh Indonesia. Menyediakan Segala Perlengkapan Untuk Keselamatan Kerja (Safety Equipment) Dan Perlengkapan Perkapalan (Marine). Kami Juga Menerima Pesanan Khusus Untuk Seragam Kerja,Pdh/Pdl Dan Menerima Pesanan Khusus Kabel Tray.Email : info@ben.co.idTelp : (021) 29070534WA : 08118886817 ","
              MGK Kemayoran Lantai GF Blok A3 No.2 Jalan Angkasa Kav.B6 Kota Baru Bandar Kemayoran, Jakarta Pusat            ",Kemayoran,DKI Jakarta,08118886817,None,None
HARAPAN ANAK JAYA,"
                                    PREMIUM GOLD
                                ",Tali,"
HARAPAN ANAK JAYA Adalah salah satu perusahaan yang bergerak sebagai general supplier , Vacuum Cleaner, Apparel, Shoe Cover, Head Cover, Hood, Sleeve Protector, Apron, Vinyl Glove, Nitrile Glove, Latex Gloves, Welding Glove, Fitter Glove, Cotton Glove. Air Monitor, Mass Monitor, Particle Counter, compuflow thermoanemometer, Static Control, Wrist Straps, Heel and Toe Grounders, Work surface monitor, Floor Mat, Static Charge Meters, Surface Test Kit, Ionizing Air Gun, Ionizing Air Blower, Static Control Spray Cryogenics, Dewar Flasks, Tempering Beakers, Cryobiological Inventory System, Retrieval Device, Canister Storage System, Insulated Containers, Cryo Tube, Vial Freezing Container, Benchtop Chiller, Labtop Cooler, Cryo Glove, Apron Density : Specific Gravity Cup, Pycnometer, Digital Specific Gravity Meters, Gay-Lussac Bottles, Digital Density & Specific Gravity Meter Desiccators: Electronic Desiccators, Static Free Desiccators, Ultra Low RH Desiccators Cabinet, Desiccants, Alumina Silicate, anhydrous calcium Sulfate Dispensers, Repetitive Bottletop Dispenser, Precision Digital Dispensers Electrical : Motor Rotation Testers, Electrical Circuit Analyzers, Voltage/ Continuity Tester, Analog Tester, Clamp Meter, Voltage and Current Recorder, Milliohm Meter, Digital Micro Ohmmeter, Digital Megohmmeter, Ground Resistance Tester, Resistance Test Kit, Gauss Tesla Meters, Clamp Power Meter, Leakage Tester, Digital Multimeter, Precision Multimeter, Power Quality Analyzer, Oscilloscope, Fiber Optic Power Meters, LAN Cable Tester, Ground Resistance Tester, Inverter, Battery Charger. Electrophoresis, Gel Runner, Gel Systems, Electrophoretic Blotting Systems, Vertical Gel System, Gel Casting, Comb, Spacers, Gel Wrap Gasket, Glass Plates, Casting clamps, Gel Imaging Documentation, Ultraviolet Lamp, Gel Grying System Filter Membranes, Agarose, Molecular Weight Markers, Environmental Chambers, Dehumidifiers, Humidity Controllers Evaporator : Digital Rotary Evaporator System, Compact Rotary Evaporator, Centrifugal Solvent Evaporator System, Evaporator & Concentrator, O-rac system Extraction, Fat Analysis System, Extraction and Analytical Glassware Fermentation, Modular Fermentation Start up Kit, Pre-Packaged Systems, Fermentation Accessories, Antifoam Meter, CO2 meter, Flow Filtration System, Filtration, Disposal Filterware, Sampling Capsule, shaker, Centrifuge Filter, Stirred Cells, Dialysis Tube, Filter Paper, Filter Mesh, Filter Device, Vacuum pressure Pump, Pressure Filtration, membranes, Syringe Filter Holder, Water Filtration Elements, Compact Filtration System, Compressed Air Purification from Ultrafilter, Prefilter, Dryer, Microfilter, Activated carbon Fitting : Chromatography, Compression Fittings, Luer Fitting, Pipe Fitting, Quick Disconnect Fitting, Sanitary Fitting, Barbed Fittings Flame Photometer Flowmeter, Acrylic Flowmeters, Laboratory Flowmeter, Dual Scale Flowmeter, Spring Flowmeter, Piston and Vane Flowmeter, Mechanical Bellows Flowmeters, Gas / Liquid Flowmeter, Tokico, Tut Hill, Tokyo Keiso, Magnaught, Water Flowmeter, Ultrasonic Flowmeter, Area Flow Controller, Gas Mass Flow Transmitters, Thermal Gas Flow Controllers, Volumetric Flowmeter, Differential Pressure Gas Flowmeter, High Accuracy Turbine meters, Turbine Flowmeter, insertion Turbine Flowmeters, Accumulators, Gear Flowmeter, High Viscosity Flowmeter, Digital Flowmeter, Magnetic Flowmeter, Paddle Wheel Flowmeter.

HARAPAN ANAK JAYA
Gd. Lindeteves Trade Centre ( LTC) Lt 2 Blok C.43 No 21. Jakarta Barat.
www.harapananakjaya.com
ptharapananakjaya@gmail.com
saleshaj@hotmail.com
021-3596-9127
0857-7584-5308
0813-8148-3316
0821-1291-5338
0859-5914-3221
Jenri Anto Simatupang Sianturi
 ","
              JL. Hayam wuruk No.127 Glodok, Jakarta BaratGedung Lindeteves Trade Center (LTC)LT.2 Blok C.43 No.21            ",Jakarta,DKI Jakarta,+81 3-8148-3316,085775845308,+82 11-291-5338
PT Bugaro Mitra Selaras,"
                                    PREMIUM GOLD
                                ",Tali,"
produsen dan distributor alat olahraga ","
              Jalan Masjid Abidin no.40 Duren Sawit. Jakarta Timur.            ",Jakarta Timur,DKI Jakarta,+62 821-1111-6251,None,None
CV. KASHELARA,"
                                    PREMIUM GOLD
                                ",Tali,"
              COMPANY OVERVIEW CV. Kashelara merupakan perusahaan yang berbadan hukum, yang terdaftar sebagai perusahaan persekutuan komanditer dan disahkan oleh kepala kantor Pelayanan Terpadu Kota Surakarta Drs. Toto Amanto, MM. Perusahaan yang berdiri pada tanggal 17 Maret 2011, dengan nomor surat izin usaha 510.41/ 0614/ PK/ VI/ 2011, dengan SK PEM-1177 / WPJ.32 / KP.0503/ 2011 kepala pelayanan dirjen pajak, dengan nomor NPWP 31.295.251.8-526.000 CV. Kashelara merupakan perusahaan yang bergerak dalam bidang Nuclear Service and Maintenance, dan pengadaan barang-barang yang berhubungan dengan kebutuhan alat-alat nuklir khususnya masalah proteksi radiasi dan uji tak rusak. CV. Kashelara melayani jasa pengurusan ijin alat dan bahan yang berhubungan dengan pemanfaatan nuklir baik berupa bahan nuklir seperti sumber isotop atau alat alat nuklir seperti Mesin X-Ray Bagasi, Diagnostik, kamera Gamma Ray, dan yang lainnya. Kami menjadi jembatan yang mempermudah anda dalam menguruskan ijin di Badan Pengawas Tenaga Nuklir ( BAPETEN) berupa pemanfaatan alat-alat tersebut, Ijin ekspor-impor, dan ijin pengalihan, serta ijin perpanjangan dan yang lainnya. Kami siapkan semua prosedur dan syarat syarat yang dibutuhkan agar alat dan bahan tersebut segera dapat dioperasikan/ digunakan tepat waktu. Selain itu kami juga melayani jasa kalibrasi alat ukur radiasi berupa jasa kalibrasi surveymeter, jasa kalibrasi pendose, jasa kalibrasi pocket dosimeter, evaluasi TLD Badge baik untuk gamma, X-ray, maupun neutron, compliant test kamera gamma dan yang lainnya dimana saat ini kami bekerja sama dengan Badan Tenaga Nuklir Nasional ( BATAN) selaku Badan Pelaksana Nuklir yang legal di Indonesia sekaligus Laboratorium yang sudah terakreditasi oleh Komite Akreditasi Nasional ( KAN) dan Lembaga-lembaga akreditasi lainnya baik dari dalam dan luar negeri. Semua kegitan tersebut pengurusannya kami lakukan dan selesaikan di Jakarta sehingga untuk mempermudah anda dalam pengurusan anda tinggal mengirimkan dokumen atau barang yang terkait dengan pekerjaan yang anda minta ke kami sehingga hal tersebut akan mempermudah anda dan yang pasti anda bisa memangkas biaya transportasi bagi yang berdomisi wilayah kerja jauh dari Jakarta lebih-lebih di Luar Jawa. Selain jasa kami juga melakukan trading atau penjualan berupa alat-alat dosimeter personal dan area seperti penjualan survey meter, shielding Pb, Penjualan pendose, long tong, kontainer isotop, TLD Badge Harshaw, TLD Badge BARC, dll. Kami tidak pernah membatasi diri pada merk tertentu karena kami meyakini setiap instansi atau perusahaan memiliki seleranya masing-masing terhadap produk-produk tertentu dan kami akan berusaha memenuhi semua keingina pelanggan kami secara maksimal sejauh kemampuan kami yang bisa kami lakukan. CV. Kashelara siap membantu perusahaan anda dan senantiasa meningkatkan kemampuan, untuk memberikan pelayanan yang terbaik bagi customer kami. Adapun Produk Usaha Kami : A. Perdagangan Alat-Alat Proteksi Radiasi, meliputi: ü Surveymeter ü TLD ü Pendose ü Shielding Pb B. Jasa Pengurusan Ijin Alat Radiasi BAPETEN, meliputi: ü Ijin Impor ü Ijin Pengalihan ü Ijin Pemanfaatan ü Perpanjangan Ijin C. Jasa lain-lain, meliputi: ü Kalibrasi Alat Ukur Radiasi ü Sertifikasi Bebas Radiasi ü Analisis Radioaktif Bahan ü Analisis Bebas Kontaminasi ü Pengolahan Limbah Radioaktif ü Uji kebocoran dan tes Usap ü Uji kesesuaian Kamera Radiografi dan Pesawat Sinar X ü Survey dan Analisis NORM dan TENORM ü Jasa Konsultasi Migas Demikian sekilas tentang profile perusahaan kami, atas perhatian dan kerjasamanya kami ucapkan terima kasih.            ","
              Gg. Rincik No. 45A, RT. 01, RW. 04, Kel. Kota Bambu Utara, Kec. Palmerah            ",Jakarta Barat,DKI Jakarta,+62 858-6190-0600,None,None
