Name,Membership,Category,Description,Address,City,Province,telp1,telp2,telp3
CV. JAYA MAKMUR ABADI,"
PREMIUM RUBY
",Bengkel & Karoseri,"
CV. Jaya Makmur Abadi, perusahaan yang bergerak dibidang perdagangan umum Material Konstruksi & material lainnya, dan telah berpengalaman lebih dari 10 Tahun. 
Berdiri sejak Tahun 2005 dengan nama Jaya Makmur Abadi, dan diresmikan pada tahun 2010 oleh notaris Edward Agustin menjadi CV. Jaya Makmur Abadi. 
CV. Jaya Makmur Abadi bekerja sama dengan beberapa Pabrik & Distributor Material dan hingga kini sudah melayani lebih dari 900 pelanggan, yang terdiri dari pelanggan pribadi/perusahaan baik dari dalam & luar daerah di Indonesia. 
 
Visi & Misi : 


Menciptakan sistem perusahaan yang sistematis & fleksibel dalam hal pelayanan.
Menciptakan lapangan kerja & Sumber daya Manusia yang terampil, profesional& handal. 
Menciptakan pelayanan & kerjasama yang berkesinambungan dengan pelanggan.
Menjadi perusahaan multinasional yang dapat memberi sumbangsih terhadap perekonomian di Indonesia. 

CV. Jaya Makmur Abadi.General Supplier & Trading : Besi Beton & Baja. Rangka Baja Ringan & Atapnya.Aluminium Kusen Pintu & Jendela.Plywood & Kayu lainnya.Pipa Paralon & Pipa Lainnya. 
Keramik & Granit.Perlengkapan Sanitary. Aksesories Pintu & Jendela.
Segala jenis Kaca Bangunan.Aluminium Composite Panel.Kawat Baja & Besi. 
Karpet Import & VINYL. Kusen, Pintu & Jendela Kayu. Windows Fashion.Mekanikal Elektrikal.Meubelair Kantor & Sekolah.
Pipa HDPE.Pipa Air Panas.HPL.Cat.Pipa Gorong-Gorong.Plat Kapal.Dll.
Untuk melengkapi kebutuhan pelanggan, kami juga menyediakan Jasa Kontraktor, Jasa Arsitek & Jasa Konsultan.
Untuk informasi lebih jelas, dapat menghubungi Marketing kami.
Terima kasih. www.jayamakmurabadi.co.id
CV. Jaya Makmur Abadi 
Jl. Brigjend Katamso No. 2 Samarinda. Kalimantan Timur 75117.Telp : 0541-7802915Fax. : 0541-766315Email : sales@jayamakmurabadi.co.id
 

 
 ","
              Head Office :Jl. Brigjend Katamso No. 2. Samarinda. Kalimantan Timur ",Samarinda ,Kalimantan Timur,+62 823-5215-3244,+62 813-4942-8940,+62 852-4900-5619
Karoseri Kenka,"
                                    PREMIUM GOLD
                                ",Bengkel & Karoseri,"
Info Untuk Pembuatan Mobil:
Karoseri Box Pendingin Freezer,
Karoseri Box Pendingin Chiller, 
Karoseri Box Pendingin Frozen, 
Karoseri Box Cold Storage, 
Karoseri Box Refrigeration, 
Karoseri Box Cool Storage, 
Karoseri Box Fiber, 
Karoseri Box Cold Storage, 
aroseri Mobil Toko, 
Karoseri Food Truck, 
Karoseri Wingbox, 
Karoseri Box Besi, 
Karoseri Box Alumunium, 
Karoseri Self Loader, 
Karoseri Mixer, 
Karoseri Trailer, 
Karoseri Bak Besi, 
Karoseri Tangki, 
Karoseri Vacuum Tank .. dll
 
Hotline : 0812.951.888.53 / 0812.9696.3488
 
Note :
 
1.Harga yang tertera adalah batas minimum
2.Batas Minimum di tentukan dari unit yang digunakan ( Pick up - Medium Truck - Truck Besar )
3.Untuk type khusus, harga juga di tentukan dari perlengkapan yg di inginkan ","
              Jl M T Haryono Km 6,5 no 8 A 
Kelurahan Taman sari
Kecamatan Setu Bekasi            ",Bekasi,Jawa Barat,+62 812-9518-8853,None,None
Panca Jaya Equipment,"
PREMIUM RUBY
",Bengkel & Karoseri,"
              Perusahaan kami bergerak dibidang suplier dan distributor produk-produk peralatan bengkel ( Garage equipment) / alat-alat teknik & mekanik, peralatan industrial, perawatan otomotif, permesinan serta alat-alat peraga ketrampilan mekanik dan pendidikan kejuruan mesin, otomotif & perkakas untuk bengkel umum, bengkel authorized, pabrikasi maupun institusi-institusi lembaga pelatihan, specialized in: Carwash Equipment, Tune Up Equipment, Tire Service, Automotive Lifting Equipment, Engine Trainer & Industrial Equipment dengan berbagai merk dan tipe yang ada, maupun yang sesuai dengan permintaan pelanggan dengan spesifikasi produk seperti : Tire Changer, Spooring, Balancing, Air Compressor, Car & Motorcycle Lift, Engine Scanner, Engine Trainer, Lathe Machine, Milling, Drilling, Hydraulic, Pneumatic machinery & Tools..dll. PANCA JAYA EQUIPMENT sebagai Perusahaan Swasta Nasional yang bergerak di bidang Pengadaan Peralatan Perbengkelan Otomotif. PANCA JAYA EQUIPMENT hadir sebagai partner Bengkel Service Station baik skala ATPM ( Agen Tunggal Pemegang Merk) dengan Dealer resmi maupun Bengkel umum yang bergerak dibidang Jasa Otomotif untuk melayani kebutuhan alat-alat penunjang kendaraan seperti : Alat-Alat Service, Peralatan Oil, Peralatan Tyre Shop, Peralatan Car wash dll secara Nasional. Didukung oleh produk-produk berkualitas tinggi dengan purna jual yang terjamin seperti : Produk HESHBON dari Korea antara lain SCISSOR LIFT, TWO POST LIFT, FOUR POST LIFT, MESIN BALANCER, MESIN SPOORING, MESIN BONGKAR PASANG BAN, ALAT UJI EMISI, GANTI OIL MATIC/ ATF DLL merupakan principle yang berpengalaman lebih dari 22 tahun memproduksi peralatan penunjang Bengkel Mobil dengan kualitas dan standarisasi safety dengan ISO 9001, KSA 9001, EN ISO 9001 ( KCP) mencakup Pasar Internasional. Product HANATECH dari Korea dengan Specialist alat SCANNER dengan pengalaman lebih dari 20 TAHUN. Product CEMB dari Italy dengan Specialist alat Spooring dan BALANCER dengan pengalaman lebih dari 60 TAHUN. Product TOOLS SPERO dari Taiwan dengan Specialist di TOOLS / Kunci-Kunci yang berkualitas Life Time dengan pengalaman lebih dari 8 TAHUN. Sebagai Partner PANCA JAYA EQUIPMENT akan selalu memberikan pelayanan dan konsultasi kepada pelanggan dengan setia dalam hal memilih dan menentukan Product yang sesuai dengan kebutuhan dengan harga yang terjangkau, sehingga investasi usaha jasa perbengkelan menjadi Investasi yang menguntungkan, nyaman dan berkembang terus. Ketersediaan tenaga teknis yang handal dalam melakukan pemasangan, pelatihan, pemeliharaan dan perbaikan. Sertifikat Produk kami telah mendapatkan pengakuan International dari merek terkemuka serta sertifikasi mutu dunia. Untuk kenyamanan dan keamanan dalam penggunaan produk-produk PANCA JAYA EQUIPMENT, maka PANCA JAYA EQUIPMENT memberikan pelayanan after sales services berupa : * Pemasangan / Instalasi * Pelatihan / Training * Suku Cadang / Sparepart * Perbaikan / Service * Perawatan / Maintenance http: / / youtube.com/ watch? v= KT5usD1JuBw Untuk Informasi Lebih Lanjut Hubungi HP: 0817302635 WA: 082134000565 BB: pje-sby 7DE7F14A            ","
              Jl. Ambengan 1P  (Kompleks Pertokoan Ambengan Indah)            ",Surabaya,Jawa Timur,+62 821-3400-0565,None,None
ILYAS ELECTRIC DOOR,"
                                    PREMIUM GOLD
                                ",Bengkel & Karoseri,"
              Berawal tahun 2006 kami merintis usaha perbaikan atau servis sliding door mobil buatan eropa dengan jepang.seiring dengan berjalannya waktu bisnis kami berkembang, sehingga kami memberanikan diri untuk membuat website, Team kami merupakan mekanik profesionaL yang siap membantu permasalahan mobil anda khususnya permasalahan pd sliding door. Bagi para pengguna mobil sliding doornya ALPHARD, SERENA, NOAH, ELGRAND, VELLFIRE, ELLYSON, dll. Bagi anda yang mengalami masalah pada sliding door nya seperti trouble macet, mati total, dan masalah lainnya. Silahkan adukan permasalahan mobil anda pada kami. Beberapa masalah trouble pernah kami tangani dengan tenaga profesional, terlatih dan berpengalaman dengan hasil yang memuaskan pelanggan. Cukup dengan waktu 1-2 jam saja, masalah mobil anda bisa kami tangani dengan baik dan kami berikan JAMINAN & GARANSI. Untuk pelayanan servis, kami berikan GARANSI 3 bulan dan untuk MODIFIKASI kami berikan GARANSI 1 tahun dan untuk penggantian part baru 1 tahun GARANSI Dan bagi anda yang ingin merubah sliding door nya yang masih MANUAL menjadi ELEKTRIK seperti mobil ALPHARD yang typenya masih belum lengkap seperti sliding door sebelah kanan masih manual untuk dirubah menjadi ELEKTRIK yang seperti type G yang Full Option. Dan kami pernah diperbantukan di Manufacturing TOYOTA ASTRA dalam menangani proses pembuatan pintu sliding door. semoga dengan hadirnya website ini dapat mendekatkan kami dengan pelangggan. Silahkan datang ke bengkel kami di jl.malaka baru no.58.pondok kopi jakarta timur ANDA HUBUNGI KAMI :082110512210KAMI SIAP DATANG KE TEMPAT ANDA 24 JAM            ","
              Jln.Malaka Baru Merdeka 1 no.2 Pondok Kopi Jakarta Timur            ",Jakarta timur,DKI Jakarta,+62 821-1051-2210,None,None
