Name,Membership,Category,Description,Address,City,Province,telp1,telp2,telp3
COLOSSAL ART INDONESIA,"
                                    PREMIUM GOLD
                                ",Wedding Organizer,"
CV. Colossal Art Indonesia
merupakan perusahaan kontraktor yang bergerak khusus pada design dan produksi Pekerjaan Kayu, Metal, Fiber, dan Kriya untuk menunjang skup proyek Interior – Arsitektur, Pameran – Eksebisi, Dekorasi, Fiber Modeling, Advertising, dan General Contractor. Dengan Sistem manajemen ter-integrasi dan terancana serta di tunjang dengan tenaga ahli di bidangnya pada tiap - tiap workshop produksi.
WORKSHOP PRODUKSI 
Untuk memastikan ketepatan delivery aplikasi konsep design, mulai tahun 2008 Colossal Art Indonesia membangun beberapa workshop independent yang terus berkembang yang khusus menangani aplikasi produksi proyek Interior – Arsitektur, Pameran – Eksebisi, Dekorasi, Fiber Modeling, Advertising, dan General Contractor. Dengan adanya supply chain management yang terintegrasi di harapkan dapat menghasilkan sebuah produk yang berkualitas dan harga yang bersaing sehingga menghasilkan Competitive Advantage yang durable.
Colossal Art Indonesia memiliki 4 workshop yang khusus menangani spesifikasi pekerjaan yang berbeda, yaitu :
1. Workshop Khusus Pekerjaan Kayu 
Workshop independent milik sendiri yang khusus menangani semua pekerjaan kayu, multiplek, MDF, PB, IB dan pekerjaan kayu lainnya, mulai dari fabrikasi hingga finishing ( HPL, Vinyl, Duco, Melamic, Digital Printing) dikerjakan di workshop ini. Di dukung dengan tenaga – tenaga ahli di bidangnya dan peralatan yang memadai dan fasilitas gudang yang mencukupi sehingga di harapkan dapat mengaplikasikan design untuk produk kayu yang maksimal. Workshop ini untuk mensuport proyek Interior – Arsitektur, Pameran – Eksebisi, Dekorasi, Fiber Modeling, Advertising, dan General Contractor.
2. Workshop Khusus Pekerjaan Metal 
Workshop independent milik sendiri yang khusus menangani semua pekerjaan Besi, Stainless, Aluminium, ACP, Trust dan pekerjaan metal lainnya, mulai dari fabrikasi ( Cutting, Welding, Cor, Bubut, dll) hingga finishing ( Coating Powder, Spry coating, dll) dikerjakan di workshop ini. Di dukung dengan tenaga – tenaga ahli di bidangnya dan peralatan yang memadai dan fasilitas gudang yang mencukupi sehingga di harapkan dapat mengaplikasikan design untuk produk metal yang maksimal. Workshop ini untuk mensuport proyek Interior – Arsitektur, Pameran – Eksebisi, Dekorasi, Fiber Modeling, Advertising, dan General Contractor.
3. Workshop Khusus Pekerjaan Fiber, Kaca dan Acrylic
Workshop independent milik sendiri yang khusus menangani semua pekerjaan Fiber, Kaca dan Acrylic, mulai dari fabrikasi & Modeling hingga finishing ( Cutting Laser, Emboss, Polin, Bevel, Gravir, dll) dikerjakan di workshop ini. Di dukung dengan tenaga – tenaga ahli di bidangnya dan peralatan yang memadai dan fasilitas gudang yang mencukupi sehingga di harapkan dapat mengaplikasikan design untuk produk metal yang maksimal. Workshop ini untuk mensuport proyek Interior – Arsitektur, Pameran – Eksebisi, Dekorasi, Fiber Modeling, Advertising, dan General Contractor.
4. Workshop Khusus Pekerjaan Furnishing & Kriya 
Workshop independent milik sendiri yang khusus menangani semua pekerjaan Furnishing mulai dari Steyrofoam, kain, kulit, Corrugated, Baloon, craft, foam, dacron dikerjakan di workshop ini. Di dukung dengan tenaga – tenaga ahli di bidangnya dan peralatan yang memadai dan fasilitas gudang yang mencukupi sehingga di harapkan dapat mengaplikasikan design untuk produk furnishing yang maksimal. Workshop ini untuk mensuport proyek Interior – Arsitektur, Pameran – Eksebisi, Dekorasi, dan General Contractor.
Dengan memiliki workshop produksi sendiri kami dapat memastikan kualitasnya. Kami sudah berdedikasi sejak 2008 menjadi sub kontraktor dari berbagai mitra konsultan interior dan arsitektur ternama di berbagai daerah di indonesia. Kami akan berikan solusi terbaik agar dapat bermanfaat bagi perkembangan dan kemajuan bersama. ","
              Jln Gunung Muria No.6 16/07 Krembung            ",Sidoarjo,Jawa Timur,+62 822-4005-0012,+62 822-3305-0020,None
percetakan murah surabaya ,"
                                    PREMIUM GOLD
                                ",Wedding Organizer,"
              berbagai macam produk percetakan yang kami terima Secara garis besar, produk dan jasa yang kami tawarkan bisa dikelompokkan ke dalam bidang-bidang berikut: Printing ( percetakan) . Bidang percetakan yang kami tawarkan memiliki spektrum yang luas, seluas kebutuhan cetak yang berkembang pada masyarakat modern. Paling tidak kami biasa mengelompokkannya ke dalam 5 kebutuhan cetak :

Promosi, yaitu kebutuhan cetak yang berkaitan dengan media sosialisasi sebuah layanan atau produk, seperti kalender, brosur, poster, paper bag, pamflet, undangan, flyer, hanging mobile, company profile, atau katalog, company profile, danm lainnya.
Penerbitan, yaitu kebutuhan cetak yang berkaitan dengan usaha-usaha penerbitan seperti bulletin, majalah, tabloid, buku, agenda, dan lainnya.
Packaging, yaitu kebutuhan cetak yang berkaitan dengan kemasan sebuah produk misalnya kemasan pakaian ( baju, songkok, sarung) , kemasan makanan ( roti dan donat) , kemasan barang atau kemasan lainnya ( inner box) .
Administrasi, yaitu kebutuhan cetak yang berhubungan dengan administrasi seperti ID Card, kartu nama, atau form administrasi, dan lainnya. Jasa, yaitu layanan berupa jasa kerja di bidang percetakan seperti jasa desain grafis, jasa cetak atau jasa plong.
Publishing ( penerbitan) . layanan cetak seperti media buletin dan majalah yang muncul secara periodik, ataupun buku yang terbit di waktu tertentu saja. Advertising ( media pariwara) . Pada bidang ini kami menawarkan pembuatan: Merchandise ( kaos, mug, gantungan kunci, dan lainnya.) In Door ( art visual, x-banner, sticker vynil / cutting, dan lainnya.) Out Door ( umbul- umbul, spanduk, banner, baliho, billboard, neon sign/ box, dan lainnya) Komunikasi audiovisual ( cd interaktif, iklan radio, iklan televisi, company profile, dan lainnya) Lain-lain ( pembuatan logo perusahaan)

hubungi kami ---->>> 081217715726 , 085100812174website : www.sinarimajinasi.com            ","
              jl. rambutan 14 rt.5 rw 2 geluran taman sidoarjo             ",Surabaya,Jawa Timur,+62 812-1771-5726,None,None
