Name,Membership,Category,Description,Address,City,Province,telp1,telp2,telp3
"AVODAMITRA INDOTECH, CV","
PREMIUM RUBY
",Service Timbangan Digital,"
              TIMBANGAN DIGITAL / WEIGHING SCALE : Jembatan Timbang , Conveyor Belt scale , Bagging Scale , Batching scale , AMP Scale , Batching plant scale , Floor Scale , Bench Scale , Timbangan hewan , Timbangan sapi , Timbangan emas , hand pallet scale , pocket scale , loadcell , waterproof scale BEST BRAND ; USA , EUROPE , JAPAN , KOREA , CHINA , TAIWAN , INDONESIA PROGRAM APLIKASI TIMBANGAN Program jembatan timbang , AMP , Batching plant , Chek weigher , belt scale , industrial automation MELAYANI SERVICE SEMUA MERK DAN TERA METROLOGY LEGAL TOTAL INDUSTRIAL MACHINERY : Stones Crusher Plant, Batching Plant , Bagging Scale , Conveyor Check Weigher , Conveyor belt scale , Aspalt mixing plant INDUSTRIAL AUTOMATION ; Electrical and control panel touch sceen , programable , database INDUSTRIAL INSTRUMENT Floow control, Temperatur control , Mouisture control TOTAL Weighing Solution and Automation            ","
              OFFICE 1 / WORKSHOP : Jl. Pranti Semampir RT 10 / RW 04, Samping Perum OASIS Village, Sedati, Sidoarjo 61253OFFICE 2 : Jl. Gunung Anyar Tengah No. 58A, Surabaya 60294 , Telp           ;  081357505788 081331599789Email        ;  avodamitra@yahoo.com            ",Sidoarjo,Jawa Timur,+62 813-5750-5788,+62 813-3159-9789,None
CV. JATIM TRONIK - Surabaya - Jawa Timur - Indonesia,"
PREMIUM BLUE ONYX
",Service Timbangan Digital,"
CV. JATIM TRONIK, merupakan salah satu perusahaan Supplier Timbangan dan Perlengkapannya, dengan bidang-bidang usaha sebagai berikut : 1) Menjual Segala Jenis Timbangan Elektronik dan Timbangan Mekanik. 2) Menjual Timbangan Truk / Timbangan Jembatan, Timbangan Ternak, Timbangan Lantai (Platform), Timbangan Analytic, Timbangan Duduk, Timbangan Portable, Timbangan Pocket. 3) Menjual Indicator, Load Cell, Weighing System ( Hopper, Batching, dan Bagging). 4) Menjual Accessories Timbangan, Personal Computer, Software Timbangan Jembatan, Printer. 5) Menerima Service, Reparasi, Instalasi, Modifikasi Segala Jenis / Merk Timbangan. 6) Melayani Konsultasi Permasalahan Timbangan dan Perlengkapannya. 7) Fabrikasi Konstruksi Timbangan, Pembuatan Pondasi Timbangan, dan Rumah Timbangan. 8) Melayani Jasa Tera Baru dan Tera Ulang,  Jasa Kalibrasi, Sertifikasi UTTP (Ukuran Takaran Timbangan dan Perlengkapannya) ","
              Jl. Raya Merak No.53 Rewwin Waru            ",Surabaya - Sidoarjo,Jawa Timur,+62 856-0856-2121,+62 813-3090-9696,None
CV. CIPTA INDO  TEKNIK,"
                                    PREMIUM GOLD
                                ",Service Timbangan Digital,"
              CV.CIPTA  INDO  TEKNIK Bergerak Di Bidang SUPPLIER Timbangan Digital,Kami Juga Melayani Service Timbangan Digital & Mekanik Segala Merk.Jenis Produk Yang Kami Jual :1.Jembatan Timbang  ( Truck Scale )2.Timbangan Lantai   ( Floor Scale   )3.Timbangan Gantung  ( Crane Scale )4.Timbangan Pallet      ( Handpallet Scale )5.Timbangan Duduk    ( Bench Scale   )6.Timbangan Analitik   ( Analitychal Scale )7.Timbangan Meja      ( Weighing Scale )8.Loadcell 9.Indicator10.Junction Box 11.Spare Part Dll.Percayakan Kebutuhan Timbangan Digital Anda Kepada Kami Serta Bergaransi PastiUntuk Informasi : Hubungi CV.CIPTA INDO TEKNIK Jl.Manukan Bhakti IV / 1 Blok 20 i No.1Tandes - Surabaya HP.081263893601 WA : 081252277588Fax.031.5631015Email : ciptaindoteknik75@yahoo.co.id            ","
              Jl.Manukan Bhakti IV /1 Blok 20 i No 1Tandes - Surabaya            ",Surabaya,Jawa Timur,+81 263-89-3601,None,None
CV DUTA SENTOSA DANJAYA,"
                                    PREMIUM GOLD
                                ",Service Timbangan Digital,"
              CV. DUTA SENTOSA DANJAYA merupakan perusahaan yang bergerak dibidang digital weighing scale.Kami Melayani :- Pembuatan jembatan timbang (spesialist pengadaan jembatan timbang baru)- Service jembatan timbang segala merk- Tera ulang /tera baru jembatan timbang- Modifikasi jembatan timbang- Sparepart jembatan timbang ,loadcell ,indikator,juncion box dll- Supplier berbagai jenis timbangan (floor scale, animal scale, begging scale, palet scale, analitical scale dan lain-lain.Merk Indikator yang kami sediakan antara lain :AND, GSC, CAS KOREA, EVERY WEIGHT TRONIK, SONIC, DLL.LOADCELL : KUBOTA BMLS, AND, PT, MK CELL, ZEMIC, KELLI, CAS, FLINTEC, EVERY, TEDEA, DLL.TIMBANGAN DIGITAL , LOAD CELL , TENSION LOADCELL, COMPRESSION / CANISTER LOADCELL, SHEAR BEAM LOADCELL, SINGLE POINT LOADCELL, BENDING TYPE, SPECIAL LOADCELL FOR TANK AND HOPPER, LOADCELL BERGARANSI, WEIGHING INDICATOR , BENCH SCALE, FLOORSCALE , BAGGING SYSTEM, FILLING SYSTEM , CAS KOREA , BERDAGANG DAN SERVIS JEMBATAN TIMBANG , AUTOMATION SYSTEM, WEIGHING CONVEYER, CHECK WEIGHER, TRUCKSCALE dan masih banyak produk lainnya.Kami juga melayani indent loadcell bilamana tidak terdapat di pasaranDikerjakan dengan tenaga berpengalaman di bidang pembuatan jembatan timbang untuk menghasilkan jembatan timbang yg  berkualitas dan akurat.            ","
              Griya Permata Gedangan Blok L2-32, Gedangan Sidoarjo, Jawa Timur, Indonesia.            ",Sidoarjo,Jawa Timur,+62 812-1610-4087,+62 857-8515-2105,+62 812-3570-304
