Name,Membership,Category,Description,Address,City,Province,telp1,telp2,telp3
PT. MANGGALA ARTHA INDONESIA,"
PREMIUM BLUE ONYX
",Instalasi Listrik,"
Kami adalah Perusahaan Yang Bergerak Dibidang Jasa dan Penjualan Alat-alat Elektrikal Tegangan Rendah Maupun Tegangan Menengah. Produk Yang Kami Jual, Merupakan Garansi Resmi Dari Pabrikan. Berikut Daftar Barang-barang Yang Kami Jual, Sebagai Berikut : 1. TRANSFORMATOR DISTRIBUSI ( TRAFINDO, SCHNEIDER, CENTRADO) 2. MV CUBICLE ( SCHNEIDER, ABB) 3. PANEL DISTRIBUSI TEGANGAN RENDAH ( LS/ LG, SCHNEIDER) 4. CT - VT ( TRAFINDO) 5. KABEL XLPE, POWER TM, POWER TR ( EXTRANA, SUPREME, KABELINDO, KABEL METAL) 6. TRANSFORMER AUTO / ISOLASI ( CENTRADO) Hubungi Kontak Kami Atau Kirimkan Permintaan Anda Ke Alamat Email Kami dan Dapatkan Harga Terbaik Dari Kami. Email : marketing.manggala@ gmail.com ","
              Binong Permai Blok K3 Nomor 16, Kecamatan Curug, Kabupaten Tangerang, BANTEN - 15810Telepon       : 021 - 598 98529Handphone : 0812 82834413Email           : marketing.manggala@gmail.com            ",Tangerang,Banten,+62 812-8283-4413,None,None
PT PANGESTU MEGA GRAHA,"
                                    PREMIUM GOLD
                                ",Instalasi Listrik,"
              PT PANGESTU MEGA GRAHA, anak perusahaan dari PANGESTU GROUP yang bergerak dalam bidang fabrikasi konstruksi baja untuk gudang ataupun pabrik dan konstruksi bidang sipil. Sebagai perusahaan yang bergerak di bidang jasa konstruksi dan di bidang jasa penunjang konstruksi ( pra-konstruksi ) , kami memberikan pekerjaan pelayanan sebagai berikut : 1. Penyediaan Lahan tanah untuk industri sesuai kebutuhan dengan lokasi strategis, dekat pelabuhan internasional dengan harga terjangkau. 2. Pengurusan perijinan Industri ( IMB, ijin HO, UKL-UPL, SIUP, TDP, IUI ) sampai dengan perijinan Kawasan Berikat. 3. Pekerjaan Pengurugan, galian tanah dan pemerataan lahan. 4. Pekerjaan Pembersihan Lahan. 5. Desain, fabrikasi, pemasangan pekerjaan konstruksi rangka atap baja. 6. Pekerjaan konstruksi bidang sipil ( bangunan gedung, kantor, selokan, paving, pagar ) . 7. Instalasi Listrik / electrical.            ","
              JL. MAJAPAHIT NO 76            ",SEMARANG,Jawa Tengah,+62 877-3426-3783,None,None
PT CAKRABUANA LANGGENG SUKSES,"
PREMIUM RUBY
",Instalasi Listrik,"
              PT Cakrabuana Langgeng Sukses adalah Distributor Gas Helium, Distributor Gas Industri, Distributor Gas Medis dan Perusahaan yang bergerak dibidang perdagangan Gas Industri dan Gas Medis, Medical Equipment serta Welding & Cutting Equipment, Instalasi Sentral Gas Medis, RegulatorTelepon. 021 29564344 PT Cakrabuana Langgeng Sukses menyediakan produk produk gas industri, welding equipment, medical equipment yang berkualitas tinggi serta pelayanan yang ramah dan memuaskan. Tersedia berbagai Produk Regulator, flowmeter, Suction Unit, Kompresor, Perusahaan kami didukung oleh tenaga kerja yang berpengalaman dan ahli dibidangnya. PRODUK PRODUK KAMI : 1. GAS OXYGEN GAS / CAIR O2 2. GAS NITROGEN GAS/ CAIR N2 3. ARGON GAS/ CAIR Ar 4. GAS CARBON DIOXIDE CO2 5. GAS NITROUS OXIDA N2O 6. GAS HELIUM He 7. GAS AMONIAX C3H4 8. INSTALASI GAS MEDIS / INDUSTRI, LPG 9. GAS REGULATOR 10. KAWAT LAS DAN MESIN LAS 11. ALAT KESEHATAN 12. TABUNG BAJA 13. Amoniak 14. LPG 15. Sulfur Hexafluoride / SF6 16. Gas Hydrogen            ","
              Mutiara Venezia Residence Blok C2 No 78 Dayeuh Cileungsi 16820082245428834            ",BOGOR,Jawa Barat,+62 822-4542-8834,None,None
PT. MAJU JAYA PRIMA PERKASA,"
PREMIUM RUBY
",Instalasi Listrik,"
PT. Maju Jaya Prima Perkasa merupakan Perusahaan yang bergerak dibidang SUPPLIER-ENGINEERING-CONTRACTOR. Merupakan pengembangan dari CV. Maju Jaya bersama yang sudah berdiri 27 Mei 2011 yang resmi berbadan hukum (Akta Notaris, Domisili, SIUP, TDP, NPWP dan PKP).
PT. Maju Jaya Prima Perkasa sudah sangat berpengalaman di bidang Kelistrikan, kami mengembangkan beberapa usaha seperti:

General Supplier (Trafo, Panel Cubicle, Panel LVMDP, Panel Capasitor Bank, Panel Distribusi, Kabel, Terminasi, Mechanical & Electrical Tools)


Engineering (Mechanical & Electrical)


Contractor (Pasang Baru, Tambah Daya, Repair/Maintenance, Perijinan, SLO, Test Commissioning dan Energize dll)

Dengan Sumber daya Manusia yang handal dan telah berpengalaman lebih dari 5 tahun dibidang kelistrikan maka kami melayani dengan sepenuh hati dibidang penyediaan material, pemasangan, instalasi, pemeliharaan perijinan dan pelayanan konsultasi 24 jam.
Beberapa Produk yang kami:
1. TrafoKami menjual trafo distribusi PLN 20kV-400 Volt atau pun trafo untuk kebutuhan manufacture / sesuai keinginan/requset, dengan kapasitas dari 1 KVA sampai dengan 30000KVA( 30MVA) . Merek : SCHNEIDER, TRAFINDO, STARLITE, VOLTRA, CENTRADO, SINTRA, BAMBANGDJAYA, WELLTRAF, MAX TRAFO, UNITRAF, dll.READY STOCK DARI 1 KVA SAMPAI DENGAN 2500 KVATrafo yang kami berikan Bersertifikat, garansi,surat asal usul barang, sertifikasi pengujian, LMK PLN
 
2. Panel CUBICLEKami menyediakan Cubicle dengan stock diperbaharui tiap bulan dengan berbagai merek : Schneider, ABB, Siemens, tamco, dll. Standar PLN atau sesuai permintaan/requestKami juga melayani cubicle dengan merek lain yang bisa disesuaikan dengan budget anggaran.Cubicle SCHNEIDER berbagai type IM SM6 manual, IM SM6 motorised, QM SM6, PM SM6, DM1A Manual , DM1A Motorised ; DM1A motorized+metering, DM1W motorised, DM1W –Metering, Ready stock
 
3. Panel MakerKami melayani pembuatan panel LVMDP, MVMDP, Panel bagi, panel jurusan/distribusi ,capasitorbank, control amf genset dll.Kami melayani service, maintenace,repair, pemasangan dan instalasi
 
4. Accessories ListrikKami menjual berbagai accessories jaringan tegangan menengah dan tegangan rendah, keperluan accessories jaringan listrik dll
 
5. Jasa / pengerjaankami melayani pemasangan instalasi cubicle, trafo, panel ,test commissioning dan energize/penyalaan serta maintenance rutin, test sertifikasi layak operasi dll.Kami juga melayani perijinan SLO, pasang baru, tambah daya, repair, maintenance, ganti oli/treatment oli , service trafo dan commissioning trafo.
 
6. KabelKami menjual berbagai macam kabel sesuai dengan permintaan : NYY , NYA, NYAF, NYM, NYMH, NYYHY, NYFGBY, N2XSY, N2XSEBY dan NA2XSEBYMerek Supreme, metal, kabelindo, eterna, Jembo, Extrana, Voksel dll (standar PLN)Office:PT. Maju Jaya Prima PerkasaMega Regency Blok B2 No.12, RT 004 RW 021, kel.Sukaragam, kec.Serang Baru Bekasi, Jawa BaratTelp. 021- 29370240Fax. 021-29370239Email: marketingmajujayaprimaperkasa@gmail.com            majujayaprimaperkasa@gmail.comAlamat Workshop:Kp.Sampora RT 01 RW 01 Jayasampurna, Serang Baru - BekasiTelp. 021-28514099Contact Person 24 Jam0821 2244 80000819 3244 8000 ","
              Mega Regency Blok B2 No. 12, Rt.004/Rw.021 Kel. Sukaragam, Kec. Serang baru Bekasi, Jawa Barat            ",Bekasi,Jawa Barat,+62 821-2244-8000,None,None
CV. SAMUDERA TEKNIKINDO SELARAS,"
                                    PREMIUM GOLD
                                ",Instalasi Listrik,"
CV SAMUDERA TEKNIKINDO SELARAS merupakan perusahaan yang bergerak dibidang general trading (General Supplier) dengan 2 (dua) divisi yaitu Perbaikan / Maintenance machine Industri khusus Electrical dan Import product part machine. 
CV SAMUDERA TEKNIKINDO SELARAS memiliki kualitas yang handal dan harga yang sangat ekonomis dan cocok untuk industries dan semua pabrik manufacturing. Adapun merk yang kami supply, diantaranya : Omron, Mitutoyo, Keyence, Yokogawa, SMC, Nagano Keiki, Panasonic, Hanyoung, LG / LS, Fuji Electric, Mitsubishi, Hanyound, Yamatake / Azbil, Klar Stern, Taffware, Panasonic, Hitachi, Siemens, Emerson, Taiyo Parker, Sipik, Shinko, Idec, Sanyo Denki / Dyna Ace, NMB, Daito / Fanuc, NTN, THK, Swan, Oriental Motor, CDK, Luyang, Sick, Bando V-Belt, Yamamoto, Steins, dan masih banyak produk lainnya dari berbagai merk yang kami sediakan, mulai  dari China, Jepang, Taiwan, Korea dan Produk Europa lainnya.
Untuk informasi dan pemesanan silahkan hubungi kami :
CV SAMUDERA TEKNIKINDO SELARAS
Jl. Tarum Barat 2, Ruko Pasar Bersih B-7 (Pintu 11) Kawasan Industri Jababeka II, Jayamukti, Cikarang, Bekasi - Jawa Barat
Phone : 081287602917 // 081219415790 (Call / WA)
Tlp : +62 21 2945 3721 // +62 21 2945 3722
Email : samuderateknikindo@yahoo.com
Website : www.samuderateknikindo.co.id ","
              Office : Jl. Tarum Barat 2, Ruko Pasar Bersih B-7 (Pintu 11) Kawasan Industri Jababeka II, Jayamukti, Cikarang, Bekasi - Jawa Barat ",Cikarang,Jawa Barat,+62 812-1941-5790,None,None
PT Mandala Geoteknika Mandiri,"
                                    PREMIUM GOLD
                                ",Instalasi Listrik,"



PT. MANDALA GEOTEKNIKA MANDIRI
 
Bermula dengan melihat peluang pembangunan dinegara kita Indonesia semakin meningkat dan juga atas upaya menngkatkan sumber daya manusia (SDM) menuju era perubahan menjadi negara maju maka PT. MANDALA GEOTEKNIKA MANDIRI sebelumnya yang memulai dengan mendirikan komanditer pada tanggal 29 Desember 2017 CV.MANDALA GEOTEKNIKA MANDIRI didirikan sesuai ketentuan yang berlaku dinegara Republik Indonesia dengan dasar akte pendirian Notaris Dudi Wahyudi ,SH No.32 tanggal 29 Desember 2017 di Kota Bandung. Kemudian adanya keluar masuk dan perubahan anggaran dasar maka CV. MANDALA GEOTEKNIKA MANDIRI merubah komanditer tersebut menjadi badan usaha yaitu PT. MANDALA GEOTEKNIKA MANDIRI pada tanggal 10 September 2019 sesuai ketentuan yang berlaku dinegara Republik Indonesia dengan dasar akte pendirian Notaris Dudi Wahyudi ,SH No.21 tanggal 10 September 2019 di Kabupaten Bandung Barat.
PT.MANDALA GEOTEKNIKA MANDIRI adalah suatu bentuk perusahaan untuk layanan dalam bidang Konsultan Jasa Survey Geologi dan Geofisika, Konsultan Jasa Desain Arsitek dan Perencanaan, General Supplier dan Industri yang dipersiapkan secara profesional dengan didukung tenaga-tenaga ahli dari berbagai disiplin ilmu yang mampu menghasilkan kualitas dan pelayanan terbaik yang dapat kami berikan.
Kepercayaan yang dibangun bersama klien-klien kami yakni kepercayaan akan kemampuan kinerja, kepercayaan dari pemberi tugas serta kepercayaan dari tim yang diharapkan akan mematangkan kami dalam bidang ini.






VISI & MISI

VISI PERUSAHAAN
Menjadikan perusahaan yang terkemuka dan dapat bermanfaat bagi masyarakat profesional tanah air dengan mengedepankan kemajuan teknologi yang terus berkembang.
MISI PERUSAHAAN

Membangun dan mengembangkan bisnis yang beretika dengan nilai-nilai kejujuran dan professional.
Melakukan inovasi teknologi berkelanjutan untuk menghasilkan pelayanan terbaik.
Mengembangkan kemampuan perusahaan dan masyarakat profesional untuk menjadikan tenaga ahli kompeten dalam menghadapi kompetisi global melalui penerapan ilmu pengetahuan.




 ","
              Cluster Selaras Blok E9            ",Bandung,Jawa Barat,085323639953,None,None
Trijaya Arsitek (081 330 2099 63),"
                                    PREMIUM GOLD
                                ",Instalasi Listrik,"
TRIJAYA ALUMINIUM( Aluminium and Glass Specialist )TRIJAYA ALUMINIUM bergerak di bidang jasa pembangunan Konstruksi, Exterrior, dan Interrior Gedung.Kami telah dipercaya Membangun & mempercantik gedung perkantoran, pusat perbelanjaan, showroom, pabrik, gudang, ruko, rumah tinggal dan fasilitas umum lainnya seperti rumah sakit, tempat ibadah, dan pom bensin (SPBU).Pekerjaan kami telah tersebar tidak hanya di pulau Jawa, tetapi hingga ke Madura, Sumatra, Bali, NTB, NTT, Sulawesi, Kalimantan, Papua.Percayakan pekerjaan :  - Konstruksi Baja - Aluminium Composite Panel (ACP) - Pintu jendela aluminium - Pintu kaca Tempered - Partisi kaca - Shower glass - Curtain wall - Spider System - Kanopy Kaca - Reling Tangga Kaca  - lantai kaca / atap kaca - Reklame - Letter Timbul - Neon Sign - Neon boxke kami yang telah terbukti mengutamakan kwalitas dan ketepatan waktu dalam pengerjaanya. Dapatkan harga yang kompetitif hanya di kami TRIJAYA ALUMINIUM, Didukung oleh tenaga ahli yang telah mempunyai teknik dan pengalaman dalam menangani berbagai proyek skala kecil, menengah maupun besar, Kami percaya bisa memberikan pelayanan terbaik, yang akan membantu memberikan saran & panduan di setiap proses, sehingga impian atau ide Anda bisa terwujud sesuai yang diharapkan.Goal nya adalah harga yang kompetitif dan reasonable, efisien dalam biaya dan waktu tanpa meninggalkan aspek estetika.Selain melayani Jasa pembangunan kami juga melayani penjualan material :Aluminium Composite Panel - Alucobond, Aluclad, Cladbond, Alucopan, Alcopan,- Goldstar, Seven, Alumetal, Alustar,- Winmetal, Maco, Aluprima, AlumebondAluminium Kusen- YKK, incom, Indal- Alexindo, Alko, HP MetalKaca- Asahi, Mulia, Tempered & Non tempered- Clear, Printing, Glass tone, Lacobel, Tinted- Mirror, Black Mirror, Sunergy, One Way- Stopsol, Laminated, TemperedBesi- WF, CNP, Pipa Besi, Hollow Besi, Besi Siku, Plat dllHubungi :Layanan 24jamMoch. Indra PrasetyoHp. 081 330 2099 63Kantor. 031 8490 309Web. www.trijayaaluminium.com ","
              Jagir Sidoresmo VI /140            ",Surabaya,Jawa Timur,+81 3-3020-9963,None,None
COLOSSAL ART INDONESIA,"
                                    PREMIUM GOLD
                                ",Instalasi Listrik,"
CV. Colossal Art Indonesia
merupakan perusahaan kontraktor yang bergerak khusus pada design dan produksi Pekerjaan Kayu, Metal, Fiber, dan Kriya untuk menunjang skup proyek Interior – Arsitektur, Pameran – Eksebisi, Dekorasi, Fiber Modeling, Advertising, dan General Contractor. Dengan Sistem manajemen ter-integrasi dan terancana serta di tunjang dengan tenaga ahli di bidangnya pada tiap - tiap workshop produksi.
WORKSHOP PRODUKSI 
Untuk memastikan ketepatan delivery aplikasi konsep design, mulai tahun 2008 Colossal Art Indonesia membangun beberapa workshop independent yang terus berkembang yang khusus menangani aplikasi produksi proyek Interior – Arsitektur, Pameran – Eksebisi, Dekorasi, Fiber Modeling, Advertising, dan General Contractor. Dengan adanya supply chain management yang terintegrasi di harapkan dapat menghasilkan sebuah produk yang berkualitas dan harga yang bersaing sehingga menghasilkan Competitive Advantage yang durable.
Colossal Art Indonesia memiliki 4 workshop yang khusus menangani spesifikasi pekerjaan yang berbeda, yaitu :
1. Workshop Khusus Pekerjaan Kayu 
Workshop independent milik sendiri yang khusus menangani semua pekerjaan kayu, multiplek, MDF, PB, IB dan pekerjaan kayu lainnya, mulai dari fabrikasi hingga finishing ( HPL, Vinyl, Duco, Melamic, Digital Printing) dikerjakan di workshop ini. Di dukung dengan tenaga – tenaga ahli di bidangnya dan peralatan yang memadai dan fasilitas gudang yang mencukupi sehingga di harapkan dapat mengaplikasikan design untuk produk kayu yang maksimal. Workshop ini untuk mensuport proyek Interior – Arsitektur, Pameran – Eksebisi, Dekorasi, Fiber Modeling, Advertising, dan General Contractor.
2. Workshop Khusus Pekerjaan Metal 
Workshop independent milik sendiri yang khusus menangani semua pekerjaan Besi, Stainless, Aluminium, ACP, Trust dan pekerjaan metal lainnya, mulai dari fabrikasi ( Cutting, Welding, Cor, Bubut, dll) hingga finishing ( Coating Powder, Spry coating, dll) dikerjakan di workshop ini. Di dukung dengan tenaga – tenaga ahli di bidangnya dan peralatan yang memadai dan fasilitas gudang yang mencukupi sehingga di harapkan dapat mengaplikasikan design untuk produk metal yang maksimal. Workshop ini untuk mensuport proyek Interior – Arsitektur, Pameran – Eksebisi, Dekorasi, Fiber Modeling, Advertising, dan General Contractor.
3. Workshop Khusus Pekerjaan Fiber, Kaca dan Acrylic
Workshop independent milik sendiri yang khusus menangani semua pekerjaan Fiber, Kaca dan Acrylic, mulai dari fabrikasi & Modeling hingga finishing ( Cutting Laser, Emboss, Polin, Bevel, Gravir, dll) dikerjakan di workshop ini. Di dukung dengan tenaga – tenaga ahli di bidangnya dan peralatan yang memadai dan fasilitas gudang yang mencukupi sehingga di harapkan dapat mengaplikasikan design untuk produk metal yang maksimal. Workshop ini untuk mensuport proyek Interior – Arsitektur, Pameran – Eksebisi, Dekorasi, Fiber Modeling, Advertising, dan General Contractor.
4. Workshop Khusus Pekerjaan Furnishing & Kriya 
Workshop independent milik sendiri yang khusus menangani semua pekerjaan Furnishing mulai dari Steyrofoam, kain, kulit, Corrugated, Baloon, craft, foam, dacron dikerjakan di workshop ini. Di dukung dengan tenaga – tenaga ahli di bidangnya dan peralatan yang memadai dan fasilitas gudang yang mencukupi sehingga di harapkan dapat mengaplikasikan design untuk produk furnishing yang maksimal. Workshop ini untuk mensuport proyek Interior – Arsitektur, Pameran – Eksebisi, Dekorasi, dan General Contractor.
Dengan memiliki workshop produksi sendiri kami dapat memastikan kualitasnya. Kami sudah berdedikasi sejak 2008 menjadi sub kontraktor dari berbagai mitra konsultan interior dan arsitektur ternama di berbagai daerah di indonesia. Kami akan berikan solusi terbaik agar dapat bermanfaat bagi perkembangan dan kemajuan bersama. ","
              Jln Gunung Muria No.6 16/07 Krembung            ",Sidoarjo,Jawa Timur,+62 822-4005-0012,+62 822-3305-0020,None
PT. ALFAN  MECHATRONICS  INNOVATION,"
                                    PREMIUM GOLD
                                ",Instalasi Listrik,"
PT. ALFAN MECHATRONIS INNOVATION - Malang
perusahaan yang bergerak di bidang mekanikal – elektrikal - plumbing dan  landscape
menerima  jasa mulai dari survey, perencanaan, perancangan, konsultan, estimator, penyusunan RAB, manufaktur, serta pelaksana instalasi
lokasi :
komplek Ruko Grand Hanan blok. A. no.1
alamat :
PT. Alfan Mechatronik Inovasi – Malangjl. Raya Mayjend Sungkono km.4komplek Ruko Grand Hanan, blok A, no.1lokasi:di depan seberang GOR Ken Arok,
Buring – Kedung Kandang, Malang 65132
info profil lengkap :
FACEBOOK : @ KURSUS ELEKTRONIK INDUSTRI MALANG, https://www.facebook.com/alfan.mechatronics.3
INSTAGRAM :
@ALFAN IMAWAN, https://www.instagram.com/alfan_mechatronics_innovation/
e-mail: alfanelektronik@ gmail.com telp: 0341 7500033 kantor085 736 077 434 admin0821 4359 7967 mobile ","
              Komplek Ruko Grand Hannan blok A1, Jl. Raya Mayjend Sungkono km3,lokasi :  seberang jalan berhadapan GOR Ken Arok,Buring - Kedung kandang Malang            ",Malang,Jawa Timur,+62 821-4359-7967,None,None
PT. Galleon Cahaya Investama,"
PREMIUM RUBY
",Instalasi Listrik,"
              PT. Galleon Cahaya Investama. Kami bergerak dibidang Mechanical Electrical. Dengan main business kami adalah Panel Tegangan Menengah 20kV berupa: Metal Enclousure 3, 3kV-24kV Metal Clad 6.6kV-24kV Semua Panel dalam kondisi pabrikan dan baru. Panel yang kami Jual berupa panel Kubikel 20kV 16kA 630A dengan kebutuhan untuk Pabrik/ Industri atau PLN. Antara lain: 1. Panel Incoming ( Load Break Switch Cubicle 630A) Type IM 2. Panel Metering ( Voltage Transformer Cubicle 630A) type CM 3. Panel Outgoing ( Load Break Switch panel with Medium Voltage Fuse Protection 630A) type QM 4. Circuit Breaker panel type DM1-A ( Fixed Type) 5. Circuit Breaker panel type DM1-W ( Withdrawable type) 6. Bustie Cubicle with circuit breaker protection type DM2 7. Automatic Transfer Switch/ Automatic Change Overswitch panel type NSM ( PLN-GENSET) / ( PLN-PLN) 8. Surge Arrester cubicle GAM+ LA Kami juga melayani jasa instalasi dan jasa pengurusan listrik baik tambah daya dan instalasi baru.            ","
              Imperial business center Blok F3. Jl Daan mogot Km 17. Jakarta Barat            ",Jakarta,DKI Jakarta,+62 856-9980-752,None,None
Sumber Berkat Abadi,"
                                    PREMIUM GOLD
                                ",Instalasi Listrik,"
SUMBER BERKAT ABADI
Kami Specialist menyediakan :
 
1. Auto Synchronous Generator
= Woodward, Smartgen, ComAp, Datakom
Speed Control & Actuator
= Woodward, GAC, Segma, Cummins
 
2. Battery Charger
= BAE, SEG, Smartgen BAC, CSS, Aspire, Datakom SMPS & Firetrol
 
3. AVR
= Stamford, Leroy Somer, Marrelli, Mecc Alte, Taiyo, Basler, Caterpillar, OEM
 
4. VDO Gauge & VDO Sender
 
5. Turbocharger
= Holset, Garrett, KMP, Perkins, IHI, Mitsubishi, Caterpillar
 
6. Relay Protection, Overcurrent, Overvoltage & Trafo
= Broyce Control & SEG
 
7. Solenoid & MPU
= Woodward, HEL, Deutz, Kubota, DENSO, OEM
 
8. Stater Motor & Alternator
= Bosch, Mahle, Iskra, Delco Remy, Hitachi, OEM
COS
= Smartgen & Kyoritsu
 
9. Fuse MV
= SIBA, Bussmann, Schneider, Siemens
 
10. Spare Parts Generator
= Cummins, Komatsu, Perkins, Deutz, Caterpillar, Yanmar & Kubota
 
11. Undercarriage Excavator
 
12. Potensiometer, Dioda, Switch, Connector
= Vishay Spectrol, Bourns
 
HP / WA : 08788-24-000-19
Bpk. Sonny Pranata ","
              Jl. Pintu Air 3 No. 25-C Pasar Baru            ",Jakarta Pusat,DKI Jakarta,+62 878-8240-0019,None,None
PT. Jokung Indonusa Semesta,"
                                    PREMIUM GOLD
                                ",Instalasi Listrik,"
JASA PERBAIKAN LISTRIK JAKARTA Tegangan Menengah (TM) Tegangan Rendah (TR)-KONTRAKTOR SIPIL BANGUNAN -RIDGING JALAN RAYA-KOLAM RENANG -PENGADAAN BARANG dan JASA:

MEKANIKAL
ELEKTRIKAL
PLUMBING
KOLAM RENANG SWIMMING POOL
BANGUNAN SIPIL
KONTRUKSI BAJA
INTERIOR DESIGN
POMPA-POMPA SUMERSIBLE
INSTALASI MESIN COATING BLASTING
PENGASPALAN RIDGING JALAN KONSTRUKSI 
CONSUMER GOOD UNILEVER PROFESSIONAL
 ","
              Jalan Jatipadang raya no.23 Pasar Minggu             ",Jakarta Selatan,DKI Jakarta,+81 29-844-5941,None,None
PT ANDALAN BANGUN SEJAHTERA,"
                                    PREMIUM GOLD
                                ",Instalasi Listrik,"
              Penjelasan Ringkas : PT. ANDALAN BANGUN SEJAHTERA Jl. Sumur Batu Raya no. 1 Kemayoran Jakarta Pusat Indonesia - 10640 Telp : 021 - 42803207, 4227517 Fax : 021 - 42803208 Contact Person : Marketing : email : sales@andalanbangun.com Marketing : Bpk Juni Mobile : +62811 198 0702 Kami menyediakan alat-alat laboratorium & Intrument untuk berbagai keperluan dan kebutuhan dari berbagai merek alat-alat laboratorium berupa: Microbiology, Chemical and Reagent, Laboratory and Scientific Equipment, Medical Equipment, dan Glassware. Product : HACH, MEMMERT, OHAUS, KETT, KERN, TAKEMURA, EPPENDORF, BOECO, JULABO, CORNING, AXYGEN, PYREX, IWAKI, WHATMAN, SOCOREX, BRAND, IKA, ADVANTEC, DIFCO, MERCK CHEMICAL, SIGMA ALDRICH, DURAN, LOVIBOND, INTERSCIENCE, SEWARD, HETTICH, METTLER TOLEDO, ALL AMERICAN, ATAGO, AZ Instrument, BROOKFIELD, CRITERION, EXTECH, FUNKE GERBER, GEMMY, GFL, GILSON, HANNA, HIRAYAMA, RION, USBECK, GOSSELIN, DAIHAN LABTECH, THERMOSSCEINTIFIC, etc., • GENERAL LAB PRODUCT : BEAKERS - Plastic Beaker - Glass Beaker BOTTLES - Aspirator Bottle - BOD Bottle - Round Bottle - Media Bottle - Reagent Bottle - Sample Bottle - Serum Bottle - Specimen Bottle - Universal Bottle - Wash Bottle CRUCIBLES - Porcelain Crucibles - Silica Crucibles - Platinum Crucibles - Crucible Tong DESICATORS - Desiccators ( Non-Vacuum) - Desiccators ( Vacuum) FUNNELS - Powder Funnels - Utility Funnels - Buchner Funnels - Separating Funnels FLASKS - Baffled Shake Flask - Conical Flask - Dewar Flask - Distillation Flask - Filtering Flask - Flat Bottom Flask - Iodine Flask - Kjeldahl Flask - Round Bottom Flask - Tissue Culture Flask - Volumetric Flask MEASURING CYLINDERS - Plastic Measuring Cyclinder - Glass Measuring Cyclinder PIPETTES - Pasteur Pipette - Transfer Pipette - Measuring Pipette - Volumetric Pipette - Micropipette - Pipette Filler TUBES & VIALS - Capillary Tubes - Centrifuge Tubes - Cryo Tubes - Culture Test Tubes - Durham Tubes - Nessler Tubes - Specimen Tubes - Test Tubes - Scintillation Vials - Others Vials TUBING & CONNECTORS - Tubing Connectors - Rubber Tubing - Silicone Tubing - Teflon Tubing STOPPERS - Cork Stopper - Rubber Stopper - Silicone Stopper - Steristopper - Teflon Stopper SYRINGES - Plastic Syringes - Glass Syringes - Micro Syringes - Syringe Filters PETRI DISHES - Plastic Petri Dish - Glass Petri Dish - Moisture Dish BURETTES - Glass Burettes - Automatic Burretes - Bottle-Top Burettes - Micro Burretes FILTER PAPERS & MEMBRANCES - Cellulose Filters - Glass Microfiber Filters - Membrane Filters INDICATOR PAPERS - Litmus Papers - Cobalt Chloride Paper - pH Paper - Universal Indicator Paper MEASURING INSTRUMENTS - Micrometers - Internal & External Calipers - Vernier Calipers - Thickness Gauges BALANCES & SCALES - Pocket Balances - School Balances - Precision Balances - Analytical Balances - Moisture Balances - Spring Scales - Platform Scales - Hanging Scales METER - pH Meters - EC & TDS Meters - ORP Meters - Combo Meters - DO Meters - COD Meters - Photometers - Turbidity Meters - Lux Meter - Moisture Meters THERMOMETER & THERMO-HYGRO - Laboratory Thermometers - Dial Thermometers - Medical Thermometers - Max-Min Thermometer - Wall Thermometers - Infrared Thermometers - Digital Thermometers - Thermocoupe Thermometers - Thermo-Hygrometers - Data Loggers CENTRIFUGES - Small Centrifuges - Hematocrit Centrifuge - Microlitre Centrifuges - Benchtop Centrifuges - Floorstanding Centrifuges CRUSHING INSTRUMENTS - Blenders - Grinders - Homogenizers - Stomachers - Test Sieves STERILIZERS - Glass Bead Sterilizer - Steam Sterilizer - Sterilizing Tube - Sterilizer Accessories OVENS - Universal Ovens - Vacuum Ovens INCUBATORS - Precision Incubator - Cooled Incubator - CO2 Incubator - BOD Incubator - Shaking Incubator LABORATORY BATHS - Oil Bath - Sand Bath - Shaking Water Bath - Ultrasonic Cleaner Bath - Water Bath HEATING INSTRUMENTS - Bunsen Burners - Dry Block Heaters - Heating Mantles - Hot Plates MIXING INSTRUMENTS - Magnetic Stirrers - Overhead Stirrers - Shakers ROTARY EVAPORATORS - Vertical Type - Diagonal Type MICROSCOPES - Monocular Microscopes - Binocular Microscopes - Stereo Microscopes - Microscope Glass Slides - Microscope Cover Slips - Prepared Microscope Slides REFRACTOMETERS - Brix Refractometers - Digital Brix Refractometers - Salinity Refractometers - Digital Salinity Refractometer - Honey Refractometer VISCOMETERS - U-Tube Viscometers - Rotational Viscometers WATER PURIFICATION SYSTEMS - Water Distiller - Water Deionizer OTHERS • Air Analysis • Air Cleaning • Airflow Meters • Animal Care • Apparel • Aquametry • Asphalt • Atomic Absorption • Autoclaves • Bacon Bombs • Bags • Balances • Barometers • Beakers • Blenders • Blood Collection • BOD • Boiling Chips • Borescopes • Bottles • Bottletop Dispensers • Buchner Funnels • Burets • Burners • Calculators • Calipers • Calorimeters • Centrif uge Tubes • Centrifuges • Centrifugeware • Chemicals • Chlorine Analyzers • Chlorine Meters • Clamps & Supports • Cleaning • Clinical Analysis • COD • Colorimeters • Conductivity • Conductivity Meters • Controllers • Counters • Crucibles • Crushing • Cryogenics • Cultur e Media • Culture Tubes • Cuvettes • Cylinders • Dairy Testing • Deionization / Distillation • Desiccators • Discontinued items • Dispensers & Pipetters • Dissolved Oxygen • Dri-Baths • Drug Testing • Dry Baths • Drying Ovens • Educational Products • Electrochemistry • Emergency Equipment • Environmental Chambers • Evaporating Dishes • Extraction Equipment • Extraction Thimbles • Filtration • FisherBrand • Flame Photometers • Flash Point • Flasks • Flocculators • Flowmeters • Fluorimeters • Food Analysis • Food Processing • Freezers • Fume Hoods • Funnels • Furnaces • Furniture • Gas Chromatography • Gas Regulators • General Laboratory • Glassware • Glassware Dryers • Glove Boxes • Gloves • Graduated Cylinders • Hardness Testers • Haws • Health Care • Heating • Heating Blocks • Heating Elements • Heating Mantles • Heating Tapes/ Mats/ Blankets • Histology • Homogenizers • Hot Plates & Stirrers • Humidity • Hydrometers • Hygrometers • Ice Makers • Imhoff Cones • Incubators • Information • ISE • Jars • Karl Fischer Titrators • Kneader • Lab Jacks • Labeling • Laboratory Reactors • Les • Life Science • Light Meters • Liquid Handling • Magnetic Stirrers • Magnets • Materials Testing • Medical Products • Melting Point • Microscopes • Milk Testing • Mixing • Moisture Analyzers • Mortars and Pestles • Multiparameter Meters • Multiwell Plates • Organizers • ORP • Ovens • PCR/ Life Science • Penetrometers • Petri Dishes • Petroleum Testing • pH Buffer Standards • pH Controllers • pH Electrodes • pH Meters & Testers • pH Transmitters • Photometers • Pipet Fillers • Pipet Washers • Pipets • Pipettes • Pipetting • Pitchers • Plastic Labware • Plumbing Fixtures • Polarimeters • Porcelain ware • Pressure Meters • Process Instrumentation • Pumps • Pumps & Dispensers • Pyrometers • Racks • Recorders • Refractometers • Refrigerators & Freezers • Reverse Osmosis Information • Rheology • Rockers • Rotary Evaporators • Rotators • Rubber Stoppers • Rubber Tubing • Safety • Sample Handling • Sample Preparation • Separatory Funnels • Serum Vial Seals • Serum Vial Stoppers • Serum Vials • Shakers • Sieves and Shakers • Siphons & Pumps • Slide Warmers • Soil Sampling • Soil Testing • Solutions • Sound Meters • Soxhlet Extractors • Specimen Containers • Spectrophotometers • Standards • Steam Baths • Sterilizers • Stir Bars • Stirring • Stirring Hot Plates • Stirring Plates • Stoppers • Tachometers • TDS Testers • Teflon Labware • Temperature & Humidity • Test Papers • Test Tube Racks • Test Tubes • Thermal Cyclers • Thermistor Products • Thermocouples • Thermometers • Thermoreactors • Timers and Stopwatches • Titrators • Tools • Trays • Tube Racks • Tubing • Turbidity Meters • Ultrasonic Cleaners • Vacuum Pumps • Vials • Videos • Viscosity • Vortex Mixers • Vwr • Water Baths • Water Chillers • Water Purification • Water Testing • Weather • Weights dan Kebutuhan instrument pendukung Laboratorium            ","
              JL. Sumur Batu No.1 RT.01 - RW.06 Kel.Sumur Batu - Kec.. Kemayoran            ",Jakarta Pusat,DKI Jakarta,+62 811-1980-702,None,None
"PT. MITRA SIMETRIS ( KWH METER ACTARIS / ITRON, SWADEN)","
                                    PREMIUM GOLD
                                ",Instalasi Listrik,"
              Kami menjual produk untuk kWh meter Beberapa produk kami diantaranya: - kWh Meter Analog 1Phasa ( rating arus 5( 20) A, 20( 60) A ) - kWh Meter Analog 3Phasa Direct Connection ( rating arus 5( 20) A, 20( 60) A, 50( 100) A ).Single dan Double tarif - kWh Meter Analog 3Phasa CT Connection ( rating arus X/ 5A).Single dan Double tarif - kWh Meter Digital 1 Phasa ( SM0, ACE2000-351, ACE1000) - kWh Meter Prabayar 1Phasa Combo ( ACE9000 IBS) - kWh Meter Digital 3Phasa ( ACE6000, ACE7000) PROMO : SETIAP PEMBELIAN KWH METER 3PHASA ANALOG ( C116/ 114) DAN 3PHASA DIGITAL ( SL7000) GRATIS FLUSH MOUNTING KIT / FRAME UNTUK PEMASANGAN DI PANEL ( Persediaan terbatas) .KEUNGGULAN: - Harga yang kompetitif - Bergaransi resmi pabrik - Telah di segel balai metrology - Waktu pengadaan barang maksimal 1 bulan untuk barang yang tidak ada stok - Memiliki tenaga teknikal support sendiri Sebagai sebuah perusahaan yang bergerak di bidang pemasok dan kontraktor listrik, kami selalu mengutamakan kepuasan pelanggan.Kami siap untuk melayani dan memberikan solusi kepada anda. Jika produk yang anda butuhkan tidak terdapat dalam katalog kami, silahkan menghubungi kami untuk informasi lebih lanjut. Kami menyediakan pula kWh meter merk Fuji Dharma Electric, Edmi Meters, Swaden. PT. MITRA SIMETRIS Jl. Raya Condet No. 11B, Jakarta Telp : ( 021) 87793367, 29389978 Kontak Person : Melawati mitrasimetris13@ gmail.com Eko Kardiyanto ( 081314090230 ) eko.kardiyanto@ yahoo.com            ","
              Jl. Raya Condet No. 11B, Jakarta            ",Jakarta Selatan,DKI Jakarta,+62 813-1409-0230,None,None
Duta Plastik Printing,"
                                    PREMIUM GOLD
                                ",Instalasi Listrik,"
Selamat datang di www.dutaplastikprinting.com
DUTA PLASTIK PRINTINGMUHAMMAD SUYATNO
Alamat : Jl.NN.Rawa Kramat, Rt04/04 no 10 cengkareng barat - jakarta barat NO.HP : 081316888892, 087888775592 , 085711400392 WA     : 081316888892, 087888775592 Email   : dutaplastik123@ gmail.comKami bergerak di dalam bidang jasa :· shopping bag· cetak kantong plastik· plastik softhandle· printing plastik· tempat cetak kantong plastik· plastik polybag· plastik kresek· plastik HD· plastik PE· plastik OPP· plastik PP· plastik laundry· plastik promosikami menyediakan berbagai plastik berbagai ukuran dan berbagai warna, cocok untuk tas promosi, tas pameran, tas belanja di toko maupun di perusahaan anda tentunya, barang bermutu bekualitas internasional, harga terjangkau, kami juga menerima partai kecil dan partai besar, perusahaan kami juga menerima cetak plastik dan spunbond partai kecil dan partai besar. perusahaan ini bergerak di bidang printing plastik dan produksi pp polos ( non printing) atau biasanya di sebut sablon plastik.Perusahaan Kami Berdiri sejak tahun 2006. Kami siap melayani orderan dengan minimal order yang terjangkau sampai besar dengan harga yang murah dan kualitas yang terbaik. untuk ukm atau home industri tidak usah merasa sungkan untuk hub kami. kami akan mambantu anda untuk menciptakan packaging yang bagus dan mempromosikan product anda kami juga melayani design gambar jasa yang kami sediakan adalah, design gambar, design logo, job order, bisa membuat dari ukuran kecil sampai besar, quantity kecil-besar.Jenis Bahan Plastik   : HD PE PP OPP LLDPE oxium degradabelJenis & Model Plastik : HD Singlet, HD Softhandle, HD Oval, PE SingletCocok untuk Supermarket, Alfamart, Indomart, Retaurant, Superindo, Apotek, Toko Baju.Macam – macam kantong Spundbond Ready Stock :1. Model Pegangan Plong : ukuran 20 x 24, ukuran 25 x 35, ukuran 30 x 402. Model Pegangan Talipres pakai lipat samping : ukuran 25x35, ukuran 30x40, ukuran 38 x 45, ukuran 45 x 55.Cetak plastik printing, plastik sablon, plastik print shoping bags, plastik boutique, plastik promosi, plastik kebutuhan kantor, plastik shoping bags, plastik gudang, plastik super, plastik polibag, plastik tanaman, plastik pupuk, plastik beras, plastik kripik, plastik corr bangunan, plastik onderdil mobil, plastik toko baju, plastik kebutuhan rumah saki,t plastik kebutuhan akupuntur, plastik bungkus pakan burung, plastik bungkus sayuran organik kualitas unggul, dll. ","
              Jl. NN rawa kramat rt 04/04 no. 10 cengkareng barat - cengkareng , jakarta barat            ",Jakarta Barat,DKI Jakarta,+62 813-1688-8892,None,None
Bumi Raya Electric,"
                                    PREMIUM GOLD
                                ",Instalasi Listrik,"
Bumi Raya Electric adalah suplier dengan bisnis dasar di bidang Electrikal dan Mekanikal untuk Sambungan Rumah ( SR) / Tegangan Rendah ( TR) dan Tegangan Menengah ( TM) , Sambungan Udara/ Bawah tanah. Jointing / Sambungan Kabel, Terminating/ Terminasi/ Terminal, Insulating, Splicing, Heatshrink, Double Tape, Cable Accessories Dll.
Kami memiliki komitmen untuk selalu menjunjung tinggi kepuasan pelanggan dengan menyuplai barang-barang berkualitas, harga kompetitif dan waktu penyediaan yang cepat.Informasi Produk & Order Hubungi kami:BUMI RAYA ELECTRICOffice : Kenari JAYA Lantai. 1 No. 27 Jl. Salemba RayaPhone : 02131924055Mobile : 08569888727 // 081288559956 ( Call/WA)Email: bumiraya.electric@gmail.com ","
              Kenari JAYA Lantai. 1 No. 27 Jl. Salemba Raya            ",Jakarta Pusat,DKI Jakarta,+62 812-8855-9956,None,None
