Name,Membership,Category,Description,Address,City,Province,telp1,telp2,telp3
PT. Bintang Makmur Wiramandiri,"
PREMIUM RUBY
",Machining,"
PT. BINTANG MAKMUR WIRAMANDIRIAdalah perusahaan yang bergerak di bidang Jasa Kontraktor dan PerdaganganJasa Kontraktor meluputi Jasa Sipil (Renovasi dan New Building Hotel, Rumah, Kantor, Apartemen dan lainya)Jasa Non Sipil/Fabrikasi (Pembuatan Conveyor semua tipe Conveyor) dan Jasa Maitenance Mesin skup factory maupun office. Sedangkan untuk Bidang PerdaganganMeliputi Perdagangan Cutting Tools, seperti Pisau Bubut, Milling, Matabor, Endmill, Bearing dan lainyaPT. Bintang Makmur Mandiri Menyediakan juga mesin - mesin untuk kebutuhan Melting Furnace/Mesin Peleburan Aluminium dan menyediakan barang - barang kebutuhan sparepart mesinyang berhubungan dengan melting furnace. Pemegang Brand tunggal Strikowestofen German# mesin tungku peleburan aluminium, wadah peleburan ","
              Jl. Raya Setu No.147 Cibitung Bekasi            ",Bekasi,Jawa Barat,+62 813-1758-9536,None,None
PT. Mandiri Niagamas Cemerlang,"
                                    PREMIUM GOLD
                                ",Machining,"
PT. MANDIRI NIAGAMAS CEMERLANG adalah perusahan penyedia alat kebutuhan industri seperti :
 1. Gland Packing 2. Sheet Packing 3. Rubber Packing 4. Conveyor Belt 5. Industrial Machine 6. Machining 7. Heat Insulation 8. Rubber Lining 9. Casting 10. Mechanical Seal 11. Manufacturing 12. Elastomer Bearing Pad 13. Chemical Coal Additive 14. Heater Element 15. Pallet Kayu 16. Coarse River Aggregate ( Kerikil ) 17. Rubber Fender 18. Pressure Gauge 19. Vibrator 20. Valve 21. Handling Equipment 22. Bearing 23. Clutches & Breakes 24. Universal Joint & Cardan Shaft 25. Conveyor Chains 26. Chains 27. Pulley 28. Coupling 29. Gearbox & Wormgear 30. Gearmotor 31. Electric Motor 32. Control System 33. Hose 34. Slitter 35. Roll Conveyor 36. Pulley Conveyor 37. Pneumatic 38. HydraulicKami berkomitmen untuk memberikan pelayanan terbaik kepada semua klient kami dari setiap produk yang kami tawarkan.Contact Us :PT. MANDIRI NIAGAMAS CEMERLANGOffice     : Jl. Raya Cikarang - Cibarusah No 27, Lippo Cikarang – BekasiPhone     : 021 - 8990 0912Fax       : 021 – 8990 0912         Mobile    : 0812 8132 3388 // 0877 8913 6128Whatsapp : 0877 8913 6128Email     : mandiriniagamascemerlang@gmail.com ","
              Jl. Raya Cikarang - Cibarusah No. 27 , Lippo Cikarang - Bekasi            ",Bekasi,Jawa Barat,+62 877-8913-6128,None,None
PT. UMERSON WAMATETSU TECHNOSMART,"
                                    PREMIUM GOLD
                                ",Machining,"
Kami “ PT. Umerson Wamatetsu Technosmart “ berdomisili di Jl. Raya Simpangan No. 212 Pamahan, Jati Reja, Cikarang Timur - Bekasi 17530 Kami adalah sebuah perusahaan yang memproduksi Pallet Mesh , Nicktainer dan Support Fabrikasi, Machining, dan Engineering.  Ruang lingkup pekerjaan kami antara lain : 1. Pembuatan Pallet Mesh atau Keranjang Lipat Besi2. Pembuatan Nicktainer 3. Pembuatan Conveyor ( Belt, Roller, dll) 4. Pembuatan Carrier, Rack, Platform, Trolly, dan alat pendukung mesin di industri 5. Jig, Komponen Automotive, 6. Water Tank 7. Custom Design ","
              Jl.Raya Simpangan No. 212 Pamahan, Jati Reja            ",Cikarang Timur - Bekasi,Jawa Barat,+82 12-574-0240,08176975777,None
CV. GLOBAL  INTI  SOLUTION,"
                                    PREMIUM GOLD
                                ",Machining,"
SUPLIER ALAT PEMADAM KEBAKARAN DAN RESCUE  INFO : 0321 - 8492466  |  WA/ Call : 081 331 368 535 |  Email : globalintisolution@gmail.com  | www.globalintisolution.com ","
              PERUM PULO ASRI F/2JOMBANG - JATIM            ",JOMBANG,Jawa Timur,+62 813-3136-8535,None,None
TEKNIK MANDIRI,"
PREMIUM BLUE ONYX
",Machining,"
Teknik Mandiri adalah sebuah perusahaan yang khusus memfokuskan diri dalam memenuhi kebutuhan industri,Rumah tangga,Proyek dan Automotive di bidang produk mechanical, electrical,handtools,welding,safety,dan Lifting pneumatic Equipment  Visi: Menjadi yang terbaik di antara yang terbaik.  Misi: Menjadikan Teknik Mandiri sebagai partner Industry, Rumah Tangga, Proyek dan Automotive dalam menghadapi tantangan dan menyongsong kesempurnaan dimasa depan.  Kami bekerja keras dan selalu melakukan yang terbaik untuk melayani pelanggan-pelanggan dimanapun dan kapanpun dalam memberikan informasi yang akurat dan solusi yang tepat pada saat dibutuhkan.Info Produk & Order Hubungi :Phone : 021-5644267    Mobile : 0812 1214 3333( Call/WA)Email : teknikmandiriindo@gmail.com ","
              Jl. Setia Warga 8 No.40 Rt 10/11 Grogol Petamburan, Jakarta Barat            ",Jakarta Barat,DKI Jakarta,+62 812-1214-3333,None,None
