Name,Membership,Category,Description,Address,City,Province,telp1,telp2,telp3
CV. JAYA MAKMUR ABADI,"
PREMIUM RUBY
",Perlengkapan Restaurant,"
CV. Jaya Makmur Abadi, perusahaan yang bergerak dibidang perdagangan umum Material Konstruksi & material lainnya, dan telah berpengalaman lebih dari 10 Tahun. 
Berdiri sejak Tahun 2005 dengan nama Jaya Makmur Abadi, dan diresmikan pada tahun 2010 oleh notaris Edward Agustin menjadi CV. Jaya Makmur Abadi. 
CV. Jaya Makmur Abadi bekerja sama dengan beberapa Pabrik & Distributor Material dan hingga kini sudah melayani lebih dari 900 pelanggan, yang terdiri dari pelanggan pribadi/perusahaan baik dari dalam & luar daerah di Indonesia. 
 
Visi & Misi : 


Menciptakan sistem perusahaan yang sistematis & fleksibel dalam hal pelayanan.
Menciptakan lapangan kerja & Sumber daya Manusia yang terampil, profesional& handal. 
Menciptakan pelayanan & kerjasama yang berkesinambungan dengan pelanggan.
Menjadi perusahaan multinasional yang dapat memberi sumbangsih terhadap perekonomian di Indonesia. 

CV. Jaya Makmur Abadi.General Supplier & Trading : Besi Beton & Baja. Rangka Baja Ringan & Atapnya.Aluminium Kusen Pintu & Jendela.Plywood & Kayu lainnya.Pipa Paralon & Pipa Lainnya. 
Keramik & Granit.Perlengkapan Sanitary. Aksesories Pintu & Jendela.
Segala jenis Kaca Bangunan.Aluminium Composite Panel.Kawat Baja & Besi. 
Karpet Import & VINYL. Kusen, Pintu & Jendela Kayu. Windows Fashion.Mekanikal Elektrikal.Meubelair Kantor & Sekolah.
Pipa HDPE.Pipa Air Panas.HPL.Cat.Pipa Gorong-Gorong.Plat Kapal.Dll.
Untuk melengkapi kebutuhan pelanggan, kami juga menyediakan Jasa Kontraktor, Jasa Arsitek & Jasa Konsultan.
Untuk informasi lebih jelas, dapat menghubungi Marketing kami.
Terima kasih. www.jayamakmurabadi.co.id
CV. Jaya Makmur Abadi 
Jl. Brigjend Katamso No. 2 Samarinda. Kalimantan Timur 75117.Telp : 0541-7802915Fax. : 0541-766315Email : sales@jayamakmurabadi.co.id
 

 
 ","
              Head Office :Jl. Brigjend Katamso No. 2. Samarinda. Kalimantan Timur ",Samarinda ,Kalimantan Timur,+62 823-5215-3244,+62 813-4942-8940,+62 852-4900-5619
PT. Bersama Maju Selaras,"
PREMIUM RUBY
",Perlengkapan Restaurant,"
              PT. Bersama Maju Selaras merupakan perusahaan yang bergerak di bidang Kitchen Equipment dan kami merupakan distributor peralatan dapur dan restoran.Kami menyediakan berbagai macam kebutuhan perlengkapan dapur mulai dari penghisap asap dapur lengkap, jual peralatan masak restoran, jual chiller murah Jakarta, jual freezer murah lengkap, jual peralatan dapur hotel, jual meja stainless Jakarta dan merupakan distributor peralatan dapur stainless.Kami sudah banyak memegang berbagai vendor perusahaan untuk melengkapi kebutuhan peralatan dapur seperti restoran, cafe, hotel dll.            ","
              Ruko Golden Madrid 2, Blok H 6-7 Jl. Letnan Sutopo, Bumi Serpong Damai (BSD)Tangerang 15318Telp (021)53167770.  Hp .0816952995            ",Tangerang,Banten,+62 816-952-995,None,None
zeropromosi,"
                                    PREMIUM GOLD
                                ",Perlengkapan Restaurant,"
              Perkenalkan kami Zeropromosi.com merupakan penyedia aneka souvenir seperti: - souvenir kantor - souvenir ultah - souvenir pernikahan Produk kami terdiri dari flashdisk, payung, tumbler, pulpen, mug/gelas, powerbank, tali id card dan banyak lainnya Kami sudah berpengalaman dibidang barang promosi & souvenir dengan selalu memenuhi deadline yang ketat serta yang tidak kalah penting adalah HARGA KOMPETITIF. Min order 100pcsharga blm termasuk cetakJika ada yang belum jelas dan ingin ditanyakan bisa langsung menghubungi kami di:mkt 1 WA / Tlp : 0877 8186 7176mkt 2 WA / Tlp : 0877 8185 7176Email : zeropromosi@gmail.comLine : @zeropromosi (harus pake @)            ","
              Jl. Arcadia Daan Mogot Blok H7 No.16,  Batuceper, Kec. Batuceper, Kota Tangerang, Banten 15122, Indonesia            ",Tangerang,Banten,087781857176,087781867176,081808064176
PT. KAHA BERKAH MANDIRI,"
                                    PREMIUM GOLD
                                ",Perlengkapan Restaurant,"
PT KAHA BERKAH MANDIRI didirikan pada akhir tahun 2019 dan mulai resmi beroperasi sejak awal tahun 2020.
PT KAHA BERKAH MANDIRI didirikan sebagai perusahan distributor produk chemicals dengan merk dagang “FASTCHEM”. Dengan spesifikasi produk Cleaning and Maintenance Chemicals for Industrial. Produk kami meliputi antara lain Degreaser, Cleaner & Remover, Anti Rust, Specialty Chemical, Boiler & Cooling Water Treatment Chemical, Maintenance Chemical, Aerosol Products , etc. Dan juga senagai perusahaan general trading berbagai kebutuhan industri.  Selain sebagai perusahan trading, PT KAHA BERKAH MANDIRI juga bergerak dalam bidang jasa cleaning dan overhaul antara lain :
1. Chemical Cleaning (descaling),  service & overhaul untuk Boiler, Cooling Tower, Chiller, Heat Exchanger, dsb.
2. Chemical Cleaning (descaling),  service & overhaul untuk LPG Vaporizer.
Company Profile ini kami maksudkan untuk sekedar memberikan gambaran dan referensi secara garis besar mengenai produk dan jasa yang kami berikan. Apabila Anda mempunyai kesulitan dalam pemakaian / penggunaan chemical , atau yang berhubungan dengan chemical, maka jangan sungkan-sungkan hubungi kami.
Demikian kami berharap perusahaan Anda dapat berkenan untuk menjalin kerjasama dengan kami.
  
Salam,
PT. KAHA BERKAH MANDIRI
 
Jl. Ekaliptus III Blok LF No.57 Bumi Indah 5 Pasar Kemis Tangerang Telp. 021-59715605, 0813-1142-6585 Email : kahaberkah@yahoo.com   ","
              Jl. Ekaliptus III Blok LF No. 57 Bumi Indah 5 Sukamantri Pasar Kemis Kab. Tangerang            ",Kab. Tangerang,Banten,+62 813-1142-6585,None,None
PT.MULTI INDOJAYA MAKMUR,"
PREMIUM BLUE ONYX
",Perlengkapan Restaurant,"
Specialised in: Pass Box, Air Shower, Ribbon Mixer, Scrub Sink Automatis, Conveyor: belt, bucket, spiral, curve, modular, wiremesh, table top chains. Storage tank, double jacket tank, mixing tank, alat-alat dan mesin-mesin dari stainless 316 dan 304. kebutuhan untuk rumah sakit dari bahan stainless, sudah ada izin resmi dari kementeriaan Kesehatan RI.Sertifikat Produksi Alat Kesehatan no. FK.01.02/VI/597-e/2020, ESUKA: untuk Pass box no. FR.03.02/VA/3186/2020, untuk Scrubsink no. FR.03.02/VA/3298/2020, untuk Air Shower no.FR.03.02/VA/3483/2020 dan register untuk brand MIM no.D002018035244/252. Pabrik kami cukup lengkap dari fasilitas tempat, mesin-mesin dan pendukung lainnya. Dengan tenaga ahli sesuai dengan bidang usaha kami.Kontak kami :PT. Multi Indojaya MakmurJl. Raya Cikeas Bojongnangka Kp. Tlajung  RT. 003  RW. 011  No. 40Desa Cikeas Udik   Kec. : Gunung Putri,  Bogor, Jawa Barat  16966Phone   : (021) 8671777 (Hunting)Fax       : (021) 8670517Email   : sales@multiindojaya.co.id // ptmim@airshower.coWebsite: www.multiindojaya.co.id  or  www.ptmim.co Kontak kami ","
              JL. Raya Cikeas Bojongnangka Kp.Tlajung Rt.003 Rw.011 No.40, Desa Cikeas Udik,Kecamatan Gunung Putri            ",Bogor,Jawa Barat,+62 812-9107-035,+62 877-8141-0378,None
CV. JOANNA MANDIRI PERSADA,"
                                    PREMIUM GOLD
                                ",Perlengkapan Restaurant,"
              PERKENALKAN Kami adalah perusahaan GENERAL TRADING, DISTRIBUTOR DAN SUPPLIER di bidang INDUSTRI MAKANAN SEPERTI- POWDER MILK ( SKIM MILK & FULL CREAM POWDER )- CREAMER LOKAL DAN IMPORT- COCOA POWDER DELFI & BT. COCOA ( PABRIK )- DEXTROSE - MALTODEXTRIN- COFFEE VITENAM SR-1 & CASD 11- COCONUT CREAM POWDER- BAKING POWDER- TEPUNG ROTI- FLAVOUR         Kami selalu bekerja sama dengan beberapa PABRIK INDUSTRI DAN HOME INDUSTRI untuk memberikan order untuk kami pasarkan baik local dan export demi kepuasan customer. Anda bisa mengklik info "" KATALOG PRODUK dan hubungi kami untuk menanyakan informasi yang lengkap , kami akan senang hati untuk menjelaskan nya kapan aja. CARA PEMESANAN : - Pilih jenis yang di minta by katalog product - Expedisi bisa di tentukan oleh pembeli yang di tunjuk atau kami yang atur. - semua harga FRANCO PABRIK/ GUDANG ( belum termasuk ongkos kirim. CARA PEMBAYARAN : - Transfer DP 50% Via BANK BCA atau MANDIRI - Setelah barang jadi dalam waktu tertentu, sisia nya langsung di lunasi - Setelah lunas kami kirim kan no RESI pengirim oleh EXPEDISI ( Nomer berguna   untuk memonitor perjalanan barang ) - Dengan demikian artinya barang sudah di tangan EXPEDISI bukan lagi di tangan kami. TRANSPORTATION : - DAKOTA CARGO VIA DARAT, LUAT DAN UDARA - TIKI/ JNE ( Untuk pengiriman sample via UDARA )       Demikian lah penawaran ini kami tawarkan untuk para customer mudah-mudahan kerja sama ini dapat berjalan dengan lancar. Atas perhatian dan kerja sama nya, kami ucapkan terima kasih. Hormat Kami,CV. JOANNA MANDIRI PERSADA Mobile : 081546137100 Watsapp : 081282680324 E-mail ; zonputra@ gmail.com            ","
              Jl. Jati Kramat Indah II No. 4            ",Bekasi Kota,Jawa Barat,+62 812-8268-0324,None,None
CV. Globalindo Teknik Mandiri,"
                                    PREMIUM GOLD
                                ",Perlengkapan Restaurant,"
CV GLOBALINDO TEKNIK MANDIRIKami merupakan Perusahaan yang bergerak dalam bidang Perdagangan umum, Pabrikasi Mesin, dll.VISI Menjadi dan membuat jaringan sumber distribusi mesin, elektronik, jasa yang dibutuhkan oleh konsumen (masyarakat umum).MISI ° Memberikan kepuasaan dalam pelayanan kepada konsumen/ customer. Selalu berusaha untuk menjadi yang terbaik dalam melakukan suatu hal yang baru agar kebutuhan konsumen/ customer bisa terpenuhi. ° Memberikan kinerja yang tepat waktu sesuai dengan yang dijanjikan dan yang diinginkan pihak konsumen/ customer.Dengan visi dan misi yang telah tercantum di atas anda boleh mempercayakan kepada kami untuk masalah kinerja kami. Pelayanan yang kami berikan kepada konsumen/ customer adalah menjadi hal utama yang kita Prioritaskan dan perhatikan. Menjaga kepercayaan customer itu adalah tanggung jawab kami untuk memberikan pelayanan/ service yang baik. Dengan dedikasi yang kita pelajari dari waktu ke waktu, kita akan selalu menjadi yang terbaik.CV Globalindo Teknik Mandiri terdiri dari beberapa divisi yang fokus dan spesialisasi di produk;- Mesin Marka Jalan dan Kelengkapannya : Mesin marka jalan thermopastic ° Mesin marka jalan coldplastic ( cat dingin) ° Mesin marka jalan screed ° Mesin marka jalan profile ° Mesin marka jalan sprayer coldplastic ° Mesin Preheater ( pengaduk cat thermoplastik) ° Mesin Penghapus Marka Jalan ° Cat Thermoplastik- Peralatan Test Teknik Sipil : Alat Testing Beton, Concrete, Testing Jembatan, Testing Asphal, Testing Aggregate, - Rambu Lalulintas - Rambu Pabrik - Rambu Kerja - Rambu Parkir - Lampu Lalulintas ( Traffic Light) - Delineator Post - Paku Jalan ( Road Stud) - Traffic Cone ( Rubber/ Plastic) - Cermin Lalulintas ( Safety Mirror) - Speed Gun - Road Barrier - Cat Thermoplastik - Glass Bead- Mesin Bor Tanah atau SAMPLING, Hand Auger dan Bor Pertambangan : Bor Biopori, Bor Tanah, Soil Auger, Bor Banka, Bor Gambut, Bor Bibit, Bor Jacro, Bor Power Rig, Bor Pile, Bor Sumur, Bor Pasir, Bor Nikel, Bor Timah, Bor Sawit, Hand Auger, Hole Digger Auger, Sampler Auger, Soil Sampler Tube, Double Ring Sampler / Infiltration, Soil Sampler, Soil Core Sampler, Soil Probes, Soil Auger & Sampling Kit, Sediment & Water Sampling, Bor Hole Preparation Kit, Bailers, Basic Hand Auger Set, Geotechnical Sampling & Testing, Professional Soil Sampling Kit, Soil Auger & Cor Sampling Kit, Peat Soil Auger Kit, Rain Gauge, Bor Spiral, Gouge auger set, Standard Hand Auger Set, Panci Penguapan, Gear down hole and Accessories Part: - Core Barrel Assy ( PQ3, HQ3, NQ3) dan parts - Inner Tube Assy - Inner Tube, Split, Outer Tube - Over shot Assy dan parts ( produk Australia dll) , Hoisting Plug, Head Assy - Cap Assy - Chasing Shoe Bit - Drill rods, Casing pipe PQ3 ( HWT) , HQ3, NQ3 ( Merk Sandvik ( dari Eropa) , Australia, Crown, Asahi) - Diamond Bits Impreg - Tungsten Bit - Threewing bit - PCD Bit - Reamer Bit - Surface Step Bit - Water Swivel - Core Lifter Case - Core Lifter - Stop Ring - Shut of Valve - Stabilizer Ring - Adaptor Coupling - Locking Coupling - Inner Tube Wrench - Cross Sub - Saver Sub - Tricone Bit - Lifting Dog - Latch, Drilling Mud: - Polymer - Bentonite ( Ausgel/ Stargel) - Hivis ( CR-650) - Austroll - Baraswell Engine: - FMC Been Pump- ALAT KLIMATOLOGI, METEOROLOGI, HIDROLOGI DAN GEOFISIKA : Fiber Glass MastCRM-10, Meteorological Probe ( Temperature and Humidity Sensor) , Sangkar Meteorologi Ukuran Besar ( Weather-Shelter) , Alat Ukur Curah Hujan Otomastis ( Rain Recorder Tipe Hellmann) , Psychrometer With Maximum and Minimum Thermometer + Holder, Counter Anemometer DR A MULLER, LUTRON AM4206M Anemometer, LUTRON ABH4224 Anemometer, Trotec T210 Thermohygrometer, Wind Run Counter Anemometer, Sunshine Duration - Sensor CSD3, Wind Sensor compact, First Class Wind Velocity Sensor, Weather and Thermal Radiation Shield - Compact, Weather and Thermal Radiation Shield, Sangkar Meteorologi, Tinta untuk Sample Charts, Panci Penguapan ( Evaporation Pan) , Weighing Precipitation Gauge, Sample Charts: Barograph, Thermograph, Hygrograph dan Thermo-Hygrograph- PERLENGKAPAN MALARIALOGI : Sangkar Nyamuk - Mosquito Box - Mosquito Breeder - Tempat Telur Nyamuk - Bio Assay Kit - Tempat Makanan Nyamuk - Box Pin - Pinning Block - Aspirator Nyamuk - Killing Jar - Plastic Box - Insect Cabinet - Insect Drawer- MESIN PERTANIAN : Mesin Pengolahan Gula Semut - Mesin Pengolahan Limbah Kayu - Mesin Pengolahan Tapioka Singkong - Mesin Pengolahan Pemotongan Ayam - Mesin Pengolahan Pakan Ternak - Mesin Pengolahan Melinjo - Mesin Pengolahan Mete - Mesin Pengolahan Sorgum / Hermada - Mesin Pengolahan Kakao / Coklat - Mesin Pengolahan Kacang - Mesin Pengolahan Cabe - Mesin Pengolahan Kemiri - Mesin Pengolahan Teh - Mesin Pengolahan Minyak Atsiri - Mesin Pengolahan Kopi - Mesin Pengolahan Karet - Mesin Pengolahan Kedelai / Soya - Mesin Pengolahan Tahu - Mesin Pengolahan Tempe - Mesin Pengolahan Jagung - Mesin Pengolahan Jeruk - Mesin Pengolahan Mie - Mesin Pengolahan Kompos - Mesin Pengolahan Sagu - Mesin Pengolahan Sabut Kelapa - Mesin Pengolahan Briket - Mesin Pengolahan Apel - Mesin Pengolahan Jarak - Mesin Pengolahan Padi - Mesin Pengolahan Sawit - Mesin Pengolahan Kentang - Mesin Pengolahan Bawang - Mesin Pengolahan Tanah / Soil - Mesin Pengolahan Tebu - Mesin Pengolahan Pupuk Organik - Mesin Pengolahan Emas / Ballmill / Glundung - Mesin Pengolahan Limbah - Mesin Pengolahan Sampah - Mesin Pengolahan Fiber - Mesin Pengolahan Makanan - Mesin Pengolahan Kripik - Mesin Pengolahan Dodol - Mesin Press Uang - Mesin Ethanol - Mesin Cetak Batako Pressn- Mesin Cetak Paving / Conblock - Mesin Cetak Batako Apung - Mesin Batako Hebel - Aplikasi Teknologi Resin - Alat Panen Sagu - Alat Panen Karet - Alat Panen Sawit - Ubinan ( Alat Analisis) - Green House - Pembuatan Batu Penyosok, Pembuatan Batu Penyosok- PELATIHAN : Teknik Pengolahan Minyak Atsiri ° Teknik Pengolahan Ethanol ° Teknik Pengolahan Tahu ° Teknik Pengolahan Jeruk ° Teknik Pengolahan Emas ° Teknik Pengolahan Tepung ° Teknik Pengolahan VCO ° Teknik Pengolahan Gula Jagung ° Teknik Pengolahan Gula Singkong / Cassava- PERLENGKAPAN JALAN RAYA : Rambu Lalulintas - Rambu Pabrik - Rambu Kerja - Rambu Parkir - Lampu Lalulintas ( Traffic Light) - Delineator Post - Paku Jalan ( Road Stud) - Traffic Cone ( Rubber/ Plastic) - Cermin Lalulintas ( Safety Mirror) - Speed Gun - Road Barrier - Cat Thermoplastik - Glass Bead - Mesin Marka Jalan - Mesin Preheater ( pengaduk cat thermoplastik) - Mesin Marka Jalan Profil - Mesin Marka Jalan Cold Plastic - Mesin Penghapus Marka Jalan - Concrete Cutter - Cover Blade - High Frequency Converter - Tamping Rammer - Plate Compactor Ride-On Trowels - Mechanical Engine Vibrator - Internal Vibrator - Concrete Power Trowel - Generator Engine - Electric Concrete Vibrator- SOIL & ASPHALT COMPACTION : Vibratory Rammer / Tamping Rammer - Single Direction and Reversible Vibratoy Plates - RIde-on Vibratory Roller - Double Drum Vibratory Rollers ( baby Roller)- DEMOLITON :Asphalt / Concrete Cutter /Diamond Cutting Blade - Gasoline Cut-off Saws - Drilling Hammers, Breaker Hammers - Gasoline Engine Breaker / Chisel Tools, Peralatan Geology, Peralatan Pengairan, Peralatan Survey dan Pemetaan, Alat Alat Teknik Civil, - Concrete Vibrator, - Plate Compator, - Vibro Roller, - Mesin Vacuum Jalan, - Tamping Rammer, - Concrete Mixer- FABRIKASI STEEL STRUCTURE : Beam, platform, ladder, handrail, insert plate, conduit pipe bending, and Container Basket - Pagar Besi, Meja Inspeksi, Meja Laboratorium, Lemari Besi, Lemari Kayu, Lemari Alumunium, pekerjaan besi / steel; stainless; alumunium, dll.- Fabrikasi Tenda, Tenda Pleton, Tenda Pengungsi, Tenda Pramuka, Tenda Dapur, Tenda PMI, Tenda Komando, Tenda Regu, Pergola, Awning, dll- ALAT PERTANIAN : Arboriculture and Holticulture Tools and Machinery - Soil Moisture - Soil Thermometer - Wood Moisture Meter - Thermohygrometer - Grain Moisture Meter - Soil pH Meter - Soil Salinity Meter - Pocket Penetrometer - Soil test kit - Soil Munsell Chart - Soil NPK Tester - Soil Auger - Dodos, Agrek Egrek, Alat Panen Kelapa Sawit - Sadap, Deres, Ember Karet, Emposan Tikus, Perangkap Tikus, Kandang Nyamuk - Peralatan tes concrete, jalan, beton, Hand Bor / Auger, Bucket Auger, One-Piece Auger, Soil Sampling Auger, Soil Core, Bor Tanah, Bor Banka, Bor Pertambangan, Bor Sample Tanah, Bor Gambut, Bor Sawah, Bor Kebun, Bor Biopori, Bor Resapan, Standard Penetration Test, Sample Extruder, Sample Extruder Electric, Dynamic Cone Penetrometer, Corps of Engineer Soil Surface Sampler, Dutch Cone Penetrometer, Plate Bearing Test Set, Field CBR Test Set, Proving Ring Penetrometer, TVA Penetrometer, Liquid Limit Test Set, Plastic Limit Test Set, Shrinkage Limit Test Set, Steel Augr Bucket Sludge Sampler Kit, Split Core Sampler, Extendible Core Sampler Kit, Soil Gas Vapor Probe, Sand / loose Sediment Probe, Sediment Sampler, Soil Sampler Tube, Soil Profiler, Peralatan Kehutanan, Mesin Pertanian, Alat Pertanian, Alat Peternakan, Dll.Address;Jl. Raya Johar No.26 rt.005 rw.004Kel.Cibadak, Kec.Tanah SarealKota Bogor 16161Contact Person;0812 1314 0604 (Abdullah)0813 1421 0880 (Nuswan)Office;0251-8329302E-mail;info@globalindoteknikmandiri.co.idLinks;globalindoteknikmandiri.co.idglobalindoteknikmandiri.comcarialat.comcarialat.co.idalatmarkajalan.combengkelpertanian.compabrikfurnitur.comfurniturelab.co.idbortambang.commesinhebel.com            ","
              Jl. Raya Johar No.26 rt.005 rw.004 Kel.Cibadak, Kec.Tanah Sareal Kota Bogor 16161            ",Bogor,Jawa Barat,+62 812-1314-0604,None,None
Karoseri Kenka,"
                                    PREMIUM GOLD
                                ",Perlengkapan Restaurant,"
Info Untuk Pembuatan Mobil:
Karoseri Box Pendingin Freezer,
Karoseri Box Pendingin Chiller, 
Karoseri Box Pendingin Frozen, 
Karoseri Box Cold Storage, 
Karoseri Box Refrigeration, 
Karoseri Box Cool Storage, 
Karoseri Box Fiber, 
Karoseri Box Cold Storage, 
aroseri Mobil Toko, 
Karoseri Food Truck, 
Karoseri Wingbox, 
Karoseri Box Besi, 
Karoseri Box Alumunium, 
Karoseri Self Loader, 
Karoseri Mixer, 
Karoseri Trailer, 
Karoseri Bak Besi, 
Karoseri Tangki, 
Karoseri Vacuum Tank .. dll
 
Hotline : 0812.951.888.53 / 0812.9696.3488
 
Note :
 
1.Harga yang tertera adalah batas minimum
2.Batas Minimum di tentukan dari unit yang digunakan ( Pick up - Medium Truck - Truck Besar )
3.Untuk type khusus, harga juga di tentukan dari perlengkapan yg di inginkan ","
              Jl M T Haryono Km 6,5 no 8 A 
Kelurahan Taman sari
Kecamatan Setu Bekasi            ",Bekasi,Jawa Barat,+62 812-9518-8853,None,None
CV. HERRY JAYA UTAMA,"
                                    PREMIUM GOLD
                                ",Perlengkapan Restaurant,"
              CV. HERRY JAYA UTAMA ( freza_ wa@ yahoo.co.id) Sebagai Sole Agent / Distributor, Jual alat kesling / laboratorium product : Haz Dust, Wohler / woehler, Kimo Instruments, E Instruments, HI-Q, Staplex, Sensit Technologies, Vzor, Partech UK Instruments, dengan ini kami menjual peralatan sebagai berikut : MENJUAL : ALAT SAFETY ALAT TEHNIK CIPIL ALAT INSTRUMENTS ALAT LINGKUNGAN HIDUP ALAT KESEHATAN ALAT UJI AIR ( WATER TEST KIT ) ALAT UJI MAKANAN ( FOOD DETECTION KIT ) ALAT UKUR INTENSITAS SUARA SOUND LEVEL METER ALAT UKUR KEBISINGAN DI AREA KERJA ALAT LABORATURIUM KESEHATAN ALAT UJI EMISI / GAS BUANG INSENERATOR RANSEL TAS PUNGGUNG PEMADAM KEBAKARAN MICROSCOPE ALAT UKUR NOISE DOSIMETER ALAT UKUR KEBISINGAN PERSONAL VIBRATION METER ALAT UKUR GETARAN HUMIDITY METER ALAT UKUR KELEMBABAN ALAT UKUR SUHU ALAT UKUR KECEPATAN ALIRAN UDARA LUX METER ALAT UKUR INTENSITAS CAHAYA ALAT UKUR KEDALAMAN TANGKI MINYAK WBGT METER ALAT UKUR IKLIM KERJA DEEP STICk MIST BLOWER STIHL CHAINSAW STIHL TMBANGAN KURSI RODA SPECTROPHOTOMETER MICROSCOPE BLOOD LEAD TEST INCUBATOR WATER ANALYS Kami Juga Menyediakan IPAL untuk puskesmas atau rumah sakit.            ","
              Komplek Samudera Indonesia A3 no. 6 Jl. Tole Iskandar            ",Depok,Jawa Barat,+62 812-1226-5508,None,None
CV.changdong Indonesia,"
                                    PREMIUM GOLD
                                ",Perlengkapan Restaurant,"
CV.Changdong Indonesia di dirikan pada tgl 05 Mei 2007, Tujuan didirikan perusahaan adalah memproduksi mesin-mesin pertanian, perkebunan, perikanan, Industri Kecil Menengah dan Usaha Kecil Menengah. demi mendukung percepatan pertumbuhan ekonomi masyarakat menengah kebawah serta membuka lapangan kerja baru. Pada saat ini, CV.Changdong Indonesia memproduksi mesin-mesin pertanian antara lain :
- Power Thresher- Mesin Pengurai Sabut Kelapa- Mesin Pencacah Sampah Organik ( APPO)- Mesin Press Kemasan Hidrolik- Mesin Pres Kemasa- Mesin Pencetak Pellet- Mesin Press Batako- Mesin Paving Blok Hidrolik- Mesin Pencacah Plastik- Mesin Granulator- Mesin Press Bata Merah- Mesin Mixer- Mesin Pirolisis Arang- Mesin Gongsengan Kopi- Mesin Pemipil Jagung- Mesin Hammer Mill atau Penghalus Jagung- Dan masih banyak yang lainnya
Lokasi CV. Changdong Indonesia terletak di Jl. Gondang No.13 RT 01/RW 10 Kecamatan Mustika Jaya, Kota Bekasi -Jawa Barat  CV. Changdong Indonesia memilih bahan baku seperti Plat Mild steel, Kanal UNP, Plat Strip dan Besi Beton, Stainless steel dengan memilih kualitas yang baik. Dan kami juga menerima segala permintaan bahan baku dari setiap costumer kami. Didukung pula oleh Teknisi yang berpengalaman dan terlatih. Pada saat ini CV.Changdong Indonesia menghasilkan produk dan kapasitas disesuaikan dengan permintaan pasar. Konsumen CV.Changdong Indonesia adalah Petani, Pengusaha, Pemerintahan, Swasta dan Rekanan dari pemerintahan di seluruh Indonesia. Visi CV. ChangdongIndonesia: “ Mengutamakan kepuasan pelanggan atas layanan kami ” Misi CV. Changdong Indonesia : “ Meningkatkan mutu dan kualitas, Efisiensi yang ramah lingkungan ”Untuk Informasi Lebih Lanjut Hubungi
CV Changdong IndonesiaJl. Gondang No.13, RT 01/RW10 KecamatanMustika Jaya,Kota Bekasi -  Jawa Barat 17158Hp : 085287938886 - 081280097909 - 08788728889
 ","
              JL. Gondang No.13 Kec Mustika Jaya Kota Bekasi -  Jawa Barat             ",Bekasi,Jawa Barat,+62 852-8793-8886,None,None
UD. SIDO MUMBUL,"
                                    PREMIUM GOLD
                                ",Perlengkapan Restaurant,"
              UD. SIDO MUMBULPerusahaan kami bergerak di bidang distribusi barang pecah belah / bolo pecah, plastik rumah tangga, peralatan / alat dapur ( kitchen wares) dan kebersihan ( cleaning equipments) , perlengkapan rumah tangga ( house wares / home appliances) dan kebutuhan industri ( industrial wares) lebih dari 30 tahun di Pasar Turi, Surabaya. Kami menjual barang-barang produksi lokal dan impor seperti barang-barang aluminium, kaca, plastik, stainless steel, perkakas, dll. dengan harga dan kuantiti partai ( grosir) untuk dijual kembali ( reseller price).Beberapa merek barang yang kami jual adalah Hock, Lion Star, Maspion, Global Eagle, Green Leaf, Dian Sari, Owl Plast, Technoplast, Bull Star dan masih banyak lagi. Untuk informasi lebih lengkap bisa dilihat pada halaman Katalog Produk kami atau bisa langsung datang ke kantor kami pada hari Senin - Sabtu pada pukul 10: 00 - 17: 00 WIB di jalan Dupak 63, kompleks pertokoan Mutiara Dupak C-22, Surabaya.  Dengan dukungan supplier lokal dan nasional, kami siap untuk memenuhi kebutuhan usaha anda. Kontak kami segera untuk berbisnis dengan kami.Kami juga melayani kebutuhan hotel, rumah sakit, cafe, restoran & katering.Untuk pemesanan produk dapat dilakukan via telepon, short message service ( SMS) , Yahoo! Messenger, Blackberry Messenger ( BBM) dengan sistem pembayaran cash ( transfer bank / kontan) . Pembayaran dapat dilakukan setelah mendapat konfirmasi dari kami atas ketersediaan jumlah produk yang dibutuhkan. Apabila anda serius, dimohon untuk tidak mengirimkan e-mail kepada kami tanpa melakukan konfirmasi terlebih dahulu.  Tersedia kualitas produk biasa, menarik, murah, kuat dan berkualitas tergantung merk dan kebutuhan. Untuk area surabaya kami dapat mengirim, untuk konsumen luar kota dan luar pulau dapat dikirim lewat ekspedisi yang telah disepakati bersama. JAKARTA - BANDUNG - YOGYAKARTA - MAGELANG - SOLO - DENPASAR - SEMARANG - MALANG - SURABAYA - BANYUWANGI - PASURUAN - PROBOLINGGO - JEMBER - PRABUMULIH - MEDAN - JAMBI - PEKANBARU - MAKASSAR - BALIKPAPAN - PONTIANAK - BANJARMASIN - BATAM - PALEMBANG - LAMPUNG - SAMARINDA - PADANG - MATARAM - KALABAHI - MANADO - JAMBI - ACEH - PANGKALAN BUN - KUALA PEMBUANG - BATU LICIN - SAUMLAKI - TUAL - GORONTALO - TANJUNG SELOR - TOLI TOLI - AMBON - BATAM - PANGKALPINANG - WAINGAPU - WAIKABUBAK - KUPANG - ATAMBUA - DILI - PALU - SAMPANG - BANGKALAN - SUMENEP - JAYAPURA - SORONG - BIAK - MANOKWARI - MERAUKE - BAU BAU - TERNATE - TOBELO - KENDARI UD. SIDO MUMBUL - Jln. Dupak 63 / Pertokoan Mutiara Dupak C-22, (031) 5469330 / 081938685700, Surabaya. PIN BBM = 7C5F4B40 / 5B69FFC6 / 228B81D4 WA = +6282143438684 LINE = herry.sutanto E-mail = ud_sido_mumbul@yahoo.com / herrychenzhongqiang@gmail.com Jam Kerja = Senin - Sabtu 10:00 - 17:00 WIB, Hari Minggu / Besar Libur            ","
              Jln. Dupak 63 / Pertokoan Mutiara Dupak C-22, (031) 546-9330 / 0819-3868-5700, Surabaya.
PIN BBM = 7C5F4B40 / 5B69FFC6
WA = 0821-4343-8684
LINE = herry.sutanto            ",Surabaya,Jawa Timur,+62 814-3438-684,None,None
CV. BERKAT JAYA ABADI,"
                                    PREMIUM GOLD
                                ",Perlengkapan Restaurant,"
              Mengambil respon ini sebagai moto, PT. Berkat Jaya Abadi, didirikan di surabaya pada tahun 2001 dengan tujuan untuk berkontribusi pada proses modernisasi, khususnya dalam teknologi ilmiah di indonesia , dan berfungsi sebagai langkah awal untuk pembangunan Indonesia. Dengan kekuatan kita pada teknologi yang baik. Sumber daya manusia yang berpengalaman dalam peralatan laboratorium, PT. Berkat Jaya Abadi menyediakan berbagai layanan kepada Pelanggan kami termasuk konsultasi, riset, instalasi dan layanan purna jual. yang selalu berkesinambungan, Kami unggul dalam memasok alat-alat laboratorium untuk perdagangan yang di terima baik oleh pihak proffesional di Indonesia. PT. Berkat Jaya Abadi menyediakan peralatan di bidang Biomolecular, Bahan Kimia, Surface Aerator, Alat-alat Laboratorium. kita tidak hanya akan membantu mereka untuk membangun laboratorium yang sesuai dengan standar GLP. Tetapi juga membantu perusahaan-perusahaan produksi untuk mendapatkan keuntungan untuk mencapai standar GMP kombinasi peralatan laboratorium canggih dan produk yang tahu bagaimana menjadi dasar penting layanan terbaik yang kami berikan. Pasar Indonesia memiliki potensi masa depan yang cerah di bidang peralatan laboratorium. Sebuah perusahaan yang memiliki Visi dan Misi, seperti Berkat Jaya Abadi, tidak akan puas dengan prestasi yang ada. Bisnis yang kita lakukan adalah Bisnis sciense. Ini juga merupakan tugas yang serius akan menguntungkan negara-negara yang terlibat dalam jangka yang sangat panjang di masa depan. Setiap staf di PT. Berkat Jaya Abadi adalah melaksanakan misi meningkatkan teknologi. Kami sepenuhnya berkomitmen untuk berkontribusi untuk membangun jembatan perdagangan dan teknologi antara Indonesia dan Dunia            ","
              Jl.Wonorejo Permai Timur VI no. 6 (Nirwana Eksekutif Blok EE -111            ",Surabaya,Jawa Timur,+62 813-3044-2375,None,None
AYIN BETH,"
                                    PREMIUM GOLD
                                ",Perlengkapan Restaurant,"
Pembuatan Ruang Pendingin ( Cold Storage, Air Blast Frezer, Chiller) , Clean Room Menyediakan komponen Cold Storage, seperti Strip Cutain, Sambungan pipa tembaga, Ventilator, Handle, Hinges, Plat PPGI, Compressor Bitzer, Evaporator Eden, dll
Kami menjual cold Storage dengan berbagai ukuran sesuai dengan pesanan.
dan sudah digunakan di Palang Merah Indonesia cabang Malang, Natura Laboratori Prima, Dinas Perikanan Sarmi - Papua, Gudang Sarang Burung, Gudang Buah, Pabrik Krupuk dan lain sebagainya ","
              Babatan Pantai Barat I/40 Kenjeran             ",Surabaya,Jawa Timur,+62 851-0068-0249,None,None
UD Dwi Tunggal Perkasa,"
                                    PREMIUM GOLD
                                ",Perlengkapan Restaurant,"
              DWI PRODUK ukm kerajinan logam berdiri sejak Th 2001, memproduksi : alat alat dapur : parut, serok, sotil, hanger, japit, centong dll. Sekarang merintis usaha dagang dengan nama UD DWI TUNGGAL PERKASA Guna menjembatani UKM - UKM di wilayah kami dalam hal pemasaran produknya , sehingga tidak terjadi permainan harga oleh tengkulak. kunjungi http: / / ngunutproduction.blogspot.com , http: / / parutmillenium.blogspot.com melayani pembelian grosir , mengirim ke seluruh pelosok nusantara . buat para retailer di daerah gunakan kesempatan ini untuk mendapatkan harga langsung dari produksen.            ","
              jln.  Fajar  Lingkungan  10  Rt 02  Rw 04  Ngunut            ",tulungagung,Jawa Timur,+81 3-3587-7045,None,None
Tohodo Scientific Instrument,"
                                    PREMIUM GOLD
                                ",Perlengkapan Restaurant,"
              Alat Instrument, Alat Laboratorium, Alat Lab, Scientific Instrument, Alat Laboratorium Pertanian, Alat Laboratorium Industri, Alat Laboratorium Kesehatan, Alat Laboratorium Fisika, Kimia, Biology, Alat Laboratorium Kualitas Air, Alat Laboratorium Lingkungan Hidup, dll Tohodo Scientific Instruments DTC ( Darmo Trade Centre) Wonokromo Surabaya LT. 4 Blok A No. 63 Telp : ( 031) 848 4947, ( 031) 7700 1340, 082123351143 Fax : ( 031) 848 4947 E-mail: tohodosby@ yahoo.com E-mail : hargapalingmurah@ yahoo.com ADHESIVES AIR We dealing for manufacturing and supply Scientific Instrument. ALUMINUM FOIL AMPULES ANAEROBIC SYSTEM ANEMOMETERS ANIMAL HANDLING ANTI-FOAM SPRAY APPAREL APPLICATORS AUTOCLAVES BAGS BALANCES BAROMETERS BATHS, WATER BATTERIES BEAKERS BELL JARS BENCH PROTECTORS BLENDERS BLOOD COLLECTION BOILING STONES BOOKS, REFERENCE BOTTLES BOWLS BOXES BRUSHES BURETS BURNERS CALCULATORS CALIPERS CA PS CARBOYS CARTS CENTRIFUGES CENTRIFUGE ACCESSORIES CHARTS CHROMATOGRAPHY CLAMPS/ SUPPORTS CLEANERS CLOCKS CLONING and EXPRESSION COLORIMETERS COMBUSTION APPARATUS CONDENSERS CONDUCTIVITY CORKS COTTON COUNTERS CRUCIBLES CRUSHERS C RYOGENIC CUPS CYLINDERS DATA LOGGERS DENSITOMETERS DEODORIZERS DESICCANT DESICCATORS DIALYSIS APPARATUS DIGESTORS DISHES DISPENSERS DUROMETERS ELECTRICAL ELECTROPHORESIS ENVIRONMENTAL CHAMBERS EVAPORATORS EXTRACTION APPARATUS FILM, SEALING FILTERS FLASKS FLOWMETERS FLUID BED DRYERS FORCE GAUGES FORCEPS FREEZE DRYERS FREEZERS FUNNELS FURNACES FURNITURE GAS GLASS GLASSWARE KITS GLOVES GLOVE BOXES GRINDERS HEATERS HISTOLOGY HOMOGENIZERS HOODS HOT PLATES HYBRIDIZATION HYDROMETERS HYGROMETERS ICE CONTAINERS ICE MAKERS INCUBATORS INK INOCULATING SUPPLIES JARS KEY CHAIN KNIVES LABELING SYSTEMS LABELS LADDERS LAMPS LENS PAPERS LIGHTERS LIGHT METERS LUBRICANTS MAGNETIC FIELD MAGNIFIERS MAILERS MANOMETERS MATS MEDIA MELTING POINT APPARATUS MERCURY ANALYZER MICROARRAYS MICROSCOPES MICROSCOPE COVER GLASS MICROSCOPE SLIDES MICROTOME MILK TESTING APPARATUS MILLS MOISTURE DETERMINATION MORTARS AND PESTLES MULTIWELL PLATES NOTEBOOKS NUCLEIC ACID ANALYSIS OIL TESTING APPARATUS ORGANIZERS OSMOMETER OVENS OXYGEN ANALYSIS PAILS PAINT TESTING PCR PENS AND PENCILS pH ANALYSIS PIPETS PIPETTORS PIPETTORS, TIPS PITCHERS PLATES POINTERS POLARIMETERS PRESSES PROTEIN ANALYSIS PUMPS RACKS RECORDERS REFRACTOMETERS REFRIGERATION RINGS RULERS SAF ETY SAMPLERS SECURITY EQUIPMENT SERUM SHAKERS SHEARS SHIPPERS SIEVES SIGNAL TRANSDUCTION SOIL ANALYSIS SOUND METERS SPATULAS SPECIFIC GRAVITY SPECTROPHOTOMETERS STATIC ELIMINATORS STIR BARS STIRRERS STOPCOCKS STOPPERS SYRINGES TACHOMETERS TANKS TAPE TENSIOMETER THERMOMETERS THERMOREGULATORS TIMERS TISSUE CULTURE TITRATION TONGS TOOLS TRANSFECTION TRANSILLUMINATORS TRAPS TRAYS TUB ES TUBING TURBIDITY ULTRASONIC PROCESSORS URINOMETERS VACUUM CLEANERS VIALS VISCOMETERS WASH BOTTLES WASHERS WATCH GLASSES WATER PURIFICATION WATER and WASTEWATER ANALYSIS WEATHER STATIONS WEIGHING WEIGHTS WINE ANALYSIS WIPERS WIRE Manufacturer : A& D Engineering Acculab Scales Agilent Air Systems Air Technology Air-Tite Products Airflow Technical Products Akro-Mils Alconox, Inc. Alpec Alpha Pro Tech American Allsafe American Bantex Analytical Instrument Systems Analytical Measurements Ansell Edmont APHA Arbill Industries Arrow Engineering Astral Diagnostics ATM Test Sieves Bacharach Barnant Company Barnstead/ Thermolyne Bausch & Lomb Becton-Dickinson Co. Bel-Art Products Bellco Glass Bethlehem Apparatus Co. Bico Binder Bio-Tek Biohit Biomol Bioplas Bioscience International Biospec Products Blazer Corp. Boekel Industries Brand Tech Scientific Branson Ultrasonics Brinkmann Instruments Broadley James Corp. BYK-Gardner Cannon Instrument Co. Cardinal Health Cargille Laboratories Carver Cedco Chemetrics Chromatography Research Supplies Chromolox Cooper Instruments Coors Ceramics Co. Corning Life Sciences Cramer Industries CSC Scientific D-Star Instruments Davison Chemical Decon Laboratories, Inc. Defelsko Corp. Dickson Company Difco Laboratories Dimco-Gray Drummond Scientific E-C Thermo Eagle Manufacturing Eberbach Edvotoek Electro-Tech Systems Elkay Products/ Kendall Elmeco Engineering EMD Chemicals Englehard-Clal Envirco Eppendorf Erdco Engineering Erie Scientific ERTCO Excel Scientific Exeter Analytical Extech Instruments Fairfield Digital Falcon/ B-D Labware Fawcett Fisher Research Friedrich and Dimmock Gast Manufacturing GFS Chemicals Gillis Glas-Col Apparatus Global Water Grace Biolabs Gretag Macbeth GT Instruments H-B Instrument Co. Hach Hamilton Co. Hanna Instruments Harvard Apparatus Hausser Scientific Heathrow Scientific Heidolph Instruments Hemco Corp. High Five Products Hirschmann Inc. Honeywell Burdick & Jackson Humboldt I-Chem IEC Thermo IKA-Works Intermetro Industries International Cryogenics ITS/ Industrial Test Systems J.G. Finneran Assoc. J.T. Baker ( MBI) Jencons Scientific Jones Medical Justrite Manufacturing Kapak Corp. Kendall Healthcare Products Kent Scientific Kimberly-Clark Kimble Kontes Inc. Koehler Instrument Co. Lab Glass Labconco Corp. Labcor Products Labomed LaMotte Company Lazar Research Leica Leneta Co. Lightnin Lindberg/ Blue M Liquid Metronics Inc. Little Giant Corp. Lym Tech Scientific Mallinckrodt Baker Inc. Market Forge Marvel Maryland Plastics Master Appliance Matheson Gas Products Med-E-Cell Mediatech Medline Memmert Ovens Mettler Toledo Microflex Miller Products Miltex Instrument Co. Mitutoyo MM Industries Mo Bio Laboratories Modulus Data Systems Molecular Bio-Products Monarch Instruments MP Biomedicals Myron L N-Con Systems Nalge Nunc International National Labnet National Scientific Naugatuck Glass Co. Newark Wire Cloth Newtex Industries Nilfisk-Advance America Nor-Lake NPS NRD Inc. Nusun Oakton Instruments Ohaus Scale Corp. OI Analytical Omni International Omnifit Ltd. Onset Computer Corp. Orbecco-Hellige Orion Thermo Osmonics OWL Scientific Pall Gelman Sciences Personna Medical Petroleum Analyzer Co. Phipps & Bird Photovolt Plas-Labs Plasticoid Polarware Corp. Polyfoam Packers Corp. Polymeric Systems Polyscience Corp. Pope Scientific Popper & Sons Post Medical Precision Scientific Premier Mill Princo Instruments Propper Manufacturing Protective Industrial Products Qbiogene Qorpak Quincy Labs Revco, GS Lab Equipment Ricca Chemicals Richard Allen Scientific Robot Coupe Rotronic Samco Scientific Sartorius Instruments SAS Safety Scientific Industries Scientific Lab Supplies Scientific Specialties, Inc. Scotsman Sentron, Inc. Shamrock Science Specialties Sheen Instruments, Ltd. Sheldon Manufacturing Inc. Simport Plastics Ltd. SKC, Inc. Sonics & Materials Inc. Sorenson Specialized Products, Inc. Sper Scientific Staco Energy Products Starna Cells Svedala Ind. Swift Instruments Sybron Chemicals Talboys Engineering Corp. Tantec, Inc. Taylor Precision Products Taylor Wharton Techne Inc. Tekmar Tempshield Thermo Finn Thermo Forma Thermo Haake Thermo Spectronic Torrey Pines TrippNT Troemner Tygon UDY Corp. UVP, Inc Vangard International Visco Alpha VistaLab Technologies Voss Technologies WA Hammond Waring Products Welch Vacuum Westco Scientific Westover Scientific Whatman Wheaton Science Products Willson Safety Wisconsin Oven WTW Measurement Systems Yamato Scientific Yellow Springs Instruments ( YSI) Zeltex Elcometer, Paint Thickness Gauge Fogging Machine Marka Jalan. Sepatu Pengaman Safety Shoes, Safety Jogger, Biker Shoes Lutron, Anemometer, Sound Level Meter, Tachometer, Vibration Meter, ph meter, conductivity meter, DO Meter, Turbidity Meter, Torque Meter AA-104 ACA Bench Meter ABH-4224 Cup Anemometer/ Barometer/ Humidity/ Temp ABH-4225 Vane Anemometer/ Barometer/ Humidity/ Temp AH-4223 Vane Anemometer/ Humidity/ Temperature AL-03S AL-04 Heavy Duty Alligators AL-05 Heavy Duty Alligators AM-402 Anemometer Adapter AM-4100G Anemometer + hybrid power AM-4200 Anemometer AM-4201 Anemometer AM-4202 Anemometer AM-4203 Anemometer AM-4203HA Anemometer AM-4204 Hot Wire Anemometer AM-4204HA Hot Wire Anemometer AM-4205A replaced AM-4205 Humidity/ Anemometer Meter AM-4206 Anemometer AM-4206M Anemometer AM-4207SD AM-4210 Anemometer AM-4213 Anemometer, mini vane AM-4214 Hot Wire Anemometer AM-4216 Anemometer, mini vane AM-4220 Cup Anemometer AM-4221 Cup Anemometer AM-4222 Van Anemometer AP-9VA ( round 2.5mm dia. plug) Power Adapter AP-9VB ( battery snap plug) Power Adapter AP-GTE Plug Conventer AP-GTU Plug Conventer AT-20 Frequency Counter optional accessory AV-102 ACV Bench Meter BACH-220 for DT2289 BAUM-1 x 4pcs for DT2289 BB-22 Frequency Counter optional accessory BB-400 Black Body BTM-4208SD ( END DEC) CA-03 ( soft carrying case) Soft Carrying Case CA-04 ( very small soft case) Soft Carrying Case CA-05A ( Big soft case w/ Sash) Soft Carrying Case CA-06 ( Hard Carrying Case) Soft Carrying Case CA-08 ( Big Hard Carrying Case) Soft Carrying Case CA-52A ( Small soft case w/ Sash) Soft Carrying Case CA-201 Mini Aca Current Meter CA-203 DCA/ ACA Current Adapter CA-501 DCA/ ACA Current Adapter CA-502 DCA/ ACA Current Adapter CB-933 Cable Tester/ cable Identifier CBOX-406 Capacitance Decade Box CC-420 Current Calibrator CC-421 Voltage/ Current Calibrator CC-422 Current Calibrator CC-MA Simulator CC-PH PH Calibration Checker CC-TEMPJ CC-TEMPK Type K Temp Calibration Checker CD-14 Conductivity Solution CD-4301 Conductivity Meter CD-4302 Conductivity Meter CD-4303 Conductivity Meter CD-4303HA Conductivity Meter CD-4306 Conductivity meter CD-4312 Conductivity Meter CD-4322 Conductivity Meter CDPB-03 CL-2006 Chlorine Meter CM-9930 ( 4000 count) 2000 A DCA/ ACA Clamp Meter + Dmm CM-9940 ( 4000 count) Mini DCA/ ACA Clamp Meter CM-9941 Smart Clamp Meter CM-9942G Clamp Meter CO-210M CO Controller CT-2012 Controller/ Alarm/ Indicator DA-103 DCA Bench Meter DC-515 Digital Caliper DC-516 Digital Micrometer DH-802C DI-6200 Insulation Tester DI-6300 Insulation Tester DI-6300A Insulation Tester DI-6400 Insulation Tester DL-6054 DL-9601A replaced DL-9601 Data Logger real time, paper less recorder DL-9602SD DL-9954 Aca Leakage Tester DM-1000 Mini 1000A DC/ AC Clamp Meter DM-6007 ACA Clamp Meter DM-6046 Clamp Meter DM-6052 Mini Dca/ Aca Clamp Meter DM-6053 Mini Aca Clamp Meter DM-6055C Clamp Meter DM-6056 Dca/ Aca Clamp Meter DM-6058 Dca/ Aca Clamp Meter DM-9020 Pocket DMM DM-9023 ( Capacitance Meter) Capacitance Meter DM-9027T+ CA-03 4 1/ 2 digits DMM, true rms DM-9030 + IP-07 Automotive Tester DM-9031+ IP-07 DM-9033 ( replaced bt DM-9023) DM-9080 Multi-Functions DM-9090 Multi-Functions DM-9092 Auto range DMM DM-9093 DM-9680 Multimeter DM-9680KITS Multimeter ( DM-9680 + CA06+ SW8101-WIN+ UPCB02) DM-9960 Cat lll-1000V Auto range Dmm DM-9961 Cat lll-1000V True rms DMM DM-9981G Green Power Multimeter DM-9982G Smart Multimeter DM-9983G Smart Multimeter DO-5509 Dissolved Oxygen Meter DO-5510 Oxigen Meter DO-5510HA Oxigen Meter DO-5511 DO-5519 Dissolved Oxigen Meter DP-30 Volt meter Module DP-40 Volt Meter DR-99420 Panel Meter DR-99ACA Panel Meter DR-99ACV Panel Meter DR-99DCA Panel Meter DR-99DCV Panel Meter DR-99TEMP DS-121( Accessories f/ GSM120/ 121 Wire less Detect Switch DT-1236L Laser Photo/ Contact Tachometer DT-2199 Stroboscope DT-2230 Photo/ Contact Tachometer DT-2234B ( Photo) Photo Tachometer DT-2234BL Laser Photo Tachometer DT-2235B ( Contact) Contact Tachometer DT-2236 ( Photo/ Contact) Photo/ Contact Tachometer DT-2237 Gasoline Tachometer DT-2238 ( Photo/ Contact) Photo/ Contact Tachometer DT-2239-2 ( 240VAC) DT-2240D+ PX-01 Panel Tachometer DT-2244 ( Photo) DT-2245 ( Contact) Contact Tachometer DT-2258 Photo/ Contact Tachometer DT-2259 Tachometer/ Stroboscope DT-2268 Photo/ Contact Tachometer DT-2269-220V Digital Stroboscope DT-2289 Stroboscope, Xenon BACH-220 for DT2289 BAUM-1 x 4pcs for DT2289 DT-2349 Stroboscope DT-2299 Stroboscope, Led array DT-2336G Photo/ Contact Tachometer DT-2339 Stroboscope, xenon DT-602 Tach/ M DV-101 DVC Bench meter DW-6060 Watt Meter DW-6090 Power Analyzer DW-6091 Power Analyzer DW-6092 ( Aro. Feb' 09) 3 Phase Power Analyzer DW-6160 ( END DEC) Watt Meter EA-100 EH-20 Electrode Holder EM-900P EM-9000 Environment Meter EM-9100 Environment Meter EM-9200 Intelligent Meter EM-9300SD Environment Meter EMF-810 Micro Wave Leakage Detector EMF-819 # Axis RF Electromagnetic Field Meter EMF-822A EMF tester EMF-823 EMF Tester EMF-824 EMF Adapter EMF-825 EMF Tester + type K Thermometer EMF-826SG EMF-827 EMF Tester, Separate probe EMF-828 3D EMF Tester EMF-839+ EP-03H+ EP-04L Electromagnetic Field Meter ET-3000 Earth resistance Tester FC-2500A+ AT-20+ PB-21 Frequency Counter FC-2700 Frequency Counter, bench type FC-2700+ PB21+ NN23 FC-422D Panel Meter FG-2003-220V Function Generator FG-20KG Force Gauge FG-20KG-RS232 FG-5000A Force Gauge FG-5000A-RS232 FG-5005 Force Gauge FG-5020 Force Gauge FG-5100 Forge Gauge FS-1001 + WG-01 Test Stand FT-9950 A/ DC Fork Current Tester GB-100KG Bench Scale GB-150KG Bench Csale GB-4501 GC-2028 CO2 Meter GCH-2108 CO METER Co Meter GCO-2008 CO meter GM-1500P Digital Balance GM-2000R GM-225G GM-300P Digital Balance GM-3KG 3 kg Digital Scale GM-500 Digital Scale GM-5000 Digital Scale GM-5001 Digital Scale GM-501 Digital Scale GM-600G Digital Scale GM-600P Digital Balance GMCB-89 Interface Cable GS-400 Ultrasonic Transmitter GS-5800 Ultrasonic Leakage Detector GS-5800+ GS400+ EA100 GSM-120 GSM Home Security System GSM-840 GSM Control System GSM-888 GSM Control System GSM-889 GSM Controller GU-3001 Magnetic Meter HA-701 HA-702 HD-200PAL Anemometer Probe HD-200PLX Light Probe HD-200PRH Humidity Meter Probe HD-3008 HS-01 Holster HS-02 Holster HT-305 Pocket Humidity Meter HT-306 Humidity/ Temp, Meter HT-3006A replaced HT-3006 HT-3006HA Humidity meter HT-3009 Precission Humidity + Temp + Dew Point HT-3015 replaced 3005A/ 3005HB HT-3015HA Humidity Meter HT-315 replaced HT-319 Pocket Humidity Meter HT-3007SD ( END DEC) HT-4006G Humidity/ Temp, Meter + type K/ J Temp HV-40 High Voltage Probe IP-07 Inductive Pick Up Sensor IP-09 Inductive Pick Up Sensor IR-961 KV-05 LAN-922 Lan cable atester LBOX-405 Inductance Decade Box LCR-9063 Pocket LCR Meter LCR-9073 LCR Meter LCR-9083 LCR Meter LCR-9183 LCR Meter, bench type LF-423 Line Frequency Monitor LG-09 LM-8000 Anemometer, Humidity Meter, Light Meter LM-8010 LM-8012 LM-8020G Green 4 in 1 Meter LM-8100 4 in 1 Meter LM-8102 5 in 1 Meter LM-81AM Anemometer, Humidity Meter, Light Meter LM-81AT Anemometer LM-81HT Humidity meter LM-81LX Light Meter LS-04 200 AMP Current Shunt LX-02 Light Adapter LX-100 Light Meter LX-101 Light Meter LX-101A Light Meter LX-102 Light Adapter LX-103 Light Meter LX-104G Light Meter LX-105 Light Meter LX-107 Light Meter LX-107HA Light Meter LX-108 Light Meter LX-110 Light Meter LX-1102 Light Meter LX-1108 Light Meter LX-1118 Light Meter MALE YELLOW JACK MHB-382SD ( END DEC) MHT-381SD ( END DEC) MO-2001-2 ( 240V) MO-2002-230V Milliohm Meter MO-2013-230V High Precision Milliohm Meter MP-31 probe f/ MS7000HA/ 7003 MS-7000 Moisture Meter MS-7000HA Moisture Meter MS-7001 Moisture meter MS-7002 Moisture meter MS-7003 Moisture Meter MS-7011 MS-71P ( must cal. with meter) Humidity Content Probe MTM-380SD ( END DEC) MY-81AP Anemometer MY-91HT NB-24 Frequency Counter NI-214 Negative Ion Water Tester NN-23 Frequency Counter ORP-14 replaced OPR-04 ORP Electrode ORP-203 ORP Meter ORP-213+ ORP-14 ORP Meter ORP-400 Cal. Solution OXDP-02 OXEL-03 Probe-Filling Electrolyte OXHD-04 Spare probe Head with Diaphragma OXPB-01C( 4meter) replaced 01B OXPB-01C ( PROBE f/ DO-5510) OXPB-09 F/ DO5509 OXPB-11 F/ DO-5511/ 5510 PB-21 Frequency Counter PC-6009 Power Clamp Meter PC-6010 Power Clamp meter PCD-431 Conductivity Meter PCD-432 Conductivity Meter PCO-350 CO Meter, pen type PDO-519 Dissolved Oxigen Meter PDO-520 Dissolved Oxigen Meter PDT-2250 Controller/ Monitor PO2-250 PE-01 pH electrode PE-02 Heavy Duty PH Electrode PE-03 pH Electroda PE-03K7 PH electrode + Temp probe PE-04HD Spear Tip pH Electrode PE-05T pH Electroda PE-06HD Spear Tip pH Electrode PE-08 Plane PH Electrode PE-11 pH Electroda PE-21 ph Electroda PH-04 pH 4 Buffer Solution PH-04A pH Buffer Solution PH-07 pH 7 Buffer Solution PH-07A pH 7 Buffer Solution PH-109G pH Meter PH-201 pH meter PH-202 pH Bench Meter PH-206 Temp Meter PH-207 pH meter PH-207HA pH meter PH-208 pH meter PH-209G Green pH Meter PH-211 Ph Meter PH-212 Soil Ph Meter PH-214 pH bench Meter PH-220 Pen pH Meter PH-220S Soil PH meter PH-221 pH Meter PH-222 Pen PH Meter PH-223 Pen PH Meter PH-321M PH Monitor PHB-318 Humidity/ Barometer/ Temp Meter PHT-3109 Panel Humidity/ Temp Meter PHT-316 Humidity/ Temp Meter PI-06 Photo Sensor PL-03 PLX-111 Light Meter PM-9100 Manometer PM-9100HA Manometer PM-9102 Manometer PM-9107 Manometer PMS-713 Moisture Meter PMS-714 Soil Moisture Meter PPH-2108 pH Controller/ Monitor PPS-9312 Pressure Controller/ Monitor PRS-2321 Controller/ Monitor PS-403 Pressure Adapter PS-9302 Pressure Meter PS-9302+ PS100-xxBAR+ CA-06 PS93DV-100BAR PS93DV-10BAR PS93DV-20BAR Pressure Transducer PS93DV-2BAR PS93DV-400BAR PS93DV-50BAR PS93DV-5BAR PS-93MAxxBAR Pressure Transducer PS-100-2BAR PS-100-400BAR PS-100xxBAR Pressure Sensor PSA-311 Salt Meter PTM-806 Thermometer PTM-816 Thermometer PUV-360 Pen UV Light Meter PVB-820 Pen Vibration Meter PWA-301 Pure Water Meter PX-01 Proximity Sensor PX-02 Proximity Sensor RBOX-408 Resistance Decade Box RCB-110V RCCB Checker RCB-220V RCCB Checker RGB-1001 RGB-1002 Color Analyzer RHA-33 Humidity Calibrator RHA-75 Humidity Calibrator RSC-801 Conventer RT-606 3 Phase Rotation Tester RT-608 3 phase & Motor Rotation tester RT-616 3 Phase Rotation Tester SB-01 Wind Shield Ball SC-941 ( 94dB) Sound Calibrator SC-942 ( 94dB/ 114dB) Sound Calibrator SCALE-U002 SL-3113G Sound Level Meter SL-406 Sound Adapter SL-407 Sound level meter SL-4001 Sound level meter SL-4010 Sound Level Meter SL-4011 Sound level meter SL-4012 Sound level meter SL-4013 Sound level meter SL-4022 Sound level meter SL-4023SD ( END DEC) SL-4030 Sound level meter SL-4112 Sound Level Meter SL-4113G Green Power Multimeter SPA-GE SPA-UK SPA-US ST-50 Shunt SW-808 8 meters Data Acquisition Software SW-9960 SW-D003-WINCD SW-DL2005 SW-U801-WIN Software for intelligent Instrument TA-35 Tachometer Adapter TA-601 Tachometer Adapter TC-920 Thermometer Calibrator TL-01S TL-02AS Alligator Test Lead TL-03 for DM-9023 TL-09S TL-88 Heavy Duty Test Lead TLSM-15 SMD Test Clips TM-2000 Thermometer TM-903A Thermometer TM-906A Dual Thermometer TM-907A Preccision degree Thermometer TM-909AL replaced TM-900 Infrared Thermometer TM-914C replaced TM-902C Dual Channel Thermometer TM-916 Dual Thermometer TM-916HA TM-917 Precision degree Thermometer TM-917HA TM-919AL replaced TM-900 Infrared Thermometer TM-9126 Thermometer type K/ J/ R/ E/ T TM-924C Two Channel Thermometer TM-925 Two Channel Thermometer TM-926 TM-928G Dual Channel Thermometer TM-936 Thermometer TM-939 IR Thermometer TM-946 ( to offer TM-947SD better) Thermometer TM-947SD TM-949 TM-956 Infrared Thermometer TM-958 Infrared Thermometer TM-959 Infrared Thermometer TM-966 ( forehead IR thermometer) TM-969 Infrared Thermometer TP-01 Type K Temperature Probe TP-02A Type K Temperature Probe TP-03 Type K Temperature Probe TP-04 Type K Temperature Probe TP-06 Optional Temp, Probe for pH Meter TP-07 Optional Temp, Probe for pH Meter TP-100 PT 100 ohm Temp.Probe TP-101 f/ TM-946 TP-11 TQ-8800 Torque Meter TQ-8801 Torque Wrench, 100 kg-cm TQ-8803 Torque Wrench, 100 kg-cm TU-2016 Turbidity Meter UPCB-01 USB Cable UPCB-02 Rs 232 Cable for intelligent Instrument UPCB-03 ( 20M) f/ PRS-2321 UPCB-04 UPCB-06 for DM-9960 USB-01 USB-01 UV-340A UV-340 UVA-365 UV0-A Light Meter UVC-254 UV-A Light Meter VB-8200 Vibration Meter VB-8201HA Vibration meter VB-8202 Vibration Meter VB-8203 Vibration meter VB-8210 Vibration Meter VB-8212 Vibration Meter VB-8213 Vibration Meter VB-8220 Vibration Meter VC-9200 Vacuum Meter VT-8204 Vibration/ Tachometer WA-2015 pH/ orp, DO, CD/ TDS Meter WA-2017SD pH/ ORP, DO, CD/ TDS, Salt Meter WA-300 Pure Water Tester WG-01 Wedge Grip WH-08 Case holder f/ HT-306 WT-200 YK-10LX Light Meter, YK-2000PK YK-2001PH Intelligent PH Meter YK-2001TM Intelligent Thermometer YK-2004AH Hot Wire Anemometer YK-2004CD Conductivity Meter YK-2014CD Conductivity Meter YK-2005AH Hot Wire Anemometer YK-2005AM Anemometer YK-2005CD conductivity meter YK-2005LX Light Meter, real time data logger YK-2005RH Humidity Meter real time data logger YK-2005TM Multi-function Thermometer YK-2005WA pH/ orp, DO, CD/ TDS Meter YK-200PAL Anemometer probe YK-200PAM Metal Anemometer probe YK-200PAS Mini Vane Anemometer probe YK-200PATC ATC probe YK-200PCD conductivity Probe YK-200PCT Conductivity/ TDS probe YK-200PDO Dissolved Oxygen YK-200PIR Infrared Temperature probe YK-200PLX Light Probe YK-200PRH Humidity probe YK-21PH pH meter YK-22CT Conductivity/ TDS Meter YK-22DO Disolved Oxygen Meter YK-23RP ORP Meter YK-30WA Pure Water tester YK-31SA Salt Meter YK-35UV UV Light Meter YK-43CD Conductivity meter YK-36UV UV Light Meter YK-80AM Anemometer YK-80AP Anemometer YK-80AS Anemometer-80AS YK-90HT+ CA-06 TR-PHT1A4 pH Transmitter PE-03 for TR-PHT1A4 TR-DOT1A4 Dissolved Oxygen Transmitter TR-CDT1A4 Conductivity Transmitter TR-CLP1A4 TR-VBT1A4 Vibration Transmitter TR-PST1A4 Clamp Transmitter TR-SLT1A4 Sound Transmitter TR-TMK1A4 Temp Transmitter TR-PS2W-2BAR TR-PS2W-5BAR TR-PS2W-10BAR TR-PS2W-20BAR 2 wires Pressure Transmitter TR-PS2W-50BAR TR-PS2W-100BAR TR-PS2W-400BAR TR-RH2W Wires Humidity Transmitter Optional for TR-TMK1A4 TP-01 Type K Temperature Probe TP-02A Type K Temperature Probe TP-03 Type K Temperature Probe TP-04 Type K Temperature Probe TR-TMP1A4 Temp Transmitter TP-100 for TR-TMP1A4 CT-2002-MA TR-HUM1A4 TR-AMT1A4 TR-LXT1A4 TR-RPM1A4 RPM transmitter TR-HZT1A4 Frequency Transmitter TR-LDT1A4 Load Cell Transmitter TR-PTT1A4 Potential Transmitter TR-ACV1A4-150V ACV Transmitter TR-ACV1A4-300V TR-ACA1A4-1A ACA transmitter TR-ACA1A4-5A TR-DCV1A4-200MV TR-DCV1A4-2V TR-DCV1A4-20V DCV Transmitter TR-DCV1A4-200V TR-DCA1A4-200UA DCA Transmitter TR-DCA1A4-2MA TR-DCA1A4-20MA TR-DCA1A4-2A TR-DCA1A4-5A TR-CLP1A4 ( N.A.N) Clamp Transmitter Dataloggers; Ebro EBI 20 TH/ Set - Lutron - Comet T3110 -Deltatrak -AZ Instrument - Orion - Hanna- Extech -Sound Level Meter, Vibration Meter, Dissolved Oxygen Meter, pH Meter, Conductivity Meter, Total Suspended Solid- TSS Analyzer, ShimpoTachometer. We Sell : Analytical Balance merk AND, Radwag, Ohaus, Scientech, acculab, pesola, avery, Metler Toledo, Tanita, dll Anemometer extech, lutron, az, smart, Delta Ohm, testo, vaisala. Area Heat Stress Monitor, quest Audio Meter BOD Incubator merk Aqualytic BOD Meter merk Aqualitytic Centrifuge Chlorineterase Kit COD Meter merk Aqualitytic Colony Counter Conductivity Meter Delta Ohm Current Meter Flowwatch, Dissolved Oxygen Meter Distilation Dry Gas Meter dan Wet Gas Meter merk Shinagawa Ekman Grab, merk Wildco Elektromagnetic Field EMF Meter Fit Test Flow meter Flow probe current meter merk Global water Flue Gas Analyzer Merk Anapol Swiss Furnace Gas Analyzer Gas dan Smoke Analyzer Merk Assemblad Italy Gas detector Tube Kitagawa Gas Sampler GPS Harm Vibration Meter High Volume Sampler, Merk Staplex USA Homogenizer Horizontal Alpha Water Sampler, merk Wildco Hot Plate Cimarec Human Vibration Meter Human Vibration Meter Integrating Sound Level meter Delta ohm Isokinetic Stack Sampling Kjedahl Digestion merk Gerhardt Kjedahl Distillaion merk Gerhardt Laboraatory Refrigerator merk Aqualytic Laboratory Blender Lemari Asam ( Fume hood) Low volume sampler Staplex Lux Meter Lux Meter, Light Meter Magnetic Stirer Micromanometer with Pitot Tube Multi Gas Analyzer for Ambient Air Merk Nova Multi Gas Detection Niskin PVC Water Sampler, Merk KC Denmark Noise Dose Meter Oil on Water Opacity Meter Ringleman Fuji Scope Personal Dust Sampler Personal Heat Stress monitor Personal monitor Petite Ponar Dredge , merk Wildco Ph. Meter Delta Ohm Photo Meter Photo-Radiometer Plankton Net, merk Wildco PM 10 dan PM 2.5 , Merk Staplex PM10, PM2, 5 Tactical Air sampler Merk Airmetric USA Portable Sounder Portable Suspended Solids Merk Partech Portable Water Test kits ( Microbiologi Sound Level meter Delta ohm , Lutron Spectrophotometer UV-VIS Spiro Meter Theodolite Thermohygrometer Total Organic Carbon merk Lachat Total Suspended Particulate Staplex Turbidity meter Universal Ovens merk Memmert Vaccum Pump Van Dorn Water Sampler, Merk KC Denmark Vertical Beta Water Sampler, merk Wildco Water Bath ( penangas air) Water Quality Checker TOA, Horiba Weather Station Delta Ohm Contact Us : Tohodo Scientific Instrument DTC ( Darmo Trade Center) LT.4 Blok A No.63 Jl. Raya Wonokromo Surabaya, Jawa Timur Email: tohodosby@ yahoo.com Telp : 031- 7700 1340, 031- 848 4947 Fax : 031- 848 4947, Hp : 0821 2335 1143..            ","
              DTC (Darmo Trade Center)  LT.4 Blok A No.63  Jl. Raya Wonokromo  Surabaya, Jawa Timur            ",Surabaya,Jawa Timur,+62 821-2335-1143,None,None
CV. Mesin JDW,"
                                    PREMIUM GOLD
                                ",Perlengkapan Restaurant,"
              Cv. Mesin JDW adalah penjual dan perancang segala alat alat mesin usaha yang anda butuhkan, dengan tenaga ahli yang berpengalaman dan sudah dikenal di berbagai perusahaan di Indonesia maupun di Mancanegara. Kami menyediakan berbagai macam banyak jenis mesin usaha tepat guna untuk keperluan usaha anda di antaranya mesin pengemas, mesin makanan, mesin minuman, mesin pertanian, mesin peternakan, mesin perikanan, mesin pendingin, mesin pemanas, mesin keperluan hotel, mesin usaha rumah tangga dan lain sebagainya, Kami juga membuat mesin dengan konsep yang anda inginkan. SEGERA HUBUNGI Customer Service Kami atau langsung datang ke lokasi. Head Office : Jl. Manisa Bumiayu Kedung Kandang Malang 65135. Kami sangat senang sekali dengan adanya saran maupun kritik anda dan anda bisa bisa kirim ke email kami yang tertera di website resmi kami. Terima kasih atas kepercayaan dan kunjungan anda, SELAMAT BERBELANJA.            ","
              Jl. Manisa 2A Bumiayu Kedung Kandang kota Malang Jawa Timur            ",MALANG,Jawa Timur,+62 856-4848-4114,None,None
Bengkel Kitchen,"
PREMIUM RUBY
",Perlengkapan Restaurant,"
Bengkel kitchen merupakan branch dari PT Primastian Metal Pertama, Yang telah Berpengalaman 20 tahun lebih dalam Industri Kitchen Equipment berbasis Stainless.
 
Kami mengerjakan Beberapa group, Seperti ;


 Mayapada group( Hospital )
 Freeport Mining
 Texas Fried Chiken
 Sederhana Bintaro
 Fish Streat
 School Food (Korean food)
 Jakarta Internasional School
 Horisson Hotel
 Metland Hotel
 Pangan Sari Utama (Catering)


 
Memiliki fasilitas pabrikasi di Jakarta Timur, dan Layanan Purna Jual 
Berbekal dengan pengalaman kami, Kami siap membantu anda dalam perecanaan Kitchen Equipment Restorant maupun segala kebutuhan berbasis Stainless steel
Kami juga memberikan layanan untuk pembuatan Instalasi Gas dan Instalasi Duckting
 
Visi Perusahaan :
 
” To be Indonesia best leading Kitchen Company "" (Menjadi Leader dalam perkembangan Industri Kitchen Equipment Di Indonesia)
 
Misi Perusahaan : 
 
“ Memahami tentang visi kami dan bagaimana menjadikannya menjadi kenyataan, dengan pengalaman dan pelayan terbaik kami ”Instagram : Bengkel_kitchen
 ","
              Jalan Terusan pangrango no 68, Jatibening 1. Pondok Gede Bekasi 17421, Jatibening Baru, Pondok Gede, Bekasi City, West Java 174110878-8783-2021 https://g.co/kgs/jf2GLb            ",Jakarta Timur,DKI Jakarta,+62 878-8783-2021,None,None
Abadi Jaya,"
PREMIUM BLUE ONYX
",Perlengkapan Restaurant,"
              Awal mula dari Abadi Jaya,  kembali ke tahun 1990 ketika pertama kali dimulai sebagai bisnis pemasok peralatan laut untuk industri perikanan. Bisnis yang telah dibawah kepemimpinan yang kuat dan tumbuh menjadi perusahaan Distributor dan Importir ditahun 2007 dan mulai membangun jaringan pemasaran yang luas diseluruh Indonesia.Dengan pengalaman yang kami miliki diindustri perikanan selama 30 tahun, kami yakin dapat memberikan products dengan performance dan quality yang lebih baik, dan tetap menjaga agar harga tetap competitive.Rentang Products kami adalah sebagai berikut : 1. PVC Spring Hose / Selang Kawat (HOYA SPRING HOSE - HDC , JAPAN QUALITY)Terbuat dari bahan PVC Murni, Tebal, Memiliki daya tahan terhadap tekanan air yang cukup Tinggi, Bening /Transparant, Tidak berbau, Tidak Berminyak dan tidak akan berubah warna jika terkena panas matahari, Kualitas spt merek JAPAN (TOYOX) 2. Pipe Fitting / Sambungan Pipa. Brass Kuningan Sambungan Elbow Pipa (YK - Thailand)Stainless Steel Sambungan Elbow Pipa 304
Stainless Steel Klem Stainless (Taiwan)
Stainless Steel 304 Segel, Kili-Kili Stainless Steel 304 Ball Valve 3. Baut Kapal Stainless Steel Baut, Ring 304 (THE/TAIWAN) Steel Long Bolt , Baut Gemuk (Ukuran 5/8 Inch x 8 “-20 “) 4. Fishing Lamp & Pancing CumiLampu Cumi (UniStar Korea Brand)Ballast dan Socket Lampu CumiLampu Signal Klip (Star Brand) 1,2,5warna
Pancing Cumi Appolo (#2.5 & 4.0) Pancing Cumi Udang #2.05. Boat Nails / Paku Kapal Paku Thailand (A)Paku Singapore Paku AustraliaPaku TimahPaku Fiber (Ulir) dan Ring Stainless Steel6. Tools Sponge Busa Karet Taiwan ( 1M x 2M x 9 cm )Kepala kompor  Type 203 dan 768 Gurinda Amplas (Sonix Brand)Gurinda Potong (Sonix Brand)Bulu Roll 4 “ dan 6 “ (Star Brand) - Khusus untuk FiberJas Hujan TaiwanAsbes Pita Standard, Super, Fiber (Ukuran 3 inch dan 4 Inch)Lakban perak (Alumunium)Kawat Stainless Steel7. Marine Hardware Brass Kuningan Water Pump / Pompa Keong (PC 8000 Malaysia)Brass Kuningan Water Pump / Pompa Keong (YK Thailand)Cast Iron Steel Water Pump / Pompa Keong (YK Thailand)Pohot / Bearing Kuningan (Atlantic Marine)Marine Battery/Aki Kapal (SONIX)Termometer , Amper Oil Dan Amper Pendingin (SONIX)
PT. ABADI JAYA JKT    Supplier Marine Hardware, Spareparts and Equipment  
 
Address (Office)    RUKO LT.2 MUARA KARANG L9.T/20 RT013/RW015 , KEL PLUIT , KEC PENJARINGAN , JAKARTA UTARA 14450, INDONESIA .    
Address (Warehouse)    1. JL. KAYU BESAR DALAM 1 NO 19. TEGAL ALUR, KALIDERES. JAKARTA BARAT, INDONESIA.  2. JL. DERMAGA 1 NO 2, JAKARTA UTARA 14450, INDONESIA.
HP : 08128354388 / 082110332208 Email     pdabadijaya@yahoo.comEmail contact@abadijaya.com  / sales@abadijaya.com
WhatsApp    : (+62) 8128354388
Contact Person   : Robert
www.abadijaya.com
www.abadijaya.id
 ","
              Muara Karang L 9 Timur No 20, Jakarta Utara 14450            ",Jakarta Utara,DKI Jakarta,+62 812-8354-388,None,None
Home Sweet Home Indonesia,"
                                    PREMIUM GOLD
                                ",Perlengkapan Restaurant,"
              Homesweethome.co.id menjadi solusi pengadaan peralatan dan perlengkapan rumah dan gedung yang lengkap dan berkualitas. Layanan terbaik dan kecepatan pengiriman barang menjadi salah satu keunggulan kami. Hubungi kami 24 jam untuk menjawab setiap pertanyaan anda. Untuk info lebih lanjut silahkan kirimkan email ke marketing@ homesweethome.co.id. kami melayani pengiriman barang serta jasa pemasangan unit keseluruh kota dan pelosok Indonesia.            ","
              Rukan Niaga Boulevard Metland Menteng Blok I1 no.26 Raya Bekasi Km.26 Jakarta Timur            ",Jakarta Timur,DKI Jakarta,+62 811-1185-538,None,None
INtersarana Indokita (INIGLODOK),"
                                    PREMIUM GOLD
                                ",Perlengkapan Restaurant,"
              www.iniglodok.com Usaha dari pengembangan indokita teknik ; intersarana1 , Nilfastindo dan Pora Perabot. Pengembangan ini untuk mempermudah pelayanan pembelian sukucadang,mesin,utilities dan accesories. Customer selalu menjadi prioritas Kami dalam usaha pengembangan bisnis.Untuk mempermudah pelayanan bisa menghubungi di  Customer service :+62 21 6329866. & 021 22638375 ----------------------------------------------------------------------------------------------------www.iniglodok.com Enterprises of indokita development techniques; intersarana1, Nilfastindo and Pora perabot. This development is to facilitate the purchase of service parts, machines and accesories. Our customer is always a priority in business development efforts.we giving a cost compatible price with the other.We always effort for giving our customers satisfaction.trustworthy and reliable.From Customers ,We grow up.Customer Service : 021  6329866 & 22638375Sales 1  08561003778  (Whatsapp-Line)Sales 2. 081285012211 (Whatsapp-Line) ","
              JL. Hayam Wuruk GLODOK CITY 3rd floor Blok BKS No 64. & 4th Floor Blok BKS No 08 Jakarta 11120LTC Lindeteves Glodok Jl Hayam Wuruk 127 Glodok Jakarta .Koridor F Lt,1  Blok B Pameran            ",Jakarta,DKI Jakarta,+62 856-1003-778,None,None
PT. SPEKTRA SURYA UTAMA,"
                                    PREMIUM GOLD
                                ",Perlengkapan Restaurant,"
              PT. SPEKTRA SURYA UTAMA merupakan distributor alat laboratorium sejak tahun 1992 untuk peralatan Laboratory, Analytical dan Alat Lingkungan. Kami merupakan distributor peralatan : Polarimeter, Saccharomat, Refractometer, Colorimeter, Saccharoflex - SCHMIDT + HAENSCH; Dissolution Tester, Tap Density Tester, Disintegration Tester, Test Friability Tester, Hardness Tester, Transdermal Diffusion Cell, Automated release Rate tester- Logan Instruments; Levelogger, RainLogger, Water Level Meter - SOLINSTFor more info :PT. SPEKTRA SURYA UTAMAPhone : 021-82750620Mobile : 082211116326E-mail : sales@spektrasurya.com            ","
              PT. SPEKTRA SURYA UTAMA Gedung Nariba Dua, 2 nd Floor Jl. TB Simatupang 49            ",Jakarta Timur,DKI Jakarta,+62 822-1111-6326,None,None
PT. TANJUNG PERKASA,"
                                    PREMIUM GOLD
                                ",Perlengkapan Restaurant,"
              COMPRESSOR SPECIALIST . service compressor yang didukung dengan suku cadang ( spare parts) yang asli ( genuine parts & consumables) , kami siap memberikan pelayanan terbaik untuk perbaikan dan perawatan ( repair & maintenance services ) . Supplier untuk Refrigeration Equipment & Machinery REFRIGERATION Compressor for ICE FACTORY : MYCOM SABROE GRASSO CARLYLE CARRIER HASEGAWA GRAM Hubungi:PT.TANJUNG PERKASATelp: 021-4351940Telp: 021-43922061Hp.: 0816905267Hp.: 081281481420Jakarta-Indonesia            ","
              Jl. Plumpang Raya no.9. Tg.Priok, Koja, Jak-UtHubungi:PT.TANJUNG PERKASATelp: 021-4351940Telp: 021-43922061Hp.: 0816905267Hp.: 081281481420Jakarta-Indonesia ",Jakarta,DKI Jakarta,+62 816-905-267,None,None
PT. ADI RAYA MANDIRI,"
                                    PREMIUM GOLD
                                ",Perlengkapan Restaurant,"
PT. ADI RAYA MANDIRI, berkembang sangat pesat sebagai perusahaan yang bergerak dalam bidang Industrial Automation System dan Electrical Components. perusahaan kami menjual dan medistribusikan barang barang spare part dan alat - alat untuk kebutuhan industri yang ada di Indonesia, meliputi bidang Automation System dan Electrical Components Pneumatic Hydraulic dan juga Controls System Seperti :AGENT :

OPTEX
TRAFAG
WATANABE ELECTRIC
PULS
AXE PANEL METER

AUTOMATION SYSTEM :

ALLEN BRADLEY
ABB
BECKHOFF
DANFOSS
DELTA
FUJI ELECTRIC
GE FANUC
HITACHI
EMERSON
LENZE
LS
OMRON
PANASONIC
SCHNEIDER
SIEMENS
TECO
TOSHIBA
YASKAWA

POWDER CLUTCH & BRAKES :

MITSUBISHI
OGURA
OSAKI-DENGYOSA
SUNTES SHINKO-SINFONIA
MIKKI-PULLEY
COREMO
WARNER
MAYR
HYDRAULIC

PNEUMATIC & HYDRAULICS :

SMC
KOGANEI
CKD
KURODA
TAIYO
TACO
ROSS
AIRTAC
DAIKIN
YUKEN
NOK F-TEC
NACHI-FUJIKOSHI
MAC VALVE
ERACON
NEW-ERA
PISCO
CHANTO
MYOTOKU

ELECTRICAL MOTORS:

MITSUBISHI
YASKAWA
FUJI-ELECTRIC
HITACHI
LG/LS
TOSHIBA
NIKKI-DENSO
TAMAGAWA SEIKI
NISSEI
RORZE
SANYO-DENKI
SAWAMURA
ORIENTAL-MOTOR
VEXTA MOTOR
PANASONIC
SHINKO
SHIMPO
NIDEC-NEMICON
IDEC-IZUMI

SENSOR & CONTROL DEVICE :

OMRON
PANASONIC-SUNX
KEYENCE
RIKEN-OPTECH
YAMATAKE-AZBIL
SEEKA-TAKEX
TAKENAKA-PULNIX
KOYO
EUROTHERM
OPTEX
PEPPERL+FUCHS
PILZ
SICK
TURCK
IDEC-IZUMI
PIL
IPF

POWER SUPPLIES DC - AC CONVERTER : 

COSEL
NEMIC-LAMBDA
FINE-SUNTRONIX 
OMRON
MEANWELL
MURR
PULS
XP

TEMPERATURE CONTROLLER :

RKC INSTRUMENT
TOHO
SHIMADEN
SHINKO TECHNOS
FUJI ELECTRIC
HONEYWELL
ASAHI-KEIKI
ALISH
KEYANG
YOKOGAWA
DWYER
EMKO
TAIE

Keuntungan dari pelayanan kami adalah sbb:

Harga yang kami tawarkan lebih bersaing
Mutu dan keaslian barang terjamin
Barang dapat kami kirim sesuai dengan tanggal kebutuhan
Kemudahan dalam pembayaran

Untuk permintaan penawaran harga hubungi kami dibawah ini :PT. ADI RAYA MANDIRIJl. Pinang Raya No.70 Pondok LabuJakarta Selatan 12450 IndonesiaTelp: 6221-7663747 - 29042880Fax: 6221-7510595E-mail: adirama@indo.net.idE-mail: adirayamandiri@yahoo.co.idE-mail: ptadirayamandiri@yahoo.co.idHubungi sales kami:
Lina:  081219744882
Dani: 081310878688
Maya: 081288840351
Anie : 081318713253 ","
              Jl. Pinang Raya No.70 Pondok Labu            ",Jakarta Selatan,DKI Jakarta,+62 813-1087-8688,None,None
