Name,Membership,Category,Description,Address,City,Province,telp1,telp2,telp3
PT. TRIPUTRA JAYA MAKMUR,"
PREMIUM RUBY
",Besi Pipa & Tabung,"
PT. TRIPUTRA JAYA MAKMUR General Supplier, Contractor & Sub-Contractor Sipil- Arsitektur - Mekanikal & Elektrikal. 
Mulai berkarya dalam bidang Perdagangan umum barang & Jasa untuk melayani infrastruktur di Kalimantan Timur sejak tahun 2005, berawal dengan nama CV. TRIPUTRA JAYA MAKMUR diresmikan pada tahun 2015 oleh Notaris Samarinda. Kemudian pada Tahun 2020, mendirikan perusahaan PT. TRIPUTRA JAYA MAKMUR.Kami menawarkan Jasa Kontraktor & Sub-kontraktor khusus wilayah Kalimantan dengan keterangan pekerjaan sebagai berikut :ARSITEKTUR 

Perumahan tunggal dan Koppel serta perawatannya.
Perumahan multi hunian beserta perawatannya.
Bangunan pergudangan dan industry beserta perawatannya
Bangunan komersial beserta perawatannya.
Bangunan non perumahan serta perawatannya.
Fasilitas pelatihan sport di luar gedung, tempat rekreasi serta perawatannya.
Pertamanan serta perawatannya.
Pemasangan aksesoris bangunan serta perawatannya.
Pekerjaan dinding dan jendela serta perawatannya.
Pekerjaan interior termasuk perawatannya.
Pengerjaan logam.
Pengerjaan kayu.
Pengerjaan bangunan dan gedung.
Pengerjaan Kaca & Aluminium.
Pengerjaan Aluminium Composite Panel

ELEKTRIKAL

Pembangkit tenaga listrik semua daya beserata perawatannya.
Pembangkit tenaga listrik dengan daya maksimal 10MW beserta perawatannya.
Jaringan transmisi tenaga listrik baru dan terbarukan beserta perawatannya.
Jaringan transmisi tenaga listrik tegangan tinggi dan ekstra tegangan.
Jaringan transmisi telekomunikasi serta perawatannya.
Instalasi kontrol dan instrumentasi serta perawatannya.
Instalasi listrik gedung dan pabrik serta perawatannya.
Instalasi listrik lainnya serta perawatannya.

 MEKANIKAL

Instalasi pemanasan, ventilasi udara dan AC serta perawatannya.
Perpipaan air dalam bangunan serta perawatannya.
Instalasi pipa gas dalam bangunan serta perawatannya.
Insulasi dalam bangunan serta perawatannya.
Instalasi lift dan escalator serta perawatannya.
Pertambangan dan manufaktur serta perawatannya.
Instalasi thermal, bertekanan, minyak, gas, pekerjaan rekayasa serta perawatannya.
Konstruksi alat angkut dan alat angkat serta perawatannya.
Konstruksi perpipaan minyak, gas, dan energy serta perawatannya.
Fasilitas produksi penyimpanan minyak dan gas serta perawatannya.
Jasa penyedia peralatan konstruksi.

 PEKERJAAN SIPIL

Jalan raya dan jalan lingkungan serta perawatannya.
Lapangan terbang dan runway serta perawatannya.
Jembatan serta perawatannya.
Terowongan serta perawatannya.
Jalan bawah tanah serta perawatannya.
Pelabuhan dan dermaga serta perawatannya.
Drainase kota serta perawatannya.
Bendungan serta perawatannya.
Irigasi dan drainase serta perawatannya.
Pengerukan dan pengurukan serta perawatannya.
Pekerjaan penghancuran.
Pekerjaan penyiapan dan pengupasan lahan.
Pekerjaan penggalian dan pemindahan.
Pekerjaan pemancangan.
Pekerjaan pondasi.
Pekerjaan kerangka atap serta perawatannya.
Pekerjaan pembetonan.
Pekerjaan konstruksi baja serta perawatannya.
Pekerja pelaksana khusus lainnya.

Untuk informasi lebih jelas, hubungi Marketing kami. Email : triputrajayamakmurindonesia@yahoo.com
  ","
              Head Office :Panin Tower 8th Floor Jl. Jenderal Sudirman No.7 Klandasan Ilir, Balikpapan.Branch Office :Jl. Brigjend Katamso No. 2A Samarinda. ", ,Kalimantan Timur,+62 858-4906-8419,+62 831-5376-6410,None
CV. JAYA MAKMUR ABADI,"
PREMIUM RUBY
",Besi Pipa & Tabung,"
CV. Jaya Makmur Abadi, perusahaan yang bergerak dibidang perdagangan umum Material Konstruksi & material lainnya, dan telah berpengalaman lebih dari 10 Tahun. 
Berdiri sejak Tahun 2005 dengan nama Jaya Makmur Abadi, dan diresmikan pada tahun 2010 oleh notaris Edward Agustin menjadi CV. Jaya Makmur Abadi. 
CV. Jaya Makmur Abadi bekerja sama dengan beberapa Pabrik & Distributor Material dan hingga kini sudah melayani lebih dari 900 pelanggan, yang terdiri dari pelanggan pribadi/perusahaan baik dari dalam & luar daerah di Indonesia. 
 
Visi & Misi : 


Menciptakan sistem perusahaan yang sistematis & fleksibel dalam hal pelayanan.
Menciptakan lapangan kerja & Sumber daya Manusia yang terampil, profesional& handal. 
Menciptakan pelayanan & kerjasama yang berkesinambungan dengan pelanggan.
Menjadi perusahaan multinasional yang dapat memberi sumbangsih terhadap perekonomian di Indonesia. 

CV. Jaya Makmur Abadi.General Supplier & Trading : Besi Beton & Baja. Rangka Baja Ringan & Atapnya.Aluminium Kusen Pintu & Jendela.Plywood & Kayu lainnya.Pipa Paralon & Pipa Lainnya. 
Keramik & Granit.Perlengkapan Sanitary. Aksesories Pintu & Jendela.
Segala jenis Kaca Bangunan.Aluminium Composite Panel.Kawat Baja & Besi. 
Karpet Import & VINYL. Kusen, Pintu & Jendela Kayu. Windows Fashion.Mekanikal Elektrikal.Meubelair Kantor & Sekolah.
Pipa HDPE.Pipa Air Panas.HPL.Cat.Pipa Gorong-Gorong.Plat Kapal.Dll.
Untuk melengkapi kebutuhan pelanggan, kami juga menyediakan Jasa Kontraktor, Jasa Arsitek & Jasa Konsultan.
Untuk informasi lebih jelas, dapat menghubungi Marketing kami.
Terima kasih. www.jayamakmurabadi.co.id
CV. Jaya Makmur Abadi 
Jl. Brigjend Katamso No. 2 Samarinda. Kalimantan Timur 75117.Telp : 0541-7802915Fax. : 0541-766315Email : sales@jayamakmurabadi.co.id
 

 
 ","
              Head Office :Jl. Brigjend Katamso No. 2. Samarinda. Kalimantan Timur ",Samarinda ,Kalimantan Timur,+62 823-5215-3244,+62 813-4942-8940,+62 852-4900-5619
CV. DUTA MESH,"
PREMIUM BLUE ONYX
",Besi Pipa & Tabung,"
              SIAPA KAMI merupakan salah satu perusahaan pembuatan pagar dan merupakan perusahaan publik yang bergerak pada industri agribisnis di indonesia. Kantor pusat kami berlokasi di Tangerang Indonesia, dimana fasilitas dan kegiatan operasional tidak hanya ada di Jakarta tetapi juga kami bergerak di beberapa daerah seperti keluar kota dan puklau yang memiliki potensial ekonomi seperti di jawa, sumatra, Kalimantan, sulawesi dan papua. Kegiatan bisnis bergerak di bidang agrabisnis yang meliputi pembuatan pagar brc, pagar harmonika, pagar trails dan sebagai distributor produk steel seperti pipa, pipa hollow, siku, besi beton, hbeam, iwf, plate dan lain lain KEUNTUNGAN KOMPETISI Secara keseluruhan mengerti sekali kesempatan dalam berkompetisi secara vertikal skala ekonomi prioritas. Dan menembus sistem operasi upstream dan downstream telah sanggup menjamin produk yang berkualitas di setiap bidang industri dari pabrik pagar BRC hingga tambahan produk-produk pagar lainnya. Perkembangan secara vertikal tetap memperhatikan Kwalitas pagar dan memudahkan perusahaan untuk menyalurkan produk-produknya secara kontinue dengan harga stabil, tanpa terpengaruh oleh fluktuasi dalam penyaluran dan permintaan secara berkelanjutan lebih jauh, hal tersebut terjadi karena secara keseluruhan, mampu menyediakan produk-produk yang secara spesifik dibutuhkan oleh konsumen, satu contoh kami telah sanggup Menyuplai hingga keluar kota skalipun untuk pemagaran perbatasan, kebun sawit, lapangan terbang bandara, perumahan pemagaran BTS tower seluruh Indonesia dll. anda bisa menghubungi marketing kontak kami di : Telepon : 021 29861696 Hp : 08127941128. MOTTO KAMI “ Berkembang Menuju Kesejahteraan Bersama“ adalah sesuatu yang benar untuk menjamin kesuksesan. Pusat dari kesuksesan perusahaan kami adalah kepercayaan yang kuat di dalam menjalin kerjasama yang baik berdasarkan kepercayaan dan pengakuan. • Dengan seluruh pemegang saham kami, dapat berperan aktif dalam mengembangkan kerjasama yang saling menguntungkan. • Dengan rekan bisnis            ","
              Office : Jln, Bhayangkara Raya No 10 ( Depan Kantor Puysdiklantas Polri )            ",Tangerang,Banten,+62 811-8889-128,None,None
PT Banyoe Atika Mandiri,"
                                    PREMIUM GOLD
                                ",Besi Pipa & Tabung,"
              Perusahaan Kami bergerak di bidang Industri Pengecoran logam :Kami Jual atau Supplier, cast iron, aluminium, kuningan dan stainless steel. Produk - produk yang di hasilkan di antaranya : manhole, grill, greating, dack drain, roof drain, floor drain, Grease Trap, dan juga Perusahaan Kami siap menerima pesanan khusus, dengan harga bersaing. Hubungi Kami : m : + 628118833662t : + 6221-22524647 f : + 6221-22524541 e : info@banyoe.co.id            ","
              RUKAN CBD BLOK C NO.75A GREEND LAKE CITY            ",Tangerang,Banten,+62 811-8833-662,None,None
PT. WITA KHARISMA JAYA BERSAMA ( Fire & Safety ),"
PREMIUM RUBY
",Besi Pipa & Tabung,"
PT.WITA KHARISMA JAYA BERSAMA adalah Perusahaan Fire & Safety Equipment, Fire Hydrant Installation dan Fire Alarm System. Kami Memproduksi Box Apar sekaligus Distributor Tabung Pemadam Kebakaran dan Mobil Pemadam Kebakaran serta Peralatan Safety yang berlokasi di Bekasi - Jawa Barat. Produk yang kami sediakan antara Lain : 
- Baju Pemadam Kebakaran
- Motor Pemadam Kebakaran 
- Mobil Pemadam Kebakaran
 - Tabung Pernafasan 
- Tabung Oksigen
 - Box Hydrant
 - Fire Monitor 
- Box Trolly 
- Box Kunci 
- Box Tabung Pemadam
- Tabung Pemadam Api 
- Sarung Tangan Safety 
- Sarung Tangan Tahan Panas 
- Helmet Pemadam 
- Kacamata Safety 
- Selang Pemadam Kebakaran 
- Nozzle Pemadam 
- Palu Untuk Box Apar 
- Kampak Pemadam 
- Tandu Lipat / Stretcher 
- Lemari Safety / Show Case 
- Fire Alarm System 
- Hydrant System.Contact Us : PT WITA KHARISMA JAYA BERSAMAJl. Cikunir Raya No. 62 Jakamulya - Bekasi Selatan 17146Phone : 021-82435884             081807847373             0851-00576760http//www.produsenboxapar.comhttp//www.wkjb.co.id  ","
              Jl. Cikunir Raya No.62, Jakamulya - Bekasi Selatan            ",Bekasi,Jawa Barat,+62 818-0784-7373,None,None
PT. Mandiri Niagamas Cemerlang,"
                                    PREMIUM GOLD
                                ",Besi Pipa & Tabung,"
PT. MANDIRI NIAGAMAS CEMERLANG adalah perusahan penyedia alat kebutuhan industri seperti :
 1. Gland Packing 2. Sheet Packing 3. Rubber Packing 4. Conveyor Belt 5. Industrial Machine 6. Machining 7. Heat Insulation 8. Rubber Lining 9. Casting 10. Mechanical Seal 11. Manufacturing 12. Elastomer Bearing Pad 13. Chemical Coal Additive 14. Heater Element 15. Pallet Kayu 16. Coarse River Aggregate ( Kerikil ) 17. Rubber Fender 18. Pressure Gauge 19. Vibrator 20. Valve 21. Handling Equipment 22. Bearing 23. Clutches & Breakes 24. Universal Joint & Cardan Shaft 25. Conveyor Chains 26. Chains 27. Pulley 28. Coupling 29. Gearbox & Wormgear 30. Gearmotor 31. Electric Motor 32. Control System 33. Hose 34. Slitter 35. Roll Conveyor 36. Pulley Conveyor 37. Pneumatic 38. HydraulicKami berkomitmen untuk memberikan pelayanan terbaik kepada semua klient kami dari setiap produk yang kami tawarkan.Contact Us :PT. MANDIRI NIAGAMAS CEMERLANGOffice     : Jl. Raya Cikarang - Cibarusah No 27, Lippo Cikarang – BekasiPhone     : 021 - 8990 0912Fax       : 021 – 8990 0912         Mobile    : 0812 8132 3388 // 0877 8913 6128Whatsapp : 0877 8913 6128Email     : mandiriniagamascemerlang@gmail.com ","
              Jl. Raya Cikarang - Cibarusah No. 27 , Lippo Cikarang - Bekasi            ",Bekasi,Jawa Barat,+62 877-8913-6128,None,None
CV Catur Jaya Atap,"
PREMIUM RUBY
",Besi Pipa & Tabung,"
              CV CATUR JAYA ATAP merupakan perusahaan yang bergerak dibidang produksi barang sebagai berikut:1. Pagar BRC2. Tiang pagar BRC3. Pintu swing tunggal/ganda4. Pintu dorong5. Spandek6. Kanal-C7. Reng8. Hollow 2x4 dan 4x49. Wall angelSelain produk diatas kami juga begerak di bidang trading dan supplier besi dan baja dengan produk sebagai berikut:1. WF, IWF, H-BEAM2. UNP3. CNP4. Siku5. Plat polos 6. Plat bordes7. Plat kapal8. Beton eser9. Plat strip10. Pipa gas11. Pipa air12. Hollow galvanis13. Kawat harmonika14. kawat duri dan kawat siletKepuasan customer adalah prioritas kami            ","
              Jl Putra Bangsa Anggaswangi Sukodono Sidoarjo            ",Surabaya,Jawa Timur,+82 33-806-5412,None,None
"DUA PUTRA PETIR, CV Telp. 0859-9805-8351 , 0898-3518-351 , 0821-3355-5559 , 0813-1845-5559","
PREMIUM RUBY
",Besi Pipa & Tabung,"
BISMILLAHIRROHMANIRROHIIM....CV. DUA PUTRA PETIR (Your Steel Partner) Distributor berbagai Merek Polycarbonate bergaransi 5-10 tahun yang dilengkapi Double Side UV Protected, diantaranya :1. Solar Flat Clear / Colour Plain / Embosed.2. Solar Tuff Roma / Greeca.3. X TUFF Roma dan Greeca (Colour / Clear).4. X Lite.5. SOLITE.6. Twinlite.7. Lexan.8. POLYBOARD.9. Sealent Neutral (Lem PolyCarbonate).10. Sealent Acetic (Lem PolyCarbonate).11. JASA PEMBUATAN CANOPY / PAGAR Sesuai Permintaan.HARGA DIJAMIN MURAH Untuk Info Lebih Lanjut Menghubungi,Demikian Penawaran dari kami, besar harapan kami untuk bisa bekerjasama dengan Anda dengan memberikan pelayanan yang terbaik penjelasan ringkas. Kami juga Bergerak dibidang trading Besi dan Baja dan alat-alat teknik, memiliki pengalaman yang mumpuni lebih dari 10 Tahun, link dan akses bisnis yang luas menjadikan kami harus terus berinovasi, salah satu melalui Bisnis Online seperti ini adapun produk-produk unggulan kami adalah :1. Carbon Steel Bars (Besi / Galvanis / Stainless Steel)• Besi Beton Polos (Plain Bars) • Besi Beton Ulir (Deformed Bars) • Besi As (Round Bars) Eq St. 41 • Besi As (Round Bars) Eq St. 60, St. 70, St. 90 • As Besi Segi Empat (Square Bars / Vierkan) • As Besi Segi Enam (Hexagonal Bars) (Besi / Galvanis / Stainless Steel) • Silver Steel-Hollow Bars-Tool Steel • Strep Besi (Flat Bars) • Band Eyzer (Strapping band Plates).2. Carbon Steel Pipes (Besi / Galvanis / Stainless Steel)• Pipa Baja Hitam (Black Steel Pipes) • Pipa Air / Galvanis (Galvanized Pipes) • Pipa Seamless (Seamless Pipes) ASTM A 53 / A 106 / API 5 L • Pipa Pancang (ERW Pipes) ASTM A 252 • Pipa Konstruksi STK-400 (Besi / Galvanis / Stainless Steel) • Pipa Perabot (Stalbuist Pipes) • Pipa Kotak (Rectangular & Square Pipes).3. Carbon Steel Plates (Besi / Galvanis / Stainless Steel)• Plat Besi Hitam (Hot Rolled Coil / Sheet) JIS SPHC / JIS SS400 / ASTM A36 • Plat Kapal (Ship Building Plate BKI) • Plat Besi Putih (Cold Rolled Coil / Sheet) JIS SPCC • Plat Bordes (Checkered Plate) • Plat Lubang (Perforated Plate) • Plat Tahan Gesek (Wear-Resistance Plate) • Plat Galvanil (Galvaneal) • Plat Galvanis (Galvanized) • Expanded Metal.4. Carbon Steel Profiles (Besi / Galvanis / Stainless Steel)• Siku Besi (Angle Bars) • Kanal UNP (U-Channel) • Kanal CNP (Lip-Channel) • (Besi / Galvanis / Stainless Steel) • H-Beam I-Beam WF-Beam (Besi / Galvanis / Stainless Steel) • Honey Comb • Plate Grating Galvanis • Kawat Bronjong • Plat Galvanis • Siku Galvanis • Gabion • Kawat Bronjong SNI, Straping Band, Plat Timah, dan masih banyak lagi produk-produk kami, segala macam jenis besi dan baja siap membantu bekerjasama dengan semua pelanggan baik dalam kota maupun luar kota atau bahkan luar pulau dan luar negeri. Terimakasih banyak.
 Hormat Kami,Herry Gusmara, S.Sos DirekturHP : 08599.805.8351 (BOS BESI) / 089.8351.8351 (BESI BESI)WA : 082133.555.559 / 081318.455.559 Email : duaputrapetir@gmail.comD/A : Bukit Plama C5/ 33 Citraland Utara SurabayaOur Website :• www.besi123.com• www.besisurabaya.com
• www.duaputrapetir.co.id• www.pusatbajaindonesia.com
• www.tokobangunansurabaya.com• www.jualbesibajasurabaya.indonetwork.co.id ","
              • Head Ofice : Bukit Palma C5/33 Citraland Utara Kec. Pakal Kota Surabaya Barat (Sememi - Benowo)• Phone : 0821-3355-5559 (Call/WhatsApp)            ",SURABAYA,Jawa Timur,None,None,None
CV Berdikari Lancar,"
PREMIUM RUBY
",Besi Pipa & Tabung,"
Berdikari Lancar Steel adalah perusahaan trading yang melayani penjualan segala jenis besi seperti Besi Beton , Wire Mesh , Plat , WF (wide flang) , Pipa besi , Hollow , Siku , UNP , Bendrat , Paku , dan lain sebagainya.
 
Area penjualan kami mencakup semua wilayah Indonesia, terutama Surabaya dan sekitar sebagai basis tempat kami berdomisili, hingga wilayah luar pulau seperti Makassar , Palu , Kupang , Mataram , Batu Licin , Kota Baru , Sampit , Balikpapan , Banjarmasin , Manado , Ambon , Maluku , Timika, Sorong , hingga Jayapura .
 
Untuk kwalitas dan mutu Besi yang kami jual disertai sertifikat sesuai standart SNI dan ISO certified. Untuk lebih meyakinkan bagi proyek yang akan segera berdiri dengan standart mutu yang tinggi.
 
Dan harga yang kami tawarkan sangat bersaing karena kami mendapat suplai langsung dari beragam pabrik dengan harga kontrak di bawah semua harga yang ditawarkan kepada anda.
 
Silahkan hubungi kami untuk informasi dan penawaran terbaik.
Untuk informasi lebih jelas dan penawaran yang terbaik, silahkan hubungi marketing kami:
Willy                HP/WA : 0823-3117-8001 // 0812 1288 7082 // 0822 3444 4535
 CV. BERDIKARI LANCAR
Perum Bukit Citra Darmo blok CD No. C-21 Klakahrejo - Benowo, Surabaya
Jawa timur, Indonesia - 60198
Telp : 031 - 7431220
Fax : 031 - 7431220
email: berdikarilancar@gmail.com ","
              Bukit Citra Darmo blok CD No. C-21Klakahrejo, Benowo - Surabaya            ",surabaya,Jawa Timur,+82 33-117-8001,081212887082,+82 2-3444-4535
CV MITRA USAHA MANDIRI,"
                                    PREMIUM GOLD
                                ",Besi Pipa & Tabung,"
              CV MITRA USAHA MANDIRI bergerak dalam bidang filter air yang mengolah air baku menjadi air siap minum, Pompa, Depo Air Minum Isi Ulang, AMDK, Mesin RO Reverse Osmosis, perlengkapan aksesoris kolam renang dan Tabung filter beserta aksesorisnya.Kami mengolah air baku menjadi air tawar :- Air Laut- Air Sumur- Air PDAM- Air Payau- Air Danau- Air Limbah dan sebagainya.Temukan berbagai produk terbaik kami sesuai kebutuhan anda. pastinya dengan kualitas dan harga terbaik yang anda bisa dapatkan.            ","
              Jl. Pucang Anom no.22, Surabaya.            ",Surabaya,Jawa Timur,+82 2-3333-4224,+62 812-3459-0404,None
KaryaJaya Filter,"
                                    PREMIUM GOLD
                                ",Besi Pipa & Tabung,"
Karya Jaya Filter merupakan perusahaan general contractor dan supplier umum yang bergerak dibidang Air Pollution Specialist. Pekerjaan kami meliputi Design - Fabrikasi - supply - install - test - commission - maintenance dan service. Kami juga menyediakan berbagai macam Filter yang biasa digunakan untuk kebutuhan industri dengan berbagai jenis serta ukuran filter yang disesuaikan dengan permintaan. Adapun surat ini kami sampaikan sebagai perkenalan untuk perusahaan Bapak/ Ibu dalam memenuhi kebutuhan Perusahaan. Berikut beberapa Jenis Produk Karya Jaya Filter yang kami jual : 1. Dust Collector ; Pulse Jet Dust collector, Portable dust collector, Shaker dust collector etc. 2. Cyclone ; Cyclone Fabrication, Double Stage Cyclone-Fine Dust, Cyclone dust collector etc. 3. Scrubbers ; Vertical Counter Current Scrubber, Horizontal Mist Eliminator, Wet Scrubber, Horizontal BOC Scrubber etc. 4. Fans ; Belt Driven Axial Fan, Various Impeller Design, Centrifugal Fan, blower etc. 5. Ducting Hood and accessories ; Hood for Pharmaceutical Industries, Hood and Ducting for Rubber Industries, Rotary Valve, Ducting System, Program Logic Control etc. 6. Filter ; Filter bag, FBD Filter, Filter Press, Nylon Mesh Filter, Wire mesh, Air Filter, Hepa Filter, filter catridge dust collector, etc.( Material, Ukuran dan Bentuk kami sesuaikan dengan permintaan ) Demikian penjelasan dari kami. Jika ada hal yang ingin diketahui lebih lanjut silahkan Bapak/ Ibu hubungi kami. Atas kerjasama yang baik kami haturkan Terima Kasih. Hormat kami, Karyajaya Filter Pabrikan dust collector, supplier dust collector, jual dust collector, jual squen dust collector.Jual filter bag, jual filter press, jual cyclone, jual blower, jual centrifugal fan, jual hepa filter, jual medium filter, jual pre filter, jual scrubber, jual celenoid valve, jual pressure gauge, jual ducting, jual catridge dust collector, jual filter vacuum, jual filter air, jual filter udara, jual filter ahu, jual conveyor, jual bag cage, jual cage retainer, jual filter cage, jual filter hidrolik, jual filter separator, jual filter nomex etc. ","
              Jl Taman Menyanggong Asri 30 - Kletek             ",Surabaya,Jawa Timur,None,None,None
PT Yasindo Jaya Bersama,"
PREMIUM RUBY
",Besi Pipa & Tabung,"
              TOOLS │ TECHNICAL │ WORKSHOP │ MACHINERY │ GENERAL EQUIPMENT SUPPLIES            ","
              Ruko permata ancol,blok L no 12, Jl RE Martadinata ,pademangan-jakut 14420 ",Jakarta Utara,DKI Jakarta,+62 813-3713-2383,None,None
Forte Indonesia,"
                                    PREMIUM GOLD
                                ",Besi Pipa & Tabung,"
              Forte Indonesia adalah satu perusahaan dan merek terkemuka di Indonesia terutama di perdagangan material industri dan konstruksi. Produk produk bermerek Forte sudah beredar di seluruh Indonesia, melalui agen2, toko besi dan tehnik, material bangunan dan langsung ke customer pemakai. Forte produk termasuk bahan bahan seperti besi, stainless steel, galvanis, alumunium, timah. Produk Forte telah menjadi sangat dikenal setelah beredarnya barang seperti kawat loket galvanis, plat grating, kawat sling, pipa stainless, plat lobang, plat expanded metal, kawat duri silet, timah hitam, dan banyak lagi produk unggulan lainnya. Forte sangat dikenal dengan produk dengan kualitas tinggi namun dengan harga yang sangat bersaing. Dalam mendukung berkembanya pembangunan di Indonesia yang begitu pesatnya, Merek Forte ini berdedar dan berkembang begitu cepat dan pesat. Produk bangunan unggulan kami seperti kawat loket galvanis, plat grating, plat lobang, plat expanded metal, kawat duri silet, dan produk unggulan industri kami seperti kawat saringan mesh, plat lobang, plat stainless, plat alumunium sangatlah dikenal qualitasnya. Seiring dengan pembangunan yang tak pernah berhenti, bersamaan dengan meningkatnya perindustrian di Indonesia, merek Forte akan terus meningkatkan sayap distribusinya dan tak pernah berhenti menciptakan produk produk unggulan lainnya. Forte Indonesia akan terus berusaha menjadi yang terbaik dalam memenuhi kebutuhan material industry dan konstruksi Indonesia            ","
              CV.Sumber Makmur ,Gedung Metro Glodok ,Jl Blustru No 15-16 Patokan: Samping polsek Tamansari.            ",Jakarta Barat,DKI Jakarta,+81 29-016-2615,None,None
PT Buana Baja Bina Semesta,"
                                    PREMIUM GOLD
                                ",Besi Pipa & Tabung,"
PT. BUANA BAJA BINA SEMESTA

Sebelumnya kami perkenalkan, CV SIN HOAT adalah perusahaan yang bergerak dibidang building construction materials ( perdagangan besi baja ) . Kami adalah distributor yang dapat mensupport anda dalam kebutuhan pembangunan khususnya dibidang pipa dan berbagai macam besi dengan harga yang sangat kompetitif baik untuk kebutuhan grosir ataupun eceran.Kami dapat memenuhi segala kebutuhan besi baja untuk perusahaan swasta dan BUMN baik yang berlokasi di Jakarta , Luar Kota , dan Luar pulau sekalipun.   Adapun produk2 yang kami support adalah sebagai berikut. 1. Plat Hitam 4 x 8 dengan ketebalan mulai dari 0.8mm s/ d 100mm ex KS, GG, Import 2. Plat Kapal 5 x 20 dengan ketebalan mulai dari 4.5mm s/ d 40mm ex KS, GG, Import 3. Plat Kapal 6 x 20 dengan ketebalan mulai dari 4.5mm s/ d 40mm ex KS, GG, Import 4. Besi siku dengan ukuran yang variatif mulai dari 25x25 sampai dengan 250 x 250 dengan ketebalan yang bervariatif sesuai dengan kebutuhan. Eks KS , Ispat , Import 5. UNP 50 - UNP 400 ex Kayafit , Import , Master , KS 6. CNP 75 - 200 ex Import dan Ispat 7. Hollow mulai dari 15 x 15 , 15 x 30 , 20 x 20 , 20 x 40 , 30 x 30 , 30 x 60 , 40 x 40 , 40 x 60 , 40 x 80 , 45 x 75 , 25 x 50 , 50 x 50 , 50 x 100 , 60 x 60 , 75 x 75 , 75 x 100 , 75 x 150 , 100 x 100, 150 x 150, 200 x 200 dalam ketebalan yang sangat bervariatif 8. Besi Beton SNI polos mulai dari 6mm - 25mm dan SNI ulir mulai dari 10mm - 32mm ex GG , KS dLL Tersedia besi beton TEKUK dan LURUS BJTD 40 dan BJTD 45 9. Besi Beton NON Standard dengan BODY tertulis "" SNI "" Polos mulai dari 8mm-16mm dan ulir mulai dari 10mm-16mm 10. Pipa BAKRIE Hitam dan Galvanis ( SNI , SIO , BOS, SCH40 , ASTM a 53 dengan ketebalan yang sangat bevariatif ) mulai dari ukuran 1/ 2 "" - 32 ""  11. Pipa SPINDO Hitam dan Galvanis ( SNI dan SCH40)  12. Besi Nako 5mm – 200mm 13. Besi Konstruksi IWF mulai dr WF 150 – 800 ex GG dan Import 14. Besi H-BEAM 100 – 400 15. Plat Strip Full tebal mulai dr 3mm – 25mm dan lebar mulai dari 19mm – 100mm 16. Pipa Hitam Seamless ( Carbon Steel ) SCH 40 & SCH 80 Mulai dari ½ ” – 32”  17. Wiremess Gulungan dan Lembaran M4- M10 ex GG, Prima Metal Work , Lionmesh . KAMI MENJUAL DENGAN HARGA TERBAIK.
 ","
              Jalan Letjen Suprapto no,150a jakarta pusat             ",Jakarta pusat,DKI Jakarta,+62 817-599-799,None,None
pt.inti karya karisma,"
                                    PREMIUM GOLD
                                ",Besi Pipa & Tabung,"
              PT.INTI KARYA KARISMA adalah suatu perusahaan dagang yang berkembang sangat pesat, khususnya dalam bidang penyediaan barang dan alat - alat untuk kebutuhan industri yang ada di Indonesia, meliputi bidang Valev - Valev, Automation System dan Electrical Components Seperti : PNEUMATIC & HYDRAULICS : SMC, KOGANEI, CKD, KURODA, TAIYO, TACO, ROSS, AIRTAC, TOYOOKI, AUTOGIKEN, DAIKIN, UCHIDA, YUKEN, NOK F- TEC, FUJIKURA, JUNRON, MARUHA, NACHI, SHINDENGEN, MAC, ERACON ( NEW ERA ) PISCO, KONDOH, FOTEK, CHANTO, PNEUMAX, SANG- A, MAC, NUMATICS, MYOTOKU, AURORA CONVUM, KONAN, FUJI SEIKI, KINGSTON, JUNRON, KCC, YPC, BIMBA, FABCO- AIR Etc. CLUTCH & BRAKE ELECTROMAGNETIC : OGURA, SHINKO, OSAKI DENGYOSA, SUNTES, MITSUBISHI, AIRFLEK, PLANOX, MIKKI PULLEY, STROMAG, GUMMI, FAWICK, EATON, AUTOGARD, STEARN, ORTLINGHAUS, SIME, BINDER, COREMO, ANTEC, PINTS BAMAG, WARNER, MAYR, AIR CHAMP ELECTRIC & MOTOR : MITSUBISHI, YASKAWA, FUJI ELECTRIC, HITACHI, TOSHIBA, NIKKI DENSO, TSUKASA, TAMAGAWA SEIKI, NISSEI, OGURA, OMRON, RORZE, SANYO DENKI, SAWAMURA, TAMAGAWA SEIKI, ORIENTAL, VEXTA, PANASONIC, YAMATAKE, SHINKO, SHIMPO, NIDEC, MIKI PULLEY, ITOH, MAKISHINKO, TSUBAKI, PATLITE, USHIO, IDEC IZUMI, HANYOUNG, PHILIPS, OSRAM, TOYO FAN, TDK, KOINO, ALPS, NIKKAI ( NKK ) SENSOR & CONTROLS : OMRON, SUNX, SHINKO, KEYENCE, RIKEN, NATIONAL, YAMATAKE, SEEKA, HONEYWELL, IFM, KOYO, EUROTHERM, PEPPERL+ FUCHS, BALLUFF, PILZ, SICK, TURCK, DATASENSOR, TAKENAKA, IDEC IZUMI, KOINO, TOYO , NIPPON AUTOMATION POWER SUPPLIES : COSEL, NEMIC LAMBDA, OMRON, MATSUSHITA, MEAN WELL, ASTEC, MURR, SPELLMAN, ZENTRO, XP Power Supplies COOLANT PUMP : MITSUBISHI, NIPPON OIL PUMP, FUJI ELECTRIC, TERAL TROCHOID PUMP : NIPPON OIL PUMP, FUJI, MITSUBISHI BEARING : THK, IKO, NSK, NB, NMB, EZO, KURODA, SAMICK, HIWIN, NTN Etc TEMPERATURE CONTROL : RKC, TOHO, SHIMADEN, FUJI ELECTRIC, HONEYWELL, ASAHI KEIKI, YOKOGAWA, AMETEK, DYWER, TESCOM, SHIMAX, OPTEK Keuntungan dari pelayanan kami adalah sbb: Untuk permintaan penawaran harga silahkan e- mail ke : PT.INTI KARYA KARISMA Hp : 081286783132, 081218651189 Tlp : 021- 50408997 E- mail : pt.intikaryakarisma@ yahoo.co.id            ","
              Mega Glodok Kemayoran            ",Jakarta,DKI Jakarta,+62 812-8678-3132,None,None
CV.CENTRAL ASIA TEKNIK,"
                                    PREMIUM GOLD
                                ",Besi Pipa & Tabung,"
              Perusahaan dagang khusus alat2 teknik : Tools, Hardware, Heavy Duty, Machinery, Safety Equipment, Technical Supplier GENERAL SUPPLIER Distributor For STANLEY, Stanley Hand Tools, Stanley measuaring tools, Stanley laser tools, Q-Light, Stanley tools, SUN& RUN, SIMPLEX, YAMANOTE, JASON, SUN RUN, OPT, PANDA, HILTY, TECHWAY, HEYCO, RIDGID, TOKU, TEKIRO, TOMECO, ELORA, DEKKO, GEDORE, PROCUT, DeFelsko, ATA, BOSUN, FUJIYAMA, TOMECO, VESSEL, H& L, FLAG, PICUS, NETUREN, BULLOCK, MULTIPRO, SELLERY, MAKITA, BOSCH, MAKTEC, HITACHI, WEST LAKE, FIRMAN, TIGER, GENERAL, MISAKA, YAMAWA, YAMAMOTO, JIANG CHAI, ASTRAKOERA, MIKAWA, HONDA, MULTI EQUIPMENT, GreenPower, NOVELTEC. Perusahaan dagang khusus alat2 teknik : Tools, Hardware, COSMEC, REX, WEKA, MCC, Dragon, BALDUL.Aneka mesin Trafo las, Stabilizer, Genset, Pompa air, Pemadam api. Viking, Hoseky..dll atau kunjungi kami di http: / / indonetwork.co.id/ central_ asia_ teknik www.stanleytools.com ( Untuk PRoduct Stanley, Sebutkan no part nya untuk mengetahui harganya) NITTO, Delvo, MEDO, Tigon, ASADA, Hydrovane, Makishinko, Takeda, Nippon Sharyo, PACIFIC, AIRMAN, Sohken, GASBOY, HUSKY, FUKUDA, SMC , SHIYUAN, Swan, Starke. Serta alat2 konstruksi seperti Bar bender dan Bar Cutter buatan Jepang, Cina dan Korea            ","
              LTC Glodok Lantai GF 1 Blok B19 No.8Jl.Hayam Wuruk No.127JAKARTA BARAT            ",Jakarta,DKI Jakarta,+62 811-9958-228,None,None
BAJA INDO PRIMA,"
                                    PREMIUM GOLD
                                ",Besi Pipa & Tabung,"
Selamat Datang di Website Toko Baja Indo Prima. Kami merupakan perusahaan yang berdiri sejak 2000 bergerak dalam industri Flange, Baut, Expanded Metal, Pipa, Reducer, Plat. Kami berada di Gedung Mega Glodok Kemayoran Jl. Angkasa Lt. GF No. A3-7.Temukan berbagai produk terbaik kami (Alat teknik, Flange, Fitting Besi, Pipa Besi, Valve, Plate Besi) dengan kualitas dan harga jual terbaik yang bisa Anda dapatkan.
Untuk Pemesanan Hubungi : 
Baja Indo Prima
Gedung Mega Glodok Kemayoran 
Jl. Angkasa Lt. GF No. A3-7.
No Tlp : 02129135969
HP : 081332630614
HP : 082225493941 ","
              Mega Glodok Kemayoran, Lantai GF Blok A 3 No 7 , Jl. Angkasa Kav. B6 - Jakarta PusatNo Tlp : 02129135969HP : 081332630614HP : 082225493941            ",Jakarta Pusat,DKI Jakarta,+62 813-3263-0614,None,None
PT. JAVASCO INTERCONTINENTAL,"
                                    PREMIUM GOLD
                                ",Besi Pipa & Tabung,"
PT. Javasco Intercontinental merupakan supplier yang menyediakan keperluan industri, kebutuhan baja, dan kebutuhan material konstruksi seperti pipa, aksesoris pipa, besi beton, plat, dan materi insulasi. Kami menyediakan barang-barang sebagai berikut:

Pipa Seamless Carbon steel (CS), Pipa Baja, Pipa Gas, Pipa Metallic ASTM A106/A53/API5L GR.B X42 Sch 40/80/120/160 Merk Hengyang, Xigang, Tianjin, Wierda, Hebei (Ex. China) JFE,VM, TUBOS 
Pipa Hitam Medium SNI (SGP), Pipa Welded/ERW, Pipa Black Steel / Black Steel Pipe (BSP), Pipa BSP A53 SCH 40, Pipa Hydrant, Pipa Hitam SIO, Pipa Hitam BOS, Pipa BS A53 STD, Pipa BSP A53 XS, Pipa BSP SEAPI, Merk BAKRIE, SPINDO, ISTW, INDAL, BUMIKAYA, TM 
Pipa stainless steel Dof, Pipa Staninless Steel Ornament SUS 304L/SUS 316L Sch 10/20/40/80/160 welded/seamless CHina,Taiwan, Malaysia
Pipa Galvanis Medium SNI, Galvanis Steel Pipe (GSP), Pipa Galvanis SIO, Pipa Galvanis A53 SCH 40, Pipa Galvanis BOS, Pipa GSP A53 STD, Pipa GSP A53 XS, Pipa GSP SEAPI,  Merk BAKRIE, SPINDO, ISTW, INDAL,BUMIKAYA,TM

Fitting CS A234 WPB/Sus 304/316 Sch 10/20/40/80/160, A105 #3000, galvanis/BS drat #150 (Elbow, Tee, Reducer, Hex.Nipple, Full Coupling, Half Coupling, Union, Hex.Plug, Bushing) Merk ASK, BENKAN, BKL, TKB, HM, FKK, RISER


Valve Cast Iron/Cast Steel/Sus 304 Jis 10k/Ansi 150, 300, 600 Type Flange Class 200/800/1000/3000 Wog Screw (Ball Valve, Gate Valve, Globe Valve, Check Valve, Y-Strainer Valve, Foot Valve, Safety Valve, Solenoid Valve,dll) Merk KITZ, TOYO, YONE, TOZEN, 317, FKK, SANKYO, CRANE, GALA

Flange CS A105/ SUS 304, 316 JIS 10K/ ANSI 150, 300, 600 RF (Slip On, Blind, Welding Neck, Socket Weld, Screw) Merk ULMA, METALFAR, SE, FKK, ROSER

Insullation (Calcium Silicate. Rockwool, Glasswool, Alluminium Foil, Busa Insuflex, Flexible Duc, and Air conditioner equipment) Roofing, Ducting Merk TOMBO, AB WOOL, MR


Plat Hitam SPHC, Plat Putih SPCC, Plat Galvanis SGCC/ galavanil , Plate Stainless Steel 304/ 316, Plat Bordes / Kembang, Plat Strip, Plat Alluminium, Plat Kapal SS400, Merk KS,GG,GDS

Besi Beton Polos/ Ulir, Siku, Kanal U, Kanal C, W.F Beam/ H.Beam, Hollow, Wiremesh, Expandate, Grating Dan sebagainya.

Kami menyediakan produk-produk dengan harga bersaing. Untuk informasi lebih lanjut, silahkan menghubungi staf pemasaran kami.  PT. Javasco IntercontinentalJalan Pangeran Jayakarta Komplek Ruko 117 Blok B20, Jakarta Pusat 10730Telp. (021) 2942 8951, 6230 7279, 6231 8267, 2903 7952Fax. (021) 649 2433, 2903 7953
WhatsApp 081298879499 (Siti), 083878052121 (Rendy), 081385524398 (Ivan), 081212583332 (Ade)email: sales@javasco.co.id, ade@javasco.co.id, ivan@javasco.co.id, rendy@javasco.co.id
 ","
              Jl. Pangeran Jayakarta Komplek 117 Blok B20             ",Jakarta Pusat,DKI Jakarta,+62 812-9887-9499,None,None
