Name,Membership,Category,Description,Address,City,Province,telp1,telp2,telp3
JOGJA SAFETY AND MECHANICAL ELECTRICAL EQUIPMENTS,"
                                    PREMIUM GOLD
                                ",Pasang CCTV,"
SELAMAT DATANG DI PERUSAHAAN JOGJA SAFETY AND MECHANICAL ELECTRICAL EQUIPMENTS
 
Kami adalah perusahaan yang bergerak dalam bidang pengadaan, perawatan dan perbaikan peralatan keamanan, mekhanikal elektrikal dan perlengkapan pemadaman kebakaran untuk rumah tangga, perkantoran, industri, pertokoan dan perhotelan. Perusahaan kami didukung oleh tenaga ahli, profesional dan berpengalaman lebih dari 10 tahun. 
Kami sangat mengutamakan kecepatan pelayanan, kepuasan konsumen dan bertanggung jawab dengan garansi produk dan pekerjaan minimal 1 ( Satu) Tahun. Bidang usaha kami antara lain :
1. Peralatan Safety ( Safety Equipment) "" Tabung Alat Pemadam Api ( APAR dan APAB) Fire Hydrant System, Fire Alarm System, Fire Sprinkler System, Cctv, Brankast, Pintu Khasanah, Filling Kabinet Tahan Api, Komponen Dan Spare Part Serta Asesoris Fire Hydrant, Baju Tahan Api / Panas, Fire Blanket Dan Berbagai Peralatan 
2.Alat Keselamatan Kerja Misalnya : Safety Shoes ( Sepatu Safety ) , Kaos Tangan, Kacamata Sitostatika, Ear Muff, Dll. 
3. Peralatan Mekhanikal Elektrikal ( Mechanikal Electrical Equipments) Instlasi Penyalur petir, Genset, Panel otomatis genset ( AMFdanATS) , instalasi penangkal petir, instalasi grounding sistem, panel listrik DLL. Bidang Usaha yang kami laksanakan khususnya di lingkungan rumah tangga, instansi Pemerintah maupun Swasta dan Perorangan termasuk Usaha di lingkungan PT. PERTAMINA Hotel, Rumah Sakit, Apotek, Rumah Makan/ Restorant, Pasar, Laboratorium, Industri, Pengrajin, Pertokoan, Perumahan Realistate, Gedung Kampus/ Sekolah, Spbu - Sppbe - Agen Minyak Tanah / Eliji - Transportir Minyak, Dll.
 
Pekerjaan Yang Kami Laksanakan Adalah Meliputi pengadaan, perawatan dan perbaikan : 
1. Alat pemadam Api ( APAR/ APAB) portable ataupun troly 
2. Instalasi dan Pengadaan Fire Hidrant system, Instalasi Springkler, panel Hidrant,
 Acesories hidrant 
3. Instalasi dan Pengadaan CCTV, Security Alarm, 
4. Instalasi dan Pengadaan Fire Alarm Konvensional, Semi Adressible dan Full 
5. Instalasi dan Pengadaan Penangkal/Penyalur petir Konvensional dan Elektrostatik 6. Rambu - rambu K3 Safety Sign dan Tanda APAR 
7. Perawatan Alat Pemadam Api dan Refill/Pengisian Ulang APAR Jasa yang kami berikan ditujukan untuk meningkatkan Total Product Maintenance ( TPM) yang mendukung fungsi dan optimalnya mesin ( peralatan) serta meningkatkan kinerja mesin yang pada akhirnya dapat memberikan nilai tambah.
Perusahan CV. CIPTA RAHAYU PRATAMA didukung oleh tenaga ahli dan berpengalaman minimal 10 tahun yang lebih mengedapankan pelayanan dan tanggung jawab. Pengertian Repair dan Maintenance ( Perawatan dan Perbaikan) adalah suatu usaha/ tindakan yang sifatnya aktif dengan tujuan memelihara kebersihan dan perawatan peralatan beserta perlengkapannya dan Pada akhirnya bermanfaat untuk : 
* Meningkatkan fungsi alat lebih baik 
* Umur mesin secara teknik lebih awet 
* Nilai ekomomis lebih efisien Sehingga pada akhirnya akan memberikan nilai tambah dibidang ekonomis dan produktivitas mesin/ peralatan lebih optimal. 
Dengan melakukan perawatan dan perbaikan secara teratur yang secara rutin mudah-mudahan akan memberikan keadaan peralatan yang lebih baik ditinjau dari nilai fungsi, ekonomis, sistetika dan efisiensi dan Pada akhirnya akan memberikan keuntungan yang lebih besar
1. Phone: 0274-882493
2. 081 2277 222 98 (simpati + WA) 
3. 081 126 554 33 (Hallo + WA) 
4. 085 100 844 757 ( As)
5. Pin BB : D507F47Dwww.jogjasafety.com - www.agencctvjogja.com ","
              Jl. Kaliurang Km. 8,5 No.20 (depan toko Buku social Agency) Dayu Sinduharjo Ngaglik Sleman Yogyakarta 55581            ",Sleman,Daerah Istimewa Yogyakarta,+62 812-2772-2298,None,None
