Name,Membership,Category,Description,Address,City,Province,telp1,telp2,telp3
CV. JAYA MAKMUR ABADI,"
PREMIUM RUBY
",Bengkel Bubut,"
CV. Jaya Makmur Abadi, perusahaan yang bergerak dibidang perdagangan umum Material Konstruksi & material lainnya, dan telah berpengalaman lebih dari 10 Tahun. 
Berdiri sejak Tahun 2005 dengan nama Jaya Makmur Abadi, dan diresmikan pada tahun 2010 oleh notaris Edward Agustin menjadi CV. Jaya Makmur Abadi. 
CV. Jaya Makmur Abadi bekerja sama dengan beberapa Pabrik & Distributor Material dan hingga kini sudah melayani lebih dari 900 pelanggan, yang terdiri dari pelanggan pribadi/perusahaan baik dari dalam & luar daerah di Indonesia. 
 
Visi & Misi : 


Menciptakan sistem perusahaan yang sistematis & fleksibel dalam hal pelayanan.
Menciptakan lapangan kerja & Sumber daya Manusia yang terampil, profesional& handal. 
Menciptakan pelayanan & kerjasama yang berkesinambungan dengan pelanggan.
Menjadi perusahaan multinasional yang dapat memberi sumbangsih terhadap perekonomian di Indonesia. 

CV. Jaya Makmur Abadi.General Supplier & Trading : Besi Beton & Baja. Rangka Baja Ringan & Atapnya.Aluminium Kusen Pintu & Jendela.Plywood & Kayu lainnya.Pipa Paralon & Pipa Lainnya. 
Keramik & Granit.Perlengkapan Sanitary. Aksesories Pintu & Jendela.
Segala jenis Kaca Bangunan.Aluminium Composite Panel.Kawat Baja & Besi. 
Karpet Import & VINYL. Kusen, Pintu & Jendela Kayu. Windows Fashion.Mekanikal Elektrikal.Meubelair Kantor & Sekolah.
Pipa HDPE.Pipa Air Panas.HPL.Cat.Pipa Gorong-Gorong.Plat Kapal.Dll.
Untuk melengkapi kebutuhan pelanggan, kami juga menyediakan Jasa Kontraktor, Jasa Arsitek & Jasa Konsultan.
Untuk informasi lebih jelas, dapat menghubungi Marketing kami.
Terima kasih. www.jayamakmurabadi.co.id
CV. Jaya Makmur Abadi 
Jl. Brigjend Katamso No. 2 Samarinda. Kalimantan Timur 75117.Telp : 0541-7802915Fax. : 0541-766315Email : sales@jayamakmurabadi.co.id
 

 
 ","
              Head Office :Jl. Brigjend Katamso No. 2. Samarinda. Kalimantan Timur ",Samarinda ,Kalimantan Timur,+62 823-5215-3244,+62 813-4942-8940,+62 852-4900-5619
Graha Mulia Teknik,"
PREMIUM RUBY
",Bengkel Bubut,"
Graha Mulia Teknik Berawal sejak tahun 1998 kami bergerak dibidang Plastic Injection dengan kapasitas mesin kecil 40-120 ton. Seiring tingginya permintaan klien dan persaingan dari China tahun 2008 kami mulai berekspansi pada bengkel konstruksi ringan dengan melayani pembuatan Molding untuk mesin Plastic Injection skala menengah dan cetakan untuk mesin-mesin industri lainnya seperti mesin hidrolis dan mesin punch.  
 
Berbekal mesin Bubut, Milling, Grinding, Sekrap, EDM, CNC Freiss kami melayani pengerjaan logam dengan ukuran presisi dan detail hingga skala dibawah 1 milimeter (mm). Didukung dengan tenaga yang berpengalaman dan mesin Plastic Injection merk Taiwan serta Jepang terkini kami sanggup memberikan hasil produksi yang efisien dengan kualitas dan standart seperti yang diinginkan oleh Klien.
 
Standart keamanan yang baik kami perhatikan agar pekerja merasa nyaman dan aman ketika bekerja. Pengolahan limbah dengan benar dan aman juga menjadi prioritas di perusahaan kami. Semua limbah industri kami olah dengan maksimal agar tidak mencemari lingkungan dan tidak membahayakan para pekerja. 
 
Kami terus bergerak untuk mempunyai kualitas dan standart yang lebih baik agar terus mampu bersaing dan ikut serta memajukan industri UMKM di Indonesia.
 
Berikut Daftar Klien Kami :
Â· Trisensa Ceramics
Â· Nazava Water Filters
Â· Golden P.E.T
Â· LA COCK
Â· Mixmex shuttlecocks
Â· Indococks
Â· New Star
Â· Sun Power
Â· Triliun
 
 
 
-----
 
Hubungi Kontak Kami Sekarang untuk Dapatkan Penawaran Terbaik dan Harga Bersaing (CALL/WHATSAPP).
â€¢ Phone : 0811-3088868
â€¢ e-Mail : grahamuliateknik@gmail.com 
 â€¢ Website : www.grahamuliateknik.com ","
              Graha Mulia TeknikğŸ“ Jl. Raya Medokan no 12, Surabaya 60111Tirta Graha MuliağŸ“ Jl. Kendangsari H/27, Surabaya 60292            ",Surabaya,Jawa Timur,+62 819-1105-5757,None,None
ABP Mandiri,"
PREMIUM BLUE ONYX
",Bengkel Bubut,"
              Abp Mandiri berdiri pada tahun 2005. Perusahaan Kami bergerak dalam produksi logam khususnya untuk spare part sepeda motor. seperti begasi, tutup mesin, setir, planger, pedal rem, paha rem, dll. untuk saat ini, pangsa pasar kami meliputi wilayah jawa, jakarta, bali, kalimantan dll.            ","
              Jl. Kol. Sugiono Ngingas Selatan No. 14B            ",Rt. 03 Rw. 01 Waru Sidoarjo,Jawa Timur,+62 857-3164-0001,+62 812-3276-743,None
PT.YAMASU-SURABAYA,"
                                    PREMIUM GOLD
                                ",Bengkel Bubut,"
PT. Yamasu adalah perusahaan distribusi industri solusi teknik untuk basis klien yang substansial di industri otomotif, kedirgantaraan, kelautan dan umum. Sejak tahun 1975, Yakin Maju telah mendorong produktivitas dan efisiensi dengan memberikan solusi dalam proses pembuatan presisi. Portofolio beragam produk kami terdiri dari alat pemotong, mesin, peralatan mesin dan peralatan metrologi berteknologi tinggi yang bersumber dari seluruh dunia dengan cermat. Produk dan layanan Yakin Maju melayani baik perusahaan besar maupun bengkel kecil.
Â Dengan 5 cabang utama di Jakarta, Cikarang, Bandung, Semarang dan Surabaya, kami dapat memberikan saran teknis, pemecahan masalah, dan layanan perbaikan kepada pelanggan, pengiriman tepat waktu, dan kunjungan di lokasi untuk memahami kebutuhan dan tantangan khusus Anda. 
Â Untuk melayani kebutuhan pelanggan kami yang luas dan terus berkembang, kami terus berupaya memperluas portofolio produk dan kemampuan teknis kami ","
              Pertokoan Aneka Graha Asri, Jl. Ngagel 179-183 Kav. 19, Ngagel, Wonokromo, Kota SBY, Jawa Timur 60246            ",surabaya,Jawa Timur,+62 813-6412-6451,None,None
