Name,Membership,Category,Description,Address,City,Province,telp1,telp2,telp3
PT. Alva Liftindo Perkasa,"
                                    PREMIUM GOLD
                                ",Service Forklift,"
Jasa Penyewaan Forklift, Handpallet dan Towing Car PT. Alva Liftindo Perkasa - Pekanbaru - Riau
PT. Alva Liftindo Perkasa, merupakan sebuah perusahaan yang menawarkan jasa sewa forklift di Kota Pekanbaru untuk kebutuhan pelanggan dengan Kapasitas Forklift 3 Ton, 7 Ton Dan 10 Ton dengan Operator berpengalaman,digunakan untuk segala keperluan industri angkat berat.Rental Forklift merupakan suatu pilihan bagi perusahaan yang tidak memerlukan investasi, serta tanpa mengeluarkan biaya perawatan. Setiap unit forklift yang kami rentalkan telah melalui pemeriksaan oleh mekanik yang handal.Penyedia jasa sewa forklift yang telah kami lakukan telah berdiri sejak tahun 2015, kami telah berpengalaman dalam mengatasi berbagai macam masalah pengangkatan barang yang anda hadapi sehingga anda dapat merasakan keuntungan yang kami berikan, diantaranya:

Harga Yang Kompetitif
Operator yang berpengalaman
Armada yang terawat dan aman digunakan
Tepat Waktu
Waktu perjalanan tidak kami hitung (sampai di tempat baru kami hitung)
Memberikan solusi untuk pelanggan
Dapat di sewa secara dadakan*
Melayani non stop 24 jam

Ketentuan Tarif SewaUntuk Sewa Forklift, kami menyediakan tarif yang cukup variatif dan flexible, anda tidak perlu khawatir karena tarif sewa forklift kami menyesuaikan dengan kebutuhan pemakaian anda.Perhitungan waktu kami dimulai pada saat forklift telah sampai lokasi dan diluar masa perjalanan forklift dari garasi ke lokasi anda. Harga sewa forklift kami sangat relatif murah. Selain sewa Bulanan, Mingguan dan Harian, kamipun menyewakan untuk hitungan per jam, Kami memiliki sistem paket yaitu Paket untuk 2 jam. Sehingga tidak banyak mengeluarkan biaya banyak apabila hanya menurunkan satu atau dua barang saja.
Tarif sewa Forklift yaitu :Sewa Shift : Tarif sewa forklift ini berlaku untuk pemakaian skala pendek dengan asumsi jumlah item yang dikerjakan sejumlah 1 container atau lebih. Jadi pilihannya adalah Paket Sewa 2 jam. Dengan perincian sebagai berikut :


Biaya Sewa Forklift 3 ton = Rp. 2.000.000,+ Biaya Mobilisasi/Demobilisasi Dalam Kota = Rp. 1.000.000,- dan Biaya Overtime Alat+Operator/Jam = Rp. 300.000,-/Jam (Dihitung setelah pemakaian sewa 2 jam).


Biaya Sewa Forklift 7 ton = Rp. 3.000.000,- + Biaya Mobilisasi/Demobilisasi Dalam Kota = Rp. 1.500.000,-  dan Biaya Overtime Alat+Operator/Jam = Rp. 400.000,-/Jam (Dihitung setelah pemakaian sewa 2 jam).


Biaya Sewa Forklift 10 ton = Rp. 4.000.000,-+ Biaya Mobilisasi/Demobilisasi Dalam Kota = Rp. 1.500.000,- dan Biaya Overtime Alat+Operator/Jam = Rp. 600.000,- (Dihitung setelah pemakaian sewa 2 jam).

Untuk Penyewaan Forklift diluar Kota Pekanbaru dihitung berdasarkan Jarak Lokasi Mobilisasi/Demobilisasi Forklift.

Tarif Sewa Towing Car/Mobil Derek yaitu :Sewa Dalam Kota Pekanbaru Minimal Harga Sewa Rp. 400.000,- s/d Rp. 500.000,- dan untuk Sewa Luar Kota Pekanbaru dihitung berdasarkan Jarak Tempuh lokasi Penjemputan atau Pengiriman Kendaraan dengan Harga Sewa Rp. 15.000,-/KM. (Nego Tipis)Tarif Sewa Handpallet Manual yaitu :Sewa Dalam Kota Pekanbaru Minimal 1 Hari/24 Jam dengan Harga Sewa Rp. 100.000,-/Hari + Biaya Mobilisasi/Demobilisasi Rp. 100.000,-Sewa Luar Kota Pekanbaru Minimal 1 Hari/24 Jam dengan Harga Sewa Rp. 150.000,-/Hari + Biaya Mobilisasi/Demobilisasi tergantung Jarak Lokasi dari Pekanbaru.Informasi lain yang perlu diketahui adalah:

Pembayaran dilakukan dengan cash atau transfer via Bank Mandiri No. Rekening : 1080014346952 an. PT. Alva Liftindo Perkasa
DP minimal 30% sebelum Mobilsasi dan sisanya dibayar di lapangan selesai pekerjaan.
Biaya yang ditimbulkan oleh pekerjaan sepenuhnya tanggung jawab pihak penyewa kecuali Bahan Bakar Solar menjadi tanggung jawab PT. Alva Liftindo Perkasa.
Perizinan di lapangan disiapkan oleh pihak penyewa.
Jika terjadi kehilangan / kerusakan dari Pihak Ketiga terhadap alat forklift selama dilokasi / site maka hal itu adalah sepenuhnya tanggung jawab pihak penyewa (Customer ).

Contact Person :Alamsyah PutraHp. 08127604466, 08121654466, 085667604466, 081915154466Alamat Kantor dan Garasi : Jl. Limbungan No. 2a Rumbai Pesisir Pekanbaru 28261 RiauAlamat Email : pt.alvaliftindoperkasa@yahoo.com ","
              Jl. Limbungan No. 2a RT.01/RW.05 Rumbai Pesisir            ",Pekanbaru,Riau,08127604466,None,None
PT. SEJAHTERA SARI MANDIRI,"
                                    PREMIUM GOLD
                                ",Service Forklift,"
              PT. Sejahtera Sari Mandiri didirikan thn. 1994 dengan usaha Battery Industri. Sejak berdiri perusahaan lebih banyak menangani Motive Power Battery atau Traction Battery/Battery Forklift Elektrik. Spesialisasi dan pengalaman perusahaan pada Traction Battery, Locomotive Mining Battery, AGV Battery, Automotive Battery.Dengan kemampuan dan pengalaman panjang dalam seluk beluk Battery Industri khususnya Motive Power Battery, diharapakan menjadi mitra strategis dan memberi solusi bagi pelanggan dengan prinsip saling menguntungkan.PT Sejahtera Sari Mandiri - Era BatteryTelp  021 2289 2008, 021 2232 5625Hp. 081297472000 | 081294938000atau email: info@erabattery.com            ","
              Jl. Kemuning Raya No. 29, Utan Kayu Utara, Matraman            ",Jakarta Timur,DKI Jakarta,+62 812-9493-8000,+62 812-9747-2000,None
cv lamtama sianturindo,"
                                    PREMIUM GOLD
                                ",Service Forklift,"
Menjual macam macam spareparts Truck Eaton Fuller Transimission Parts Fast Fuller Transmission Parts FAW Fast Fuller Transmission Parts Shacman Truck Parts CAMC Fast Fuller Transmission Parts Sinotruck Truck Parts Foton Truck Parts Foton Auman Truck Fast Fuller Transmission Parts Kenworth Truck Parts Wabco Brake Valve Parts Meritor Parts Bulldozer Dresser and Dressta Parts Bendix Valve Parts Bendix Kompresor Parts Dana Spicer Parts DAF Genuine Parts PACCAR Genuine Parts Volvo FH16 Parts, Menjual FKM Seal Oring : Parco, Parker, Kalrez Dupont, National Komatsu caterpillar Cummins VOLVO MACK  GEAR GEAR ","
              jln. raya cilincing no 20 , rt 015 / rw 016 . semper barat , cilincing jakarta utara            ",Jakarta utara,DKI Jakarta,+81 3-1001-1108,None,None
