Name,Membership,Category,Description,Address,City,Province,telp1,telp2,telp3
PT Biruni Geo Pratama,"
                                    PREMIUM GOLD
                                ",Customer Service,"
Tahun 2007 kami memulai usaha dibidang penjualan alat survey dan pemetaan seperti GPS, Total Station, Theodolite,echo sunder, water pass, Laser distance meter dan alat pendukung lainnya seperti software dan peta digital. Tahun 2008 kami mulai ekspansi dengan memasarkan  teleskop dan binocular. Kami berusaha memberikan total solusi dibidang survey dan pemetaan, kami tidak hanya menjual dengan harga terbaik tetapi kami juga memberikan layanan support seperti konsultasi dan training pemakaian alat.
 
Didukung tenaga dibidang survey specialist ( Geodetic Engineer), kami berusaha memberikan solusi masalah-masalah teknis dibidang survey dan pemetaan. Karena membuat peta bukan sekedar menarik meteran tapi banyak sekali faktor-faktor yang perlu dipertimbangkan seperti  transformasi koordinat dan proyeksi.Saat ini kami juga melayani Jasa service, Kalibrasi dan rental alat survey dan Jasa Survey teristris dan pemetaan udara 
 
Visi dan Misi kami :
 


Menjadi mitra yang sinergi  bagi Perusahaan atau perorangan yang membutuhkan alat survey dan pemetaan.
Memajukan dunia survey dan pemetaan di Indonesia, dengan menyediakan alat yang bermutu dan didukung support teknis yang benar.
Mampu bersaing menghadapi era ekonomi global, dengan menjadi perusahaan yang bisa berskala nasional.


 
 
Apa kelebihan kami
 


Kami ditunjuk sebagai reseller resmi untuk memasarkan alat survey merk : Leica, Trimble, Nikon, Spectra,Topcon, Geomax.
Tahun 2009 kami ditunjuk authorized dealer untuk produk Teleskop dan binocular merk Celestron
Tahun 2012 kami ditunjuk sebagai authorized dealer untuk Produk GPS merk TOMTOM
Tahun 2016 kami ditunjuk untuk memasarkan Drone Merk DJI dan UAV Fixwing

 ","
              Mall WTC Matahari Serpong Lantai 2 blok S20 Tangerang
021- 53153871  021-7410545 Fax 021-7410064
Email : info@biruni.co.id  http://www.biruni.co.id
SMS/WA/Call : +6281298737575            ",Tangerang Selatan,Banten,+62 812-9873-7575,None,None
Trijaya Arsitek (081 330 2099 63),"
                                    PREMIUM GOLD
                                ",Customer Service,"
TRIJAYA ALUMINIUM( Aluminium and Glass Specialist )TRIJAYA ALUMINIUM bergerak di bidang jasa pembangunan Konstruksi, Exterrior, dan Interrior Gedung.Kami telah dipercaya Membangun & mempercantik gedung perkantoran, pusat perbelanjaan, showroom, pabrik, gudang, ruko, rumah tinggal dan fasilitas umum lainnya seperti rumah sakit, tempat ibadah, dan pom bensin (SPBU).Pekerjaan kami telah tersebar tidak hanya di pulau Jawa, tetapi hingga ke Madura, Sumatra, Bali, NTB, NTT, Sulawesi, Kalimantan, Papua.Percayakan pekerjaan :  - Konstruksi Baja - Aluminium Composite Panel (ACP) - Pintu jendela aluminium - Pintu kaca Tempered - Partisi kaca - Shower glass - Curtain wall - Spider System - Kanopy Kaca - Reling Tangga Kaca  - lantai kaca / atap kaca - Reklame - Letter Timbul - Neon Sign - Neon boxke kami yang telah terbukti mengutamakan kwalitas dan ketepatan waktu dalam pengerjaanya. Dapatkan harga yang kompetitif hanya di kami TRIJAYA ALUMINIUM, Didukung oleh tenaga ahli yang telah mempunyai teknik dan pengalaman dalam menangani berbagai proyek skala kecil, menengah maupun besar, Kami percaya bisa memberikan pelayanan terbaik, yang akan membantu memberikan saran & panduan di setiap proses, sehingga impian atau ide Anda bisa terwujud sesuai yang diharapkan.Goal nya adalah harga yang kompetitif dan reasonable, efisien dalam biaya dan waktu tanpa meninggalkan aspek estetika.Selain melayani Jasa pembangunan kami juga melayani penjualan material :Aluminium Composite Panel - Alucobond, Aluclad, Cladbond, Alucopan, Alcopan,- Goldstar, Seven, Alumetal, Alustar,- Winmetal, Maco, Aluprima, AlumebondAluminium Kusen- YKK, incom, Indal- Alexindo, Alko, HP MetalKaca- Asahi, Mulia, Tempered & Non tempered- Clear, Printing, Glass tone, Lacobel, Tinted- Mirror, Black Mirror, Sunergy, One Way- Stopsol, Laminated, TemperedBesi- WF, CNP, Pipa Besi, Hollow Besi, Besi Siku, Plat dllHubungi :Layanan 24jamMoch. Indra PrasetyoHp. 081 330 2099 63Kantor. 031 8490 309Web. www.trijayaaluminium.com ","
              Jagir Sidoresmo VI /140            ",Surabaya,Jawa Timur,+81 3-3020-9963,None,None
AGRO LAWU INTERNATIONAL,"
                                    PREMIUM GOLD
                                ",Customer Service,"
              AGRO LAWU INTERNATIONAL adalah, komunitas kelompok petani talas satoimo/ talas jepang/ talas safira/ talas Tasa atau bahasa latinnya adalah "" Colocasia Esculenta var Antiquarum "" . AGRO LAWU INTERNATIONAL telah memiliki kebun bibit inti dan kebun plasma. AGRO LAWU INTERNATIONAL juga menyediakan tenaga trampil dan berpengalaman dalam bidang budidaya tanaman talas Satoimo/ Talas Jepang. Budi daya talas satoimo ini telah ditekuni sejak tahun 2005 hingga sekarang dengan wilayah penanaman di wilayah P. Jawa, Bali, Sulawesi, Sumatera dan Kalimantan. Pelatihan pembuatan kompos organik merupakan kegiatan rutin dilakukan dan di aplikasikan kelapangan oleh Agro Lawu International. Alamat : AGRO LAWU INTERNATIONAL Kelurahan Sarangan, Kecamatan Plaosan, Kabupaten Magetan. Jatim. Alamat pelatihan : Jl. Raya Sukanagalih no. 88 Hanjawar-Cimacan Jawa Barat 43255 Faks : ( 0263) 2950101 Contact person : 0813 867 42828 ( Bp. Andi)            ","
              Lara Sati, Kelurahan Sarangan RT/RW - 06/01  Kecamatan Plaosan  Kabupaten Magetan            ",Magetan,Jawa Timur,+62 813-8674-2828,None,None
BINA JAYA PLASTIK || SABLON PLASTIK PRINTING MURAH JAKARTA,"
                                    PREMIUM GOLD
                                ",Customer Service,"
PERUSAHAAN KAMI DI BIDANG CETAK KANTONG PLASTIK PRINT TEMPAT CETAK KANTONG PLASTIK PRINT PLASTIK PLASTIK POLOS PLASTIK HP, PLASTIK SUPERMARKET PLASTIK TOKO BAJU PLASTIK TALI PRESS PLASTIK POND OVAL, PLASTIK GAGANG PLASTIK KRESEK PLASTIK MURAH PLASTIK BIBIT TANAMAN PLASTIK , BERKUALITAS PLASTIK, POLYBAG PLASTIK BIBIT TANAMAN PLASTIK SAMPAH CETAK PLASTIK HD, CETAK PLASTIK PE PLASTIK WARNA TAS SPUNBOND PLASTIK SOFTHANDLE PLASTIK DISTRO, PLASTIK UNTUK DISTRO, PLASTIK KANTONG BAJU, PLASTIK PEMBUNGKUS BAJU, PLASTIK UNTUK BUNGKUS BAJU, PLASTIK HP, PLASTIK alamat Alamat : Jl. Jelambar Indraloka 5, No 1875, Jakarta BaraNomer Handphon / WA. 081280163911/ 081229367057 Atas Nama : Bpk, Egi Suprianto / Bpk, Anton . naik kearah jakarta jabrat behenti di samping Halte "" Busway Indosiar"" tanya tukang ojek minta alamat ke indraloka 5, kurang lebih biaya buat ngojek Rp. 10.000, - atau hubungi kontak kami nanti kami jemput depan Halte Indosiar. UNTUK PEMESANAN MINIMAL ORDER 5000 PCS/ LEMBAR DP 50% DARI NOMINAL JUMBLAH UANG PEMESENAN KANTONG PLASTIK CETAK / BUAT LOGO tas plastik sablon tas plastik cetak tas plastik printing tas plastik logo CETAK SABLON PLASTIK CETAK MODEL PLONG, CETAK SABLON MODEL PLASTIK TALI PRES, CETAK SABLON MODEL CETAK SABLON PLASTIK KRESEK, CETAK SABLON MODEL PLASTIK BELANJA, CETAK SABLON MODEL PLASTIK PLONG TENGAH, CETAK SABLON, MODEL PLASTIK OVAL, TENGAH, CETAK SABLON MODEL PLASTIK BOLONG TENGAH, PLASTIK BURAM, PLASTIK TRANPARAN, PLASTIK MODEL JCO, PLASTIK BENING, PLASTIK KACA, PLASTIK MODEL ALFA, PLASTIK MODEL INDOMART, PLASTIK LLDPE, PLASTIK HD WARNA MERAH, PLASTIK WARNA HITAM, PLASTIK WARNA KUNING, PLASTIK WARNA IJO, PLASTIK WARNA BIRU, PLASTIK WARNA CREM, PLASTIK KRESEK, TAS PROMOSI, PLASTIK MODEL KEMASAN SAYURAN, PLASTIK PE PLASTIK HD PLASTIK UNTUK BENIH PADI BENIH KANGKUNG BENIH CABE PLASTIK PUPUK PLASTIK UKURAN CASTEM / KASTEM UKURAN SMAL UKURAN SMOL UKURAN PLASTIK A4 UKURAN A3 CETAK PLASTIK TENG TENG PLASTIK TENG TENGAN CETAK PLASTIK MODEL TALIPRES PLASTIK KEMASAN CETAK LAMINASI CETAK SEPARASI 8 WARNA 10 WARNA CETAK KANTONG PLASTIK, KANTONG PLASTIK, PRINTING PLASTIK, SABLON PLASTIK, SHOPPING BAG, POLYBAG, LAUNDRY BAG, KANTONG KRESEK, SUPERMARKET BAG, SUPPLIER PLASTIK, DISTRIBUTOR PLASTIK, KANTONG KRESEK, PLASTIK KRESEK, POLY BAG, KANTONG BELANJA, TOKO PLASTIK, PRODUKSI PLASTIK, PERCETAKAN KANTONG PLASTIK, PERCETAKAN PLASTIK, PLASTIK HD, PLASTIK PE, PLASTIK OPP, PLASTIK PP, PLASTIK LAUNDRY, ROTOGRAVURE BINAJAYA PLASTIK. Perusahaan Kami bergerak dibidang jasa promosi, percetakan dan sablon sejak tahun 2000 dan sudah melayani ratusan konsumen dari berbagai wilayah di indonesia. BINAJAYA PLASTIK. MELAYANI PESANAN ANDA DALAM BIDANG PROMOSI DAN BIDANG KEPERLUAN KANTONG PLASTIK BUAT USAHA ANDA. SEGERA HUBUNGI KONTAK KAMI SEKARANG JUGA SEDIA PLASTIK CETAK LOGO PESENAN KONSUMEN menerima pesenan kantong shoping bags plastik dengan model variasi unik-unik menerima partai kecil dan partai besar dan mutu kualitas terjamin bagus dan kami juga bisa membuatkan edit logo nya sampai yang bagus model unik juga jenis plastik CETAK KANTONG PLASTIK, KANTONG PLASTIK, PRINTING PLASTIK, SABLON PLASTIK, SHOPPING BAG, POLYBAG, LAUNDRY BAG, KANTONG KRESEK, SUPERMARKET BAG, SUPPLIER PLASTIK, DISTRIBUTOR PLASTIK, KANTONG KRESEK, PLASTIK KRESEK, POLY BAG, KANTONG BELANJA, TOKO PLASTIK, PRODUKSI PLASTIK, PERCETAKAN KANTONG PLASTIK, PERCETAKAN PLASTIK, PLASTIK HD, PLASTIK PE, PLASTIK OPP, PLASTIK PP, PLASTIK LAUNDRY, ROTOGRAVURE contoh ukuran plastik redi stok oval tanpa lipat samping uk.L16 x P24, . HD oval 032. uk.L20 x P30, . HD oval 032. uk.L25 x P35, . HD oval 0 32. uk.L30 x P39, . HD oval 032. oval pake lipat sampng uk.L43/ L35 x P40, . HD oval 035 uk.L43/ L35 x P48, . HD oval 04 uk.L55/ L45 x P48, . HD oval 05. model oval tanpa lipet samping uk. L20 x P27, . HD model oval tanpa lipet samping 035. uk. L25 x P35, . HD model oval tanpa lipet samping 035. uk. L30 x P30, . HD model oval tanpa lipet samping 004. uk. L30 x P35, . HD model oval tanpa lipet samping 004. uk. L30 x P37, . HD model oval tanpa lipet samping 004. uk. L30 x P40, . HD model oval tanpa lipet samping 004. uk. L35 x P35, . HD model oval tanpa lipet samping 004. uk. L35 x P37, . HD model oval tanpa lipet samping 004. uk. L35 x P40, . HD model oval tanpa lipet samping 004. uk. L35 x P45, . HD model oval tanpa lipet samping 004. uk. L35 x P50, . HD model oval tanpa lipet samping 005. uk. L40 x P40, . HD model oval tanpa lipet samping 005. uk. L40 x P45, . HD model oval tanpa lipet samping 005. uk. L45 x P45, . HD model oval tanpa lipet samping 006.. model oval lipet samping uk.L26/ L20 x P27, . HD model oval lipet samping 035. uk.L32/ L25 x P35, . HD model oval lipet samping 035. uk.L40/ L30 x P30, . HD model oval lipet samping 004. uk.L40/ L30 x P35, . HD model oval lipet samping 004. uk.L40/ L30 x P37, . HD model oval lipet samping 004. uk.L40/ L30 x P40, . HD model oval lipet samping 004. uk.L45/ L35 x P35, . HD model oval lipet samping 004. uk.L45/ L35 x P37, . HD model oval lipet samping 004. uk.L45/ L35 x P40, . HD model oval lipet samping 004. uk.L45/ L35 x P45, . HD model oval lipet samping 004. uk.L45/ L35 x P50, . HD model oval lipet samping 005. uk.L45/ L40 x P40, . HD model oval lipet samping 005. uk.L50/ L40 x P45, . HD model oval lipet samping 005. uk.L55/ L45 x P45, . HD model oval lipet samping 006.. model tali pres uk.L26/ L20 x P27, . HD Talipres 035. uk.L32/ L25 x P35, . H D Talipres 035. uk.L40/ L30 x P30, . HD Talipres 004. uk.L40/ L30 x P35, . HD Talipres 004. uk.L40/ L30 x P37, . HD Talipres 004. uk.L40/ L30 x P40, . HD Talipres 004. uk.L45/ L35 x P35, . HD Talipres 004. uk.L45/ L35 x P37, . HD Talipres 004. uk.L45/ L35 x P40, . HD Talipres 004. uk.L45/ L35 x P45, . HD Talipres 004. uk.L45/ L35 x P50, . HD Talipres 005. uk.L45/ L40 x P40, . HD Talipres 005. uk.L50/ L40 x P45, . HD Talipres 005. uk.L55/ L45 x P45, . HD Talipres 006.. model singlet uk.L27/ L15 x P35, . HD singlet 03. uk.L29/ L17 x P36, . HD singlet 03. uk.L36/ L24 x P38, . HD singlet 03. uk.L40/ L28 x P48, . HD singlet 0 3. uk.L49/ L35 x P55, . HD singlet 035. uk.L60/ L40 x P60, . HD singlet 037. uk.L65/ L45 x P65, . HD singlet 04. uk.L70/ L50 x P75, . HD singlet 045.. ini ukuran plastik tebal 05 harus di pesen khusus pake minim order. model oval tanpa lipat plastik tebal uk. L16 x P24, . HD oval 05. uk. L20 x P30, . HD oval 05. uk. L25 x P35, . HD oval 05. uk. L30 x P39, . HD oval 05. uk. L43/ L35 x P40, . HD oval 05. uk. L43/ L35 x P48, . HD oval 05. uk. L55/ L45 x P48, . HD oval 05.. plastik tali press uk. L26/ L20 x P27, . HD Talipres 05. uk. L32/ L25 x P35, . H D Talipres 05. uk. L38/ L30 x P37, . HD Talipres 05. uk. L43/ L35 x P39, . HD Talipres 05. uk. L45/ L35 x P48, . HD Talipres 05. uk. L50/ L40 x P48, . HD Talipres 05.. Plastik singlet uk. L27/ L15 x P35, . HD singlet 05. uk. L29/ L17 x P36, . HD singlet 05. uk. L36/ L24 x P38, . HD singlet 05. uk. L40/ L28 x P48, . HD singlet 05. uk. L49/ L35 x P55, . HD singlet 05. uk. L60/ L40 x P60, . HD singlet 05. uk. L65/ L45 x P65, . HD singlet 05. uk. L70/ L50 x P75, . HD singlet 05.. plastik klip obat ukuran redi stok uk. L3 x P5. plastik klip uk. L4 x P6. plastik klip uk. L5 x P8. plastik klip uk. L6 x P10. plastik klip uk. L7 x P10. plastik klip uk. L8 x P10. plastik klip uk. L8, 7 x P13. plastik klip uk. L10 x P15. plastik klip uk. L11 x P17. plastik klip uk. L12 x P20. plastik klip uk. L16 x P20. plastik klip uk. L20 x P30. plastik klip uk. L25 x P35. plastik klip uk. L30 x P40. plastik klip uk. L35 x P41. plastik klip. UKURAN MODEL OVAL PLASTIK KLIP OBAT JENIS PE BENING REDI STOK Uk 25x35 + 7 04 Uk 28x36 + 7 04 Uk 30x38 + 7 05 Uk 30x40 + 7 06 Uk 35x40 + 7 07, -. jenis plastik pp tipis harga 26000/ kg mini pesen 1ball berat 25kg uk. L10 x P15 tebal 04 uk. L10 x P20 tebal 04 uk. L12 x P25 tebal 04 uk. L15 x P30 tebal 04 uk. L20 x P30 tebal 04 uk. L20 x P35 tebal 04 uk. L20 x P40 tebal 04 uk. L25 x P35 tebal 04 uk. L25 x P45 tebal 04 uk. L28 x P40 tebal 04 uk. L28 x P45 tebal 04 uk. L30 x P45 tebal 04 uk. L30 x P50 tebal 04 uk. L35 x P50 tebal 04 uk. L38 x P55 tebal 04 uk. L40 x P60 tebal 04 uk. L45 x P65 tebal 04 uk. L50 x P75 tebal 04 uk. L60 x P100, tebal 04. jenis plastik pp tebal kripik uk. L12 x P25 tebal 08 plastik kripik uk. L15 x P30 tebal 08 plastik kripik uk. L15 x P20 tebal 08 plastik kripik uk. L20 x P35 tebal 08 plastik kripik. jenis Plastik OPP uk. L10 X P25: tebal 0.03 mm uk. L10.5 x P18: tebal 0.03 mm uk. L10.5 x P25: tebal 0.03 mm uk. L11 x P15: tebal 0.03 mm uk. L11 x P18: tebal 0.03 mm uk. L11 x P25: tebal 0.03 mm uk. L11.5 x P25: tebal 0.03 mm uk. L12 x P15: tebal 0.03 mm uk. L12 x P25: tebal 0.03 mm uk. L12.5 x P25: tebal 0.03 mm uk. L13 x P15: tebal 0.03 mm uk. L13 x P18: tebal 0.03 mm uk. L13 x P25: tebal 0.03 mm uk. L13.5 x P25: tebal 0.03 mm uk. L14 x P18: tebal 0.03 mm uk. L14 x P25: tebal 0.03 mm uk. L14.5 x P25: tebal 0.03 mm uk. L15 x P25: tebal 0.03 mm uk. L15.5 x P18: tebal 0.03 mm uk. L16 x P25: tebal 0.03 mm uk. L16.5 x P25: tebal 0.03 mm uk. L17 x P25: tebal 0.03 mm uk. L17.5 x P25: tebal 0.03 mm uk. L18 x P25: tebal 0.03 mm uk. L18.5 x P25: tebal 0.03 mm uk. L19 x P25: tebal 0.03 mm uk. L19.5 x P25: tebal 0.03 mm uk. L20 x P30: tebal 0.03 mm uk. L20.5 x P30: tebal 0.03 mm uk. L21 x P30: tebal 0.03 mm uk. L21.5 x P30: tebal 0.03 mm uk. L22 x P30: tebal 0.03 mm uk. L22.5 x P30: tebal 0.03 mm uk. L23 x P30: tebal 0.03 mm uk. L23 x P35: tebal 0.03 mm uk. L24 x P35: tebal 0.03 mm uk. L6 x P15: tebal 0.03 mm uk. L7 x P15: tebal 0.03 mm uk. L7 x P25: tebal 0.03 mm uk. L7.5 x P25: tebal 0.03 mm uk. L8 x P25: tebal 0.03 mm uk. L8.5 x P15: tebal 0.03 mm uk. L8.5 x P25: tebal 0.03 mm uk. L9 x P15: tebal 0.03 mm uk. L9.5 x P25: tebal 0.03 mm. UKURAN KARUNG BERAS. 45 x 75 Karung beras susu 25KG 40 x 70 Karung beras susu 20KG 50 x 75 Karung beras susu 40KG 56 x 90 Karung beras susu 50KG 60 x 100 Karung beras susu 70KG 60 x 90 Karung beras susu 60KG 75 x 115 Karung beras susu 100KG 35 x 53 Karung beras susu 10KG 47 x 70 Karung beras susu 20KG. HARGA CALL / SMS / BBM KONTAK KAMI AGAR KAMI BISA MEMBANTU DALAM PESANAN YANG ANDA PESAN. ukuran plastik polybag plastik tanaman minim pesen 25kg, 1bal harga 25000/ kg uk. 48/ 24x50 tebal 10 mcrn plastik tanaman warna hitam uk. 40/ 20x40 tebal 10 mcrn plastik tanaman warna hitam uk. 36/ 18x35 tebal 10 mcrn plastik tanaman warna hitam uk. 32/ 16x30 tebal 10 mcrn plastik tanaman warna hitam uk. 26/ 13x25 tebal 10 mcrn plastik tanaman warna hitam uk. 20/ 10x20 tebal 05 mcrn plastik tanaman warna hitam uk. 16/ 8x15 tebal 05 mcrn plastik tanaman warna hitam. uk. ukuran; Plastik OPP Kiloan Plastik OPP Kiloan Ukuran : Sesuai dengan permintaan Ketebalan : Sesuai dengan permintaan Kemasan : 1: Roll minim berat: 75 kg Untuk ukuran umum, harga per kg adalah @ Rp 55.000, / kg-.. PLASTIK BUAH Plastik Buah 25 cm x 35 cm Ukuran : 25 cm x 35 cm ( 2kg) Kemasan : 6 Roll Plastik Buah 30 cm x 40 cm Ukuran : 30 cm x 40 cm ( 2kg) Kemasan : 6 Roll = = = = = = = = = = = = = = = = = = = HDPE 10 cm x 20 cm Ukuran : 10 cm x 20 cm Ketebalan : 0.03 mm Warna : Putih transparan Kemasan : 25 kg Rp. 32 500.00 Banyaknya: HDPE 12 cm x 25 cm Ukuran : 12 cm x 25 cm Ketebalan : 0.03 mm Warna : Putih transparan Kemasan : 25 kg Rp. 32 000.00 Banyaknya: . HDPE 120 cm x 180 cm Ukuran : 120 cm x 180 cm Ketebalan : 0.03 mm Warna : Putih transparan Kemasan : 25 kg Rp. 34 500.00 Banyaknya: HDPE 15 cm x 30 cm Ukuran : 15 cm x 30 cm Ketebalan : 0.03 mm Warna : Putih transparan Kemasan : 25 kg Rp. 32 000.00 Banyaknya: . Produk Kami | Kami menyediakan Plastik Klip, Ziplock Bag, Plastik HD, Plastik PP, Plastik Sampah, Plastik Cor, Plastik Bibit, Plastik Obat, Plastik Transparant, Plastik Klip, Klip Plastik, Ziplock Bags, Zipper Plastik Bags, plastic zipper bags, zipper plastic bags Kelebihan produk kami ( Plastik Klip, Klip Plastik, Ziplock Bags, Zipper Plastik Bags ) Produk kami ( Plastik Klip, Klip Plastik, Ziplock Bags, Zipper Plastik Bags, plastic zipper bags, zipper plastic bags HDPE 20 cm x 35 cm Ukuran : 20 cm x 35 cm Ketebalan : 0.03 mm Warna : Putih transparan Kemasan : 25 kg Rp. 32 000.00 Banyaknya: . HDPE 30 cm x 40 cm Ukuran : 30 cm x 45 cm Ketebalan : 0.03 mm Warna : Putih transparan Kemasan : 25 kg Rp. 32 000.00 Banyaknya: . HDPE 30 cm x 45 cm Ukuran : 30 cm x 45 cm Ketebalan : 0.03 mm Warna : Putih transparan Kemasan : 25 kg Rp. 32 000.00 Banyaknya: . HDPE 35 cm x 50 cm Ukuran : 35 cm x 50 cm Ketebalan : 0.03 mm Warna : Putih transparan Kemasan : 25 kg Rp. 32 000.00 Banyaknya: . plastik klip ukurannya 4 x 6 cm 5 x 8 6 x 10 7 x 10 8, 7 x 13 10 x 15 11 x 17 12 x 20 16 x 25 20 x 30 25 x 35 30 x 40 selain ukuran tersebut bisa juga dipesan. HDPE 40 cm x 60 cm Ukuran : 40 cm x 60 cm Ketebalan : 0.03 mm Warna : Putih transparan Kemasan : 25 kg Rp. 32 000.00 Banyaknya: . HDPE 50 cm x 75 cm Ukuran : 50 cm x 75 cm Ketebalan : 0.03 mm Warna : Putih transparan Kemasan : 25 kg Rp. 32 000.00 Banyaknya: . HDPE 50 cm x 75 cm Ukuran : 50 cm x 75 cm Ketebalan : 0.03 mm Warna : Putih transparan Kemasan : 25 kg Rp. 32 000.00 Banyaknya: . HDPE 50 cm x 75 cm Ukuran : 50 cm x 75 cm Ketebalan : 0.05 mm Warna : Putih transparan Kemasan : 25 kg Rp. 32 000.00 Banyaknya: HDPE 60 cm x 100 cm Ukuran : 60 cm x 100 cm Ketebalan : 0.03 mm Warna : Putih transparan Kemasan : 25 kg Rp. 32 000.00 Banyaknya: HDPE 60 cm x 100 cm Ukuran : 60 cm x 100 cm Ketebalan : 0.05 mm Warna : Putih transparan Kemasan : 25 kg Rp. 32 000.00 Banyaknya: HDPE 75 cm x 130 cm Ukuran : 75 cm x 130 cm Ketebalan : 0.05 mm Warna : Putih transparan Kemasan : 25 kg Rp. 34 500.00 Banyaknya: HDPE 75 cm x 130 cm Ukuran : 75 cm x 130 cm Ketebalan : 0.03 mm Warna : Putih transparan Kemasan : 25 kg Rp. 32 000.00 Banyaknya: HDPE 80 cm x 120 cm Ukuran : 80 cm x 120 cm Ketebalan : 0.03 mm Warna : Putih transparan Kemasan : 25 kg Rp. 34 500.00 Banyaknya: HDPE 90 cm x 120 cm Ukuran : 90 cm x 120 cm Ketebalan : 0.03 mm Warna : Putih transparan Kemasan : 25 kg Rp. 34 500.00 Banyaknya: = = = = = = = = = = = = = = = = = = = = = = = = = = = Kantong Plastik 15 cm x 25 cm Ukuran : 15 cm/ 25 cm x 25 cm Ketebalan : 0.03 mm Warna : Hitam Jumlah lembar : + 260 lembar / kg Kemasan : 25 kg Rp. 685 000.00 Banyaknya: Kantong Plastik 15 cm x 25 cm Ukuran : 15 cm/ 25 cm x 25 cm Ketebalan : 0.03 mm Warna : Putih Jumlah lembar : + 260 lembar / kg Kemasan : 25 kg Rp. 760 000.00 Banyaknya: Kantong Plastik 17 cm x 30 cm Ukuran : 17 cm/ 28 cm x 30 cm Ketebalan : 0.03 mm Warna : Putih Jumlah lembar : + 225 lembar / kg Kemasan : 25 kg Rp. 760 000.00 Banyaknya: Kantong Plastik 17 cm x 30 cm Ukuran : 17 cm/ 28 cm x 30 cm Ketebalan : 0.03 mm Warna : Merah Jumlah lembar : + 225lembar / kg Kemasan : 25 kg Rp. 686 000.00 Banyaknya: Kantong Plastik 17 cm x 30 cm Ukuran : 17 cm/ 28 cm x 30 cm Ketebalan : 0.03 mm Warna : Hitam Jumlah lembar : + 225 lembar / kg Kemasan : 25 kg Rp. 685 000.00 Banyaknya: Kantong Plastik 24 cm x 40 cm Ukuran : 24 cm/ 37cm x 40 cm Ketebalan : 0.03 mm Warna : Putih Jumlah lembar : + 148 lembar / kg Kemasan : 25 kg Rp. 760 000.00 Banyaknya: Kantong Plastik 24 cm x 40 cm Ukuran : 24 cm/ 37 cm x 40 cm Ketebalan : 0.03 mm Warna : Merah Jumlah lembar : + 148 lembar / kg Kemasan : 25 kg Rp. 686 000.00 Banyaknya: Kantong Plastik 24 cm x 40 cm Ukuran : 24 cm/ 37 cm x 40 cm Ketebalan : 0.03 mm Warna : Hitam Jumlah lembar : + 148 lembar / kg Kemasan : 25 kg Rp. 585 000.00 Banyaknya: Kantong Plastik 28 cm x 48 cm Ukuran : 28 cm/ 42 cm x 48 cm Ketebalan : 0.03 mm Warna : Putih Jumlah lembar : + 92 lembar / kg Kemasan : 25 kg Rp. 760 000.00 Banyaknya: Kantong Plastik 28 cm x 48 cm Ukuran : 28 cm / 42 cm x 48 cm Ketebalan : 0.03 mm Warna : Merah Jumlah lembar : + 92 lembar / kg Kemasan : 25 kg Rp. 686 000.00 Banyaknya: Kantong Plastik 28 cm x 48 cm Ukuran : 28 cm/ 42 cm x 48 cm Ketebalan : 0.03 mm Warna : Hitam Jumlah lembar : + 92 lembar / kg Kemasan : 25 kg Rp. 585 000.00 Banyaknya: Kantong Plastik 35 cm x 55 cm Ukuran : 35 cm/ 53 cm x 55 cm Ketebalan : 0.03 mm Warna : Putih Jumlah lembar : + 56 lembar / kg Kemasan : 25 kg Rp. 760 000.00 Banyaknya: Kantong Plastik 35 cm x 55 cm Ukuran : 35 cm/ 53 cm x 55 cm Ketebalan : 0.03 mm Warna : Merah Jumlah lembar : + 56 lembar / kg Kemasan : 25 kg Rp. 600 000.00 Banyaknya: Kantong Plastik 40 cm x 60 cm Ukuran : 40 cm/ 60 cm x 60 cm Ketebalan : 0.04 mm Warna : Putih Jumlah lembar : + 46 lembar / kg Kemasan : 25 kg Rp. 660 000.00 Banyaknya: Kantong Plastik 40 cm x 60 cm Ukuran : 40 cm/ 60 cm x 60 cm Ketebalan : 0.04 mm Warna : Merah Jumlah lembar : + 46 lembar / kg Kemasan : 25 kg Rp. 586 000.00 Banyaknya: Kantong Plastik 40 cm x 60 cm Ukuran : 40 cm/ 60 cm x 60 cm Ketebalan : 0.04 mm Warna : Hitam Jumlah lembar : + 46 lembar / kg Kemasan : 25 kg Rp. 485 000.00 Banyaknya: Kantong Plastik 50 cm x 75 cm Ukuran : 50 cm/ 76 cm x 75 cm Ketebalan : 0.08 mm Warna : Putih Jumlah lembar : + 22 lembar / kg Kemasan : 25 kg Rp. 670 000.00 Banyaknya: Kantong Plastik 50 cm x 75 cm Ukuran : 50 cm/ 76 cm x 75 cm Ketebalan : 0.08 mm Warna : Hitam Jumlah lembar : + 22 lembar / kg Kemasan : 25 kg Rp. 500 000.00 Banyaknya: Kantong Plastik 50 cm x 75 cm Ukuran : 50 cm/ 76 cm x 75 cm Ketebalan : 0.08 mm Warna : Merah Jumlah lembar : + 22 lembar / kg Kemasan : 25 kg Rp. 600 000.00 Banyaknya: = = = = = = = = = = = = = = = = = = = = = = = = Styrofoam Kemasan : Gabus Kecil Quantity : 100 pack Minimal Order 1 Packing : 1000 pieces Rp. 450 000.00 Banyaknya: Styrofoam Kemasan : Gabus Besar Quantity : 100 pack Minimal Order 1 Packing : 1000 pieces Rp. 550 000.00 Banyaknya: Styrofoam Kemasan : Gabus Sekat Quantity : 100 pack Minimal Order 1 Packing : 1000 pieces Rp. 550 000.00 Banyaknya: Styrofoam Kemasan : HB Quantity : 200 pack Minimal Order 1 Packing : 2000 pieces Rp. 560 000.00 Banyaknya: Styrofoam Kemasan : MO Quantity : 100 pack Minimal Order 1 Packing : 1000 pieces Rp. 420 000.00 Banyaknya: Styrofoam Kemasan : M2 Quantity : 250 pack Minimal Order 1 Packing : 2500 pieces Rp. 560 000.00 Banyaknya: Styrofoam Kemasan : P6 Quantity : 250 pack Minimal Order 1 Packing : 2500 pieces Rp. 580 000.00 Banyaknya: Styrofoam Kemasan : P75 Quantity : 250 pack Minimal Order 1 Packing : 2500 pieces Rp. 630 000.00 Banyaknya: Styrofoam Kemasan : P9 Quantity : 100 pack Minimal Order 1 Packing : 1000 pieces Rp. 850 000.00 Banyaknya: Styrofoam Kemasan : TR3 Quantity : 250 pack Minimal Order 1 Packing : 2500 pieces Rp. 750 000.00 Banyaknya: ukuran plastik polybag plastik tanaman minim pesen 25kg 1bal harga 25000/ kg uk. 48/ 24x50 tebal 10 mcrn plastik tanaman warna hitam uk. 40/ 20x40 tebal 10 mcrn plastik tanaman warna hitam uk. 36/ 18x35 tebal 10 mcrn plastik tanaman warna hitam uk. 32/ 16x30 tebal 10 mcrn plastik tanaman warna hitam uk. 26/ 13x25 tebal 10 mcrn plastik tanaman warna hitam uk. 20/ 10x20 tebal 05 mcrn plastik tanaman warna hitam uk. 16/ 8x15 tebal 05 mcrn plastik tanaman warna hitam HD PE PP OPP LLDPE oxium degradabel jenis plastik HD SINGLET HD SOFHENDEL HD OVAL PE SINGLET PE SOFHENDEL PE OVAL jenis plastik super market careffurr plastik alfa plastik superrindo HD singlet oxium degradabel jenis plastik super market PE singlet jenis plastik super market oxium degradabel singlet jenis plastik obat plastik klip cetak plastik printing plastik sablon plastik prin shoping bags plastik boutiq plastik promosi plastik kebutuhan kantor plastik shoping bags plastik gudang plastik super plastik polibag plastik tanaman plastik pupuk plastik beras plastik kripik plastik corr bangunan plastik onderdil mobil onder motor plastik toko baju plastik kebutuhan rumah sakit plastik kebutuhan akupuntur plastik bungkus pakan burung plastik bungkus sayuran organik kualitas unggul DLL Anda bisa mengklik "" Info Perusahaan "" , "" Katalog Produk "" dan "" Hubungi Kami "" untuk melihat isi dan informasi lain dari situs cetak plastik printing plastik sablon plastik prin shoping bags plastik boutiq plastik promosi plastik kebutuhan kantor plastik shoping bags plastik gudang plastik super plastik polibag plastik tanaman pupuk plastik beras plastik kripik plastik cor. TOKO CETAK KANTONG PLASTIK Perusahaan kami lebih memfokuskan jenis produk pada shopping bag plastik, akan tetapi kami juga menerima order jenis produk yang lain. Harga sablon plastik yang kami tawarkan selain relatif murah dan juga dapat dinegosiasikan kembali. Perusahaan kami selalu berusaha menjaga hubungan baik dengan para klien dan langganan, sehingga menjadi suatu kesepakatan bahwa kepercayaan anda kepada kami adalah suatu asset yang sangat berharga bagi kami. dan tidak ternilai harganya. Segera hubungi kontak kami segera mudah cukup hubungi kami melalui telphone anda sekarang juga dan anda akan mendapatkan jawabannya bersama kami. salam sukses binajayaplastik@ yahoo.com info web : info@ binajayaplastik.com ","
              Jl. Jelambar Indraloka Gang 5 No 1875, Jakarta Barat            ",Jakarta Barat,DKI Jakarta,+62 812-8016-3911,None,None
CV. GMS Pusatnya Timbangan Nagata Tlp. 0811-8686-598,"
                                    PREMIUM GOLD
                                ",Customer Service,"
Kami perusahaan Distributor timbangan NAGATA dan yang bergerak dibidang penjualan timbangan NAGATA di Indonesia,Produk kami berupa timbangan NAGATA digital dan timbangan  NAGATA jarum mulai dari timbangan meja, timbangan duduk, timbangan gantung dan timbangan lantai. Selain melayani penjualan timbangan kami juga melayani jasa service timbangan digital, service timbangan jarum, service jembatan timbang, service timbangan mobil, penjualan sparepart timbangan(Load cell & Indikator timbangan), kalibrasi timbangan & tera timbangan(Sertifikasi Timbangan) penjualan batu timbangan, anak timbangan dan kami PASTI berikan : 1. Harga Lebih Murah + Discount Tambahan Yang Menarik 2. Timbangan Yang Berkualitas 3. Gratis Biaya Pengiriman 4. Jaminan/Garansi Perusahaan kami didukung oleh teknisi - teknisi handal dan berpengalaman dibidangnya,Costumer kami ada diberbagai kota dan provinsi diseluruh Indonesia Untuk memenuhi kebutuhan dan menemukan solusi timbangan anda segera hubungi kami : Tlp.    0811-8686-598, 021-225-87-150Hp.    0812-1006-7998 WA.   0812-1006-7998 E-mail : cvgms@yahoo.com ","
              Jl. Pedongkelen Belakang No. 138 Kapuk,Cengkareng Jakarta Barat - 11720  Tlp. 0811-8686-598, 021-225-87-150            ",Cengkareng - Jakarta Barat,DKI Jakarta,+62 812-1006-7998,None,None
