Name,Membership,Category,Description,Address,City,Province,telp1,telp2,telp3
PT GARUDA MAS LESTARI,"
                                    PREMIUM GOLD
                                ",Konsultan Bisnis,"
              PT GARUDA MAS LESTARI berdiri sejak tahun 1990 di Bandung, bergerak dalam bidang kimia sebagai pabrikasi , importir, distributor, stockist dan exportir. Pada awal berdirinya kami melayani kebutuhan kimia terutama untuk industri textile , namun seiring perkembangan kini kami juga melayani kebutuhan kimia baik barang jadi maupun bahan baku untuk berbagai industri lain , diantaranya: - Makanan dan minuman - Farmasi - Cosmetic - Percetakan - Perkebunan - Pengolahan limbah air - Kertas - Cat - Kulit - Furniture - Bahan baku pakan ternak dan lain-lain Dengan dukungan tenaga ahli dan laboratorium yang lengkap kami juga dapat melayani dan meriset kebutuhan kimia sesuai dengan kebutuhan aplikasi dan keinginan anda ( customised product) . Silahkan konsultasikan kebutuhan kimia anda kepada kami Khusus untuk industri textile, kami menyediakan tenaga ahli dan teknisi handal bila diperlukan untuk konsultasi dan percobaan langsung di lapangan untuk semua proses diantaranya : Untuk INDUSTRI TEXTILE : - Water treatment - Sizing - Preatreatment - Dyeing and after dyeing - Printing - Finishing - Enggraving Untuk INDUSTRI KIMIA TEXTILE atau FORMULATOR : - Menyediakan berbagai bahan baku dan dukungan teknis untuk pembuatan kimia pembantu untuk industri textile ( chemical textile auxiliaries) Dengan pengalaman lebih dari 25 tahun , kami siap memberikan pelayanan terbaik dan menjadi mitra anda menuju kesuksesan. Silahkan hubungi departemen pemasaran kami di : Head Office BANDUNG city - West Java Phone : ( 62) 22 6014647 ( hunting) Fax : ( 62) 22 6009413 Email : ptgarudamaslestari@ yahoo.co.id Branch 1 SOLO city - Central Java Phone : ( 62) 0271 624075 ( hunting) , 7081177 Fax : ( 62) 0271 624075 Branch 2 PEKALONGAN city - Central Java Phone : ( 62) 0285 429114 ( hunting) Fax : ( 62) 0285 429114            ","
              JL. HOLIS 224            ",BANDUNG,Jawa Barat,None,None,None
COLOSSAL ART INDONESIA,"
                                    PREMIUM GOLD
                                ",Konsultan Bisnis,"
CV. Colossal Art Indonesia
merupakan perusahaan kontraktor yang bergerak khusus pada design dan produksi Pekerjaan Kayu, Metal, Fiber, dan Kriya untuk menunjang skup proyek Interior – Arsitektur, Pameran – Eksebisi, Dekorasi, Fiber Modeling, Advertising, dan General Contractor. Dengan Sistem manajemen ter-integrasi dan terancana serta di tunjang dengan tenaga ahli di bidangnya pada tiap - tiap workshop produksi.
WORKSHOP PRODUKSI 
Untuk memastikan ketepatan delivery aplikasi konsep design, mulai tahun 2008 Colossal Art Indonesia membangun beberapa workshop independent yang terus berkembang yang khusus menangani aplikasi produksi proyek Interior – Arsitektur, Pameran – Eksebisi, Dekorasi, Fiber Modeling, Advertising, dan General Contractor. Dengan adanya supply chain management yang terintegrasi di harapkan dapat menghasilkan sebuah produk yang berkualitas dan harga yang bersaing sehingga menghasilkan Competitive Advantage yang durable.
Colossal Art Indonesia memiliki 4 workshop yang khusus menangani spesifikasi pekerjaan yang berbeda, yaitu :
1. Workshop Khusus Pekerjaan Kayu 
Workshop independent milik sendiri yang khusus menangani semua pekerjaan kayu, multiplek, MDF, PB, IB dan pekerjaan kayu lainnya, mulai dari fabrikasi hingga finishing ( HPL, Vinyl, Duco, Melamic, Digital Printing) dikerjakan di workshop ini. Di dukung dengan tenaga – tenaga ahli di bidangnya dan peralatan yang memadai dan fasilitas gudang yang mencukupi sehingga di harapkan dapat mengaplikasikan design untuk produk kayu yang maksimal. Workshop ini untuk mensuport proyek Interior – Arsitektur, Pameran – Eksebisi, Dekorasi, Fiber Modeling, Advertising, dan General Contractor.
2. Workshop Khusus Pekerjaan Metal 
Workshop independent milik sendiri yang khusus menangani semua pekerjaan Besi, Stainless, Aluminium, ACP, Trust dan pekerjaan metal lainnya, mulai dari fabrikasi ( Cutting, Welding, Cor, Bubut, dll) hingga finishing ( Coating Powder, Spry coating, dll) dikerjakan di workshop ini. Di dukung dengan tenaga – tenaga ahli di bidangnya dan peralatan yang memadai dan fasilitas gudang yang mencukupi sehingga di harapkan dapat mengaplikasikan design untuk produk metal yang maksimal. Workshop ini untuk mensuport proyek Interior – Arsitektur, Pameran – Eksebisi, Dekorasi, Fiber Modeling, Advertising, dan General Contractor.
3. Workshop Khusus Pekerjaan Fiber, Kaca dan Acrylic
Workshop independent milik sendiri yang khusus menangani semua pekerjaan Fiber, Kaca dan Acrylic, mulai dari fabrikasi & Modeling hingga finishing ( Cutting Laser, Emboss, Polin, Bevel, Gravir, dll) dikerjakan di workshop ini. Di dukung dengan tenaga – tenaga ahli di bidangnya dan peralatan yang memadai dan fasilitas gudang yang mencukupi sehingga di harapkan dapat mengaplikasikan design untuk produk metal yang maksimal. Workshop ini untuk mensuport proyek Interior – Arsitektur, Pameran – Eksebisi, Dekorasi, Fiber Modeling, Advertising, dan General Contractor.
4. Workshop Khusus Pekerjaan Furnishing & Kriya 
Workshop independent milik sendiri yang khusus menangani semua pekerjaan Furnishing mulai dari Steyrofoam, kain, kulit, Corrugated, Baloon, craft, foam, dacron dikerjakan di workshop ini. Di dukung dengan tenaga – tenaga ahli di bidangnya dan peralatan yang memadai dan fasilitas gudang yang mencukupi sehingga di harapkan dapat mengaplikasikan design untuk produk furnishing yang maksimal. Workshop ini untuk mensuport proyek Interior – Arsitektur, Pameran – Eksebisi, Dekorasi, dan General Contractor.
Dengan memiliki workshop produksi sendiri kami dapat memastikan kualitasnya. Kami sudah berdedikasi sejak 2008 menjadi sub kontraktor dari berbagai mitra konsultan interior dan arsitektur ternama di berbagai daerah di indonesia. Kami akan berikan solusi terbaik agar dapat bermanfaat bagi perkembangan dan kemajuan bersama. ","
              Jln Gunung Muria No.6 16/07 Krembung            ",Sidoarjo,Jawa Timur,+62 822-4005-0012,+62 822-3305-0020,None
INtersarana Indokita (INIGLODOK),"
                                    PREMIUM GOLD
                                ",Konsultan Bisnis,"
              www.iniglodok.com Usaha dari pengembangan indokita teknik ; intersarana1 , Nilfastindo dan Pora Perabot. Pengembangan ini untuk mempermudah pelayanan pembelian sukucadang,mesin,utilities dan accesories. Customer selalu menjadi prioritas Kami dalam usaha pengembangan bisnis.Untuk mempermudah pelayanan bisa menghubungi di  Customer service :+62 21 6329866. & 021 22638375 ----------------------------------------------------------------------------------------------------www.iniglodok.com Enterprises of indokita development techniques; intersarana1, Nilfastindo and Pora perabot. This development is to facilitate the purchase of service parts, machines and accesories. Our customer is always a priority in business development efforts.we giving a cost compatible price with the other.We always effort for giving our customers satisfaction.trustworthy and reliable.From Customers ,We grow up.Customer Service : 021  6329866 & 22638375Sales 1  08561003778  (Whatsapp-Line)Sales 2. 081285012211 (Whatsapp-Line) ","
              JL. Hayam Wuruk GLODOK CITY 3rd floor Blok BKS No 64. & 4th Floor Blok BKS No 08 Jakarta 11120LTC Lindeteves Glodok Jl Hayam Wuruk 127 Glodok Jakarta .Koridor F Lt,1  Blok B Pameran            ",Jakarta,DKI Jakarta,+62 856-1003-778,None,None
