Name,Membership,Category,Description,Address,City,Province,telp1,telp2,telp3
CV. AIRMAS TEKNIK,"
                                    PREMIUM GOLD
                                ",Sewa Kendaraan,"
CV. AIRMAS TEKNIK
PERUSAHAAN YANG BERDIRI SEJAK 12 NOVEMBER 2012 YANG BERGERAK DALAM BIDANG :

SUPPLY DIESEL GENSET SPAREPART
PANEL ELECTRIC
MAINTENANCE SERVICE MECHANICAL ELECTRIC
REPAIR AND REWINDING GENERATOR / INDUCTION MOTOR
SALE AND RENTAL DIESEL GENSET
JUAL BELI DAN SEWA UNIT GENSET

Supply Diesel Genset 10-1500 KVA, Untuk kebutuhan industri, proyek, gedung, rumah sakit, perhotelan, perkantoran, rumahan, restoran, cafe, kampus dan kebutuhan anda lainnya.Merk-merk genset yang kami supply adalah:

MITSUBISHI
CATERPILLAR
ISUZU
KOMATSU
DEUTZ
YANMAR
DENYO
KUBOTA
CUMMINS
MERCEDES BENZ
MWM
MAN
PERKINS
LOVOL
FOTON
-DLL.

CV. AIRMAS TEKNIK, MELAYANI PENJUALAN GENSET SECOND HAND DAN PEMBELIAN SEBAGAI BERIKUT 1. JUAL GENSET SECOND HAND CONDITION 80%2. SEWA GENSET UNTUK PROJECT 10-1500 KVA3. TERIMA TUKAR TAMBAH GENSET BEKAS, CAPACITY 10 KVA S/D 1500 KVA 4. TERIMA GENSET BEKAS BERCAPACITY MULAI DARI 10 KVA S/D 1500 KVA MELAYANI MAINTENANCE SERVICE BERKALA DAN OVER HAUL. - OVERHAUL - TOP OVERHAUL- GENERAL OVERHAUL - MAYOR OVERHAUL- SERVICE BERKALA INFORMASI LEBIH LANJUT DAPAT MENGHUBUNGI KAMI. Sebuah hubungan Business dapat berlangsung lama karena kepercayaan dari dua belah pihak, disini kami sebagai pihak seller, akan memenuhi semua kewajiban kami dengan sebaik-baiknya tanpa ada maksud sedikitpun untuk merugikan pihak buyers, karena kami percaya bahwa hubungan baik adalah kunci dari sebuah Business yang sukses.CV. AIRMAS TEKNIK MEMILIKI REKANAN DAN HUBUNGAN KERJA DENGAN BANYAK CLIENT YANG SAMPAI SEKARANG MASIH BERJALAN DENGAN ERAT. KARENA CV. AIRMAS TEKNIK MEMILIKI SDM YANG BERMUTU, KEPERCAYAAN DAN CAPABILITY YANG SELALU DIJAGA UNTUK MELAYANI CLIENT SEHINGGA JALINAN DAN HUBUNGAN KERJA TERUS BERLANGSUNGSebuah Kepercayaan dan Hubungan didalam bisnis akan tetap terjalin apabila pihak-pihak yang terlibat didalamnya bisa saling PERCAYA, MENJAGA dan PROFESIONAL. Salam Sejahtera, CV. AIRMAS TEKNIK            ","
              Jl. Raya Perancis No. 88A RT. 01/09 Kel. jatimulya, Kec. Kosambi, Kab. Tangerang            ",Kab. Tangerang,Banten,+62 812-9516-6610,None,None
PT. Mega Trans Jaya,"
                                    PREMIUM GOLD
                                ",Sewa Kendaraan,"
              Mega trans Jaya adalah suatu perusahaan yang bergerak pada bidang jasa pengiriman barang , moving, warehousing, jasa pelayanan cargo services, baik pengiriman antar kota / handling daerah, dalam satu pulau maupun pengiriman antar pulau (INTERSULER), yang mencakup pengiriman barang dengan sistem lepas (BREAK BULK), melalui peti kemas LCL / FCL, pengiriman barang melalui truk (TRUCKING), dengan service port to port ataupun door to door.Mega Trans Jaya menawarkan sekian banyak Layanan Opsional, mulai dari pengiriman non-standar dan opsi penagihan hingga pengiriman netral karbon. Dengan pilihan yang fleksibel peningkatan layanan, kenyamanan anda bertambah ketika menggunakan layanan kiriman cepat kami.FEATURESMeningkatkan pelayanannya melalui penyambungan Network / Jaringan yang berbasis pada Informasi Teknologi (IT) yang diharapkan dapat memuaskan client/customer.1. Harga yang kompetitif solusi yang efektif dan efisiensi dalam pengiriman cargo yang berbasiskan pada informasi dan teknologi guna menghadapi tingkat persaingan di era globalisasi saat ini.2. Service yang memuaskan solusi efisiensi dan tepat waktu, dengan standart pelayanan yang tinggi serta inovatif dan praktis.3. Jaringan yang luas Kantor Agent perwakilan tersebar diseluruh wilayah Indonesia menjadi pilihan terbaik jasa pengiriman dan penanganan barang-barang cargo.4. Armada Keselamatan pengiriman barang dengan prasarana yang telah kami miliki sebagai berikut : Fuso Bak, Cdd Box, Cde Box, Grand Box, GrandMax Bak, Granmax blindvan dan Sedepa Motor.5. SDM yang profesional Memiliki Tenaga Ahli yang Professional dan berpengalaman di core bisnis cargo serta dapat memberikan layanan yang cepat dan tetap waktu sesuai dengan moto Kami.6. Layanan Kedepannya selalu untuk terus meningkatkan mutu pelayanannya dan menjadi jawaban atas pengiriman dan penyimpanan barang-barang cargo.Dengan adanya desakan kebutuhan pelayanan jasa pengiriman dirasakan terus meningkat dan dibutuhkan dari waktu ke waktu, maka kami akan menjawab kebutuhan tersebut dengan tenaga ahli yang professional dan berpengalaman di core bisnis cargo serta dapat memberikan layanan yang cepat dan tepat waktu Mega trans jaya merupakan solusi tepat untuk mitra pengiriman paket barang dokumen anda ke seluruh indonesia ataupun export-import.HUBUNGI KAMI DI :Budiarto IrawanMobile : 0877 1812 3567 // 0822 9912 3789Email : budiarto@megatransjaya.comHead Office :Jl. Melong Tengah No.139 B â€“ BandungTelp : 022 -2056-3056Operasional :Perkantoran Bandara Husein Sastranegara Lt.2 No.33 BandungTelp : 022-860 60018Website : www.megatransjaya.com // www.megatranscargo.com ","
              Jl. Melong Tengah No.139 B            ",Bandung,Jawa Barat,+62 822-9912-3789,None,None
CV CAHAYA AGUNG PERSADA,"
                                    PREMIUM GOLD
                                ",Sewa Kendaraan,"
CAHAYA AGUNG PERSADA ( CAP CARGO ) adalah sebuah perusahaan jasa pengiriman barang-barang dan peralatan dari dan untuk industri juga keperluan keluarga di Indonesia.
Seiring berjalannya waktu, CAHAYA AGUNG PRATAMA ( CAP CARGO ) telah mengembangkan diri menjadi divisi transportasi logistic yang berpengalaman dan memenuhi standar pelayanan pengiriman barang ke sejumlah kota di Indonesia seperti kota-kota di wilayah Sumatera, Jakarta, Jawa Barat, Jawa Tengah, Jawa Timur, Bali, serta NTB.
Dengan didukung oleh pengelola serta operator di lapangan yang bersinergi dengan baik, kami menempatkan diri sebagai vendor pelayanan pengiriman yang menjadi pilihan pelanggan. Kamipun telah bekerja sama dengan sejumlah perusahaan di Indonesia.Kami berpandangan bahwa semua pengiriman paket maupun dokumen yang dipercayakan kepada kami adalah sebuah amanah yang harus dilaksanakan dengan sebaik-baiknya. ","
              Jln Manunggal Pratama No 18Komplek Kodam Jatiwaringin Kel Cipinang Melayu Kec Makasar Jakarta Timur ( Sebrang Polsek Duren Sawit ) ",Jakarta Timur,DKI Jakarta,+62 878-8334-3444,None,None
