Name,Membership,Category,Description,Address,City,Province,telp1,telp2,telp3
PT GRESINDO MAS UTAMA,"
                                    PREMIUM GOLD
                                ",Wheel Loader & Motor Grader,"

PT GRESINDO MAS UTAMA adalah perusahaan General Trading bergerak dibidang pengadaan barang dan jasa seperti Elektrikal, Mekanikal, instrument , automation dll.

 

Kami menyediakan kebutuhan pendukung industri seperti PLC, Inverter, Encoder, Tension systems, Pneumatic, Hydraulic, Sensor, Actuator, Valve, Clutch& brake, Cable, Lamps, dll.    

 

Ada banyak industri yang kami dukung seperti automotive industri, packaging industri, steel industri, Contractor, dll Dibawah ini adalah beberapa contoh produk yang dapat kami supply :      

 

PRODUK JEPANG : SUMITOMO, HITACHI, TAMAGAWA, SHIMPO, TAKENAKA, MITSUBISHI,  SUNTES, MINEBEA, THK, WATANABE, SHINKO, SHIMADEN, NISSEI, TERAL, SHOWA DENKI, TOSHIBA, TAIYO, YAMATAKE, SAKAI, TAKAHIRO, NMB, OGURA, ORIENTAL, SANYO DENKI ETC.    

 

PRODUK EROPA & USA : FLUKE, ENIDINE, MARSH BELLOFARM, VAISALA, BAUMULLER, SIEMENS, DWYER, JOHNSON CONTROL, HAMMOND VALVE, SPIRAX SARCO, WEST INSTRUMENT, EATON, ORTLINGHAUS, WARNER ELECTRIC, WICHITA, TWIFLEX, SCHMIDTZ, etc.    

 

Untuk produk dan harga dapat menghubungi kontak marketing kami dibawah ini :
Kontak : Arief N
Mobile  : 0853 1002 5656
E-mail  : ariefgmu@gmail.com
 ","
              Jl. Kelapa Puan 26 AK6/25 Gading Serpong 15810 Tangerang            ",Tangerang,Banten,085310025656,None,None
CV. AIRMAS TEKNIK,"
                                    PREMIUM GOLD
                                ",Wheel Loader & Motor Grader,"
CV. AIRMAS TEKNIK
PERUSAHAAN YANG BERDIRI SEJAK 12 NOVEMBER 2012 YANG BERGERAK DALAM BIDANG :

SUPPLY DIESEL GENSET SPAREPART
PANEL ELECTRIC
MAINTENANCE SERVICE MECHANICAL ELECTRIC
REPAIR AND REWINDING GENERATOR / INDUCTION MOTOR
SALE AND RENTAL DIESEL GENSET
JUAL BELI DAN SEWA UNIT GENSET

Supply Diesel Genset 10-1500 KVA, Untuk kebutuhan industri, proyek, gedung, rumah sakit, perhotelan, perkantoran, rumahan, restoran, cafe, kampus dan kebutuhan anda lainnya.Merk-merk genset yang kami supply adalah:

MITSUBISHI
CATERPILLAR
ISUZU
KOMATSU
DEUTZ
YANMAR
DENYO
KUBOTA
CUMMINS
MERCEDES BENZ
MWM
MAN
PERKINS
LOVOL
FOTON
-DLL.

CV. AIRMAS TEKNIK, MELAYANI PENJUALAN GENSET SECOND HAND DAN PEMBELIAN SEBAGAI BERIKUT 1. JUAL GENSET SECOND HAND CONDITION 80%2. SEWA GENSET UNTUK PROJECT 10-1500 KVA3. TERIMA TUKAR TAMBAH GENSET BEKAS, CAPACITY 10 KVA S/D 1500 KVA 4. TERIMA GENSET BEKAS BERCAPACITY MULAI DARI 10 KVA S/D 1500 KVA MELAYANI MAINTENANCE SERVICE BERKALA DAN OVER HAUL. - OVERHAUL - TOP OVERHAUL- GENERAL OVERHAUL - MAYOR OVERHAUL- SERVICE BERKALA INFORMASI LEBIH LANJUT DAPAT MENGHUBUNGI KAMI. Sebuah hubungan Business dapat berlangsung lama karena kepercayaan dari dua belah pihak, disini kami sebagai pihak seller, akan memenuhi semua kewajiban kami dengan sebaik-baiknya tanpa ada maksud sedikitpun untuk merugikan pihak buyers, karena kami percaya bahwa hubungan baik adalah kunci dari sebuah Business yang sukses.CV. AIRMAS TEKNIK MEMILIKI REKANAN DAN HUBUNGAN KERJA DENGAN BANYAK CLIENT YANG SAMPAI SEKARANG MASIH BERJALAN DENGAN ERAT. KARENA CV. AIRMAS TEKNIK MEMILIKI SDM YANG BERMUTU, KEPERCAYAAN DAN CAPABILITY YANG SELALU DIJAGA UNTUK MELAYANI CLIENT SEHINGGA JALINAN DAN HUBUNGAN KERJA TERUS BERLANGSUNGSebuah Kepercayaan dan Hubungan didalam bisnis akan tetap terjalin apabila pihak-pihak yang terlibat didalamnya bisa saling PERCAYA, MENJAGA dan PROFESIONAL. Salam Sejahtera, CV. AIRMAS TEKNIK            ","
              Jl. Raya Perancis No. 88A RT. 01/09 Kel. jatimulya, Kec. Kosambi, Kab. Tangerang            ",Kab. Tangerang,Banten,+62 812-9516-6610,None,None
PT. ASIA TEKNIK KREASINDO,"
                                    PREMIUM GOLD
                                ",Wheel Loader & Motor Grader,"
Kami Bergerak dibidang kebutuhan industri specialis hydraulic, Pneumatic dan General Supplier. Produk Kami : * Hydraulic Hose * Industrial Hose * Pneumatic Part * Hydraulic Part  Dengan harga terbaik dikelasnya, produk berkualitas dan berGARANSI, memberikan solusi dan masukan untuk setiap permasalahan dibidangnya dengan teknikal support ahli dibidangnya. ","
              Jl. Gatot Subroto KM.2 No.23 ( Depan Ruko Harmoni Cimone ) Kel.Cimone Kec.Karawaci, Tangerang - Banten - Indonesia             ",TANGERANG,Banten,085776189919,+81 29-292-8585,081911193393
CV. SAMUDERA TEKNIKINDO SELARAS,"
                                    PREMIUM GOLD
                                ",Wheel Loader & Motor Grader,"
CV SAMUDERA TEKNIKINDO SELARAS merupakan perusahaan yang bergerak dibidang general trading (General Supplier) dengan 2 (dua) divisi yaitu Perbaikan / Maintenance machine Industri khusus Electrical dan Import product part machine. 
CV SAMUDERA TEKNIKINDO SELARAS memiliki kualitas yang handal dan harga yang sangat ekonomis dan cocok untuk industries dan semua pabrik manufacturing. Adapun merk yang kami supply, diantaranya : Omron, Mitutoyo, Keyence, Yokogawa, SMC, Nagano Keiki, Panasonic, Hanyoung, LG / LS, Fuji Electric, Mitsubishi, Hanyound, Yamatake / Azbil, Klar Stern, Taffware, Panasonic, Hitachi, Siemens, Emerson, Taiyo Parker, Sipik, Shinko, Idec, Sanyo Denki / Dyna Ace, NMB, Daito / Fanuc, NTN, THK, Swan, Oriental Motor, CDK, Luyang, Sick, Bando V-Belt, Yamamoto, Steins, dan masih banyak produk lainnya dari berbagai merk yang kami sediakan, mulai  dari China, Jepang, Taiwan, Korea dan Produk Europa lainnya.
Untuk informasi dan pemesanan silahkan hubungi kami :
CV SAMUDERA TEKNIKINDO SELARAS
Jl. Tarum Barat 2, Ruko Pasar Bersih B-7 (Pintu 11) Kawasan Industri Jababeka II, Jayamukti, Cikarang, Bekasi - Jawa Barat
Phone : 081287602917 // 081219415790 (Call / WA)
Tlp : +62 21 2945 3721 // +62 21 2945 3722
Email : samuderateknikindo@yahoo.com
Website : www.samuderateknikindo.co.id ","
              Office : Jl. Tarum Barat 2, Ruko Pasar Bersih B-7 (Pintu 11) Kawasan Industri Jababeka II, Jayamukti, Cikarang, Bekasi - Jawa Barat ",Cikarang,Jawa Barat,+62 812-1941-5790,None,None
PT. REXINDO OTOTEKNIK,"
                                    PREMIUM GOLD
                                ",Wheel Loader & Motor Grader,"
PT. REXINDO OOTEKNIK incorporated in Bekasi, Indonesia to fulfill any rapid development of diverse modern industry commands an ever-increasing need for industrial plants and success of these industries is highly dependent on cooperation with the right partner for the business. 
 
PT. REXINDO OOTEKNIK established since 2012 by a group of engineers who have experience in the various fields of engineering that could support any industrial needs especially on Engineering, Technical Services, Instrumentation & Control and Industrial Supplies. 
We have some experiences of supplying products in varies kind of industries, such as Oil & Gas, Chemical, Power Generation, Petrochemical, Fertilizer, Coal & Mining, Pharmaceutical, Food Industries, Petrcochemical, etc. 
 
Our team of sales engineers possess many years of experience in assisting clients in automated processes to enhance product quality, increase productivity, reduce waste, improve safety, and to meet regulatory requirements. The result is a solution tailored to meet the unique needs of our customers. 
 
Therefore we represent some agency from International Company that related with our main business. ","
              Office & Workshop : Jl. Toyogiri Selatan No.77 Kel. Jatimulya Kec. Tambun Selatan Bekasi Timur Jawa Barat 17515 ‚Äì INDONESIA.Phone:  (021) 82746125  Faximile: (021) 82435319Branch Office : Villa Mutiara Bogor I Blok C1/19  Kel. MekarwangiKec. Tanah Sareal Jawa Barat 16168 ‚Äì INDONESIA.Phone (0251) 7595433.HP/WA : +62 812 9119 2569            ",Bekasi,Jawa Barat,+62 812-9119-2569,None,None
PT. KAKADA PRATAMA,"
                                    PREMIUM GOLD
                                ",Wheel Loader & Motor Grader,"
PT. Kakada Pratama menawarkan karet berkualitas tinggi berupa barang jadi untuk industri kebutuhan konstruksil dengan harga yang kompetitif di pasar sejak 1986. Kami adalah spesialis manufaktur bantalan karet jembatan atau elastomer jembatan, dan bantalan karet pelabuhan. Disamping itu kami juga memproduksi karet bantalan gudang, karet sheet, expansion joint dan kebutuhan karet lainnya yang anda butuhkan. Kami menerima pesanan dalam ukuran custom dengan spesifikasi yang anda perlukan.
RUBBER BEARING PAD - WORK EXPERIENCE :

Kumagai Kadii Jo Rubber Bearing Pad Bina Marga 1988
Kumagai Kadii Jo Bearing DIA Bina Marga 1989
PT Bangun Cipta Sarana Bearing DIA Cibitung - Cikampek Tollway Project 1989
PT Bangun Cipta Sarana Exp Joint Type Transflex 50 - 70 Cibitung - Cikampek Tollway Project 1990
PT Hutama Karya Bearing dan Exp Joint Transflex 50 Putri Hijau Flyover 1992
PT Trans Bakrie Bearing TRB, HRB, dan Exp Joint Bina Marga 1993
PT Aempe Pluit Bataco Raya Exp Joint Type Transflex 35 Jembatan Pluit 1994
PT Trans Bakrie Bearing TRB, HRB, GRB dan Exp Joint Proyek Pengadaan Bearing untuk Dit Bina 93-94
PT Bukaka Teknik Utama Rubber Bearing Pad Bina Marga 1994
Kumagai Kadii Jo Rubber Bearing Pad Ring Rood Jakarta Timur 1994
PT Hutama Karya Rubber Bearing Pad Putri Hijau Flyover 1994
Hanbo Steel & Handai Tolan Jo Rubber Bearing Pad Tomang Grogol Highway & Pluit Jembatan Tiga Expressway 1994
PT Nindya Karya Rubber Bearing Pad Jembatan Manggarai 1994
PT Hutama Karya Rubber Bearing Pad Ring Rood Jakarta Timur 1994
PT Multi Structure & PT Marga Sarana Raya Rubber Bearing Pad Ring Rood Jakarta Barat 1994
PT Genta Sakti Rubber Bearing Pad Jembatan Pertamina Plumpang Jakarta 1994
Kumagai Kadii Jo Rubber Bearing Pad Tol Cibitung -Cikampek 1994
PT HK Prima Rubber Bearing Pad Over Pass Cibitung 1994
PT Multi Structure Rubber Bearing Pad Depok Flyover 1994
Hutama Yala Rubber Bearing Pad Jalan Layang - Tanjung Priuk - Pluit 1994-1995 1994
Hutama Yala Rubber Bearing Pad Jalan Lingkar Kp Rambutan -Ps Jumat 1995
Hutama Aji Baraga Rubber Bearing Pad Jalan Cengkareng - Bandara Sukarno Hatta 1995
PT Adhi Karya Rubber Bearing Pad Ring Rood Semarang 1996
PT Wijaya Karya Rubber Bearing Pad Ring Rood Yogyakarta 1996
PT Hutama Karya Rubber Bearing Pad Jembatan Ampera II Palembang 1996
PT Waskita Karya Rubber Bearing Pad Jembatan Pertamina - Palembang 1996
Bina Marga Rubber Bearing Pad Jembatan Beton Pracetak 1996
Dit Bina Marga Bearing MEB Komponen Jembatan / Beton - Pracetak Poso Palu 1996
PT Basuki Rahmanta Putra Rubber Bearing Pad Irigasi - Way Rarem Lampung 1996
PT Hutama Karya Rubber Bearing Pad Air Bersih Batam 1996
PT Wijaya Karya Rubber Bearing Pad Jalan Tol Bintaro Ulul Zami Jakarta 2000
PT Adhi Karya Semarang Rubber Bearing Pad Flyover Janti Yogyakarta 2001
PT Wijaya Karya Rubber Bearing Pad Flyover Kerawang 2001
PT Hutama Karya Rubber Bearing Pad Jembatan di Pekanbaru 2002
PT Yasa Patria Perkasa Rubber Bearing Pad Fly Over Natar Lampung Selatan 2002
Bina Marga - Trans Bakrie Bearing TRB, HRB, SEB. DEB & Exp Joint Pengadaan Bearing untuk Wijayah Indonesia Timur 2002 - 2003 2002
Bina Marga Karawang Rubber Bearing Pad Jembatan di Karawang tahun 2002-2003 2002
PT Wijaya Karya Rubber Bearing Pad Jembatan di Sulawesi Selatan Tahun 2003 2003
PT Pembangunan Perumahan Bearing Pad, Exp Joint, Rubber Sheet Jalan Tol Padalarang Cikampek & Jembatan Cimeta 2003 2003
PT Wijaya Karya - Kutama Karya Jo Bearing Pad dan Exp Joint Lingkar Lintas Timur Lampung Bandar Lampung 2003
PT Bukaka Teknik Utama Rubber Bearing Pad Jembatan APBN untuk Wilayah Indonesia Timur 2003
Bina Marga-Trans Bakrie- Sumuranja Bearing TRB, SEB, HRB, DEB dan Exp Joint Jembatan Rangka Baja untuk Daerah Papua 2003
PT Bukaka Teknik Utama Rubber Bearing Pad Jembatan Rangka Baja untuk Daerah Sulawesi dan sekitarnya 2003
Bina Marga Pusat Rubber Bearing Pad Jembatan untuk Wilayah Aceh 2003
Dinas PU Kab Bogor Rubber Bearing Pad Jembatan untuk Daerah Depok 2003
PT Yasa Patria Perkasa Rubber Bearing Pad Flyover Natar OP43 2003
PT Hutama Karya-Wijaya Karya Agrabudi Marga JO Rubber Bearing Pad Proyek Jembatan Suramadu 2004
PT Waagner Biro Indonesia Bearing BRNTB, AWBRB Jembatan Rangka Baja Kalimantan 2004
PT Manunggal Pratama Irian Jaya Rubber Bearing Pad Jalan dan Jembatan di Nabire Irian Jaya 2004
PT Wijaya Karya - PT Hutama Karya Jo Rubber Bearing Pad Pockage CAI Ketapang Jepara Lampung 2004
PT Duta Anaiah , SSY / Samyong Bearing Pad dan Rubber Sheet Jalan Dan jembatan Lampung Timur 2004
PT Wijaya Karya Bearing Pad dan Rubber Sheet tanjung Barat Dan Raya Bogor 2004
PT Bukaka Teknik Utama Bearing TRB 1, 2, 3, 4, 5, Exp Joint Proyek APBN 2004
PT Wijaya Karya Bearing TRB 1, 2, 3, 4, 5, Exp Joint Proyek APBN 2004
PT Waagner Biro Indonesia Bearing TRB 1, 2, 3, 4, 5, Exp Joint Proyek APBN 2004
PT Trans Bakrie Bearing TRB 1, 2, 3, 4, 5, Exp Joint Proyek APBN 2004
PT L& M System Indonesia Rubber Bearing Pad Proyek Cipularang Wetan Bandung 2004
PT Hutama Karya padang Rubber Bearing Pad Proyek Jembatan di Padang 2004
PT Pembangunan Perumahan Bearing Pad Building Proyek Pembangunan Gedung Balai Kartini 2004
PT Hutama Karya-Wijaya Karya Agrabudi Marga JO Rubber Bearing Pad Proyek Jembatan Suramadu 2004
PT Daya Mulia Turangga Rubber Bearing Pad Proyek Cipularang Wetan Bandung 2004
PT Prestasi Karya Mulia Rubber Bearing Pad Proyek Jembatan dan Jalan Palangkaraya 2004
PT Daya Bina Selaras Rubber Bearing Pad Proyek Cipularang Wetan Bandung 2004
PT Prestasi Karya Mulia Exp Joint Lebar 3 Cm dan Aspaltik 91 m' Proyek Jembatan dan Jalan Palangkaraya 2004
PT Bukaka Teknik Utama Rubber Bearing Pad Jembatan APBN untuk Wilayah Indonesia Timur 2004
Ircon Int Limited Rubber Bearing Pad Proyek Jembatan dan Jalan Cipularang 2005
PT Waagner Biro Indonesia Rubber Bearing Pad Proyek Jembatan Rangka Baja 2005
PT Waagner Biro Indonesia Bearing TRB Proyek IBRD 2005
PT Bukaka Teknik Utama Bearing TRB 1, 3, 4, 5, Exp Joint Proyek APBN 2005
PT Waagner Biro Indonesia Bearing TRB 1, 3, 4, 5, Exp Joint Proyek APBN 2005
PT Wijaya Karya Jakarta Bearing TRB 1, 3, 4, 5, Exp Joint Proyek APBN 2005
PT Karunia Berca Indonesia Bearing TRB 1, 3, 4, 5, Exp Joint Proyek APBN 2005
PT Wijaya Karya Yogyakarta Rubber Sheet Move dan Fix Proyek Yogya 2005
Bpk Himawan Ujung Pandang Rubber Bearing Pad Proyek Jembatan di Indonesia Timur 2005
PT Wijaya Karya Jakarta Rubber Bearing Pad Proyek Jembatan di Indonesia Timur 2005
PT Waagner Biro Indonesia Rubber BRNTB 1, 2, 3 Proyek Jembatan Rangka Baja 2005
Pt Karsa Agung Peartindo Jakrta Rubber Bearing Pad Proyek Jembatan di Sumatra 2005
PU Cibinong Rubber Bearing Pad Proyek Jembatan di Kabupaten Bogor 2005
CV Karya Nyata Bogor Rubber Bearing Pad Proyek Jembatan di Kabupaten Bogor 2005
PT Bukaka Teknik Utama Rubber Bearing Pad Proyek Jembatan APBN 2005
PT Karunia Berca Indonesia Bearing TRB 1, 3, 4, 5, Exp Joint Proyek APBN 2005
PT Waagner Biro Indonesia Rubber BRNTB 1, 2, 3 Proyek Jembatan Rangka Baja 2006
PT Bukaka Teknik Utama Bearing TRB 1, 3, 4, 5, Exp Joint Proyek APBN 2006
PT Putra Setia Abadi Rubber Bearing Pad Proyek Jembatan di Cianjur 2006
Pt Hutama Karya Medan Rubber Bearing Pad Proyek Jembatan di Medan 2006
Pt Wijaya Karya Rubber Sheet Move dan Fix Proyek Kereta api jalur Kroya Yogya 2006
PU Bogor Rubber Bearing Pad Proyek Jembatan Bogor 2007
PT Bukaka Teknik Utama Bearing PNEB, SEB, MEB Proyek APBN 2007
PT Waagner Biro Indonesia Rubber BRNTB 1, 2, 3 Proyek Jembatan Rangka Baja 2007
PT Waagner Biro Indonesia Rubber BRNTB 1, 2, 3 Proyek Jembatan Rangka Baja Panua Nugini 2007
PT Waagner Biro Indonesia Rubber BRNTB 1, 2, 3 Proyek Jembatan Rangka Baja PNG 2007
PT Wijaya Karya Jakarta Rubber Bearing Pad Proyek Jembatan di Banda Aceh 2007
PT Wijya Karya Ujung Pandang Rubber Bearing Pad Proyek Jembatan di Ujung Pandang 2007
Pt Hutama Karya Rubber Bearing Pad Proyek Jembatan di Medan 2007
PT Hutama Karya-Wijaya Karya Agrabudi Marga JO Rubber Bearing Pad Proyek Jembatan Suramadu 2007
PT Wagner Biro Indonesia Rubber Bearing Pad Proyek Jembatan di Myanmr 2007
PT Wijaya Karya Rubber Bearing Pad Proyek Usaid Aceh 2007
PT Bakrie Contruction Rubber Bearing Pad Proyek jembatan di Irian Jaya 2007
PT Waagner Biro Indonesia Rubber Bearing Pad AWBRB 1, 2, 3, 4 Proyek Jembatan Rangka Baja 2008
PT Bukaka Teknik Utama Bearing MEB 1. 2, 3 Proyek Jembatan Indonesia Bag timur 2008
PT Bukaka Teknik Utama Bearing SEB 1. 2, 3 Proyek Jembatan Indonesia Bag timur 2008
PT Waagner Biro Indonesia Rubber Bearing Pad BRNTB 1, 2, 3 Proyek Jembatan Rangka Baja 2008
PU Kab Bogor Rubber Bearing Pad Proyek Jembatan di Kabupaten Bogor 2008 106 PT Wagner Biro Indonesia Rubber Bearing Proyek
Jembatan Rangka Baja Tahun 2009

RUBBER DOCK FENDER - WORK EXPERIENCE 

PT Sumber Wangi Mentaya Pusat Fender Type V 400 H - 1500L Darmaga Sampit Kalimantan Tengah 1992
PT Waskita Karya Cab. IX Denpasar Fender Type V 300 H - 1500L Darmaga Badas Sumbawa 1992
PT Barato Wirakarsa Medan Fender Type V 400 H - 1500L DaRMAGA Lhokseumawe 1992 
PT Waskita Karya Cab. IX Denpasar Fender Type V 300 H - 1500L Darmaga Larantuka Kupang 1993
PT. Hutama Karya Cab NTT Fender Type V 500 H - 2000L Darmaga Waingapu 1993
PT Teguh Karya Pratama Fender Type V 800 H - 3000L Proyek LIPI Biak 1993
PT Teguh Karya Pratama Fender Type V 300 H - 2000L Darmaga Namrole Pulau Buru Maluku 1993
PT Teguh Karya Pratama Fender Type V 800 H - 3000L Darmaga Jayapura 1993
PT Barato Wirakarsa Medan Fender Type V 600 H - 2000L Dermaga Curah Cair Lholsumawe 1993
PT Barato Wirakarsa Medan Fender Type V 600 H - 2000L Dermaga Medan 1993
PT Bumi Indah Nusa Abadi Fender Cylinder C 300H & 150H Dermaga PPI Ende Flores 1993
PT Adhi Karya Jakarta Fender Type V 250 H - 1000L Darmaga Leok Toli-toli Palu 1994
PT Nindya Karya Cab VIII Bali Fender Type V 300 H - 1000L Darmaga Waekelo di Sumba Barat NTT 1994
PT Barato Wirakarsa Medan Fender Type V 400 H - 1500L Darmaga Medan 1994
PT Bumi Perkasa Timur Fender Type V 250 H - 2500L Darmaga Medan 1994
CV Halim Perdana Jaya Ambon Fender Type V 400 H - 1500L Darmaga Dobo Maluku Tenggara 1994
CV Akmal Perdana Abadi Fender Type V 250 H - 1000L Darmaga Padang 1994
PT Tiga Dara Karya Sejahtera Fender Type V 100 H - 1500L Darmaga 1994
PT Hutama Karya Cab NTT Fender Type V 500 H - 2000L Darmaga Waingapu 1994
PT Sumber Wangi Mentaya Pusat Fender Type V 400 H - 1500L Darmaga Sampit Kalimantan Tengah 1994
PT Adhi Karya Jakarta Fender Type V 400 H - 2000L Darmaga Banggai Palu 1995
PT Tiga Dara Karya Sejahtera Fender Type V 400 H - 1500L Darmaga Alor NTT 1995
PT Hutama Karya Cab NTT Fender Type V 500 H - 2000L Darmaga Waingapu 1995
PT Hutama Karya Cab NTT Fender Type V 250 H - 1000L Darmaga Rua Sumba Barat 1995
PT Hutama Karya Cab NTT Fender Type V 500 H - 2000L Darmaga Waingapu 1995
PT Kurnia Jaya Wirabakti Fender Type V 250 H - 1000L Darmaga Boking Kupang 1995
PT Bumi Indah Nusa Abadi Fender Type V 250 H - 3000L Darmaga Maumere 1995
PT Barato Wirakarsa Medan Fender Type V 400 H - 1500L Darmaga Medan 1996
PT Adhi Karya Jakarta Fender Type V 500 H - 2500L Proyek Belang-belang Cab IX 1997
PT Teguh Karya Pratama Fender Type V 300 H - 2000L Darmaga Ambon 1997
PT Citra Mitra Mitracon Lestari Fender Type V 300 H - 1700L Darmaga pangkalan utama TNI AL IV Unjungpandang 1997
PT Nindya Karya Cab VIII Bali Fender Type Cell 400H & 600H Darmaga Teluk Gurita Tahab V Nusa Tenggara Timur 2000
PT Adhi Karya Medan Fender Type V 500 H - 1500L Darmaga Sabang 2001
PT Prestasi Karya Mulia Fender Type V 400 H - 2500L Darmaga Palangkaraya Kalimantan Tengah 2001
PT Huma Bange Indah Fender Type D 400 H - 1000L Jakarta Timur 2002
PT Aries Trigonda Fender Type Roll 400 D - 2000L Darmaga Tanjung Priuk Jakarta 2002
PT Kurnia Jaya Makmur Fender Type V 500 H - 2000L Darmaga Panjang Bandar Lampung 2002
PT Nindya Karya Cab III Surabaya Fender Cell 400H & 600H Darmaga Ainore NTT 2003
PT Nindya Karya Cab III Surabaya Fender Cell 400H & 600H Darmaga Ainore 2003
BP Said Aziz Aceh Fender Type V 400 H - 1500L Darmaga Aceh 2003
PT Yusikamas Lestari Jkt Fender Type Roll 400 - 2000L Darmaga Jakarta 2003
PT Putri Khatulistiwa Jkt Fender Type V 500 H - 2000L Darmaga Tanjung Priuk Jakarta 2004
PT Dutaraya Dinametro Kupang Fender Type 500H-1500L Type 300H-1500L Darmaga Waekelo di Sumba Barat NTT 2004
PT Dutaraya Dinametro Kupang Fender Cell 600H Darmaga Waekelo di Sumba Barat NTT 2004
PT JICT Fender Type V 500 H - 2500L Darmaga Tanjung Priuk Jakarta 2005
BP Said Aziz Aceh Fender Type V 400 H - 1500L Darmaga Marboulah Aceh 2005
PT Kurnia Jaya Makmur Fender Type V 500 H - 2000L Darmaga Panjang Bandar Lampung 2005
PT Nindya Karya Cab VIII Bali Fender Type Cell 400H & 600H Darmaga Teluk Gurita Nusa Tenggara Timur 2006
PT Sieraf Teknik perkasa Fender Cilinderical 800H-2000L 2010
CV Kiprah Mandiri, Rubber Fender Type V500H-2500L, 2010
 ","
              Jl. Batutulis, Jaya Tunggal No.3 Bogor, Jawa Barat - Indonesia            ",Bogor,Jawa Barat,+62 812-8985-8600,None,None
CV. Artha Kharisma,"
PREMIUM BLUE ONYX
",Wheel Loader & Motor Grader,"
Artha Kharisma adalah sebuah perusahaan yang bergerak di bidang jual beli dan jasa rental alat berat seperti Excavator, Bulldozer, Grader, Loader, Truck, Vibro, Crane, dan Truck. Semua alat berat kami sediakan dalam keadaan sehat dan siap untuk digunakan. Selain itu kami juga menyediakan berbagai tipe dan merk alat berat seperti Komatsu, Kobelco, Hitachi, Caterpillar, Sakai, Mitsubishi, Zoomlion, dan Kato. Untuk info lebih lanjut mengenai unit kami bisa langsung mengunjungi workshop kami di Jalan Sidotopo Kidul 61 Surabaya (Artha Kharisma) atau hubungi WA Kami di 0813-3181-2666 (Ibu Vivi) ","
              Jl. Sidotopo Kidul 61 Surabaya            ",Surabaya,Jawa Timur,+62 813-3181-2666,None,None
PT. ARISCO MANDIRI,"
PREMIUM RUBY
",Wheel Loader & Motor Grader,"
              Arisco menjual sparepart Komatsu, spareparts alat berat, jual komponen alat-alat berat seperti unit Komatsu Excavator. Komatsu Bulldozer, Komatsu Motorgrader, Komatsu Dump Truck, Komatsu Wheel Loader, dll. kami adalah distributor / stockist untuk pengadaan spare parts spareparts Komatsu seperti unit spareparts excavator, spareparts bulldozer, spareparts motorgrader, spareparts dumptruck, spareparts wheel loader, dan barang yang ditawarkan meliputi sparepart merk asli, sparepart genuine komatsu, sparepart oem komatsu, sparepart non genuine komatsu, sparepart replacement komatsu, untuk tipe unit komatsu meliputi :Excavator : PC75UU-2 PC78US-5 PC100-3 PC100-5 PC100-6 PC200-3 PC200-5 PC200-6 ( engine komatsu) PC200-6 ( engine cummins) PC200-7 PC200-8 PC300-5 PC300-6 PC300-7 PC300-8 PC350-6 PC350-7 PC350-8 PC400-5 PC400-6 PC400-7 PC400-8 PC410 PC450-7 PC450-8 PC800-7 PC1000 PC1250-7 PC1250-8RBulldozer : D31P D31P-18 D31PX-21 D31EX-21 D60E-8 D61EX-12 D61PX-12 D65E-8 D65EX-12 D65PC-12 D70LE D85ESS-2 D155A-1 D155A-2 D155A-3 D155A-5 D155A-6 D375A-2 D375A-3 D375A-5 D375A-6Motorgrader : GD200 GD300 GD400 GD405A-1 GD505A-2 GD510R-1 GD511A-1 GD600 GD605 GD625 GD705A-4Dump Truck : HD200 HD205 HD320 HD325-5 HD325-6 HD325-7R HD465-5 HD465-7 HD465-7R HD605-7 HD785-5 HD785-7 HM350 HM400 HM400-2RWheel Loader : WA100 WA120 WA120-3 WA180-1 WA180-3 WA200 WA200-3 WA250 WA250-3 WA300 WA300-3 WA320 WA320-3 WA350-3 WA380 WA380-3 WA400 WA420-1 WA420-3 WA470-3 WA500-1 WA500-3 WA600-1 WA600-3 WA700 WA800Merek unit specialist di pengadaan spareparts KOMATSU, untuk unit lainnya seperti jual Spareparts PERKINS, jual Spareparts YANMAR, jual Spareparts CATERPILLAR, jual Spareparts KOBELCO, jual Spareparts VOLVO.Dan untuk FORKLIFT merek KOMATSU, Spareparts TCM, Spareparts TOYOTA, Spareparts PATRIA. Berikut kategori product list untuk sparepart umum yang dijual. Dan tersedia untuk barang2 GENUINE, OEM atau Replacement Parts.Tipe Product yang kita jual sbb:‚Ä¢ ENGINE ( CRANKSHAFT - PISTON - RING PISTON - METAL SET - CON ROD[ STANG PISTON] - dll )‚Ä¢ TURBOCHARGER ( GARRET - HOLSET - IHI - SCWITHZER)‚Ä¢ MAIN PUMP ASS‚Äô Y‚Ä¢ FUEL INJECTION PUMP / CONTROL VALVE‚Ä¢ WATER PUMP‚Ä¢ GASKET KIT ( OVERHAUL )‚Ä¢ SERVICE KIT ( BOOM - BUCKET - ARM - HOIST ) / SEAL KIT / O-RING KIT‚Ä¢ OIL / FUEL FILTER / COROSION RESIST / WATER SEPARTOR‚Ä¢ UNDERCARIGE ( TRACK SHOE - IDLER - ROLLER - TRACK LINK - SPROCKET - TOOTH - dll )‚Ä¢ BEARING ( NTN - NSK - TIMKEN - SKF - dll )‚Ä¢ ELECTRIC ( CONTROL PANEL - WIRE HARNESS - SOLENOID - SWITCH - dll )‚Ä¢ ALTERNATOR / STARTING MOTOR / MOTOR GASHarga yang kami tawarkan sangatlah kompetitif. Untuk info lebih lanjut bisa menghubungi kami langsung.            ","
              Taman Sari Raya Komp. Ruko 56 no.91Jakarta Barat            ",Jakarta Barat,DKI Jakarta,+62 878-2851-4000,None,None
DUTA KHANSA MANDIRI,"
                                    PREMIUM GOLD
                                ",Wheel Loader & Motor Grader,"
              CV.  DUTA KHANSA MANDIRI menyediakan: Jasa KONTRAK SERIVICE  & Penjualan Sparepart Alat berat dari China, Jepang, Korea maupun UK & USA .  Dengan merek XGMA, LIUGONG, XCMG, CHANGLIN, WEICHAI, YUCHAI, CATERPILAR, KOMATSU, CATERPILLAR, HYUNDAI , DOOSAN, KOBELCO, HITACHI, LONKING, SDLG, SHANTUI, WEICHAI, YUCHAI, XINCHAI,TIANLY, SEM, KOHLER ENGINE, PERKINS, CUMMINS, TOYOTA , TCM, MITSUBISHI , BOULI , HANGCHA, PATRIA ,LOVOL, HELLY, CHANLIN, PUMP HYDRAULIC ALAT BERAT dll.CV.  DUTA KHANSA MANDIRI menyediakan: Jasa & Penjualan Sparepart FORKLIFT, ALAT BERAT, GENSET dan Engine  merek ISUZU, KOMATSU,CATERPILLAR, HITACHI,CUMMINS  , TCM, MITSUBISHI, WEICHAI, YUCHAI, FAW ENGINE ,NISSAN ,HINO  dll..CV.  DUTA KHANSA MANDIRI merupakan DISTRIBUTOR resmi penyalur Oli , MINYAK PELUMAS  , PELUMAS OLI  dengan Merek """"PanaOil""""""""PanaOil"""" merek Oli yang setara dengan oli kelas tinggi yang sudah beredar di Indonesia.Sedangkan Untntu Kebutuhan KUSUS ,  Mesin KAPAL MARINE  Kami juga menyedikan dengan merek  ''NUSA OIL'' Kami menyediakan dengan harga terbaik Kelebihan SPARE PARTS kami menggunakan komponen utama yang sudah banyak di pasaran sehingga memudahkan untuk pencarian Spare Parts, seperti;Bulldozer, Motor Grader, Wheel Loader, Vibratory Compactor, Tandem Vibratory Roller, Pneumatic Roller, Forklift1. XCMG ( Bulldozer, Motor Grader, Wheel Loader, Vibratory Compactor, Tandem Vibratory Roller, Pneumatic Roller, Forklift)2. LIUGONG ( Bulldozer, Grader, Wheel Loader, Vibratory Compactor, Tandem Vibratory Roller, Pneumatic Roller, Forklift)3. LONKING( Bulldozer, Grader, Wheel Loader, Vibratory Compactor, Tandem Vibratory Roller, Pneumatic Roller, Forklift)4. CHANGLIN ( Bulldozer, Grader, Wheel Loader, Vibratory Compactor, Tandem Vibratory Roller, Pneumatic Roller)5. SHANTUI ( Bulldozer, Grader, Wheel Loader, Excavator)6. CHENGONG ( Hydraulic Excavator, Mini Excavator, Skid Steer Loader, Wheel Loader)7. ZOOMLION ( Bulldozer, Grader, Wheel Loader, Excavator)8. TIANGONG  / SINOMACH ( Bulldozer, Grader, Wheel Loader, Excavator)9. SDLG ( Bulldozer, Grader, Wheel Loader)10. SANY ( Excavator, Wheel loader, Crane etc)11. YUTONG ( Bulldozer, Grader, Wheel Loader, Vibratory Compactor, Tandem Vibratory Roller, Pneumatic Roller,12. LUTONG ( Tandem, Compactor)13. LUYANG ( Tandem, Compactor)14. FAW SHACMAN HOWO SANY DONGFENG CHENGLONG DFLZ ( Truck)15. WEICHAI ( Engine for Marine and Industrial )16. YUCHAI ( Engine for Marine and Industrial )17. HYUNDAI ( Hydraulic Excavator, Mini Excavator, Skid Steer Loader, Wheel Loader)18. DOOSAN ( Hydraulic Excavator, Mini Excavator, Skid Steer Loader, Wheel Loader)19. VOLVO ( Hydraulic Excavator, Mini Excavator, Skid Steer Loader, Wheel Loader)20. GENSET PARTS ( CUMMINS PERKINS MITSHUBISHI MAN DEUTZ CATERPILLAR YANMAR VOLVOProduk Utama :1. Jual Baterai / Aki / Batteray Traction Untuk Forklift Electric2. Jual Sparepart Alat Berat LIUGONG, LONKING, XCMG, XGMA, SDLG ,HYUNDAI, CATERPILAR, HITACHI  ( WHEEL LOADER, EXCAVATOR, MOTOR GLADER, VIBRO, BULLDOZER, CATERPILAR).   3. Jual Engine Parts : Weichai, Yuchai, Perkins, Cummins, Mitsubishi, Isuzu, Cummins,Toyota dll4. Jual spareparts forklift , Forklift Sparepart : TCM, Mitsubishi, Toyota, Nichiyu Forklift dll5. Jual spare parts Genset , Sparepart: shinchai, shangchai, shanghai, Weichai, Cummins, Perkins, , caterpilar , Marine DLL./Attachment :1. FORK2. Extention FORKS, Sepatu FORK3. Bale Clamp, Paper Roll Clamp dllJual Aneka  ATTACHMENT :Type Baterai Traction, Ban / Tire / Tyre, Forks / Garpu forklift dan sarung fork, Bale Clamp & Attachment , Chain Lift lainnya.MENYEDIAKAN Jasa Perbaikan :- Overhaul Engine / Transmisi / General Overhaul Unit- Kontrak Maintenance / Kontrak Service - Repair alat berat  - Perbaikan forklift- Perbaikan Excavator- Perbaikan whell loader - Perbaikan Alat berat , dllCV. DUTA KHANSA sebagai perusahaan yang bergerak dibidang pengadaan barang dan jasa, kami menyediakan solusi  bisnis  inovatif  kepada perusahaan yang ingin menjadi mitra kami yang mana kami selalu mengutamakan mutu serta kepercayaan demi kelangsungan  bisnis yang harmonis dan berkelanjutan.Contact Us :Mobile      : 085285628186  Whatsapp : 085285628186      fax   Only : 021 7324196  ( only fax .  call before/ after  fax done )Email       : by Whatsap
PERWAKILAN  :
1. Pekalongan Wiradesa.  Smarang  Jawa Tengah
    Contact : HP/WA   081548065555./ 085285628186
2. Kota Bandung  Jawa Barat
    Contack  : HP/WA  081220096566.
HUBUNGI   PERWAKILAN KAMI TERDEKAT. ","
              Head Office :Jl.Dr Cipto Mangunkusumo no.37 Paninggilan Utara Ciledug TANGERANG. Fax ( Only ) : 021 7324196  HP / WA : 085285628186  Warehouse:Jl. Raya Taman Sari,  Asem Reges  Lantai 2  AKS: 52   JAKARTA.   Fax  ( Only ) : 021 7324196 HP / WA :   085285628186Perwakilan  :1. Pekalongan Wiradesa.  Jawa Tengah    Contact : HP/WA   081548065555. 0852856281862. Kota Bandung  Jawa Barat    Contack  : HP/WA  081220096566.HUBUNGI   PERWAKILAN KAMI TERDEKAT.              ","JAKARTA  & TANGERANG 085285628186, Cabang : BANDUNG (081220096566)  & PEKALONGAN (081548065555.) JATENG",DKI Jakarta,085285628186,None,None
BERKAT PARTINDO ABADI,"
                                    PREMIUM GOLD
                                ",Wheel Loader & Motor Grader,"
Berkat Partindo Abadi adalah perusahaan yang berbegerak dalam bidang penjualan Ban Alat Berat dan Velg Alat Berat untuk Dump Truck, Mobile Crane, Forklift, Loader, Traktor, Grader, Backhoe, Compactor, Road Roller, Vibro, Tandem, Wheel Dozer, Skidder, Reach Stacker, Straddle Carrier, Gantry Gate, Harvester, Finisher, Paver, Skidder, Bob Cat, dan Alat Berat lainnya.
Berkat Partindo Abadi memberikan hanya pelayanan yang terbaik, produk unggulan tepat guna, dan harga yang kompetitif kepada setiap pelanggan dan mitra kerjanya. Silahkan Hubungi Kami : CV. Berkat Partindo Abadi Sales 1 : 0858 88 20 22 66 .Sales 2 : 0858 33 66 88 99 .Fax : 021 - 2960 8397 ( Fax) .Email : info@berkatpartindoabadi.com .Website : https://berkatpartindoabadi.com . ","
              CV. Berkat Partindo Abadi - MGK Kemayoran - Lantai UG - Blok A18 / 7 - Jl. Angkasa Kav. B6 - Kemayoran - Jakarta Pusat            ",Jakarta Pusat,DKI Jakarta,+62 858-3366-8899,None,None
BEJO REJO BANGKIT JAYA,"
                                    PREMIUM GOLD
                                ",Wheel Loader & Motor Grader,"
              PT. BEJO REJO BANGKIT JAYA merupakan Perusahaan Jual / Beli / Sewa Concrete Pump, alat berat, heavy equipment di Jakarta - Indonesia. CONCRETE PUMP / POMPA BETON : disini kami untuk concrete pump menyediakan berbagai macam tipe sesuai kebutuhan anda, ada concrete pump mini, concrete pump standa ( 18 meter ) concrete pump long boom ( 26 meter ) , concrete pump super long boom ( 32 - 37 meter) dan juga ada concrete pump portable atau biasa di sebut pompa kodok/ stationary, pompa portable sendiri kegunaanya untuik pengecoran dengan ketinggian dan jarak yang sudah tidak bisa di lakukan oleh concrete pump mobile. Sewa Concrete Pump Jual Concrete Pump Beli Concrete Pump Rental Concrete Pump Jasa Concrete Pump Sewa Heavy Equipment Jual Heavy Equipment Beli Heavy Equipment Rental Heavy Equipment Heavy Equipment Rental Pump Jasa Heavy EquipmentUntuk informasi lebih lanjut silahkan hubungi : Bpk. Hermanto / Bpk Darma Hp : 08129107773 Hp : 0818124645            ","
              DAAN MOGOT KM.17- NO. 38 (KALIDERES)            ",JAKARTA BARAT,DKI Jakarta,+62 818-124-645,None,None
Indo Autozone,"
                                    PREMIUM GOLD
                                ",Wheel Loader & Motor Grader,"
Indo Autozone merupakan perusahaan distributor yang bergerak dalam penjualan ban alat berat seperti ban forklift, ban loader, ban grader, ban traktor, ban vibro, ban crane, ban reach stacker, ban dump truck, ban telehandler, dan sebagainya. Juga tersedia velg untuk unit alat berat yang telah disebutkan sebelumnya seperti velg loader, velg forklift, velg vibro, velg grader, dan lain lain. Kami terus berkomitmen untuk menjadi mitra terbaik dalam penyediaan ban alat berat diberbagai sektor di Indonesia, meliputi industri, konstruksi, pertambangan, perkebunan, pelabuhan, bandar udara, produksi, pergudangan, dan sebagainya. Kami bertekad untuk menjadi solusi terdepan untuk kebutuhan kendaraan industrial dan alat berat Anda. Didukung oleh tim teknis yang handal, kompeten dan profesional, kami juga menyediakan layanan service untuk forklift, mulai dari perawatan rutin sampai perbaikan yang memerlukan keahlian khusus seperti overhaul (turun mesin) dan perbaikan transmisi. Selain itu, kami juga menyediakan jasa penyewaan atau rental forklift harian maupun kontrak, dari kapasitas 2 ton sampai 25 ton. Sejak berdirinya Indo Autozone di tahun 2012, kami memiliki portfolio client yang tersebar merata di berbagai wilayah Indonesia, mulai dari Sumatera, Jawa, Sulawesi, Kalimantan bahkan Papua. Ini merupakan bukti kepercayaan pelanggan terhadap kami dan tentunya totalitas komitmen Indo Autozone untuk kepuasan Anda. Indo Autozone Alamat: Jalan Hibrida Raya Blok PE 10 No. 27, Kelapa Gading Permai, 14250, Jakarta Utara, Indonesia Telp: (62) ( 021) 4584 7292 Fax: (62) ( 021) 4584 2094 HP (1): +62 851 0058 5553 HP (2): +62 877 8805 5651   Business Hours Senin - Jumat : 08.00 ‚Äì 17.00 Sabtu : 08.00 ‚Äì 14.00 Minggu dan Hari Libur TutupWebsitewww.indoautozone.co.idwww.banforklift.idMedia Sosialwww.facebook.com/indo.autozone.jakartaInstagram: indo.autozone.jakarta ","
              Jln. Hibrida Raya Blok PE 10 No. 27, Kelapa Gading Permai, Jakarta Utara            ",Jakarta Utara,DKI Jakarta,+62 877-8805-5651,None,None
Sumber Berkat Abadi,"
                                    PREMIUM GOLD
                                ",Wheel Loader & Motor Grader,"
SUMBER BERKAT ABADI
Kami Specialist menyediakan :
¬†
1. Auto Synchronous Generator
= Woodward, Smartgen, ComAp, Datakom
Speed Control & Actuator
= Woodward, GAC, Segma, Cummins
¬†
2. Battery Charger
= BAE, SEG, Smartgen BAC, CSS, Aspire, Datakom SMPS & Firetrol
¬†
3. AVR
= Stamford, Leroy Somer, Marrelli, Mecc Alte, Taiyo, Basler, Caterpillar, OEM
¬†
4. VDO Gauge & VDO Sender
¬†
5. Turbocharger
= Holset, Garrett, KMP, Perkins, IHI, Mitsubishi, Caterpillar
¬†
6. Relay Protection, Overcurrent, Overvoltage & Trafo
= Broyce Control & SEG
¬†
7. Solenoid & MPU
= Woodward, HEL, Deutz, Kubota, DENSO, OEM
¬†
8. Stater Motor & Alternator
= Bosch, Mahle, Iskra, Delco Remy, Hitachi, OEM
COS
= Smartgen & Kyoritsu
¬†
9. Fuse MV
= SIBA, Bussmann, Schneider, Siemens
¬†
10. Spare Parts Generator
= Cummins, Komatsu, Perkins, Deutz, Caterpillar, Yanmar & Kubota
¬†
11. Undercarriage Excavator
¬†
12. Potensiometer, Dioda, Switch, Connector
= Vishay Spectrol, Bourns
¬†
HP / WA : 08788-24-000-19
Bpk. Sonny Pranata ","
              Jl. Pintu Air 3 No. 25-C Pasar Baru            ",Jakarta Pusat,DKI Jakarta,+62 878-8240-0019,None,None
pt.inti karya karisma,"
                                    PREMIUM GOLD
                                ",Wheel Loader & Motor Grader,"
              PT.INTI KARYA KARISMA adalah suatu perusahaan dagang yang berkembang sangat pesat, khususnya dalam bidang penyediaan barang dan alat - alat untuk kebutuhan industri yang ada di Indonesia, meliputi bidang Valev - Valev, Automation System dan Electrical Components Seperti : PNEUMATIC & HYDRAULICS : SMC, KOGANEI, CKD, KURODA, TAIYO, TACO, ROSS, AIRTAC, TOYOOKI, AUTOGIKEN, DAIKIN, UCHIDA, YUKEN, NOK F- TEC, FUJIKURA, JUNRON, MARUHA, NACHI, SHINDENGEN, MAC, ERACON ( NEW ERA ) PISCO, KONDOH, FOTEK, CHANTO, PNEUMAX, SANG- A, MAC, NUMATICS, MYOTOKU, AURORA CONVUM, KONAN, FUJI SEIKI, KINGSTON, JUNRON, KCC, YPC, BIMBA, FABCO- AIR Etc. CLUTCH & BRAKE ELECTROMAGNETIC : OGURA, SHINKO, OSAKI DENGYOSA, SUNTES, MITSUBISHI, AIRFLEK, PLANOX, MIKKI PULLEY, STROMAG, GUMMI, FAWICK, EATON, AUTOGARD, STEARN, ORTLINGHAUS, SIME, BINDER, COREMO, ANTEC, PINTS BAMAG, WARNER, MAYR, AIR CHAMP ELECTRIC & MOTOR : MITSUBISHI, YASKAWA, FUJI ELECTRIC, HITACHI, TOSHIBA, NIKKI DENSO, TSUKASA, TAMAGAWA SEIKI, NISSEI, OGURA, OMRON, RORZE, SANYO DENKI, SAWAMURA, TAMAGAWA SEIKI, ORIENTAL, VEXTA, PANASONIC, YAMATAKE, SHINKO, SHIMPO, NIDEC, MIKI PULLEY, ITOH, MAKISHINKO, TSUBAKI, PATLITE, USHIO, IDEC IZUMI, HANYOUNG, PHILIPS, OSRAM, TOYO FAN, TDK, KOINO, ALPS, NIKKAI ( NKK ) SENSOR & CONTROLS : OMRON, SUNX, SHINKO, KEYENCE, RIKEN, NATIONAL, YAMATAKE, SEEKA, HONEYWELL, IFM, KOYO, EUROTHERM, PEPPERL+ FUCHS, BALLUFF, PILZ, SICK, TURCK, DATASENSOR, TAKENAKA, IDEC IZUMI, KOINO, TOYO , NIPPON AUTOMATION POWER SUPPLIES : COSEL, NEMIC LAMBDA, OMRON, MATSUSHITA, MEAN WELL, ASTEC, MURR, SPELLMAN, ZENTRO, XP Power Supplies COOLANT PUMP : MITSUBISHI, NIPPON OIL PUMP, FUJI ELECTRIC, TERAL TROCHOID PUMP : NIPPON OIL PUMP, FUJI, MITSUBISHI BEARING : THK, IKO, NSK, NB, NMB, EZO, KURODA, SAMICK, HIWIN, NTN Etc TEMPERATURE CONTROL : RKC, TOHO, SHIMADEN, FUJI ELECTRIC, HONEYWELL, ASAHI KEIKI, YOKOGAWA, AMETEK, DYWER, TESCOM, SHIMAX, OPTEK Keuntungan dari pelayanan kami adalah sbb: Untuk permintaan penawaran harga silahkan e- mail ke : PT.INTI KARYA KARISMA Hp : 081286783132, 081218651189 Tlp : 021- 50408997 E- mail : pt.intikaryakarisma@ yahoo.co.id            ","
              Mega Glodok Kemayoran            ",Jakarta,DKI Jakarta,+62 812-8678-3132,None,None
PT DIVA RAYA PERKASA,"
                                    PREMIUM GOLD
                                ",Wheel Loader & Motor Grader,"
PT DIVA RAYA PERKASA adalah perusahaan General Trading dan fokus pada kebutuhan industri di seluruh Indonesia. perusahaan kami berkembang sangat pesat dan mampu memenuhi kebutuhan industri dalam bidang Automation System dan Electrical Component juga Instruments seperti:
 
ABB
ACE
AIKOH
AIRTAC
AIRTEC
ALISH
APEX DYNAMIC
ASCO
AUTONICS
AZBIL TACO
AZBIL YAMATAKE
BALLUFF
BANNER
BAUMER
BAUMULLER
BECKHOFF
CHANTO
CHELIC
CHINO
CKD
COSEL
DANFOSS
DAIKIN HYDRAULIC
DELTA
DELIXI
DEUBLIN
DIGITECH
DUNGS
DYWER
ELSTEIN
EMKO
ENDRESS+HAUSER
ENIDINE
EMERSON
ERO ELECTRONIC
ETA POWER SUPPLY
EUROTHERM
FANUC
FATEK
FENWALL
FESTO
FINE SUNTRONIX
FRECON
FUJI ELECTRIC
FUJIKURAFUJI SEIKI
IAI
IDEC IZUMI
IFM EFECTOR
IPF
ITOH DENKI
HAKKO MONITOUCH
HBM
HENGSTLER
HITACHI
HITECH BEIJER
HNC ELECTRIC
HOHNER
HONEST
HONEYWELL
HONGJIN
KEYENCE
KHK GEAR
KINCO
KOGANEI
KONDOH
KOYO ELECTRONIC
KROMSCHRODER
KURODA PARKER
LENZE
LEUZE
LINE SEIKI
LS
MAGNESCALE
MARSH BELLOFRAM
MEAN WELL
MICROSONIC
MIDORI
MIGHTY COUPLING
MIKI PULLEY
MITSUBISHI ELECTRIC
MITUTOYO
MOCHUAN INVERTER
M-SYSTEM
MTL-EATON
MYOTOKU
NACHI FUJIKOSHI
NMB
NIIKA
NIDEC NEMICON
NISSEI GTR
NKE
NIPPON OIL PUMP
NSD
OKUMA
OGURA CLUTCH BRAKE
OILES BEARING
OMRON AUTOMATION
ONO-SOKKI
OPTEX
ORIENTAL MOTOR
OSAKI DENGYOSHA
PANASONIC
PATLITE
PEACOCK
PEPPERL+FUCHS
PERMA-TORK
PHOENIX CONTACT
PIL ULTRASONIC SENSOR
PILZ
POWER GENEX
PRO-FACE SCHNEIDER
PULS
REP ENCODER
RKC INSTRUMENT
RIKEN OPTECH
ROSEMOUNT
ROSS
RS COMPONENTS
SAN-ACE
SAMKO-SANKEN
SANYO DENKI
SANYU
SANKI
SANKYO
SANYO DENK
SCHNEIDER ELECTRIC
SHIMADEN
SHIMPO INSTRUMENTS
SHINKO TECHNOS
SHINKO SINFONIA
SMC
SICK
SIEMENS
STONKER
SUMTAK HEIDENHAIN
SUNON FAN
SUNTEC
SUNTES
SUNX PANASONIC
TAIYO
TAMAGAWA SEIKI
TEKEL
TERAL
TAKEX
TAKIGEN
TDK-LAMBDA
TEDEA HUNTLEIGH
TOHNICHI
TOHO
TOKICO
TOSHIBA
TOSOKU
TOYO FAN
TSUBAKI EMERSON
TURCK
UNIPULSE
ULVAC
URAS MURAKAMI
WABCO
WATANABE ELECTRIC
WECO
WECON
WEIDMULLER
WEINTEK EASYVIEW
WENGLOR
XINJE
YAESU
YASKAWA ELECTRIC
YOKOGAWA
YTC-ROTORK
YUKEN KOGYO
 
Untuk harga dan stok barang hubungi kami di bawah ini:
 
PT. DIVA RAYA PERKASA
Jl. R.S. Fatmawati No. 72 Taman Pondok Labu
Lantai 1 Blok B.28 Jakarta 12450 Indonesia
Telp: 6221-2276 8077 - 2904 0751
Fax: 6221-2765 0034
HP: 081210115225
E-mail: divarayaperkasa@indo.net.id
E-mail: divarayaperkasa@gmail.com
E-mail: divarayaperkasapt@gmail.com
E-mail: salescrs@indo.net.id
 
Sales Dept :
Septianie : 081210115225
Dani Ari : 081290362374
Wawan : 089653312669
Rany : 081386710925
Satria : 081398524121
Sinta : 081386725125 ","
              Jl. RS Fatmawati No.72 Taman Pondok Labu Lt.1 Blok B.28 Cilandak 12450 Jakarta Selatan Indonesia            ",JAKARTA SELATAN,DKI Jakarta,+62 812-9036-2374,None,None
PT. ADI RAYA MANDIRI,"
                                    PREMIUM GOLD
                                ",Wheel Loader & Motor Grader,"
PT. ADI RAYA MANDIRI berkembang sangat pesat sebagai perusahaan penyedia barang barang untuk kebutuhan industri yang ada di Indonesia.kami menjual dan medistribusikan spare part juga alat-alat untuk kebutuhan industri meliputi bidang Automation System Dan Electrical Components, Pneumatics, Hydraulic dan Juga Controls System Seperti : 
POWDER CLUTCH & BRAKES :

MITSUBISHI
OGURA
OSAKI DENGYOSA
SUNTES
SHINKO SINFONIA
MIKKI PULLEY
COREMO
WARNER
MAYR
ROTEX

HYDRAULIC PNEUMATICS :  

SMC
KOGANEI
CKD
KURODA
TAIYO
TACO
ROSS
AIRTAC
DAIKIN
YUKEN
NOK F-TEC
NACHI
MAC
ERACON
NEW-ERA
PISCO
CHANTO
MYOTOKU

ELECTRICAL MOTOR And INVERTERS : 

MITSUBISHI
YASKAWA
FUJI ELECTRIC
HITACHI
LG/ LS
TOSHIBA
NIKKI DENSO
TAMAGAWA
SEIKI NISSEI
RORZE
SANYO
DENKI
SAWAMURA
ORIENTAL MOTOR
VEXTA MOTOR
 PANASONIC
SHINKO
SHIMPO
NIDEC NEMICON
IDEC IZUMI

SENSOR & CONTROL DEVICE : 

SHINKO
OMRON
SUNX
KEYENCE
RIKEN OPTECH
YAMATAKE AZBIL
SEEKA/ TAKEX
TAKENAKA
PULNIX
KOYO
EUROTHERM OPTEX
PEPPERL+ FUCHS
PILZ
SICK
TURCK
IDEC
 IZUMI

POWER SUPPLIES DC - AC CONVERTER : 

COSEL
NEMIC
LAMBDA
FINE SUNTRONIX
OMRON
MEAN WELL
MURR
PULS
XP Power Supplies

TEMPERATURE CONTROLLER :

RKC
TOHO
SHIMADEN
SHINKO
FUJI ELECTRIC
HONEYWELL
ASAHI KEIKI
ALISH
KEYANG
YOKOGAWA
DYWER

Keuntungan Dari Pelayanan Kami Adalah Sbb:

Harga Yang Kami Tawarkan Lebih Bersaing 
Mutu Dan Keaslian Barang Terjamin 
Barang Dapat Kami Kirim Sesuai Dengan Tanggal Kebutuhan
Kemudahan Dalam Pembayaran 

Harga Hubungi Kami Dibawah Ini :PT. ADI RAYA MANDIRIJl. Pinang Raya No.70 Pondok LabuJakarta Selatan 12450 IndonesiaTelp : 6221-766 3747 - 2904 2880Fax  : 6221- 7510595E-Mail: adirama@indo.net.idE-Mail: adirayamandiri@yahoo.co.idE-Mail: ptadirayamandiri@yahoo.co.idWebsite : www.adirayamandiri.comWebsite : http://adirayamandiript.com ","
              Jl.Pinang Raya No.70 Pondok Labu CilandakJakarta Selatan Indonesia            ",Jakarta Selatan,DKI Jakarta,+62 813-1087-8688,None,None
Central_ Alat_ Berat,"
                                    PREMIUM GOLD
                                ",Wheel Loader & Motor Grader,"
              Kami CV. AZTEKINDO MANDIRI Sebagai Central Alat Berat yang bergerak dibidang penjualan alat-alat berat dan Spare Parts alat berat Meliputi mesin construction dan Mesin2 untuk Kebutuhan Industri Dan Kami Menjual segala macam Ragam SPARE PARTS untuk mesin konstruksi merk China dan korea :1. ASPHALT MIXING PLANT Cap. 40-60 TPH, 60-80 TPH, 66-96 TPH, 150 TPH etc.2. STONE CRUSHER PLANT CAP. 30-40 TPH, 40-60 TPH, 60-80 TPH, 90-100 TPH etc.3. CONCRETE BATCHING PLANT CAP. 30 M3 PER HOUR, 60 M3 PER HOUR, 100 M3 PER HOUR etc.4. XGMA ( Bulldozer, Motor Grader, Wheel Loader, Vibratory Compactor, Tandem Vibratory Roller, Pneumatic Roller, Forklift)5. XCMG ( Bulldozer, Motor Grader, Wheel Loader, Vibratory Compactor, Tandem Vibratory Roller, Pneumatic Roller, Forklift)6. LIUGONG ( Bulldozer, Grader, Wheel Loader, Vibratory Compactor, Tandem Vibratory Roller, Pneumatic Roller, Forklift)7. LONKING( Bulldozer, Grader, Wheel Loader, Vibratory Compactor, Tandem Vibratory Roller, Pneumatic Roller, Forklift)8. CHANGLIN ( Bulldozer, Grader, Wheel Loader, Vibratory Compactor, Tandem Vibratory Roller, Pneumatic Roller)9. SHANTUI ( Bulldozer, Grader, Wheel Loader, Excavator)10. CHENGONG ( Hydraulic Excavator, Mini Excavator, Skid Steer Loader, Wheel Loader)11. ZOOMLION ( Bulldozer, Grader, Wheel Loader, Excavator)12. TIANGONG ( Bulldozer, Grader, Wheel Loader, Excavator)13. SDLG ( Bulldozer, Grader, Wheel Loader)14. SANY ( Excavator, Wheel loader, Crane etc)15. YUTONG ( Bulldozer, Grader, Wheel Loader, Vibratory Compactor, Tandem Vibratory Roller, Pneumatic Roller,16. LUTONG ( Tandem, Compactor)17. LUYANG ( Tandem, Compactor)18. FAW SHACMAN HOWO SANY DONGFENG CHENGLONG DFLZ ( Truck)19. WEICHAI ( Engine for Marine and Industrial )20. YUCHAI ( Engine for Marine and Industrial )21. HYUNDAI ( Hydraulic Excavator, Mini Excavator, Skid Steer Loader, Wheel Loader)22. DOOSAN ( Hydraulic Excavator, Mini Excavator, Skid Steer Loader, Wheel Loader)23. VOLVO ( Hydraulic Excavator, Mini Excavator, Skid Steer Loader, Wheel Loader)24. GENSET PARTS ( CUMMINS PERKINS MITSHUBISHI MAN DEUTZ CATERPILLAR YANMAR VOLVO)25. All Parts of Machinery Industry ( Pump, Motor, Generator Set, Conveyor, Bearings, Hydraulic and Pneumatic Tools)26. CONVEYOR BELT STAR INDIA, BELTRAM KOREA, PIX, CONTINENTAL etc27. AIRMAN COMPRESSOR PDS 185 , PDS175, PDS 265S, PDS 39OS, PDS 655, PDS 750, PDSF140 etc28. SPARE PARTS KOMATSU CATERPILLAR KOBELKO HITACHI DSB29. JINLING EXCAVATOR PARTSKeunggulan dari produk-produk diatas menggunakan komponen utama yang sudah banyak di pasaran sehingga memudahkan untuk pencarian Spare Parts, seperti;- Engine CUMMINS ( HYUNDAI, XGMA), MITSUBISHI ( HYUNDAI), YUCHAI ( XGMA XCMG, LIUGONG, CHANGLIN, SDLG) ETC- Main pump KAWASAKI ( HYUNDAI), GRUNDFOS & REXROTRH ( XGMA)- Travel Motor KAYABA ( HYUNDAI), Transmission ZF ( XGMA)Demikianlah informasi ini semoga dapat menjadi bahan pertimbangan Bapak dalam menentukan pembelianSpare parts alat-alat berat. Dan kami dengan senang hati sekali akan membantu anda apabila ada kebutuhan mengenai produk diatas ke nomor telepon kami di +6282123338987 atau +6281513177298 atau chek disitus kami WWW.AZTEKINDO.COM ","
              Pasar Asem Reges Lantai 2 ALO 2 AKS No.111-113            ",Jakarta Barat,DKI Jakarta,+62 815-1317-7298,None,None
cv lamtama sianturindo,"
                                    PREMIUM GOLD
                                ",Wheel Loader & Motor Grader,"
Menjual macam macam spareparts Truck Eaton Fuller Transimission Parts Fast Fuller Transmission Parts FAW Fast Fuller Transmission Parts Shacman Truck Parts CAMC Fast Fuller Transmission Parts Sinotruck Truck Parts Foton Truck Parts Foton Auman Truck Fast Fuller Transmission Parts Kenworth Truck Parts Wabco Brake Valve Parts Meritor Parts Bulldozer Dresser and Dressta Parts Bendix Valve Parts Bendix Kompresor Parts Dana Spicer Parts DAF Genuine Parts PACCAR Genuine Parts Volvo FH16 Parts, Menjual FKM Seal Oring : Parco, Parker, Kalrez Dupont, National Komatsu caterpillar Cummins VOLVO MACK  GEAR GEAR ","
              jln. raya cilincing no 20 , rt 015 / rw 016 . semper barat , cilincing jakarta utara            ",Jakarta utara,DKI Jakarta,+81 3-1001-1108,None,None
CV. REVIANES UTAMA INDOJAYA,"
                                    PREMIUM GOLD
                                ",Wheel Loader & Motor Grader,"
""Price is what you pay, Value is what you get‚Ä¶‚Äù 
About Us
Cv. Revianes Utama Indojaya was established on 2008, specialising in supplies of Machinery‚Äôs, Power Plants, Hydraulics, Pneumatics, Mining, Tools - Equipment & Industrial's Spare Parts.  
 
Over time Revianes expanded into being a Procurement Service Provider for companies who seek to work with suppliers who are able to supply a wide range of industrial products of various brands.
 
Services both the Marine and Industrial Industries with an extensive range of spare parts / machinery / equipments receiving full support from all the major manufacturers in U.S.A., UK, Germany, China, Japan, Korea and Singapore.
 
And also assure fast response to any customer‚Äôs requirement and we take full responsibility for the goods from the time of ordering until delivered to our customer‚Äôs site.
 
Our products went through a process of  Quality  Control as well as Warranty Control from the producer.
 
Whatever you needs, our knowledge in this field will ensure your requirement will be handled efficiently at the most competitive price.
 
We are committed to ensure and deliver quality products and services in meeting our valued customers‚Äô requirements and expectation with our service that is second to none.
 
Value Added Services
‚Ä¢ Able to supply obsoleted parts of various brands
 
Company Values
‚Ä¢ Integrity
‚Ä¢ Professionalism
‚Ä¢ Respect
‚Ä¢ Determination
‚Ä¢ Discipline
 
Why choose Revianes ?
We offer you a complete service, starting from the preparation of our offer up to the delivery.  The process is simplified and easy for you to comprehend.  These are the advantages you enjoy when you choose Revianes.
 
We aim to build long term associations with our customers and will not go for short term gains.  If we are favoured with a trial order it will give us a chance to show you the level of service and personal attention that Revaines offers. Many of our customers that joined us in the late 2008‚Äôs are still with us today.  Keep In Touch !
 
Contact Us
Cv. Revianes Utama Indojaya
üìç Jl. Pegangsaan Dua, Gading Arcadia Blok H No. 6, Kelapa Gading - Jakarta Utara 14250 (Operasional Office)üìç Jl. Asemka Raya No. 168, Pinangsia - Jakarta Barat 11110 (Warehouse)
üìû 021 4607381 
üì≤ 0812 183 88833 
üìß REVIANES@YAHOO.COM
 
 
Because there are a lot of maker with the business, please talk once by all means. 
We‚Äôre always interested in new projects, big or small.  
Please don‚Äôt hesitate to get in touch with us regarding your  project.
 
Customer service 24 hours a day, 365 days a year. Quick response within 24 hours. ","
              Jl. Pegangsaan Dua, Gading Arcadia Blok H No. 6, Kelapa Gading - Jakarta Utara 14250            ",Jakarta Utara,DKI Jakarta,+62 812-1838-8833,None,None
