Name,Membership,Category,Description,Address,City,Province,telp1,telp2,telp3
PT. TRIPUTRA JAYA MAKMUR,"
PREMIUM RUBY
",Kawat,"
PT. TRIPUTRA JAYA MAKMUR General Supplier, Contractor & Sub-Contractor Sipil- Arsitektur - Mekanikal & Elektrikal. 
Mulai berkarya dalam bidang Perdagangan umum barang & Jasa untuk melayani infrastruktur di Kalimantan Timur sejak tahun 2005, berawal dengan nama CV. TRIPUTRA JAYA MAKMUR diresmikan pada tahun 2015 oleh Notaris Samarinda. Kemudian pada Tahun 2020, mendirikan perusahaan PT. TRIPUTRA JAYA MAKMUR.Kami menawarkan Jasa Kontraktor & Sub-kontraktor khusus wilayah Kalimantan dengan keterangan pekerjaan sebagai berikut :ARSITEKTUR 

Perumahan tunggal dan Koppel serta perawatannya.
Perumahan multi hunian beserta perawatannya.
Bangunan pergudangan dan industry beserta perawatannya
Bangunan komersial beserta perawatannya.
Bangunan non perumahan serta perawatannya.
Fasilitas pelatihan sport di luar gedung, tempat rekreasi serta perawatannya.
Pertamanan serta perawatannya.
Pemasangan aksesoris bangunan serta perawatannya.
Pekerjaan dinding dan jendela serta perawatannya.
Pekerjaan interior termasuk perawatannya.
Pengerjaan logam.
Pengerjaan kayu.
Pengerjaan bangunan dan gedung.
Pengerjaan Kaca & Aluminium.
Pengerjaan Aluminium Composite Panel

ELEKTRIKAL

Pembangkit tenaga listrik semua daya beserata perawatannya.
Pembangkit tenaga listrik dengan daya maksimal 10MW beserta perawatannya.
Jaringan transmisi tenaga listrik baru dan terbarukan beserta perawatannya.
Jaringan transmisi tenaga listrik tegangan tinggi dan ekstra tegangan.
Jaringan transmisi telekomunikasi serta perawatannya.
Instalasi kontrol dan instrumentasi serta perawatannya.
Instalasi listrik gedung dan pabrik serta perawatannya.
Instalasi listrik lainnya serta perawatannya.

 MEKANIKAL

Instalasi pemanasan, ventilasi udara dan AC serta perawatannya.
Perpipaan air dalam bangunan serta perawatannya.
Instalasi pipa gas dalam bangunan serta perawatannya.
Insulasi dalam bangunan serta perawatannya.
Instalasi lift dan escalator serta perawatannya.
Pertambangan dan manufaktur serta perawatannya.
Instalasi thermal, bertekanan, minyak, gas, pekerjaan rekayasa serta perawatannya.
Konstruksi alat angkut dan alat angkat serta perawatannya.
Konstruksi perpipaan minyak, gas, dan energy serta perawatannya.
Fasilitas produksi penyimpanan minyak dan gas serta perawatannya.
Jasa penyedia peralatan konstruksi.

 PEKERJAAN SIPIL

Jalan raya dan jalan lingkungan serta perawatannya.
Lapangan terbang dan runway serta perawatannya.
Jembatan serta perawatannya.
Terowongan serta perawatannya.
Jalan bawah tanah serta perawatannya.
Pelabuhan dan dermaga serta perawatannya.
Drainase kota serta perawatannya.
Bendungan serta perawatannya.
Irigasi dan drainase serta perawatannya.
Pengerukan dan pengurukan serta perawatannya.
Pekerjaan penghancuran.
Pekerjaan penyiapan dan pengupasan lahan.
Pekerjaan penggalian dan pemindahan.
Pekerjaan pemancangan.
Pekerjaan pondasi.
Pekerjaan kerangka atap serta perawatannya.
Pekerjaan pembetonan.
Pekerjaan konstruksi baja serta perawatannya.
Pekerja pelaksana khusus lainnya.

Untuk informasi lebih jelas, hubungi Marketing kami. Email : triputrajayamakmurindonesia@yahoo.com
  ","
              Head Office :Panin Tower 8th Floor Jl. Jenderal Sudirman No.7 Klandasan Ilir, Balikpapan.Branch Office :Jl. Brigjend Katamso No. 2A Samarinda. ", ,Kalimantan Timur,+62 858-4906-8419,+62 831-5376-6410,None
CV. JAYA MAKMUR ABADI,"
PREMIUM RUBY
",Kawat,"
CV. Jaya Makmur Abadi, perusahaan yang bergerak dibidang perdagangan umum Material Konstruksi & material lainnya, dan telah berpengalaman lebih dari 10 Tahun. 
Berdiri sejak Tahun 2005 dengan nama Jaya Makmur Abadi, dan diresmikan pada tahun 2010 oleh notaris Edward Agustin menjadi CV. Jaya Makmur Abadi. 
CV. Jaya Makmur Abadi bekerja sama dengan beberapa Pabrik & Distributor Material dan hingga kini sudah melayani lebih dari 900 pelanggan, yang terdiri dari pelanggan pribadi/perusahaan baik dari dalam & luar daerah di Indonesia. 
 
Visi & Misi : 


Menciptakan sistem perusahaan yang sistematis & fleksibel dalam hal pelayanan.
Menciptakan lapangan kerja & Sumber daya Manusia yang terampil, profesional& handal. 
Menciptakan pelayanan & kerjasama yang berkesinambungan dengan pelanggan.
Menjadi perusahaan multinasional yang dapat memberi sumbangsih terhadap perekonomian di Indonesia. 

CV. Jaya Makmur Abadi.General Supplier & Trading : Besi Beton & Baja. Rangka Baja Ringan & Atapnya.Aluminium Kusen Pintu & Jendela.Plywood & Kayu lainnya.Pipa Paralon & Pipa Lainnya. 
Keramik & Granit.Perlengkapan Sanitary. Aksesories Pintu & Jendela.
Segala jenis Kaca Bangunan.Aluminium Composite Panel.Kawat Baja & Besi. 
Karpet Import & VINYL. Kusen, Pintu & Jendela Kayu. Windows Fashion.Mekanikal Elektrikal.Meubelair Kantor & Sekolah.
Pipa HDPE.Pipa Air Panas.HPL.Cat.Pipa Gorong-Gorong.Plat Kapal.Dll.
Untuk melengkapi kebutuhan pelanggan, kami juga menyediakan Jasa Kontraktor, Jasa Arsitek & Jasa Konsultan.
Untuk informasi lebih jelas, dapat menghubungi Marketing kami.
Terima kasih. www.jayamakmurabadi.co.id
CV. Jaya Makmur Abadi 
Jl. Brigjend Katamso No. 2 Samarinda. Kalimantan Timur 75117.Telp : 0541-7802915Fax. : 0541-766315Email : sales@jayamakmurabadi.co.id
 

 
 ","
              Head Office :Jl. Brigjend Katamso No. 2. Samarinda. Kalimantan Timur ",Samarinda ,Kalimantan Timur,+62 823-5215-3244,+62 813-4942-8940,+62 852-4900-5619
PT. Langgeng Gumelar Sejati | Div. Stainless Steel dan Fiberglass | Industrial parts,"
PREMIUM RUBY
",Kawat,"
              PT. Langgeng Gumelar Sejati adalah perusahaan yang bergerak dalam bidang pabrikasi, konstruksi, general trading dan kontraktor, jasa-jasa kami diantaranya pengerjaan/ pabrikasi Tower untuk XL, Indosat, Telkomsel dll. PT. Langgeng Gumelar Sejati juga menerima jasa pabrikasi dan menjual berbagai macam produk antara lain produk-produk interior dan eksterior stainless, alat-alat kesehatan, lapisan dinding dari stainless, tiang stainless, list stainless, grestrap stainless, ornament stainless steel. Stainless Steel Kitchen Equipment atau produk-produk dapur yang terbuat dari bahan-bahan stainless steel dan lainnya, Trolley bandara, Troli hotel, Troli pelabuhan, Trolley Hospital, Produk Stainless, Tangki Stainless, Rak Stainless, Bak sampah stainless, tempat sampah stainless, tong sampah stainless, tempat sampah stainless pedal atau injak, seluncuran stainless untuk tangga darurat seperti di kantor google, Railing Tangga Stainless, Canopy Stainless Steel, Rak Stainless Steel, Pagar Stainless Steel, balkon stainless steel, meja stainless steel, kursi stainless steel, kursi lipat stainless steel, meja dapur stainless, worktable stainless, meja kerja stainless, meja dapur stainless, pintu lab stainless, pintu rumah sakit stainless, pintu stainless steel, frame stainless steel, kusen stainless, jendela stainless, pintu otomatis stainless, casing lift stainless, cover lift stainless, interior dan eksterior stainless dan lain sebagainya. Setelah kami sukses dalam bidang pabrikasi produk-produk stainless steel dan mild steel, kami melihat prospek dalam bidang fiberglass untuk memenuhi kebutuhan para customer dari perusahaan, instansi pemerintah dan lembaga pendidikan universitas sangat besar, maka kami menambah bidang divisi pekerjaan kami yaitu pabrikasi fiberglass. Produk Fiberglass adalah produk-produk yang terbuat dari bahan-bahan fiberglass. Kaca serat atau sering diterjemahkan menjadi serat gelas adalah kaca cair yang ditarik menjadi serat tipis dengan garis tengah sekitar 0,005 mm – 0,01 mm. Serat ini dapat dipintal menjadi benang atau ditenun menjadi kain, yang kemudian diresapi dengan resin sehingga menjadi bahan yang kuat dan tahan korosi untuk digunakan sebagai badan mobil dan bangunan kapal. Dia juga digunakan sebagai agen penguat untuk banyak produk plastik; material komposit yang dihasilkan dikenal sebagai plastik diperkuat-gelas (glass-reinforced plastic, GRP) atauepoxy diperkuat glass-fiber (GRE), disebut “fiberglass” dalam penggunaan umumnya. Produk produk Fiberglass seperti: Tempat sampah Fiber, Tong Sampah Fiber, Seluncur Fiber untuk wahana waterboom, Peluncur Fiber, Tangki Panel Fiber, Tangki Fiber, Bak Fiber, Pelampung Fiber Separator Fiber, Fiber Boat, Fiberglass Boat, perahu Fiberglass, Kapal Fiber, Kapal Fiberglass, Kapal Pleasure, Kapal Patroli, Kapal Pengawas, Kapal Penumpang, Kapal Penyeberangan, Kapal Ferry, Kapal Penyelamat, Sekoci, SAR, Kapal Ikan : Pole & Line, perahu fiber, Speed Boat, air boat, Passenger Boat, tandon fiber, depot air minum dari fiber, Dispenser fiber, Box motor fiber, waterpark fiber, tangga darurat fiber untuk digedung-gedung, furniture fiber, aquarium fiber, kolam fiber, septitank fiber, toilet fiber, arena bermain fiber, atap fiber, pot fiber, pot fiberglass, pelampung fiberglass, papan panjat tebing fiberglass, wallpaper fiberglass, dinding fiberglass, ducting fiberglass, kursi stadion fiberglass, kursi tunggu fiberglass, kursi bus fiberglass, meja fiberglass, meja kantin fiberglass, atap fiberglass, dll dan semua produk yang berbahan fiber. Untuk Info lebih lanjut, silahkan contact marketing kami di: 087779000633 - 0812.1030.9526 - 082122822285 ( Ismail ) email: stainlessindonesia@yahoo.com / fiberindonesia@yahoo.com / pabrikasi_stainless@yahoo.co.idWhatsApp: 087779000633 Website: http://www.stainlesssteel.co.id/  | http://www.fiberindonesia.co.id/ Untuk Tower dan kontraktor: Bpk. Abdul Manan 0817 752 143 - 0811 988 974            ","
              Jl. AMD No 88 Pondok Kacang Barat, Pondok Aren Tangerang            ",Tangerang,Banten,+62 877-7900-0633,None,None
CV. DUTA MESH,"
PREMIUM BLUE ONYX
",Kawat,"
              SIAPA KAMI merupakan salah satu perusahaan pembuatan pagar dan merupakan perusahaan publik yang bergerak pada industri agribisnis di indonesia. Kantor pusat kami berlokasi di Tangerang Indonesia, dimana fasilitas dan kegiatan operasional tidak hanya ada di Jakarta tetapi juga kami bergerak di beberapa daerah seperti keluar kota dan puklau yang memiliki potensial ekonomi seperti di jawa, sumatra, Kalimantan, sulawesi dan papua. Kegiatan bisnis bergerak di bidang agrabisnis yang meliputi pembuatan pagar brc, pagar harmonika, pagar trails dan sebagai distributor produk steel seperti pipa, pipa hollow, siku, besi beton, hbeam, iwf, plate dan lain lain KEUNTUNGAN KOMPETISI Secara keseluruhan mengerti sekali kesempatan dalam berkompetisi secara vertikal skala ekonomi prioritas. Dan menembus sistem operasi upstream dan downstream telah sanggup menjamin produk yang berkualitas di setiap bidang industri dari pabrik pagar BRC hingga tambahan produk-produk pagar lainnya. Perkembangan secara vertikal tetap memperhatikan Kwalitas pagar dan memudahkan perusahaan untuk menyalurkan produk-produknya secara kontinue dengan harga stabil, tanpa terpengaruh oleh fluktuasi dalam penyaluran dan permintaan secara berkelanjutan lebih jauh, hal tersebut terjadi karena secara keseluruhan, mampu menyediakan produk-produk yang secara spesifik dibutuhkan oleh konsumen, satu contoh kami telah sanggup Menyuplai hingga keluar kota skalipun untuk pemagaran perbatasan, kebun sawit, lapangan terbang bandara, perumahan pemagaran BTS tower seluruh Indonesia dll. anda bisa menghubungi marketing kontak kami di : Telepon : 021 29861696 Hp : 08127941128. MOTTO KAMI “ Berkembang Menuju Kesejahteraan Bersama“ adalah sesuatu yang benar untuk menjamin kesuksesan. Pusat dari kesuksesan perusahaan kami adalah kepercayaan yang kuat di dalam menjalin kerjasama yang baik berdasarkan kepercayaan dan pengakuan. • Dengan seluruh pemegang saham kami, dapat berperan aktif dalam mengembangkan kerjasama yang saling menguntungkan. • Dengan rekan bisnis            ","
              Office : Jln, Bhayangkara Raya No 10 ( Depan Kantor Puysdiklantas Polri )            ",Tangerang,Banten,+62 811-8889-128,None,None
CV. BLATINDOPUTRA,"
                                    PREMIUM GOLD
                                ",Kawat,"
              Perusahaan kami CV. Blatindoputra Utama merupakan perusahaan yg bergerak dibidang Supplier Industri. Kami sudah bekerjasama dengan beberapa perusahaan. Sehubungan dengan itu, kami bermaksud untuk menjadi supplier di perusahaan Bapak/ Ibu. Harapan kami, penawaran ini dapat terwujud dalam bentuk kerjasama sehingga dapat menguntungkan kedua belah pihak. Adapun produk yg akan kami sediakan adalah ( terlampir beberapa brosur produk) : 1. Material Handling Equipment • Hand Pallet Truck • Hand Trolley • Drum Handler dan Drum Porter • Stacker ( Manual, Semi Electric, dan Full Electric) • Hoist 2. Roda - Aneka Macam Roda 3. Filter • Filter Oli • Filter Udara • Filter Separator Air Oil 4. Tools            ","
              Plaza Merdeka (Harkot) JL. Merdeka Raya No. 53 Blok D7/ 2            ",Tangerang,Banten,None,None,None
PT.Kharisma Pratama Abadi Sejatindo,"
                                    PREMIUM GOLD
                                ",Kawat,"
Perkenalkan kami adalah perusahaan distributor utk mesin mesin pabrik sawit sejak tahun 1993,   berikut ini adalah sedikit informasi produk dan company profile perusahaan kami (www.kharisma-sawit.com)
 Selain itu liat juga mesin Continuous Sterilizer CB Modipalm di you tube: http://www.youtube.com/watch?v=9FPHXCQ71GU , UNIVESSEL Sterilizer Door / Vertical Sterilizer di you tube: http://www.youtube.com/watch?v=xET3TBndFek, Mesin Shredder /Pencacah Tankos: http://www.youtube.com/watch?v=OdGP-xJU6E0 , Mesin EFB Press – Press Tankos: http://www.youtube.com/watch?v=a5RfUAwkZfc   , Mesin Kernel Crushing Plant / PKO : http://www.youtube.com/watch?v=uc_iVmjPAkk, Mesin Super Press KH-777 SP3: http://www.youtube.com/watch?v=X8n6TsEUwrk, EFB Bunch Crusher: http://www.youtube.com/watch?v=iL7I5itAq8A, Compost Turner Machine: http://www.youtube.com/watch?v=_kxpBNLh8Qw , Overhead Travelling Crane: http://youtu.be/9q3avB9-MiU , Palm Oil Vibrating Screen/Ayakan Getar: http://www.youtube.com/watch?v=m25HlAbrsqM ,
 
Mesin-Mesin PKS yang kami jual adalah buatan Malaysia (merk CB-Modipalm, Khun Heng-YKL, BOILERMECH, MHE-DEMAG, KONECRANES, Wang Yuen, UNIVESSEL, PMT, SAWIPAC, SWF Krantechnik, HOLY Turner, EAST FORCE, MAX Chain, OBERON, SWECO, Wampfler-Conductix, DOLPHIN, MUAR BAN LEE, FOSS – NIR, dll) sbb:
- Boiler for Palm Oil Mill
- Screwpress dan Digester (P10, P15, P20, D3000l, 3500l, 4000l, 4500l, 5000l)
- Transfer Carriage
- Sludge Centrifuge (SC 3000l, SC 6000l, SC 8000l, SC10000l)
- Ripple Mill (KC 4T, KC 6T, KC 8T)
- Sterilizer Door (Pintu Rebusan 1200mm utk rebusan vertikal, diameter 2100mm, 2700mm, 2800mm, 3200mm)
- Fan & Heater
- EFB Press (Press Janjang Kosong kap 7-8 Ton Tandan Kosong /jam) KH-777, EFB Super Press KH-777 SP3
- EFB Shredder (Mesin Cincang Janjang Kosong kap 7-8 Ton Tandan Kosong /jam) - FFB Splitter (Mesin Pembelah TBS kapasitas 60 Ton TBS/jam)
- Kernel Press for Kernel Crushing Plant / KCP / Pabrik Kernel Sawit - Vibrating Screen (Ayakan Getar)
- Compost Turner Machine (Mesin Pembalik Kompos)
- Aerator / Deaerator
- Palm Oil Crane (merk DEMAG / SWF Krantechnik)
- Overhead Travelling Crane (merk: KONECRANES, SWF Krantechnik, DEMAG, ABUS, TBM)
- Sand Cyclone
- Vacuum Oil Drier
- Rotary Brush Strainer
- Palm Oil Chain
- Gearbox / Motor for Palm Oil Mill
- Palm Harvesting Tools (Alat Panen buah sawit: egrek, dodos, kapak, jaring, dll)
- Cable Reeling Drum, Conductor System (Flat Cables & Accessories)
- NIRS (Alat utk monitor Oil Loss di PKS & Refinery , waktu tercepat sekitar 1 menit) – NEW TECHNOLOGY....
- SPEC (Sovereign Palm Oil Extractor – Cleanser) – Bio Surfactant to enchance Oil Extraction & Cleanses POME – NEW INNOVATION.....(Increase Production (OER) by 0.3-0.4 %)
- Pellet Mill (raw material: wood, Empty Fruit Bunch/ EFB, etc)
- Air Separator (for separation of Nut, Stone & Cracked Mixture)
- dll
 
Selain dari penjualan unit baru diatas kita juga mensuplai spare parts utk mesin-mesin yg tersebut diatas dan sparepart mesin PKS lainnya seperti:
- wormsrew (Segmented, , press cage, drive shaft, Long Arm/Short Arm Digester, Worn Lengthening Shaft, Expeller Arm, Drive shaft, spur gear, Link Chain for Continuous Sterilizer, Shackle-Scrapper Bar-Sprocket  
  H19&Hub for Continuous Sterilizer, etc)
- rotor bar / rotor rod for Ripple Mill / Nut Cracker
- nozzle utk centrifuge (Tungsten Durat, Hexoloy, etc)
- re-meshing vibrating screen (20"", 30"", 40"")
- door packing/ karet pintu rebusan (semua ukuran) bahan EPDM, BUNA, etc
- repair/rekondisi pintu rebusan (2100mm, 2700mm, 2800mm, 3200mm)
- sparepart crane DEMAG, SWF Krantechnik, KONE, etc (shaft, brake, gearbox, motor, pinion, Joystick/pendant controller, travel wheel, rope drum, wirerope, Endless Link Chain for Palm Oil Crane)
- Kontrak Service Crane DEMAG, KONE, SWF Krantechnik
- dsb.Medan Head Office: Ph: 061-8469822 / 8469806 / 081264687412Fax: 061-8472878Email: sales.medan@kharisma-sawit.com/sparepart.medan@kharisma-sawit.comWebsite: www.kharisma-sawit.comJakarta Representative Ph: 021-6332821/082110867733Fax: 021-6345859Email: sales.jakarta@kharisma-sawit.com/ sparepart.jakarta@kharisma-sawit.comWebsite: www.kharisma-sawit.com ","
              Jl. Kompleks Bumi Sunggal Blok C/E no 7            ",Medan,Sumatera Utara,+81 3-6114-1950,+82 11-086-7733,+81 26-468-7412
GLOS -GREEN LEAVES ORCHID SALATIGA,"
                                    PREMIUM GOLD
                                ",Kawat,"
GLOS, Green Leaves Orchid Salatiga, Kami bergerak dibidang kebun pembibitan dan pengembangan tanaman anggrek. Kami menyediakan berbagai jenis dan ukuran anggrek, hybrid/ mericlone hasil produksi kami atau import. Contoh beberapa jenis yang tersedia: Dendrobium, Phalaenopsis, Vanda, Oncidium, Cattleya, Brassia, Degarmoara, Zygopetalum dan lainnya. Selain itu kami juga memasarkan beberapa sarana pertanian seperti: Pot tray, Pot trai, Fibroot tray, bermacam-macam Paranet, net/ jaring peneduh, lokal/ import, insect/screennet, plastik UV, penjepit plastik uv/springclip, plastikclip, spacnum moss, pot transparan/lunak, terpal plastik khusus dan lainnya ","
              Sinoman Tempel III/235            ",Salatiga,Jawa Tengah,+62 811-298-163,+62 815-7837-6322,None
TEKAD MAKMUR,"
PREMIUM RUBY
",Kawat,"
              TEKAD MAKMUR adalah salah satu divisi dari TEKAD GROUP yang berdiri sejak 1963 di Jawa Barat-BandungKami telah dipercaya oleh IMPORTIR, PRODUSEN, SUPPLIER terkemuka untuk menjadi AGEN RESMI sehingga HARGA dan KUALITAS yang ditawarkan adalah yang TERBAIK. Dengan berpedoman pada motto kami yaitu TERLENGKAP TERMURAH & TERCEPAT kami telah dipercaya untuk menjadi rekanan BANYAK PERUSAHAAN TERNAMA di antaranya : (1) KAHATEX(2) Kurnia(3) PINDAD(4) Dirgantara Indonesia(5) PJKA(6) Insan Sandang(7) RAGAM JAYA(8) Sipatex(9) KIATEX(10) Joantex(11) ASKALIA(12) Vonex(13) BENTARA(14) Sinar Agung(15) JUPATEX(16) Ligar(17) TINGGAL JAYA(18) Karya Mulia(19) BUDIANA(20) Lumajang(21) SARANA TEKNIK(22) Celebit(23) FESTIVAL CITY LINK(24) Teknik Mandiri Citra(25) Grandtex(26) Badjatex(27) BINTANG AGUNGMerupakan suatu KEHORMATAN & KEBANGGAAN untuk segera BERMITRA DENGAN ANDA. SALAM SUKSES SELALU.Hormat kamiSeluruh Team Tekad Makmuremail : tmakmur06@yahoo.com.            ","
              Komplek Cikapundung Electronic Centre Los EE10&EE41            ",Bandung,Jawa Barat,+62 813-1202-4373,None,None
PT CAKRABUANA LANGGENG SUKSES,"
PREMIUM RUBY
",Kawat,"
              PT Cakrabuana Langgeng Sukses adalah Distributor Gas Helium, Distributor Gas Industri, Distributor Gas Medis dan Perusahaan yang bergerak dibidang perdagangan Gas Industri dan Gas Medis, Medical Equipment serta Welding & Cutting Equipment, Instalasi Sentral Gas Medis, RegulatorTelepon. 021 29564344 PT Cakrabuana Langgeng Sukses menyediakan produk produk gas industri, welding equipment, medical equipment yang berkualitas tinggi serta pelayanan yang ramah dan memuaskan. Tersedia berbagai Produk Regulator, flowmeter, Suction Unit, Kompresor, Perusahaan kami didukung oleh tenaga kerja yang berpengalaman dan ahli dibidangnya. PRODUK PRODUK KAMI : 1. GAS OXYGEN GAS / CAIR O2 2. GAS NITROGEN GAS/ CAIR N2 3. ARGON GAS/ CAIR Ar 4. GAS CARBON DIOXIDE CO2 5. GAS NITROUS OXIDA N2O 6. GAS HELIUM He 7. GAS AMONIAX C3H4 8. INSTALASI GAS MEDIS / INDUSTRI, LPG 9. GAS REGULATOR 10. KAWAT LAS DAN MESIN LAS 11. ALAT KESEHATAN 12. TABUNG BAJA 13. Amoniak 14. LPG 15. Sulfur Hexafluoride / SF6 16. Gas Hydrogen            ","
              Mutiara Venezia Residence Blok C2 No 78 Dayeuh Cileungsi 16820082245428834            ",BOGOR,Jawa Barat,+62 822-4542-8834,None,None
CV.GISMA CAHAYA ANUGRAH,"
                                    PREMIUM GOLD
                                ",Kawat,"
Dari pengalaman lama memahami akan kebutuhan industri di industri di Indonesia, Membuat kami tergerak untuk membantu dan terjun secara langsung dalam memenuhi kebutuhan industri Pagar BRC & Industri pada perusahaan, agar dapat meringankan dan menjadikan mudah dalam memenuhi kebutuhan industri dalam perusahaan Anda. Kami telah menjalin hubungan kuat denagan para produsen, importir, Pabrik, Distributor besar, di Indonesia sehingga dengan mudah dapat memberikan penawaran yang terbaik untuk Anda. Kami hadir dan siap menjadi mitra Anda dalam segala kebutuhan industri Anda demi perkembangandan kemajuan perusahaan Anda.klik my WEB SITE :   https://www.jualpagarbrc.web.idContact Person :CV.GISMA CAHAYA ANUGRAHJl. Raya Masjid RBC No. 88C Kec. Jati Rahayu, Kel. Pondok Melati, Bekasi Kota, Bekasi - Jawa Barat
Telp,   : 021-85521713Mobile : 085210493522 / 08811770390 wA
Email  : gismacahaya@yahoo.com ","
              Jl. Raya Masjid RBC No. 88C Kec. Jati Rahayu, Kel. Pondok Melati, Bekasi Kota, Bekasi - Jawa Barat            ",BEKASI,Jawa Barat,08811770390,+62 852-1049-3522,None
PT. UMERSON WAMATETSU TECHNOSMART,"
                                    PREMIUM GOLD
                                ",Kawat,"
Kami “ PT. Umerson Wamatetsu Technosmart “ berdomisili di Jl. Raya Simpangan No. 212 Pamahan, Jati Reja, Cikarang Timur - Bekasi 17530 Kami adalah sebuah perusahaan yang memproduksi Pallet Mesh , Nicktainer dan Support Fabrikasi, Machining, dan Engineering.  Ruang lingkup pekerjaan kami antara lain : 1. Pembuatan Pallet Mesh atau Keranjang Lipat Besi2. Pembuatan Nicktainer 3. Pembuatan Conveyor ( Belt, Roller, dll) 4. Pembuatan Carrier, Rack, Platform, Trolly, dan alat pendukung mesin di industri 5. Jig, Komponen Automotive, 6. Water Tank 7. Custom Design ","
              Jl.Raya Simpangan No. 212 Pamahan, Jati Reja            ",Cikarang Timur - Bekasi,Jawa Barat,+82 12-574-0240,08176975777,None
CV. SAMUDERA TEKNIKINDO SELARAS,"
                                    PREMIUM GOLD
                                ",Kawat,"
CV SAMUDERA TEKNIKINDO SELARAS merupakan perusahaan yang bergerak dibidang general trading (General Supplier) dengan 2 (dua) divisi yaitu Perbaikan / Maintenance machine Industri khusus Electrical dan Import product part machine. 
CV SAMUDERA TEKNIKINDO SELARAS memiliki kualitas yang handal dan harga yang sangat ekonomis dan cocok untuk industries dan semua pabrik manufacturing. Adapun merk yang kami supply, diantaranya : Omron, Mitutoyo, Keyence, Yokogawa, SMC, Nagano Keiki, Panasonic, Hanyoung, LG / LS, Fuji Electric, Mitsubishi, Hanyound, Yamatake / Azbil, Klar Stern, Taffware, Panasonic, Hitachi, Siemens, Emerson, Taiyo Parker, Sipik, Shinko, Idec, Sanyo Denki / Dyna Ace, NMB, Daito / Fanuc, NTN, THK, Swan, Oriental Motor, CDK, Luyang, Sick, Bando V-Belt, Yamamoto, Steins, dan masih banyak produk lainnya dari berbagai merk yang kami sediakan, mulai  dari China, Jepang, Taiwan, Korea dan Produk Europa lainnya.
Untuk informasi dan pemesanan silahkan hubungi kami :
CV SAMUDERA TEKNIKINDO SELARAS
Jl. Tarum Barat 2, Ruko Pasar Bersih B-7 (Pintu 11) Kawasan Industri Jababeka II, Jayamukti, Cikarang, Bekasi - Jawa Barat
Phone : 081287602917 // 081219415790 (Call / WA)
Tlp : +62 21 2945 3721 // +62 21 2945 3722
Email : samuderateknikindo@yahoo.com
Website : www.samuderateknikindo.co.id ","
              Office : Jl. Tarum Barat 2, Ruko Pasar Bersih B-7 (Pintu 11) Kawasan Industri Jababeka II, Jayamukti, Cikarang, Bekasi - Jawa Barat ",Cikarang,Jawa Barat,+62 812-1941-5790,None,None
HISTEEL,"
                                    PREMIUM GOLD
                                ",Kawat,"
Histeel salah satu bisnis PT. Hijrah Insan Karima yang bergerak di bidang distribusi dan perdagangan besi beton, baja, baja ringan dan tools beserta aksesorisnya.Kami menyediakan beberapa kebutuhan bahan bangunan di antaranya : Baja, Baja ringan, Wiremesh, Cakar ayam, Ring besi, Profil baja, CNP, Hollow besi hitam, Hollow galvanis, pipa hitam, pipa galvanis, plat acer, plat bordes, plat strip Siku besi, Siku lubang, UNP, Atap, Atap metal pasir, Polycharbonate, Atap zincalume/Spendek, Floordeck, Pagar BRC, Aksesoris bangunan, Safety equitment, Safety shoes, Body protection, Eye protection, Besi beton.Macam-macam besi beton :
1. Besi polos kami memiliki ukuran mulai dari : Besi Beton Polos 6mm, Besi Beton Polos 8mm, Besi Beton Polos 10mm, Besi Beton Polos 12mm, Besi Beton Polos 16mm, Besi Beton Polos 19mm, Besi Beton Polos 22mm, Besi Beton Polos 25mm.
2. Sedangkan Besi ulir memiliki ukuran mulai dari : Besi Beton Ulir 10mm TS35, Besi Beton Ulir 10mm TS40, Besi Beton Ulir 13mm TS35, Besi Beton Ulir 13mm TS40, Besi Beton Ulir 16mm TS35, Besi Beton Ulir 16mm TS40, Besi Beton Ulir 19mm TS35, Besi Beton Ulir 19mm TS40, Besi Beton Ulir 22mm TS35, Besi Beton Ulir 22mm TS40, Besi Beton Ulir 25mm TS35, Besi Beton Ulir 25mm TS40.

Visi :
Menjadi pusat penjualan besi beton, baja, baja ringan dan tools yang kuat dan berkomitmen di Nusantara. ( Company with Strength and Commitment )
Misi :
1. Memiliki sistem yang comprehensive dan baik.
2. Menjaga dan membina hubungan yang baik dengan para stake holder
3. Membangun serta menjaga nama Histeel.
4. Berorientasi pasar dalam persaingan.
5. Mudah dijangkau oleh customer diseluruh Nusantara.
 
Head Office :
Bekasi
021 - 822 7222 
Branch Office :
Jakarta     
021 - 8490 3377 / 88 / 99
Tangerang
021 - 741 2323
Bogor
021 - 8792 7700 / 7800
Karawang
0267 - 849 0505 / 0606
Cirebon
0231 - 8333 100
Surabaya
031 - 7530 666 / 777 ","
              Jl. Wibawa Mukti No. 69 , Jatiasih, Bekasi, Jawa Barat, Indonesia            ",Bekasi,Jawa Barat,+62 812-9111-3330,None,None
CV Berdikari Lancar,"
PREMIUM RUBY
",Kawat,"
Berdikari Lancar Steel adalah perusahaan trading yang melayani penjualan segala jenis besi seperti Besi Beton , Wire Mesh , Plat , WF (wide flang) , Pipa besi , Hollow , Siku , UNP , Bendrat , Paku , dan lain sebagainya.
 
Area penjualan kami mencakup semua wilayah Indonesia, terutama Surabaya dan sekitar sebagai basis tempat kami berdomisili, hingga wilayah luar pulau seperti Makassar , Palu , Kupang , Mataram , Batu Licin , Kota Baru , Sampit , Balikpapan , Banjarmasin , Manado , Ambon , Maluku , Timika, Sorong , hingga Jayapura .
 
Untuk kwalitas dan mutu Besi yang kami jual disertai sertifikat sesuai standart SNI dan ISO certified. Untuk lebih meyakinkan bagi proyek yang akan segera berdiri dengan standart mutu yang tinggi.
 
Dan harga yang kami tawarkan sangat bersaing karena kami mendapat suplai langsung dari beragam pabrik dengan harga kontrak di bawah semua harga yang ditawarkan kepada anda.
 
Silahkan hubungi kami untuk informasi dan penawaran terbaik.
Untuk informasi lebih jelas dan penawaran yang terbaik, silahkan hubungi marketing kami:
Willy                HP/WA : 0823-3117-8001 // 0812 1288 7082 // 0822 3444 4535
 CV. BERDIKARI LANCAR
Perum Bukit Citra Darmo blok CD No. C-21 Klakahrejo - Benowo, Surabaya
Jawa timur, Indonesia - 60198
Telp : 031 - 7431220
Fax : 031 - 7431220
email: berdikarilancar@gmail.com ","
              Bukit Citra Darmo blok CD No. C-21Klakahrejo, Benowo - Surabaya            ",surabaya,Jawa Timur,+82 33-117-8001,081212887082,+82 2-3444-4535
CV. Asstraco,"
PREMIUM RUBY
",Kawat,"
CV. ASSTRACO SURABAYA berdiri sejak tahun 1988 dengan tujuan untuk membantu mengembangkan perekonomian masyarakat di Indonesia, khususnya di bidang Plastik. CV. ASSTRACO SURABAYA telah melayani konsumen dengan motto 4K : Komitmen, Kualitas, Kecepatan, dan Ketepatan.
Seiring berjalannya waktu, CV. ASSTRACO menjadi General Supplier terpercaya di Surabaya. Berbagai produk baru kami luncurkan hanya untuk kepuasan konsumen, diantaranya : Tali PE, Tali Tampar, Selang air Milliard, Terpal Plastik berbagai macam ukuran, Kain Layar, Kain Gelaran, berbagai macam Waring berkualitas tinggi seperti : Waring Hitam, Waring Paranet, Polinet / Safety Net dan lain-lain.
Kami Menjual : Karung Plastik,Tali,Terpal Plastik,Besi Baja,Selang Milliard,Kain Layar. ","
              Margomulyo permai blok AH-22 AsemRowo            ",Surabaya,Jawa Timur,+62 812-2294-5151,None,None
DUA PUTRA PETIR ,"
PREMIUM RUBY
",Kawat,"
BISMILLAHIRROHMANIRROHIIM....
 
CV. DUA PUTRA PETIR ( Your Steel Pertner ) Distributor berbagai merek polycarbonate bergaransi 5-10 tahun yang dilengkapi Double Side UV protected 
1. Solar Flat Clear / Colour Plain / Embosed 
2. Solar Tuff Roma / Greeca 
3. X TUFF Roma dan Greeca ( Colour / Clear ) 
4. X Lite 
5. SOLITE 
6. Twinlite 
7. Lexan 
8. POLYBOARD 
9. Sealent Neutral ( Lem PolyCarbonate ) 
10. Sealent Acetic ( Lem PolyCarbonate ) 
11. JASA PEMBUATAN CANOPY / PAGAR Sesuai permintaan 
 
HARGA DIJAMIN MURAH Untuk Info Lebih Lanjut Menghubungi :  
Hp.08599.805.8351 ( BOS BESI ) 
Hp.089.8351.8351   ( BESI BESI )
Email : duaputrapetir@gmail.com 
 
Demikian Penawaran dari kami, besar harapan kami untuk bisa bekerjasama dengan anda dengan memberikan pelayanan yang terbaik penjelasan ringkas Kami juga Bergerak dibidang trading besi dan baja dan alat-alat teknik, memiliki pengalaman yang mumpuni lebih dari 10 tahun, link dan akses bisnis yang luas menjadikan kami harus terus ber inovasi, salah satu melalui bisnis online seperti ini adapun produk-produk unggulan kami adalah :
 
1.Carbon Steel Bars ( besi/ galvanis/ Stainless Steel ) 
• Besi Beton Polos ( Plain Bars) • Besi Beton Ulir ( Deformed Bars) • Besi As ( Round Bars) Eq St.41 • Besi As ( Round Bars) Eq St.60, St.70, St.90 • As Besi Segi Empat ( Square Bars / Vierkan) • As Besi Segi Enam ( Hexagonal Bars) ( besi/ galvanis/ Stainless Steel ) • Silver Steel-Hollow Bars-Tool Steel • Strep Besi ( Flat Bars) • Band Eyzer ( Strapping band Plates) 
 
2. Carbon Steel Pipes ( besi/ galvanis/ Stainless Steel ) 
• Pipa Baja Hitam ( Black Steel Pipes) • Pipa Air / Galvanis ( Galvanized Pipes) • Pipa Seamless ( Seamless Pipes) ASTM A 53 / A 106 / API 5 L • Pipa Pancang ( ERW Pipes) ASTM A 252 • Pipa Konstruksi STK-400 ( besi/ galvanis/ Stainless Steel ) • Pipa Perabot ( Stalbuist Pipes) • Pipa Kotak ( Rectangular & Square Pipes) 
 
3. Carbon Steel Plates ( besi/ galvanis/ Stainless Steel ) 
• Plat Besi Hitam ( Hot Rolled Coil/ Sheet) JIS SPHC/ JIS SS400/ ASTM A36 • Plat Kapal ( Ship Building Plate BKI) • Plat Besi Putih ( Cold Rolled Coil/ Sheet) JIS SPCC • Plat Bordes ( Checkered Plate) • Plat Lubang ( Perforated Plate) • Plat Tahan Gesek ( Wear-Resistance Plate) • Plat Galvanil ( Galvaneal) • Plat Galvanis ( Galvanized) • Expanded Metal 
 
4. Carbon Steel Profiles ( besi/ galvanis/ Stainless Steel ) 
• Siku Besi ( Angle Bars) • Kanal UNP ( U-Channel) • Kanal CNP ( Lip-Channel) ( besi/ galvanis/ Stainless Steel ) • H-Beam I-Beam WF-Beam ( besi/ galvanis/ Stainless Steel ) - Honey Comb - Plate Grating Galvanis -kawat bronjong -plat galvanis -siku galvanis -gabion -kawat bronjong sni , straping band , plat timah , dan masih banyak lagi produk-produk kami, segala macam jenis besi dan baja siap membantu bekerjasama dengan semua pelanggan baik dalam kota maupun luar kota atau bahkan luar pulau dan luar negeri. terimakasih banyak.
 
Hormat Kami
 
Herry Gusmara
Direktur
Telp. : 031-7407380
Fax : 031-7417127 
HP : 0821-33555559 / 08599-8058351
Email : duaputrapetir@gmail.com 
D/A : Bukit Plama C5/ 33 Citraland Utara Surabaya
 
Website :
www.duaputrapetir.co.id
www.besisurabaya.com
www.tokobangunansurabaya.com
www.pusatbajaindonesia.com
www.jualbesibajasurabaya.indonetwork.co.id
www.besi123.com ","
              bukit palma C5/33 Citraland Utara Kec.pakal Kota Surabaya Barat( Sememi Benowo )            ",Surabaya,Jawa Timur,+62 821-3355-5559,+62 813-1845-5559,None
"DUA PUTRA PETIR, CV Telp. 0859-9805-8351 , 0898-3518-351 , 0821-3355-5559 , 0813-1845-5559","
PREMIUM RUBY
",Kawat,"
BISMILLAHIRROHMANIRROHIIM....CV. DUA PUTRA PETIR (Your Steel Partner) Distributor berbagai Merek Polycarbonate bergaransi 5-10 tahun yang dilengkapi Double Side UV Protected, diantaranya :1. Solar Flat Clear / Colour Plain / Embosed.2. Solar Tuff Roma / Greeca.3. X TUFF Roma dan Greeca (Colour / Clear).4. X Lite.5. SOLITE.6. Twinlite.7. Lexan.8. POLYBOARD.9. Sealent Neutral (Lem PolyCarbonate).10. Sealent Acetic (Lem PolyCarbonate).11. JASA PEMBUATAN CANOPY / PAGAR Sesuai Permintaan.HARGA DIJAMIN MURAH Untuk Info Lebih Lanjut Menghubungi,Demikian Penawaran dari kami, besar harapan kami untuk bisa bekerjasama dengan Anda dengan memberikan pelayanan yang terbaik penjelasan ringkas. Kami juga Bergerak dibidang trading Besi dan Baja dan alat-alat teknik, memiliki pengalaman yang mumpuni lebih dari 10 Tahun, link dan akses bisnis yang luas menjadikan kami harus terus berinovasi, salah satu melalui Bisnis Online seperti ini adapun produk-produk unggulan kami adalah :1. Carbon Steel Bars (Besi / Galvanis / Stainless Steel)• Besi Beton Polos (Plain Bars) • Besi Beton Ulir (Deformed Bars) • Besi As (Round Bars) Eq St. 41 • Besi As (Round Bars) Eq St. 60, St. 70, St. 90 • As Besi Segi Empat (Square Bars / Vierkan) • As Besi Segi Enam (Hexagonal Bars) (Besi / Galvanis / Stainless Steel) • Silver Steel-Hollow Bars-Tool Steel • Strep Besi (Flat Bars) • Band Eyzer (Strapping band Plates).2. Carbon Steel Pipes (Besi / Galvanis / Stainless Steel)• Pipa Baja Hitam (Black Steel Pipes) • Pipa Air / Galvanis (Galvanized Pipes) • Pipa Seamless (Seamless Pipes) ASTM A 53 / A 106 / API 5 L • Pipa Pancang (ERW Pipes) ASTM A 252 • Pipa Konstruksi STK-400 (Besi / Galvanis / Stainless Steel) • Pipa Perabot (Stalbuist Pipes) • Pipa Kotak (Rectangular & Square Pipes).3. Carbon Steel Plates (Besi / Galvanis / Stainless Steel)• Plat Besi Hitam (Hot Rolled Coil / Sheet) JIS SPHC / JIS SS400 / ASTM A36 • Plat Kapal (Ship Building Plate BKI) • Plat Besi Putih (Cold Rolled Coil / Sheet) JIS SPCC • Plat Bordes (Checkered Plate) • Plat Lubang (Perforated Plate) • Plat Tahan Gesek (Wear-Resistance Plate) • Plat Galvanil (Galvaneal) • Plat Galvanis (Galvanized) • Expanded Metal.4. Carbon Steel Profiles (Besi / Galvanis / Stainless Steel)• Siku Besi (Angle Bars) • Kanal UNP (U-Channel) • Kanal CNP (Lip-Channel) • (Besi / Galvanis / Stainless Steel) • H-Beam I-Beam WF-Beam (Besi / Galvanis / Stainless Steel) • Honey Comb • Plate Grating Galvanis • Kawat Bronjong • Plat Galvanis • Siku Galvanis • Gabion • Kawat Bronjong SNI, Straping Band, Plat Timah, dan masih banyak lagi produk-produk kami, segala macam jenis besi dan baja siap membantu bekerjasama dengan semua pelanggan baik dalam kota maupun luar kota atau bahkan luar pulau dan luar negeri. Terimakasih banyak.
 Hormat Kami,Herry Gusmara, S.Sos DirekturHP : 08599.805.8351 (BOS BESI) / 089.8351.8351 (BESI BESI)WA : 082133.555.559 / 081318.455.559 Email : duaputrapetir@gmail.comD/A : Bukit Plama C5/ 33 Citraland Utara SurabayaOur Website :• www.besi123.com• www.besisurabaya.com
• www.duaputrapetir.co.id• www.pusatbajaindonesia.com
• www.tokobangunansurabaya.com• www.jualbesibajasurabaya.indonetwork.co.id ","
              • Head Ofice : Bukit Palma C5/33 Citraland Utara Kec. Pakal Kota Surabaya Barat (Sememi - Benowo)• Phone : 0821-3355-5559 (Call/WhatsApp)            ",SURABAYA,Jawa Timur,+62 821-3355-5559,+62 813-1845-5559,None
Karya Utama Steel,"
PREMIUM RUBY
",Kawat,"
Kami adalah perusahaan supplier / agen yang menjual aluminium composite panel (ACP) , PJU , grating , pagar BRC, bronjong, kawat duri, wiremesh, atap UPVC, atap galvalum serta berbagai macam kebutuhan konstruksi baja untu industri, bangunan, konstruksi, kontraktor hingga rumah pribadi termurah dan terlengkap dengan kualitas dan service yang optimal.
 
Email:
karyautama.steel@gmail.com ","
              Griya Candramas Blok FA-2 Sedati            ",Sidoarjo,Jawa Timur,+62 813-5735-2455,None,None
CV Catur Jaya Atap,"
PREMIUM RUBY
",Kawat,"
              CV CATUR JAYA ATAP merupakan perusahaan yang bergerak dibidang produksi barang sebagai berikut:1. Pagar BRC2. Tiang pagar BRC3. Pintu swing tunggal/ganda4. Pintu dorong5. Spandek6. Kanal-C7. Reng8. Hollow 2x4 dan 4x49. Wall angelSelain produk diatas kami juga begerak di bidang trading dan supplier besi dan baja dengan produk sebagai berikut:1. WF, IWF, H-BEAM2. UNP3. CNP4. Siku5. Plat polos 6. Plat bordes7. Plat kapal8. Beton eser9. Plat strip10. Pipa gas11. Pipa air12. Hollow galvanis13. Kawat harmonika14. kawat duri dan kawat siletKepuasan customer adalah prioritas kami            ","
              Jl Putra Bangsa Anggaswangi Sukodono Sidoarjo            ",Surabaya,Jawa Timur,+82 33-806-5412,None,None
CV Aneka Steel Teknik,"
PREMIUM RUBY
",Kawat,"
Kami merupakan Distributor Besi Surabaya, Distributor Baja Ringan Surabaya dan Toko Besi Surabaya Murah dan Terpercaya.Dengan pengalaman lebih dari 15 Tahun dan memiliki Link Akses Bisnis yang luas menjadikan kami lebih percaya diri untuk melayani anda.Kami menyediakan berbagai macam kebutuhan materials, seperti keperluan konstruksi bangunan, konstruksi perumahan, konstruksi infrastuktur pembangunan daerah, karoseri automotive, high rise building, keperluan industri - industri, struktur rangka atap baja ringan.
Adapun Produk-Produk Kami Adalah :
1. Carbon Steel Bars ( Besi/ Galvanis/ Stainless Steel ) 
 • Besi Beton Polos ( Plain Bars) SNI U24 
 • Besi Beton Ulir ( Deformed Bars) SNI U35, U40, U50 
 • Besi As ( Round Bars) Eq St.41, St.60, St.70, St.90 
 • Besi As Segi Empat ( Square Bars / Vierkan) 
 • Besi As Segi Enam ( Hexagonal Bars) 
 • Besi Strip ( Flat Bars)
 • Band Eyzer ( Strapping Band Plates)
 
2. Carbon Steel Pipes ( Besi/ Galvanis/ Stainless Steel ) 
  • Pipa Hitam ( Black Steel Pipes) 
 • Pipa Air / Galvanis ( Galvanized Pipes) 
 • Pipa Seamless ( Seamless Pipes) Schedule ( Sch) 40 , 80, 160 
 • Pipa Boiler
 • Pipa Kotak ( Rectangular & Square Pipes)
 • Aksesoris dan Fitting Pipa ( SGP , SCh 40 , SCH 80 , Galvanized )
 
3. Carbon Steel Plates ( Besi/ Galvanis/ Stainless Steel ) 
 • Plat Hitam ( Hot Rolled Coil/ Sheet) Jis Sphc/ Jis Ss400/ Astm A36 
 • Plat Kapal ( Ship Building Plate Bki) 
 • Plat Putih ( Cold Rolled Coil/ Sheet) Jis Spcc 
 • Plat Bordes ( Checkered Plate) 
 • Plat Tembaga
 • Plat Aluminium 
 • Plat Galvanil ( Galvaneal) 
 • Plat Galvanis ( Galvanized) 
 • Plat Stainless Steel ( Type 201, 304, 316 )
 • Plat Lubang ( Perforated Plate )
 • Plat Expanded Metal
 
4. Carbon Steel Profiles ( Besi/ Galvanis/ Stainless Steel ) 
 • Siku Besi ( Angle Bars) SS400, SS540 
 • Kanal Unp ( U-Channel) 
 • Kanal Cnp ( Lip-Channel)
 • WF ( Wide Flange ) 
 • H-Beam
 
5. Carbon Steel Wire ( Besi/ Galvanis/ Stainless Steel )
 • Wiremesh ( U50 )
 • Kawat Bendrat
 • Kawat Duri ( Barbed Wire )
 • Kawat Silet ( Razor Wire )
 • Kawat Bronjong ( Gabion Wire )
 • Kawat Paku ( Nails Wire )
 • Kawat BWG ( 8 ,10 , 12 , 14 , 16 )
 • Paku ( Nails )
 
6. Atap Baja Ringan
 • Seng Galvalume KR 5 & KR 9 ( 0.25 , 0.30 , 0.35 , 0.40 , 0.50 ) Warna dan Polos
 • Seng Rol Galvalume ( 0.25 , 0.30 , 0.35 , 0.40 , 0.50 ) Warna dan Polos
 • Reng Galvalume
 • Nok / Wuwung Warna dan Polos
 • Genteng Metal
 • Bondek
 • CNP Galvalume 75 & 80 ( 0.60 , 0.65 , 0.70 , 0.75 , 0.80 )
 • Hollow Galvalume
 • Baut Drilling dan Baut Scrup Kalsiboard
 
7. Power Tools
 • Obeng , Tang , Gergaji , dll
 • Mesin Bor , Mesin Gerinda , Mesin Las (Berbagai Merk)
 • Pompa Air , Blower Ventilator , Kabel Listrik , dll
 
8. Safety Equipment
 • Sarung Tangan ( Benang/ Kulit / Las / Karet )
 • Rompi Jaring , Helm , Topeng Las , dll
 • Tali ( Nylon , PP , Manila )
 • Stationary
 
Dan masih banyak lagi Produk - Produk kami dan berbagai macam jenis Besi dan Baja beserta Alat Alat Teknik (Tools) yang siap memenuhi semua kebutuhan dan keinginan serta kepuasan konsumen baik Pelanggan dari Dalam Kota maupun Luar Kota bahkan Luar Pulau.
Besar harapan kami untuk dapat bekerjasama dengan anda. Salam Sukses untuk Kita Semua. ","
              Randegan Sari  No.22            ",Gresik,Jawa Timur,085103655188,None,None
Jalabuana Mandiri,"
PREMIUM BLUE ONYX
",Kawat,"
Jalabuana Mandiri berdiri atas prakarya dan ide besar terhadap sebuah service and solution terhadap semua kebutuhan barang dan jasa khususnya untuk crane construction and mecanical electrical hoisting.
 
Jalabuana Mandiri menyediakan berbagai produk dan service dalam bidang , sebagai beirkut : 
1. Over Head Crane.
2. Hoist Crane.
3. Cargo Lift.
4. Passenger Lift / Elevator
5. Konstruksi baja. 
 
Kami selalu siap sedia Menjadi Mitra dan partner untuk melayani setiap kebutuhan akan produk kami secara cepat tepat dan berkesinambungan, serta mengedapankan service oriented yang menjadi prioritas dan komitmen kepada setiap dan semua coustomer, pelayanan after seles akan memberikan jaminan garansi terhadap produk kami, mengedapankan profesionalitas dan selalu memberikan dan menghadirkan produk produk yang berkualitas.
 
Untuk informasi lebih detail, harap menghubungin : 
 
Jalabuana Mandiri 
CP : 0813 3335 6618 / 031 9917 1407
Pergudangan Legundi Bizpark Blok D11 Legundi, Gresik, Jawa Timur ","
              Pergudangan Legundi Bizpark Blok D-11 Legundi            ",Gresik,Jawa Timur,+62 813-3335-6618,None,None
CV. MAJU JAYA MARINE,"
                                    PREMIUM GOLD
                                ",Kawat,"
CV. MAJU JAYA MARINE merupakan Toko Perlengkapan Kapal di Surabaya yang menjual Segala Barang Kebutuhan Marine.
 
-----
 
Hubungi Kontak Kami Sekarang untuk Dapatkan Penawaran Terbaik dan Harga Bersaing (CALL/WHATSAPP)
• Phone : 0813-3501-1024 (Marketing)
• e-Mail : marketing.majujayamarine@gmail.com
• Website : www.MajuJayaMarine.com
 ","
              • Head Office : Jln. Kaliagung 1 Blok F-17 (Komplek Kaliagung Megah) Surabaya, Jawa Timur, Indonesia• Phone : 0813-3501-1024 (Call or WhatsApp)            ",SURABAYA,Jawa Timur,+62 813-3501-1024,None,None
CV. BANGUN SARANA MAKMUR,"
                                    PREMIUM GOLD
                                ",Kawat,"
              CV.BANGUN SARANA MAKMUR adalah perusahan general trading dan supplier material. Kami berdiri sejak awal tahun 2001, yang berkompetisi dengan cerdas, cermat dan inovatif sehingga dapat bersaing dalam bisnis. Upaya dan usaha kami menjalankan roda perusahaan adalah merupakan perpaduan terbaik dari semua unsur yang kami miliki berharap bisa mempersembahkan yang terbaik untuk pelanggan dan para mitra kerja. VISI menjadi penyedia dan jasa terbaik di indonesia. MISI - Menyediakan berbagai macam material dengan kualitas yang bagus. - Memenuhi kebutuhan pelanggan dan memberikan solusi - solusi yang inovatif. - Membangun kerjasama yang baik. Kami menyediakan berbagai macam bahan bangunan, antara lain : ALUMINIUM COMPOSITE PANEL, ATAP ALDERON, ATAP ROOFTOP, ATAP AMARI, GENTENG ROYAL, ATAP FORMAX, ATAP GALVALUME & ZINCALUME, POLYCARBONATE, SILICONE SEALANT, PINTU DUMA, KUSEN, PLAFOND, etc. https: / / www.youtube.com/ watch? v= IdpnlXEfD-A            ","
              Jl. Prapen Indah C 22, Surabaya            ",surabaya,Jawa Timur,+62 812-4934-3303,+62 812-2200-1910,+62 812-3111-1660
AKOR GLOBAL ENGINEERING,"
                                    PREMIUM GOLD
                                ",Kawat,"
KAMI PERUSAHAAN YG MENGSUPPLY MATERIAL :KAWAT LAS : RB26 , MS 77, B17, LB52 , LB52U, LB52-18, KOBE 6010, NC 36/36L, NC38/38L, NC39/39L,TGS , TIG,CIA1/CIA2, HF 350, HF 500, HF 600RD460, RD260, ENKA, SUMICO, NSN 308, NSN309, NSN312, CIN 1 / CIN 2 ATLANTIK, TECHWELD, WELL, HYUNDAY, WELTEC.AS STAINLESS 304, 316, 316LPLAT STAINLESS STEEL 304, 316, 316L, 430PIPA STAINLESS SCH10, 20, 40, 80SIKU, STREP UNP STAINLESS 304/316 BESI AS ST 42 / ST 60 ( s45c) , ST70, ST90BESI AS HARD CROME HARDEN / PREHARDENPLAT BESI COIL, PLAT KAPAl, PLAT KAPAL BKI,( KS, GDS, GRP)PLAT BESI BORDES, PLAT BESI LUBANGPIPA AIR / PIPA GAS BAKRIE, SPINDO. PIPA SCHEDULE SEAMLESS SCH 40, SCH 80, SCH 120SIKU, UNP, STREP, BEAM H, WFVALVE, FITTING ELBOW SGP, SCH40, SCH80 , FLANGE 5K, 10K, ANSI 150, ANSI 300,KLEM PIPA, UBOLT, HANGER KLEM, DINABOLT, MUR BAUT, JCBCPLAT BESI DAN STAINLESS POTONGAN. SIKU BESI HOTDIP/GALVANIS, STREP BESI HOTDIP/GALVANIS,PIPA PVC / HDPE  RUCIKA / WAVIN.HUB : HERRY WA/HP 08113287876 atau email : goldherry@ yahoo.com / akorglobal@ yahoo.com ","
              Raya Gunung Anyar Emas C2 NO. 6            ",surabaya,Jawa Timur,+62 818-335-695,+62 811-3287-876,None
PT. KON HWA,"
                                    PREMIUM GOLD
                                ",Kawat,"
PT. KON HWA merupakan Perusahaan yang bergerak di Bidang Usaha Bahan Bangunan. Berdiri sejak Tahun 1956. Pangsa Pasar kami merupakan Toko Grosir dan Ritel untuk Bahan Bangunan. Kami merupakan Distributor Bahan Bangunan dengan Spesifikasi seperti :1) SENG  •  Seng Gelombang  • Seng Plat Soft  • Seng Coil Galvanis dan Galvalum  • Seng Talang Galvanis dan Galvalum
2) KAWAT  • Kawat BWG Galvanis  • Kawat Bindrat  • Kawat Duri3) PAKU  • Paku Payung  • Paku Biasa  • Paku Kapal  • Paku Merk PandaPT. KON HWA akan Memberikan Pelayanan Pengiriman Cepat, Kualitas Produk yang Terjamin dan Harga Bersaing / Fleksibel.-----
"" KILASAN SEJARAH ""
 
PT. Kon Hwa berawal dari inisiatif lima orang pengusaha untuk mendirikan perusahaan pada tahun 1956 di atas tanah seluas 90 meter persegi yang berlokasi di distrik Kembang Jepun, kota Surabaya. Pada saat itu, perusahaan menggunakan nama Toko Besi Kon Hwa yang menjual Kawat, Seng, Paku dan Banser sebagai barang dagangan utama. Untuk keperluan penyimpanan stok barang dagangan, perusahaan menyewa sebuah gudang di Plaza Jembatan Merah.Pada tahun 1962, dua orang pendiri perusahaan melepas hak kepemilikan di Toko Besi Kon Hwa, sehingga menyisakan tiga orang pendiri saja. Sepuluh tahun kemudian, dua orang pendiri lainnya juga melepas hak kepemilikan mereka sehingga hanya menyisakan satu orang pemilik saja yaitu Ong Hian Tho yang selanjutnya dibantu oleh putranya yaitu Winarto Kuncoro. Pada saat itu, Toko Besi Kon Hwa mulai meluaskan barang dagangannya yaitu Seng Gelombang dan Seng Plat.
 
Pada tahun 1976, Toko Besi Kon Hwa membeli sebidang tanah seluas 500 meter persegi di daerah Sidorame untuk digunakan sebagai gudang. Pada tahun 1995, gudang dipindahkan ke daerah Kalianak dan dilebarkan hingga 5000 meter persegi.
 
Pada tahun 2002, gudang dipindahkan ke daerah Romo Kalisari di atas tanah seluas 15.000 meter persegi. Pada saat itu, Toko Besi Kon Hwa mulai meluaskan lini produksinya hingga Seng Talang atau Seng Tanpa Sambungan.
 
Pada tanggal 30 Januari 2006, bentuk badan usaha diubah menjadi Perseroan Terbatas yang bernama PT. Kon Hwa.
 
Saat ini, PT. Kon Hwa telah memiliki lebih dari 400 grosir dan eceran sebagai pelanggan mereka yang tersebar di Jawa Timur, Jawa Tengah, Kalimantan, Bali, Lombok, Nusa Tenggara Timur hingga Papua.
-----
Hubungi Kontak Kami Sekarang untuk Dapatkan Penawaran Terbaik dan Harga Bersaing (CALL/WHATSAPP)
• Phone : 0812-3040-438 (Inge Dwi Kuncoro)
• e-Mail : konhwa888@yahoo.com• Website : www.PTKonHwa.com
 ","
              • Head Office : Jln. Kembang Jepun 27/I, Surabaya, Jawa Timur, Indonesia• Phone : 0812-3040-438 (Call or WhatsApp)            ",SURABAYA,Jawa Timur,+62 812-3040-438,+62 812-3139-5636,+62 852-3379-3213
"CV. AGRO INDUSTRI SURABAYA divisi STEEL GRATINGS, GLASSWOOL, TIMAH","
                                    PREMIUM GOLD
                                ",Kawat,"
STEEL GRATING SURABAYA adalah Manufaktur Steel Grating yang ada di Surabaya. Kami menyediakan Steel Grating dengan ukuran standart baik Serrated maupun Polos. Kami dapat mengerjakan sesuai pesanan dengan Man Power yang cukup untuk mengejar Dead line Waktu Anda. AIS STEEL GRATING / PLAT GRATING AIS Plat Grating dapat secara luas digunakan sebagai penutup parit, parit pipa, saluran bawah tanah, poros ventilasi, cahaya dengan baik dan pemeriksaan baik. dan lain-lain AIS PLAT GRATING terbesar baja produsen kisi dari Cina, dengan 11 set pers pengelasan jalur produksi dan 100, keluaran 000 metrik ton ' setiap tahun. Jenis produk termasuk tidak diobati / baja galvanis kisi, tangga tapak, penutup Trench, Suspended langit-langit. dll kisi AIS adalah mitra profesional dan handal Anda. Ukuran bantalan bar ( mm X mm) : 20 X 3, 25X3, 30X3, 25X5, 30X5 ... 40X 8 ... 100 X 10. Bantalan bar lapangan ( mm) : 12.5, 15, 20, 30, 30, 6, 32, 5, 34, 34, 8, 35, 3, 40, 60, 80 ... Bisa juga menjadi sesuai kebutuhan klien ' , 20, 30, 40 dianjurkan. Sengkang ( transverse bar) lapangan ( mm) : 38, 1, 50, 50, 8, 70, 75, 80, 99, 100, 101.6, 102 ... Bisa juga sesuai kebutuhan klien. 50, 100 dianjurkan. Bahan: Mild Steel Salam Hormat, Rahmat Hidayat 082129846666 AGRO INDUSTRI SURABAYA KAWASAN INDUSTRI GRESIK JL. KIG SELATAN IV, KAV. 11 RANDUAGUNG, GRESIK, 61121TELP. 0313989496 , HP. 082129847777 , 082129846666 FAX. 031 3980197, EMAIL: INDUSTRI2034@GMAIL.COM ","
              KAWASAN INDUSTRI GRESIK, JL. KIG SELATAN IV, NO. 11, RANDUAGUNG, GRESIK-SURABAYA 61121 JAWA TIMUR, TELP. 0313989496 , HP. 082129847777 , 082129846666 FAX. 031 3980197, EMAIL: INDUSTRI2034@GMAIL.COM            ",SURABAYA,Jawa Timur,+62 821-2984-6666,+62 821-2984-7777,None
CV. AGRO INDUSTRI SURABAYA,"
                                    PREMIUM GOLD
                                ",Kawat,"
CV. AIS adalah Suplayer Besi Profil dan segala produk Industri, Adapun Material Yang Bisa Kami Supply Meliputi : Grating, Plat Timah, Glasswool, Rockwool, Alumunium, Kuningan, Stainless, Pipa : Carbon Steel, Galvanize, ( Weldid & Semless) API 5L / A106 Gr.B A53 Gr. & B, Dia 1/ 2"" - 54"" DLL Spiral Weldid Steel Line Pipe 4"" - 54"" , Stainless Steel Pipe Steel Pipe, Tubing SS304/ 304L, 316/ 316L DLL, Pipa PVC, Pipa Tembaga. BRAND : SUMITOMO, BKRIE, PPI, EX-CHINA, JAPAN, ETC. Steel Construction : H-Beam, IWF, Besi Beton, Siku, Channel U, CNP, INP, Assental, Plate, ( Hitam, Putih, Kapal, Bodres, Strip, Alumunium) Pipa Kotak, Plte Fittings : Elbow, Reduser, ( Coccentric & Eccentric ) Tee, Union, Coupling, Half, Hex Plug, Tredolet, Weldolet, Sch 10, 20, 40, 80, 160, 3000, Dia 1/ 2"" - 54"" DLL : Stat Bolt, Bolt& Nuth, U-Bolt, ngkhur Bolt, Bermacam2 Semua U Ukuran. BRAND : JAPAN, KOREA, LOKAL, ETC : Forget Flnges A105-Carbon Steel, SS A182 F304/ 304L, 316/ 316L Slip On, Welding Neck, Blind Flangs, Socket Weld, Lap Joint, DLL. ANSI : # 150, 300, 600.900, 1500.2500, JIS10K, 20K, 5K, PN16, PN25, PN40, Di 1/ 2"" - 54"" VALVE : GATE VALVE, CHECK VALVE, GLUBE VALVE, BALL VALVE, STRAENER, BUTTERVLY VALVE, KNIF GATE VALVE, MERK, GLT, KITZ, YONE, KREN, YUSHITKE, DLL. ANSI, # 10K, # 150, # 300, # 600, PN16, PN25, PN40, DLL BEST REGARDS, RAHMAT HIDAYAT 082129847777 DIRECTOR OF AGRO INDUSTRI _ _ _ _ _ _ _ _ _ _ _ _ _ _ _ _ _ _ _ AGRO INDUSTRI SURABAYA KAWASAN INDUSTRI GRESIK JL. KIG SELATAN IV, KAV. 11 RANDUAGUNG, GRESIK, 61121 telp. 0313989496 , HP. 082129847777 , 082129846666 fax. 0313980197 email: industri2034@ gmail.com cc: agroindustrisurabaya@ gmail.com www.agroindustrisurabaya.com  ","
              KAWASAN INDUSTRI GRESIK, JL. KIG SELATAN IV/NO.11 RANDUAGUNG, GRESIK - JAWA TIMUR            ",SURABAYA,Jawa Timur,+82 12-984-6666,+62 821-2984-7777,None
CV. Agro Industri Surabaya,"
                                    PREMIUM GOLD
                                ",Kawat,"
"" CV. AGRO INDUSTRI SURABAYA ""
 Telp. 0313989496 , HP. 082129847777 , 082129846666 , Fax. 031 3980197,
 EMAIL: INDUSTRI2034@ GMAIL.COM ,
 ALAMAT KANTOR: KAWASAN INDUSTRI GRESIK, JL. KIG SELATAN IV, NO.11, GRESIK 61121
 
AGRO INDUSTRI SURABAYA LEBIH DARI 5 TAHUN BERKUTAT DALAM MELAYANI KEBUTUHAN INDUSTRI, MEMBUAT KAMI TERJUN LANGSUNG DALAM MEMENUHI SEGALA BENTUK KEBUTUHAN INDUSTRI.
 DEMI MEMBERIKAN KEMUDAHAN DAN MEMBANTU MELANCARKAN SEGALA KEBUTUHAN USAHA ANDA. 
KAMI TELAH TERHUBUNG DENGAN SEGALA IMPORTIR, PRODUSEN, DISTRIBUTOR YANG BERKAITAN DENGAN INDUSTRI. SEHINGGA DENGAN MUDAH KAMI DAPAT MEMBERIKAN PENAWARAN PRODUK DENGAN HARGA PALING COMPETITIF DAN BISA DIPERCAYA. KAMI MELAYANI BERBAGAI KEBUTUHAN SEBAGAI BERIKUT
* AGEN KEBUTUHAN INDUSTRI 
* BATEREI INDUSTRI 
* DRAUGHT FAN
 * FIBERGLASS REINFORCED PLASTIC ( FRP)
 * GEAR, GEARBOX, PENURUN KECEPATAN
 * GIR
 * INSTRUMEN ELEKTRONIK 
* INSTRUMEN PENGUJI BAHAN
 * INTERNAL-COMBUSTION ENGINE
 * KAIN MAJUN, MAJONG
 * KERJASAMA & INVESTASI
 * KERTAS SARINGAN
 * KETEL & BOILER
 * LAINNYA
 * MATERIALS HANDLING
 * MEMBUAT & MENEMPA
 * MENGELAS & MENYOLDER
 * MESIN & SUKU CADANG TEKSTIL
 * MESIN BANGUNAN
 * MESIN BEKAS
 * MESIN CETAK
 * MESIN FARMASI
 * MESIN JAHIT
 * MESIN KEHUTANAN 
* MESIN KERTAS
* MESIN KIMIA
* MESIN METALURGI
* MESIN PEMROSES MAKANAN
* MESIN PEMROSES METALIK
 * MESIN PERIKANAN
 * MESIN PERTAMBANGAN
 * MESIN PLASTIK
 * MESIN PRODUK HARIAN
 * MESIN TENTANG PEMBUNGKUSAN
 * MOULD
 * PEKERJAAN PERKAYUAN
 * PEMAMPAT UDARA & PEMISAH UDARA
 * PENDESAIN & PEMROSES MESIN
 * PENDINGIN & PERTUKARAN PANAS
 * PENERANGAN INDUSTRI
 * PENGEPAS PIPA
 * PENGGOSOK
 * PENGHEMAT ENERJI
 * PERALATAN ENGINEERING
 * PERALATAN POMPA & VAKUM
 * PERALATAN TRANSMISI POWER
 * PERANGKAT KERAS & PERALATAN
 * PERSEDIAAN KEBUTUHAN INDUSTRI
 * PETERNAKAN
 * PIPA & TABUNG
 * PIPA ALUMINIUM
 * PIPA BAJA
 * PIPA BESI
 * PIPA COMPOSITE
 * PIPA METAL LAINNYA
 * PIPA PLASTIK
 * PIPA TEMBAGA
 * RANTAI
 * SABUK BAN BERJALAN
 * SENSOR
 * SISTEM DATA ELEKTRONIK
 * SISTEM PEMANASAN
 * VALVE KAMI JUGA MENJUAL: 
FLANGE:BESI ( JIS, PN, ANSI),
 FLANGE SUS FITTING: ELBOW , DOUBLE NIPPLE , DOP , PLUG , REDUCER , SOCK , TEE , VERLOP RING, WATERMOOR. KASA , SARINGAN, 
MESH: MESH JEPANG , MESH TEBAL , MESH LEBAR , MESH DOUBLE , MESH KUNINGAN , MESH NYLON , SCREEN BESI , SCREEN STAINLESS , WELDED MESH , LOKET, KNITTING MESH.
 KAWAT: KWAT STAINLESSH SOFT, KAWAT STAINLESS HARD , KAWAT BAJA.
 KAWAT LAS: KAWAT LAS STAINLESS , KAWAT LAS KUNINGAN , KAWAT LAS PERAK/ TEMBAGA. MANOMATER 
( PRESSURE GAUGE) : MODEL PAYUNG , RAKET, ELEKTRIK , LOW PRESSURE , DIAFRAGMA , MODEL GLYSERIN. 
THERMOMETER: TERMO PAYONG , TERMO RAKET, TERMO CAPILER , TERMO GRAPH , TERMO GRAPH, TERMO GLASS , TERMO PIPA , TERMO DIESEL , TERMO ASPAL , TERMO BATANG , TERMO ELEKTRIK , TERMO POCKET, TERMOSTAT, TERMO KONTROL , TERMO COUPLE , TERMO MAGNIT. 
MISELANU: LANGSOL , ALUMINIUM FOIL , CIRCULAR GLASS , FLEXIBLE RUBBER , GLYSERIN MINYAK , GUNTING, GAUGE SAVER , KIKIR , KLINGER , KOPLING KUNINGAN , SIPHON , BRANSLANG. 
PACKING: PLAT KLINGRIT , KARET PLAT , RAMIE TEFLON , PURE TEFLON , ASBES TEFLON , KEVLAR TEFLON. METER METERAN BAILEY METER , BAROMETER , FLOW INDIKATOR , FLOW SWITCH , HIDROMETER , PRESSURE SWITCH , TACHOMETER , TRANSMITTER , WATER FLOWMETER.
 PLAT: PLAT SS 201 , PLAT SS202 , PLAT SS 304 , PLAT LUBANG BESI , PLAT LUBANG STAINLESS , PLAT LUBANG CAPSUL. 
PIPA: PIPA ORNAMENT NIKEL 1 , PIPA SS ORNAMENT NIKEL 4 , PIPA KOTAK , PIPA SS SCHEDULE , PIPA TEMBAGA BATANG , PIPA TEMBAGA COIL. SIKU , STRIP STAINLESS DAN TEMBAGA. 
AS ( ROUND BAR) : AS STAINLESS STEEL , AS NYLON , AS TEMBAGA , AS TEFLON , AS NOVOTEK , AS POLY ETHELINE , AS POLY PROPHILENE. 
VALVE/ STOP KRAN: BALL VALVE , GATE VALVE , GLOBE VALVE , KNIFE GATE VALVE , BUTTERFLY VALVE , CHECK VALVE , STRAINER VALVE , TUESN , SOLONOID VALVE , SAVETY VALVE , COCK VALVE , FLOAT VALVE , PYL GLASS VALVE , NEEDLE VALVE , STEAM TRAP , PRV , SIGHT GLASS , AIR VENT , FOOT VALVE , DIAFRAM 
VALVE. WOOL: ROCKWOOL , GLASSWOOL , FELTWOOL , ROOFMESH , ALUMUNIUM FOIL BAIK SINGLE MAUPUN DOUBLE. MENGERJAKAN SESUAI KEBUTUHAN ANDA UNTUK PRODUK
 SBB: STEEL GRATING FRP GRATING PIPA CEMENT LINING KAWAT HARMONIKA KAWAT LOKET PLAT LUBANG SCREEN BAJA 
SALAM KENAL
RAHMAT HIDAYAT 
08212986666, 082129847777 0313989496 FAX. 031 3980197
  ","
              KAWASAN INDUSTRI GRESIK, JL. KIG SELATAN IV, NO. 11 GRESIK            ",SURABAYA,Jawa Timur,+62 821-2984-6666,None,None
CV. AGRO INDUSTRI SURABAYA,"
                                    PREMIUM GOLD
                                ",Kawat,"
CV. AGRO INDUSTRI adalah Manufaktur  Steel  Grating yang ada di Surabaya. Kami menyediakan Steel Grating dengan ukuran standart baik Serrated maupun Polos.
Kami dapat mengerjakan sesuai pesanan dengan Man Power yang cukup untuk mengejar Dead line Waktu Anda.
Berikut Penawaran kami :
1. Hot & Cold Insulation 2. Roofing 3. Fire proofing 4. Sound proofing 5. Duckting AC Adapun material yang kami supply :
 1. Hot Insulation : - Rockwool ( Roll, Lembar, Pipa ) - Glasswool ( Roll, Lembar ) - Ceramic Fiber ( Roll, Lembar ) - Calsium Silicate ( Lembar, Pipa ) - Asbestos
2. Cold Insulation : - Styrofoam ( Lembar, Pipa ) - Polyurethane ( Lembar, Pipa ) - Rubber Insulation ( Lembar, Pipa Merk : Armaflek & K-flek ) - Glasswool ( Roll, Lembar )
 3. Building Ins. : - Roofmesh - Glasswool ( Roll, Lembar ) - Aluminium Foil S/ S dan D/ S - Aluminium Tape - Spindle Pin
 4. AC Insulation : - Flexible Duct Isolasi / Non Isolasi - Glasswool ( Roll, Lembar ) - Metalizing Tape - Seng BJLS - Glasscloth - Spindle pin Glasswool ( Glass Wool) blanket: The blanket is suitable for acoustic and thermal insulation in tall building, also for refrigeration, air condition machinery room, etc., with properties of good flexibility and installation convenient.
Glasswool Board/ Block/ Slab: Fiberglass wool board is suitable for fireproof, acoustic and thermal insulation in tall building, also for refrigeration, air condition machinery room, etc., with properties of good load-bearing, light weight, low thermal conductivity, non-combustible and chemical stability. Glasswool Pipe Cover: Glasswool pipe covers are suitable for thermal insulation of steam lines, hot water or hot oil lines, also insulation for refrigerating lines.
Specifications: * Glasswool ( Glass Wool) blanket: o The blanket is suitable for acoustic and thermal insulation in tall building, also for refrigeration, air condition machinery room, etc., with properties of good flexibility and installation convenient. * Spec.:
 1. Resin bond content: 3 ~ 8 % *                                                                                                                                2. Density: 16 kg/ m3, 20 kg/ m3, 24 kg/ m3, 32 kg/ m3 *                                                                                     3. Thermal conductivity ( 705C) : 0.042 ~ 0.049 w/ m.k * Subject to density and thickness *                           4. Average acoustic absorptivity: 0.8 ~ 1.1 * Subject to density, thickness and frequency *                        5. Max. service temperature: 300C *                                                                                                                           6. Average fibre diameter: Features: * Availability: o Length x Width: 1200 X 600 mm / 2400 X 1200mm * Thickness: 25 ~ 100mm
 Glasswool Pipe Cover: + Glasswool pipe covers are suitable for thermal insulation of steam lines, hot water or hot oil lines, also insulation for refrigerating lines.                                                                        Spec.: + 1. Density: 48 ~ 96 kg/ m3 o 5. Max. service temperature: 300C o 2. Thermal conductivity ( GB/ T13350-92) : 0.045 ~ 0.032 o w/ m.k o 4. Average acoustic absorptivity: 0.8 ( 500-4000 HZ) o 5. Average fibre diameter: 4.0~ 6.0m o 6.
 Water repellent ( ) :
Best Regards
RAHMAT HIDAYAT AGRO INDUSTRI SURABAYA
PHONE  082129847777 , 082129846666
FAX. 0313980197
 
EMAIL: INDUSTRI2034@ GMAIL.COM  ","
              KAWASAN INDUSTRI GRESIK, JL. KIG SELATAN IV/NO.11 RANDUAGUNG, GRESIK            ",SURABAYA,Jawa Timur,+62 821-2984-7777,+62 821-2984-6666,None
PT. ABADI METAL UTAMA,"
                                    PREMIUM GOLD
                                ",Kawat,"
              PT. Abadi Metal Utama adalah perusahaan yang bergerak di bidang perdagangan besi / baja . Didirikan pada tahun 2002 di Surabaya dengan SK Menteri Kehakiman Nomor : AHU-63769.ah.01.02.PT. Abadi Metal Utama distributor / agen yang menjual :

Pipa Besi
Pipa Stainless
Pipa PVC / Pipa paralon (Pipa UPVC)
Pipa PE / Pipa HDPE
Plat Besi / Coil Besi
Plat Stainless Steel / Coil Stainless Steel
Wiremesh
Atap dan Floordeck
Kawat
Aksesoris Pipa Besi dan Stainless
Aksesoris Pipa PVC dan HDPE
Polycarbonate / Kanopi
dan lainnyaa...

Untuk informasi selengkapnya dapat mengunjungi www.abadimetalutama.com ","
              Raya Sukomanunggal Jaya 5 (Satelit Town Square) blok A5-A6
Surabaya, Jawa timur, Indonesia.            ",Surabaya,Jawa Timur,None,None,None
CV. AGRO INDUSTRI SURABAYA (AIS),"
                                    PREMIUM GOLD
                                ",Kawat,"
CV. AGRO INDUSTRI SURABAYA Adalah Suplayer berpengalaman lebih dari 7 tahun melayani Kebutuhan Client dari Seluruh Indonesia.Berikut adalah Andalan Produk yang bisa kami tawarkan:Besi Konstruksi, Besi Profil, Steel Grating, Plat Grating, Floor Grating, Glasswool, Rockwool, buble foil, Aluminium, Expanded Metal, Perforated Plate, valve, Plat Timah, Timbal, Tin Plate, Plat Kuningan, Flow meter Oil and Water, Plat Aluminium. Dan masih banyak lagi.Salam Hormat,Rahmat082129847777#JualGratingMurah#JualTimbalMurah#JualGlasswoolMurah#JualRockwoolMurah ","
              JL. KIG SELATAN IV, NO. 11 KAWASAN INDUSTRI GRESIK- JAWA TIMUR
            ",SURABAYA,Jawa Timur,+62 821-2984-7777,+62 821-2984-6666,None
CV. AGRO INDUSTRI SURABAYA ,"
                                    PREMIUM GOLD
                                ",Kawat,"
Kami Mulai berkembang dan memulai usaha di Surabaya, perkembangan yang begitu cepat mendesak kami beralih ke Kawasan Industri Gresik, demi kelancaran dan kenyamanan dalam pelayanan terhadap Customer Agro Industri Surabaya. Kawasan Industri Gresik terletak sekitar 60 menit dari Bandara Juanda Surabaya, dan sekitar 20 menit dari pusat Kota Surabaya. Hal ini memudahkan akses Jalur ke Pelabuhan Perak, Stasiun kereta api, maupun jalur antar Propinsi. CV. AGRO INDUSTRI SURABAYA RAHMAT HIDAYAT TELP. 031 3989496 HP. 082129847777 , 082129846666 FAX. 031 3980179 Email. industri20344@ gmail.com 29/08/2017
 
tag:
© 2016 DAFTAR HARGA BESI BAJA MURAH JUAL BESI BAJA BETON ULIR POLOS PLAT BAJA HITAM PLAT KAPAL BAJA WF H BEAM SIKU BAJA BAJA UNP KANAL U SIKU CNP BAJA KANAL C PIPA HITAM MEDIUM SCHEDULE 40 SCHEDULE 80 PIPA BAJA BESI HOLLOW WIREMESH DISTRIBUTOR PABRIK PRODUSEN GROSIR SUPPLIER JUAL HARGA AGEN BESI BAJA 09/03/2017 ","
              KAWASAN INDUSTRI GRESIK JL. KIG Selatan IV, Kav. 11 Randuagung, Gresik, JAWA TIMUR            ",SURABAYA,Jawa Timur,+62 812-9846-666,None,None
CV PRAMANA DWI JAYA,"
                                    PREMIUM GOLD
                                ",Kawat,"
PRAMANA DWI JAYA merupakan badan usaha resmi (memiliki SIUP dan TDP) berkedudukan di kota Surabaya dengan merk dagang ""PRAMANA BAJA"" yang bergerak dibidang jasa dan perdagangan serta supplai bahan/material bangunan, khususnya bahan bangunan yang berbahan dasar logam. Untuk operasional pemasaran lebih banyak dilakukan secara online, baik melalui situs pramanabaja.com & pramana dwijaya.com ataupun situs-situs lain serta media sosial. 
PRAMANA DWI JAYA memiliki visi yaitu mengembangkan dan menjadi sebuah badan usaha yang terpercaya, memberikan pelayanan yang profesional, dan menjalin kerjasama dengan berbagai pihak atas dasar saling berbagi dan menguntungkan. ","
              Jl. Raya Bungkal Gg Sumur No 50C , RT 05/ RW 03 Sambikerep            ",SURABAYA,Jawa Timur,+62 812-3374-4374,+62 813-3535-2009,None
PT Yasindo Jaya Bersama,"
PREMIUM RUBY
",Kawat,"
              TOOLS │ TECHNICAL │ WORKSHOP │ MACHINERY │ GENERAL EQUIPMENT SUPPLIES            ","
              Ruko permata ancol,blok L no 12, Jl RE Martadinata ,pademangan-jakut 14420 ",Jakarta Utara,DKI Jakarta,+62 813-3713-2383,None,None
Cahaya Griya Mandiri,"
PREMIUM RUBY
",Kawat,"
              DISTRIBUTOR UTAMA PRODUK ALUMINIUM LOVERA ( Original Product). Produk kami antara lain Lovera ( atap buka tutup aluminium) untuk void ( horizontal / vertikal) & carport, Pintu Garasi aluminium ( Giano) geser & lipat, Sequra ( pintu aluminium kawat nyamuk baja/ pengganti teralis), Pintu Garasi Lipat dan Geser, Pintu Minimalis Kaca Lipat ( Giano) , Decomega ( aluminium kusen warna kayu) & Pintu Panel Alumunium ( decoprofil), pembuatan kusen aluminium warna urat kayu dan warna biasa. Kami juga menerima servis lovera, baik dikarenakan macet atau pencucian lovera. Perusahaan kami bergerak di bidang suplai barang aluminium yang dikemas rapih tanpa lecet. Anti karat, anti rayap, kuat, tahan lama, dan mudah perawatannya. Produk dengan kualitas terbaik dan harga yang kompetitif. Bebas biaya kirim wilayah Jabodetabek.KEUNGGULAN :- Dapat dibuka tutup dengan gerakan sampai 90 derajat.- Meningkatkan sirkulasi udara segar dalam ruangan karena memungkinkan angin dan cahaya masuk ke dalam ruangan ketika atap dibuka dan bisa ditutup saat hujan sehingga ruangan dibawahnya tidak basah.- Anti karat.- Bebas perawatan dan mudah dibersihkan.- Dioperasikan secara manual atau automatis.- Praktis, tahan lama, dekoratif dan fungsional.HARGA :1. Volume Atap = Panjang x Lebar = Meter Persegi ( m2) .Estimasi harga atap buka tutup LOVERA : Rp 1.300.000, -/ m2 ( Negotiable)Daun Atap terbuat dari alumunium sheet yang sudah di finishing dengan powder coating sehingga warna atap terjamin tidak pudar untuk jangka lama. Beam and Support : Full Allumunium Steel, Anti Karat. Sangat cocok diaplikasikan sebagai atap/ roof garasi, tempat jemur, koridor, void, taman, cafe/ restoran, kolam renang, workshop, dll.            ","
              Pulo Gebang Permai Blok H17 No.26, Cakung, jakarta Timur            ",Jakarta Timur,DKI Jakarta,+62 816-1851-136,None,None
PT. WIKA NIAGA SUKSES,"
PREMIUM RUBY
",Kawat,"
Kami adalah importir dan supplier dari produk diamond wheel, polishing wheel, cutting wheel, counter sink, cork pad, softboard, cork roll, tali kevlar dengan kualitas terbaik dan harga sangat bersaing. Bila ada permintaan ataupun kebutuhan untuk produksi kacanya jangan ragu untuk menghubungi kami...Kami akan memberikan harga terbaik. Kami juga akan membantu anda untuk memenuhi kebutuhan perusahaan. ","
              Komplek Ruko Grand Niaga
Jl. Puri Kencana Blok K6 nO. 3-O
Kembangan Selatan, Kembangan
(Samping tol kebon Jeruk)            ",JAKARTA BARAT,DKI Jakarta,+62 813-8014-1111,+62 811-9953-515,None
Abadi Jaya,"
PREMIUM BLUE ONYX
",Kawat,"
              Awal mula dari Abadi Jaya,  kembali ke tahun 1990 ketika pertama kali dimulai sebagai bisnis pemasok peralatan laut untuk industri perikanan. Bisnis yang telah dibawah kepemimpinan yang kuat dan tumbuh menjadi perusahaan Distributor dan Importir ditahun 2007 dan mulai membangun jaringan pemasaran yang luas diseluruh Indonesia.Dengan pengalaman yang kami miliki diindustri perikanan selama 30 tahun, kami yakin dapat memberikan products dengan performance dan quality yang lebih baik, dan tetap menjaga agar harga tetap competitive.Rentang Products kami adalah sebagai berikut : 1. PVC Spring Hose / Selang Kawat (HOYA SPRING HOSE - HDC , JAPAN QUALITY)Terbuat dari bahan PVC Murni, Tebal, Memiliki daya tahan terhadap tekanan air yang cukup Tinggi, Bening /Transparant, Tidak berbau, Tidak Berminyak dan tidak akan berubah warna jika terkena panas matahari, Kualitas spt merek JAPAN (TOYOX) 2. Pipe Fitting / Sambungan Pipa. Brass Kuningan Sambungan Elbow Pipa (YK - Thailand)Stainless Steel Sambungan Elbow Pipa 304
Stainless Steel Klem Stainless (Taiwan)
Stainless Steel 304 Segel, Kili-Kili Stainless Steel 304 Ball Valve 3. Baut Kapal Stainless Steel Baut, Ring 304 (THE/TAIWAN) Steel Long Bolt , Baut Gemuk (Ukuran 5/8 Inch x 8 “-20 “) 4. Fishing Lamp & Pancing CumiLampu Cumi (UniStar Korea Brand)Ballast dan Socket Lampu CumiLampu Signal Klip (Star Brand) 1,2,5warna
Pancing Cumi Appolo (#2.5 & 4.0) Pancing Cumi Udang #2.05. Boat Nails / Paku Kapal Paku Thailand (A)Paku Singapore Paku AustraliaPaku TimahPaku Fiber (Ulir) dan Ring Stainless Steel6. Tools Sponge Busa Karet Taiwan ( 1M x 2M x 9 cm )Kepala kompor  Type 203 dan 768 Gurinda Amplas (Sonix Brand)Gurinda Potong (Sonix Brand)Bulu Roll 4 “ dan 6 “ (Star Brand) - Khusus untuk FiberJas Hujan TaiwanAsbes Pita Standard, Super, Fiber (Ukuran 3 inch dan 4 Inch)Lakban perak (Alumunium)Kawat Stainless Steel7. Marine Hardware Brass Kuningan Water Pump / Pompa Keong (PC 8000 Malaysia)Brass Kuningan Water Pump / Pompa Keong (YK Thailand)Cast Iron Steel Water Pump / Pompa Keong (YK Thailand)Pohot / Bearing Kuningan (Atlantic Marine)Marine Battery/Aki Kapal (SONIX)Termometer , Amper Oil Dan Amper Pendingin (SONIX)
PT. ABADI JAYA JKT    Supplier Marine Hardware, Spareparts and Equipment  
 
Address (Office)    RUKO LT.2 MUARA KARANG L9.T/20 RT013/RW015 , KEL PLUIT , KEC PENJARINGAN , JAKARTA UTARA 14450, INDONESIA .    
Address (Warehouse)    1. JL. KAYU BESAR DALAM 1 NO 19. TEGAL ALUR, KALIDERES. JAKARTA BARAT, INDONESIA.  2. JL. DERMAGA 1 NO 2, JAKARTA UTARA 14450, INDONESIA.
HP : 08128354388 / 082110332208 Email     pdabadijaya@yahoo.comEmail contact@abadijaya.com  / sales@abadijaya.com
WhatsApp    : (+62) 8128354388
Contact Person   : Robert
www.abadijaya.com
www.abadijaya.id
 ","
              Muara Karang L 9 Timur No 20, Jakarta Utara 14450            ",Jakarta Utara,DKI Jakarta,+62 812-8354-388,None,None
TEKNIK MANDIRI,"
PREMIUM BLUE ONYX
",Kawat,"
Teknik Mandiri adalah sebuah perusahaan yang khusus memfokuskan diri dalam memenuhi kebutuhan industri,Rumah tangga,Proyek dan Automotive di bidang produk mechanical, electrical,handtools,welding,safety,dan Lifting pneumatic Equipment  Visi: Menjadi yang terbaik di antara yang terbaik.  Misi: Menjadikan Teknik Mandiri sebagai partner Industry, Rumah Tangga, Proyek dan Automotive dalam menghadapi tantangan dan menyongsong kesempurnaan dimasa depan.  Kami bekerja keras dan selalu melakukan yang terbaik untuk melayani pelanggan-pelanggan dimanapun dan kapanpun dalam memberikan informasi yang akurat dan solusi yang tepat pada saat dibutuhkan.Info Produk & Order Hubungi :Phone : 021-5644267    Mobile : 0812 1214 3333( Call/WA)Email : teknikmandiriindo@gmail.com ","
              Jl. Setia Warga 8 No.40 Rt 10/11 Grogol Petamburan, Jakarta Barat            ",Jakarta Barat,DKI Jakarta,+62 812-1214-3333,None,None
PT SUKSES ANUGERAH BERKAT,"
                                    PREMIUM GOLD
                                ",Kawat,"
              PT. Sukses Anugerah Berkat Hubungi Kami Suryati hp 081289991028 Perusahaan kami bergerak dibidang: 1) General Contractor, Jasa Perdagangan yang meliputi penyediaan barang & alat-alat untuk kebutuhan konstruksi, suku cadang/ spare parts alat-alat berat, dan suku cadang Mitsubishi/ Hino Trucks. 2) Jasa Penyewaan Alat Berat Backhoe, Wheel Loaders, Compactors/ Roller, Excavator, Buldozer, Forklift dan lain lain berbagai macam jenis. Penyewaan tergantung jenis pekerjaan dan lokasi kerja. 3) Jasa Penjualan Conveyor Belt, Wire Rope Untuk permintaan penawaran harga silahkan email ke: suksesanugerahberkat@ gmail.com            ","
              Ruko Mutiara Palem blok C5/17 Cengkareng - Jakarta            ",JAKARTA,DKI Jakarta,+62 812-8999-1028,None,None
Forte Indonesia,"
                                    PREMIUM GOLD
                                ",Kawat,"
              Forte Indonesia adalah satu perusahaan dan merek terkemuka di Indonesia terutama di perdagangan material industri dan konstruksi. Produk produk bermerek Forte sudah beredar di seluruh Indonesia, melalui agen2, toko besi dan tehnik, material bangunan dan langsung ke customer pemakai. Forte produk termasuk bahan bahan seperti besi, stainless steel, galvanis, alumunium, timah. Produk Forte telah menjadi sangat dikenal setelah beredarnya barang seperti kawat loket galvanis, plat grating, kawat sling, pipa stainless, plat lobang, plat expanded metal, kawat duri silet, timah hitam, dan banyak lagi produk unggulan lainnya. Forte sangat dikenal dengan produk dengan kualitas tinggi namun dengan harga yang sangat bersaing. Dalam mendukung berkembanya pembangunan di Indonesia yang begitu pesatnya, Merek Forte ini berdedar dan berkembang begitu cepat dan pesat. Produk bangunan unggulan kami seperti kawat loket galvanis, plat grating, plat lobang, plat expanded metal, kawat duri silet, dan produk unggulan industri kami seperti kawat saringan mesh, plat lobang, plat stainless, plat alumunium sangatlah dikenal qualitasnya. Seiring dengan pembangunan yang tak pernah berhenti, bersamaan dengan meningkatnya perindustrian di Indonesia, merek Forte akan terus meningkatkan sayap distribusinya dan tak pernah berhenti menciptakan produk produk unggulan lainnya. Forte Indonesia akan terus berusaha menjadi yang terbaik dalam memenuhi kebutuhan material industry dan konstruksi Indonesia            ","
              CV.Sumber Makmur ,Gedung Metro Glodok ,Jl Blustru No 15-16 Patokan: Samping polsek Tamansari.            ",Jakarta Barat,DKI Jakarta,+81 29-016-2615,None,None
CV GLODOK JAYA TEKNIK,"
                                    PREMIUM GOLD
                                ",Kawat,"
              CV GLODOK JAYA TEKNIK merupakan Agen Distributor yang bergerak dibidang welding & hardware ( alat-alat teknik untuk pengelasan) . Berikut merk product yang kami sediakan : VICTOR ( gas cutting & welding apparatus ) Made in Usa WELDCRAFT ( Tig Torches & consumable ) Usa LENCO ( welding accesories ) Usa ARCAIR ( gouging torch & electrodes ) Usa TWECO ( mig gun & welding accessories ) Usa SUPERFLEX ( kabel las ) Australia KOIKE ( gas cutting ) jepang MORRIS ( regulator ) CIGWELD ( welding consumable ) LINCOLN ( welding machine ) CHIYODA ( stang blender & Regulator ) JACKSON ( electrode Holder ) INGDRYER ( oven electrodes ) MARKAL ( paintstick ) FOMAC ( mesin makanan) HORMAT KAMI, GLODOK JAYA TEKNIK Jl Ketapang Raya No 50 Gajah Mada Jakarta Pusat Telp : 0818906019 (Whatsapp) MARKETING DJATMO HENDARDY HP: 0818906019 Email : glodokjayateknik@ gmail.com            ","
              JL KETAPANG RAYA NO 50 GAJAH MADA            ",JAKARTA PUSAT,DKI Jakarta,+62 818-906-019,None,None
Sumber Filtech Mandiri,"
                                    PREMIUM GOLD
                                ",Kawat,"
              Sumbermas Jaya Filter bergerak dalam bidang produk penyaringan dan Alat-Alat Teknik untuk mesin-mesin industri . Kami Menjual SBB: - Wire Mesh S/ S & Plat Lobang- Mesh Plastic ( Nylon & Polyester)- Housing & Filter Cartridge- Kertas Filter- Kain Filter- Bag & Pocket Filter- Saringan Set- Saringan Cor Logam- Karpet Tahan Panas, dll- Filter Press- Plat Lobang- Filter- Filter Udara- Filter AC- Filter Air- Kawat Nyamuk- Saringan Uwap(+62 813 8380 9302)Sumber Mas Jaya FilterEmail: sumbermasjayafilter@gmail.com            ","
              Jakarta Barat            ",Jakarta,DKI Jakarta,+62 813-8380-9302,None,None
CV. WIRA GLOBAL TECHNOLOGY,"
                                    PREMIUM GOLD
                                ",Kawat,"
Kami adalah perusahaan yang bergerak dibidang perdagangan umum. Produk yang kami pasarkan berupa Abrasives, Tools and Equipment untuk Mold maker, Dies maker, Mechanical Seal maker dan Valve maker. Adapun brand yang sudah kami pasarkan adalah: * Hyprez diamond compound * Sonofile ultrasonic polishing machine* Urawa polisihng machine* Minimo polishing machine* Argofile Tools * Xebec, Ceraton dan New Super Stone * SGL and Metcar Carbon Graphite* Quada & Improbond Laser Wire Electrode * UHT & U-Lap Air Grinder * Besdia Diamond Tools * Diprofil * DllUntuk informasi lebih lanjut hubungi:Telp: 02129024154Fax: 02129037920Email: wimar@wigotek.co.id, wigotech@gmail.comAttn: Witri Maryadi Mr ","
              Mall Taman Palm Lantai 3 Blok A No.10B Cengkareng Timur             ",Jakarta Barat,DKI Jakarta,+82 2-9844-7295,None,None
Mitra Glodok,"
                                    PREMIUM GOLD
                                ",Kawat,"
kami merupakan perusahaan yang berdiri sejak tahun 1988, bergerak dalam ditribusi kebutuhan keran air, valve dan pipa sambungan di bidang divisi Air, Minyak bumi dan Gas alam, kami berpengalamanan dalam menyediakan barang sesuai dengan spesifikasi yang dibutuhkan sebagai berikut:

Divisi Instrumentasi:

Brand sebagai berikut : SWAGELOK, WHITEY, CAJON, SNOTRIK, FUJIKIN, LETLOK HAMLET, SUPERLOK SLOK, OLIVER, ANDERSON GREENWOOD, NUPRO, BAUMER, HOKE, PGI, BALON, HYLOK, UNILOK, KEROTEST, ASHCROFT, WIKA, ARMATHERM, SIKA, SCHUH, ANDERSON,SAKAI TUBING, SANDVIK TUBING, ETC.

Divisi Minyak bumi dan Gas alam:

KATUP VALVE, GATE VALVE, WAFER CHECK VALVE, SWING CHECK VALVE, BALL VALVE, GLOBE VALVE, Y STRAINER, BUTTERFLY VALVE, SAFETY RELIEF VALVE, FOOT VALVE, STEAM TRAP,UNION HAMMER, COUPLING, BAND, TOOLS, STUD BOLT, GREASE, TOOLS, STUDBOLT, CLAMP HYDRANT
Brand sebagai berikut : FMC, DEMCO, RIDGID, VICTAULIC COUPLING, BAND-IT BAND, GLT VALVE, GBA VALVE, DIE ERSTE-GERMANY, BALON-USA, CRANE, FISHER, TOYO, TOKICO, MARTIN DECKER, FARRIS, ELORA, PROTO, KITZ VALVE, HONEYWELL VALVE, FILL RITE METER, SPIRAX SARCO, MARKAL PAINT STICK,LUFKIN,MOORSIDE, KLINGER,ETC.

RIGGING EQUIPMENT :

WIRE SLING/KAWAT SLING,TURNBUCKLE/JARUM KERAS, WIRE ROPE CLIP, EYE HOOK, HOOKS, EYE BOLT, TAKEL/CHAIN BLOCK, LEVER BLOCK, TIRFOR, VERTICAL CLAMP, HORIZONTAL CLAMP, BEAM CLAMP, WIRELOCK, CLOSE/OPEN OPEN SPELTER SOCKET, FIST GRIP ETC, WEBBING SLING, RATCHET LASHING
Brand sebagai berikut : CROSBY, YALE, KONDO, GUNNEBO, JOHNSON, KISWIRE, DSR, MANHO, BLUESTRAND, SPANSET, FISCH,THIEL,PEWAG, KONDOTECH,VANBEST GREEN PIN,VITAL ETC.

Divisi Valve Air :

GATE VALVE, WAFER CHECK VALVE, SWING CHECK VALVE, BALL VALVE, GLOBE VALVE, Y STRAINER, KNIFE GATE VALVE, FLEXIBLE RUBBER JOINT, BUTTERFLY VALVE, SAFETY RELIEF VALVE, FOOT VALVE, ANGLE VALVE, BUCKET STEAM TRAP, STEAM TRAP, MOTORIZED VALVE, FLOATING VALVE
Brand sebagai berikut :  TOYO VALVE,KITZ VALVE INDONESIA, GALA VALVE INDONESIA, YONE VALVE INDONESIA, TC, TW, DOUBLE LIN, TOZEN VALVE, MIZU, ASAHI VALVE, K BRAND, BAMBOO VALVE, SANKYO VALVE, TL , TLV, 317 VALVE, ROXMON, ARITA, KVC, HISEC VALVE,ONDA VALVE,DIAPHRAGM VALVE, ELECTRIC ACTUATOR VALVE, BOWLING VALVE, ARI ARMATUREN, TH VALVE, NITTO COUPLER

Flange dan Fitting

- JUAL FLANGE MURAH, SLIP ON FLANGE, WELD NECK FLANGE, BLIND FLANGE, RTJ FLANGE JIS 10K, ANSI 150, ANSI 300, ANSI 600, MATERIAL; CARBON STEEL, SS 304, SS316
- TEE, ELBOW, CONCENTRIC REDUCER,ECCENTRIC REDUCER,TEE REDUCER,CAP, UNION/WATERMUR, ETC ; GALVANIS, CARBON STEEL, SS304, SS316 10K-6.000PSI

Grease dan Chemical

Brand sebagai berikut : MAGNAFLUX, LOCTITE, DEVCON, DOW CORNING, BAKERLOK, WIRELOCK, SHELL GREASE, WD-40, CLIMAX GREASE GUN, VALTEX, LPS, CRC, CNC, THREEBOND, GOJO, PERMATEX, MOLYKOTE ETC
For More Info Contact Us :MITRA GLODOKHARCO GLODOK LANTAI UG BLOK A NO.48Phone  : 6221-2268 5272 / 6221-2268 5273Mobile : 0812-8325-3259 dan 0815-1743-3936 (WA)Email  : mitraglodok@yahoo.comWebsite : www.valveflangeglodok.com
 
  ","
              HARCO GLODOK LANTAI UG BLOK A NO.48            ",Jakarta Barat,DKI Jakarta,+62 812-8325-3259,+62 815-1743-3936,None
ANUGRAH AGUNG PERKASA,"
                                    PREMIUM GOLD
                                ",Kawat,"
              Kami adalah Perusahaan General Trading yang Menjual berbagai Kebutuhan Industry, Oil & Gas , Palm Oil , Chemical, Rafineri, Food & Bavarages, Automotive, Mining dll.Product-Product yang kami supply Khususnya Alat2 POWER TRANSMISSION , VALVE, INSTRUMENTASI dan TOOLS . Banyak Jenis , Type dan Brand yang dapat anda temukan di Website kami.Jangan sungkan untuk mengirim inquery anda melalui : Email , Fax atau Marketing kami yang selalu Stand by 24 jam. Kami adalah General Supplyer dan Contractor untuk spare part Industry, Palm Oil, Oil & Gas dan minning. Kami memiliki pengalaman kerja dengan beberapa perusahaan besar dan Pembangkit di Jawa Barat dan Sumatera. Dan Kami memiliki kerjasama dengan customer berikut ini : 1.Indonesia Power Kamojang Garut 2.Indonesia Power Darajat Garut 3.Indonesia Power Muara Tawar Bekasi 4.Indonesia Power Suralaya banten 5.PT.Holcim Cement Tbk. 6.PT.Sumi Indo kabel Tbk 7.PT.Inti Eversfring Indonesia 8.PT.Nuscaco Perkasa Indonesia 9.PT.Pacific Presstes Indonesia Produk produk yang kami Jual Meliputi : 1.Instrumentation : 1.a. Pressure Gauge ( WIKA, Bourdon Heany, Schuh Dll ) 1.b.Temperature Gauge ( Wika, Boudon Heany, Scuh Dll ) 1.c. Thermocouple 1.d. Level gauge & Flow Meter. 1.e. RTD & PT 100 1.f.Melt Transducer 1.g.Pressure Transducer 1.h.Melt Temperature Transducer 1.i. Dynapack Transducer 2. Power Drive & Transmition : 2.a. Motor Electric AC & DC 2.b. Pulley & Belt 2.c. Van Belt & Conveyor Belt 2.d. Coupling & Flamer Block 2.e. Roller Chain & Bracket 2.f. Motor Drive AC & DC 2.g. Worm Gear 2.h. Speed Variator. 2.i. Trolly Chain 2.j. Valve ( Ball, Butterflay, Gate etc ) 2.k. Kincir Tambak & Kolam Ikan 3. Gas Detector & Analyzer : 3.a.Propane Gas Detector 3.b.Oxigen Gas Detector 3.c.Toxid gas Detector 3.d.Water Analyzer 3.e.Metal Analyzer 3.f.Oxigen Analyzer 3.g.Win Analyzer 3.h.Particle Analyzer Pemesanan silahkan Hubungi : 

Telp      : 021-65866198 
Fax       : 021-65866198 
Mobile  : 08121 1886 1090
WA        : 0821 1886 1090
BB         : 
UP         : Indra
 ","
              MEGA GLODOK KEMAYORAN ( MGK ),LT.GF  BLOCK A8  NO.11-KEMAYORAN            ",Jakarta Pusat,DKI Jakarta,+62 821-1886-1090,None,None
Supra Karya Mandiri,"
                                    PREMIUM GOLD
                                ",Kawat,"
              cv supra karya mandiri adalah perusahaan yang bergerak dibidang pengadaan barang dan jasa untuk kebutuhan mesin mesin las co2 mig, tig argon, stick smaw dengan merk merk handal seperti PANASONIC, OTC,MAC,NAKAMA, cnr,daesung, helvi dan yang lainnya perahu karet, ban renang double dan single, banana boat, perahu rafting, helm, dayung dan keperluan untuk repasi/ repair perahu karet dan ban renang seperti lem PVC, lem hypalon, pembersih lem/ liquid glue cleaner, dan kebutuhan industri khususnya alat-alat tehnik seperti : selang single untuk gas lpg/ achythelene, oksigen, selang double untuk gas lpg/ achethelene, mesin-mesin las stick/ SMAW/ MMA portabel inverter dc120A, 160A, 200A, 315A, 400A, mesin las tig inveter 160A, 200A, 315A, 500A mesin las co2 inveter 350A, 500A, mesin las thyristor tig/ co2/ SMAW dengan merk: PANASONIC KR350II, PANASONIC KR500II, PANASONIC WP300,NAKAMA, NICHIA-JAPAN AC TRANSFORMER, TEHNICA, NORITECH , CHINA, OTC , welding cable SUPERFLEX , TEHNICA, BLACK CHINA, PAINT MARKER MARKAL USA thermomelt stick, B pain stick, Dalo marker, kedok las automatic made in swizzerland, LENCO, WELDCRAFT TIG ACCECORIES, DRIIL SHARPENER pengasah mata bor DRILLDOCTOR USA 350/ 300X, 500X, 750X, MIG GUN PANASONIC, REGULATOR CROWN PANASONIC fcr226, 2503, 803 FOR CO2, FOR ARGON NEW CROWN FR-1, REGULATOR LPG, ACY, OKSIGEN, UNILIGTH, TUNGSTEN RED , GREEN, COLLET , COLLET BODY, selang oksigen acythelene, single doubel, heating torch chiyoda. untuk info lebih lanjut mohon hubungi: miss Annie hp. 081316496477 atau robert hp: 08118682122 telp.021-6451105 fax 021-6451093 email : suprakaryamandiri@gmail.com kami juga menerima perbaikan/ repair untuk perahu karet dan ban renang berbahan PVC dan hypalon"" "" kami juga menerima perbaikan mesin las berbagai merk: panasonic, miller, lincoln engine, cnr, daesung, tehnica, weldteco, SAF, essab, fronius, hillman, shyuan, WIM, dragon, Nichia, daichi, MAC japan etc"".            ","
              jalan pademangan raya 8 no.13 pademangan timur             ",jakarta utara,DKI Jakarta,+81 3-1066-0744,None,None
CV.TUGU PERMATA,"
                                    PREMIUM GOLD
                                ",Kawat,"
              CV.TUGU PERMATA adalah perusahaan yang bergerak di bidang penyediaan Alat Safety atau Perlengkapan Safety, antara lain : Safety Helmet, Safety Shoes, Hand Glove, Body Harness, Rubber Cone, Convex Mirror, Road Barrier, Safety Glasses, Earplug, APAR, Hand Metal Detector, DLL.Kami Juga Menyediakan ALat Kebersihan,Kawat Loket Dan Besi Rak Siku Lobang.            ","
              CV.TUGU PERMATAGedung Mega Glodok Kemayoran ( MGK ) Lantai GF Blok C5No.03Jl.Angkasa Kav B-6 Kemayoran,Jakarta Pusat.Telp : ( 021 ) 29070470 Email : tugupermata@yahoocoid""For Response : WA : 081384722205 / 081906808999""            ",Kemayoran Jakarta Pusat,DKI Jakarta,08138422205,None,None
pt.inti karya karisma,"
                                    PREMIUM GOLD
                                ",Kawat,"
              PT.INTI KARYA KARISMA adalah suatu perusahaan dagang yang berkembang sangat pesat, khususnya dalam bidang penyediaan barang dan alat - alat untuk kebutuhan industri yang ada di Indonesia, meliputi bidang Valev - Valev, Automation System dan Electrical Components Seperti : PNEUMATIC & HYDRAULICS : SMC, KOGANEI, CKD, KURODA, TAIYO, TACO, ROSS, AIRTAC, TOYOOKI, AUTOGIKEN, DAIKIN, UCHIDA, YUKEN, NOK F- TEC, FUJIKURA, JUNRON, MARUHA, NACHI, SHINDENGEN, MAC, ERACON ( NEW ERA ) PISCO, KONDOH, FOTEK, CHANTO, PNEUMAX, SANG- A, MAC, NUMATICS, MYOTOKU, AURORA CONVUM, KONAN, FUJI SEIKI, KINGSTON, JUNRON, KCC, YPC, BIMBA, FABCO- AIR Etc. CLUTCH & BRAKE ELECTROMAGNETIC : OGURA, SHINKO, OSAKI DENGYOSA, SUNTES, MITSUBISHI, AIRFLEK, PLANOX, MIKKI PULLEY, STROMAG, GUMMI, FAWICK, EATON, AUTOGARD, STEARN, ORTLINGHAUS, SIME, BINDER, COREMO, ANTEC, PINTS BAMAG, WARNER, MAYR, AIR CHAMP ELECTRIC & MOTOR : MITSUBISHI, YASKAWA, FUJI ELECTRIC, HITACHI, TOSHIBA, NIKKI DENSO, TSUKASA, TAMAGAWA SEIKI, NISSEI, OGURA, OMRON, RORZE, SANYO DENKI, SAWAMURA, TAMAGAWA SEIKI, ORIENTAL, VEXTA, PANASONIC, YAMATAKE, SHINKO, SHIMPO, NIDEC, MIKI PULLEY, ITOH, MAKISHINKO, TSUBAKI, PATLITE, USHIO, IDEC IZUMI, HANYOUNG, PHILIPS, OSRAM, TOYO FAN, TDK, KOINO, ALPS, NIKKAI ( NKK ) SENSOR & CONTROLS : OMRON, SUNX, SHINKO, KEYENCE, RIKEN, NATIONAL, YAMATAKE, SEEKA, HONEYWELL, IFM, KOYO, EUROTHERM, PEPPERL+ FUCHS, BALLUFF, PILZ, SICK, TURCK, DATASENSOR, TAKENAKA, IDEC IZUMI, KOINO, TOYO , NIPPON AUTOMATION POWER SUPPLIES : COSEL, NEMIC LAMBDA, OMRON, MATSUSHITA, MEAN WELL, ASTEC, MURR, SPELLMAN, ZENTRO, XP Power Supplies COOLANT PUMP : MITSUBISHI, NIPPON OIL PUMP, FUJI ELECTRIC, TERAL TROCHOID PUMP : NIPPON OIL PUMP, FUJI, MITSUBISHI BEARING : THK, IKO, NSK, NB, NMB, EZO, KURODA, SAMICK, HIWIN, NTN Etc TEMPERATURE CONTROL : RKC, TOHO, SHIMADEN, FUJI ELECTRIC, HONEYWELL, ASAHI KEIKI, YOKOGAWA, AMETEK, DYWER, TESCOM, SHIMAX, OPTEK Keuntungan dari pelayanan kami adalah sbb: Untuk permintaan penawaran harga silahkan e- mail ke : PT.INTI KARYA KARISMA Hp : 081286783132, 081218651189 Tlp : 021- 50408997 E- mail : pt.intikaryakarisma@ yahoo.co.id            ","
              Mega Glodok Kemayoran            ",Jakarta,DKI Jakarta,+62 812-8678-3132,None,None
PT.SINARDO PRATAMA,"
                                    PREMIUM GOLD
                                ",Kawat,"
PT. SINARDO PRATAMA sebagai stockies dan distributor untuk produk material steel bagi perindustrian & project di Indonesia. Kami spesialis dalam mensupport ( mensuply ) kebutuhan proyek – proyek industri seperti : Oil & Gas Pipelines Konstruksi,Pembangkit Listrik ( Power Plants )  Pembuatan Kapal ( Ship Building )  Boiler, Pulp & Paper, Chemical, Dll. Adapun material yang dapat kami suply sebagai berikut : * PIPA : Carbon steel, Galvanis ( Welded & Seamless ) API 5L, A 106 Gr. B, A 53 Gr. A/ A 53 Gr. B, Gr.X 52 Size : ½ ” – 32” Spiral Welded Steel Line Pipe Size : ½ ” – 120” Stainless Steel Pipe SUS 304, 304L, 316, 316L Size : ½ ” – 24” Alloy Steel Pipe A333 Gr. 6, A335 P5, P11, P12 Tubing SS 316, 316L * Fitting : Elbow Tee Reducer Concentric & Eccentric Union Coupling Half Coupling Hex Plug Thredolet Weldolet Sokolet Dll Sch 10, 20, 30, 40, 60, 80, 120, 160 Class # 150, # 1000, # 2000, # 3000, # 6000 Carbon Steel : ASTM/ ASME SA234 WPB, WPC, WPL6, A 105 Alloy steel: ASTM/ ASME SA234 WP5, WP9, WP11, WP12, WP22, WP91 * Flange Weld neck Flange Slip On Flange Blind Flange Socket Weld Flange Lap Joint Class # 150, # 300, # 600, # 900, # 1500, # 2500, JIS 10K, PN 10, 16 Dll Matr’ ASTM A105 ASTM A182 304, 304L, 316, 316L ASTM A350 LF 2 * Valve Gate Valve Glove Valve Check Valve Ball Valve Butterfly Valve Knife Gate Valve Strayner Type : ANSI, JIS, PN Matr’ A 105, A216WCB, A 350 LF2, SS 304, 304L, 316, 316L Brand : Kitz, Tomoe, Toyo, GLT, James Bury * Steel Construction H – Beam IWF Steel Angle Assental Plate Channel U CNP Matr’ SS 400, A36, A 516 Gr. 70, SS 202, SS 304, 304L, SS316, 316L Pressure Vessel, Boiler Plate Dll RUBBER HOSE INDUSTRIAL, FLEXIBLE METALIC HOSE, HIDRAULIC HOSE, FLEXIBLE RUBBER HOSE, CAM LOCK, QUICK COUPLING, FIRE HOSE, DAN PRODUK-PRODUK STEEL DAN HARDWARE LAINNYA Untuk kepuasan client, kami PT. SINARDO PRATAMA memberikan pelayanan maksimal berupa pengiriman material untuk wilayah JABODETABEK dengan tepat waktu tanpa biaya tambahan, dan selalu siap melakukan Quality Test untuk semua produk yang ditawarkan serta dapat melengkapi Sertifikat produk yang di jual.

PT. SINARDO PRATAMA
Jl. Gunung Sahari Selatan 
Komp. Mega Glodok Kemayoran Lt. GF Blok A11 No.2
Kemayoran, Jakarta Pusat
Telp     : 021 2913 5143
Fax      : 021 2913 5744
Marketing: Togi Rahmad
Mobile : 082122129193
Email     togirahmad@yahoo.co.id
Marketing:Martha
Mobile  :081385590755
Email    marthamanalu71@gmail.com

 
  ","
              Jl. Gunung Sahari Selatan Komp. Mega Glodok Kemayoran Lt. GF Blok A10 No.11Kemayoran, Jakarta PusatMartha Hp : 081385590755Togi Hp : 082122129193 ",Jakarta Pusat,DKI Jakarta,+62 821-2212-9193,None,None
Nayakanaya Sumber Teknika,"
                                    PREMIUM GOLD
                                ",Kawat,"
              SPESIALIS – Pemasangan + Material Pagar Kawat Duri Rp 52.000, - / m1 Pagar Kawat Duri paling ekonomis dan sangat efektif memberikan perlindungan pada lingkungan property anda, seperti areal Pabrik, Pergudangan, Gedung Perkantoran, Kawasan Pertokoan, areal Perkebunan dari serangan hewan liar, dsb. Menyediakan dan Jasa Pemasangan berbagai macam Kawat Duri : Barbed Wire : Electrostatic Coated Galvanized & Hot Dipped Galvanized, Consertina Razor Wire : BTO-22, BTO-30, CBT-60 & CBT-65, danMaterial pelengkap lainnya ( Besi Siku, Clamp’ s, Bolt’ s, dsb) Menyediakan Desain standard, juga menerima desain yang diinginkan oleh pelanggan. Kualitas, Ketepatan Waktu & Murah Terjangkau adalah Prioritas kami dalam memberikan Pelayanan Terbaik Pada Pelanggan Kami Hubungi Kami : Telp. 021-4351570, HP. 0812 9846 8977 atau 0881 9938 274 (WA) E-mail : goenawansoegeng@yahoo.com  &  sugeng.gunawan74@gmail.com            ","
              JL Swasembada Barat XII, Kebon Bawang,  Tanjung Priok            ",Jakarta Utara,DKI Jakarta,+62 881-9938-274,None,None
Bumi Raya Electric,"
                                    PREMIUM GOLD
                                ",Kawat,"
Bumi Raya Electric adalah suplier dengan bisnis dasar di bidang Electrikal dan Mekanikal untuk Sambungan Rumah ( SR) / Tegangan Rendah ( TR) dan Tegangan Menengah ( TM) , Sambungan Udara/ Bawah tanah. Jointing / Sambungan Kabel, Terminating/ Terminasi/ Terminal, Insulating, Splicing, Heatshrink, Double Tape, Cable Accessories Dll.
Kami memiliki komitmen untuk selalu menjunjung tinggi kepuasan pelanggan dengan menyuplai barang-barang berkualitas, harga kompetitif dan waktu penyediaan yang cepat.Informasi Produk & Order Hubungi kami:BUMI RAYA ELECTRICOffice : Kenari JAYA Lantai. 1 No. 27 Jl. Salemba RayaPhone : 02131924055Mobile : 08569888727 // 081288559956 ( Call/WA)Email: bumiraya.electric@gmail.com ","
              Kenari JAYA Lantai. 1 No. 27 Jl. Salemba Raya            ",Jakarta Pusat,DKI Jakarta,+62 812-8855-9956,None,None
BAJA INDO PRIMA,"
                                    PREMIUM GOLD
                                ",Kawat,"
Selamat Datang di Website Toko Baja Indo Prima. Kami merupakan perusahaan yang berdiri sejak 2000 bergerak dalam industri Flange, Baut, Expanded Metal, Pipa, Reducer, Plat. Kami berada di Gedung Mega Glodok Kemayoran Jl. Angkasa Lt. GF No. A3-7.Temukan berbagai produk terbaik kami (Alat teknik, Flange, Fitting Besi, Pipa Besi, Valve, Plate Besi) dengan kualitas dan harga jual terbaik yang bisa Anda dapatkan.
Untuk Pemesanan Hubungi : 
Baja Indo Prima
Gedung Mega Glodok Kemayoran 
Jl. Angkasa Lt. GF No. A3-7.
No Tlp : 02129135969
HP : 081332630614
HP : 082225493941 ","
              Mega Glodok Kemayoran, Lantai GF Blok A 3 No 7 , Jl. Angkasa Kav. B6 - Jakarta PusatNo Tlp : 02129135969HP : 081332630614HP : 082225493941            ",Jakarta Pusat,DKI Jakarta,+62 813-3263-0614,None,None
