Name,Membership,Category,Description,Address,City,Province,telp1,telp2,telp3
PT Biruni Geo Pratama,"
                                    PREMIUM GOLD
                                ",Jasa Kalibrasi,"
Tahun 2007 kami memulai usaha dibidang penjualan alat survey dan pemetaan seperti GPS, Total Station, Theodolite,echo sunder, water pass, Laser distance meter dan alat pendukung lainnya seperti software dan peta digital. Tahun 2008 kami mulai ekspansi dengan memasarkan  teleskop dan binocular. Kami berusaha memberikan total solusi dibidang survey dan pemetaan, kami tidak hanya menjual dengan harga terbaik tetapi kami juga memberikan layanan support seperti konsultasi dan training pemakaian alat.
 
Didukung tenaga dibidang survey specialist ( Geodetic Engineer), kami berusaha memberikan solusi masalah-masalah teknis dibidang survey dan pemetaan. Karena membuat peta bukan sekedar menarik meteran tapi banyak sekali faktor-faktor yang perlu dipertimbangkan seperti  transformasi koordinat dan proyeksi.Saat ini kami juga melayani Jasa service, Kalibrasi dan rental alat survey dan Jasa Survey teristris dan pemetaan udara 
 
Visi dan Misi kami :
 


Menjadi mitra yang sinergi  bagi Perusahaan atau perorangan yang membutuhkan alat survey dan pemetaan.
Memajukan dunia survey dan pemetaan di Indonesia, dengan menyediakan alat yang bermutu dan didukung support teknis yang benar.
Mampu bersaing menghadapi era ekonomi global, dengan menjadi perusahaan yang bisa berskala nasional.


 
 
Apa kelebihan kami
 


Kami ditunjuk sebagai reseller resmi untuk memasarkan alat survey merk : Leica, Trimble, Nikon, Spectra,Topcon, Geomax.
Tahun 2009 kami ditunjuk authorized dealer untuk produk Teleskop dan binocular merk Celestron
Tahun 2012 kami ditunjuk sebagai authorized dealer untuk Produk GPS merk TOMTOM
Tahun 2016 kami ditunjuk untuk memasarkan Drone Merk DJI dan UAV Fixwing

 ","
              Mall WTC Matahari Serpong Lantai 2 blok S20 Tangerang
021- 53153871  021-7410545 Fax 021-7410064
Email : info@biruni.co.id  http://www.biruni.co.id
SMS/WA/Call : +6281298737575            ",Tangerang Selatan,Banten,+62 812-9873-7575,None,None
PT Mandala Geoteknika Mandiri,"
                                    PREMIUM GOLD
                                ",Jasa Kalibrasi,"



PT. MANDALA GEOTEKNIKA MANDIRI
 
Bermula dengan melihat peluang pembangunan dinegara kita Indonesia semakin meningkat dan juga atas upaya menngkatkan sumber daya manusia (SDM) menuju era perubahan menjadi negara maju maka PT. MANDALA GEOTEKNIKA MANDIRI sebelumnya yang memulai dengan mendirikan komanditer pada tanggal 29 Desember 2017 CV.MANDALA GEOTEKNIKA MANDIRI didirikan sesuai ketentuan yang berlaku dinegara Republik Indonesia dengan dasar akte pendirian Notaris Dudi Wahyudi ,SH No.32 tanggal 29 Desember 2017 di Kota Bandung. Kemudian adanya keluar masuk dan perubahan anggaran dasar maka CV. MANDALA GEOTEKNIKA MANDIRI merubah komanditer tersebut menjadi badan usaha yaitu PT. MANDALA GEOTEKNIKA MANDIRI pada tanggal 10 September 2019 sesuai ketentuan yang berlaku dinegara Republik Indonesia dengan dasar akte pendirian Notaris Dudi Wahyudi ,SH No.21 tanggal 10 September 2019 di Kabupaten Bandung Barat.
PT.MANDALA GEOTEKNIKA MANDIRI adalah suatu bentuk perusahaan untuk layanan dalam bidang Konsultan Jasa Survey Geologi dan Geofisika, Konsultan Jasa Desain Arsitek dan Perencanaan, General Supplier dan Industri yang dipersiapkan secara profesional dengan didukung tenaga-tenaga ahli dari berbagai disiplin ilmu yang mampu menghasilkan kualitas dan pelayanan terbaik yang dapat kami berikan.
Kepercayaan yang dibangun bersama klien-klien kami yakni kepercayaan akan kemampuan kinerja, kepercayaan dari pemberi tugas serta kepercayaan dari tim yang diharapkan akan mematangkan kami dalam bidang ini.






VISI & MISI

VISI PERUSAHAAN
Menjadikan perusahaan yang terkemuka dan dapat bermanfaat bagi masyarakat profesional tanah air dengan mengedepankan kemajuan teknologi yang terus berkembang.
MISI PERUSAHAAN

Membangun dan mengembangkan bisnis yang beretika dengan nilai-nilai kejujuran dan professional.
Melakukan inovasi teknologi berkelanjutan untuk menghasilkan pelayanan terbaik.
Mengembangkan kemampuan perusahaan dan masyarakat profesional untuk menjadikan tenaga ahli kompeten dalam menghadapi kompetisi global melalui penerapan ilmu pengetahuan.




 ","
              Cluster Selaras Blok E9            ",Bandung,Jawa Barat,085323639953,None,None
CV. JATIM TRONIK - Surabaya - Jawa Timur - Indonesia,"
PREMIUM BLUE ONYX
",Jasa Kalibrasi,"
CV. JATIM TRONIK, merupakan salah satu perusahaan Supplier Timbangan dan Perlengkapannya, dengan bidang-bidang usaha sebagai berikut : 1) Menjual Segala Jenis Timbangan Elektronik dan Timbangan Mekanik. 2) Menjual Timbangan Truk / Timbangan Jembatan, Timbangan Ternak, Timbangan Lantai (Platform), Timbangan Analytic, Timbangan Duduk, Timbangan Portable, Timbangan Pocket. 3) Menjual Indicator, Load Cell, Weighing System ( Hopper, Batching, dan Bagging). 4) Menjual Accessories Timbangan, Personal Computer, Software Timbangan Jembatan, Printer. 5) Menerima Service, Reparasi, Instalasi, Modifikasi Segala Jenis / Merk Timbangan. 6) Melayani Konsultasi Permasalahan Timbangan dan Perlengkapannya. 7) Fabrikasi Konstruksi Timbangan, Pembuatan Pondasi Timbangan, dan Rumah Timbangan. 8) Melayani Jasa Tera Baru dan Tera Ulang,  Jasa Kalibrasi, Sertifikasi UTTP (Ukuran Takaran Timbangan dan Perlengkapannya) ","
              Jl. Raya Merak No.53 Rewwin Waru            ",Surabaya - Sidoarjo,Jawa Timur,+62 856-0856-2121,+62 813-3090-9696,None
