Name,Membership,Category,Description,Address,City,Province,telp1,telp2,telp3
CV. JAYA MAKMUR ABADI,"
PREMIUM RUBY
",Baja,"
CV. Jaya Makmur Abadi, perusahaan yang bergerak dibidang perdagangan umum Material Konstruksi & material lainnya, dan telah berpengalaman lebih dari 10 Tahun. 
Berdiri sejak Tahun 2005 dengan nama Jaya Makmur Abadi, dan diresmikan pada tahun 2010 oleh notaris Edward Agustin menjadi CV. Jaya Makmur Abadi. 
CV. Jaya Makmur Abadi bekerja sama dengan beberapa Pabrik & Distributor Material dan hingga kini sudah melayani lebih dari 900 pelanggan, yang terdiri dari pelanggan pribadi/perusahaan baik dari dalam & luar daerah di Indonesia. 
 
Visi & Misi : 


Menciptakan sistem perusahaan yang sistematis & fleksibel dalam hal pelayanan.
Menciptakan lapangan kerja & Sumber daya Manusia yang terampil, profesional& handal. 
Menciptakan pelayanan & kerjasama yang berkesinambungan dengan pelanggan.
Menjadi perusahaan multinasional yang dapat memberi sumbangsih terhadap perekonomian di Indonesia. 

CV. Jaya Makmur Abadi.General Supplier & Trading : Besi Beton & Baja. Rangka Baja Ringan & Atapnya.Aluminium Kusen Pintu & Jendela.Plywood & Kayu lainnya.Pipa Paralon & Pipa Lainnya. 
Keramik & Granit.Perlengkapan Sanitary. Aksesories Pintu & Jendela.
Segala jenis Kaca Bangunan.Aluminium Composite Panel.Kawat Baja & Besi. 
Karpet Import & VINYL. Kusen, Pintu & Jendela Kayu. Windows Fashion.Mekanikal Elektrikal.Meubelair Kantor & Sekolah.
Pipa HDPE.Pipa Air Panas.HPL.Cat.Pipa Gorong-Gorong.Plat Kapal.Dll.
Untuk melengkapi kebutuhan pelanggan, kami juga menyediakan Jasa Kontraktor, Jasa Arsitek & Jasa Konsultan.
Untuk informasi lebih jelas, dapat menghubungi Marketing kami.
Terima kasih. www.jayamakmurabadi.co.id
CV. Jaya Makmur Abadi 
Jl. Brigjend Katamso No. 2 Samarinda. Kalimantan Timur 75117.Telp : 0541-7802915Fax. : 0541-766315Email : sales@jayamakmurabadi.co.id
 

 
 ","
              Head Office :Jl. Brigjend Katamso No. 2. Samarinda. Kalimantan Timur ",Samarinda ,Kalimantan Timur,+62 823-5215-3244,+62 813-4942-8940,+62 852-4900-5619
PT. ASIA TEKNIK KREASINDO,"
                                    PREMIUM GOLD
                                ",Baja,"
Kami Bergerak dibidang kebutuhan industri specialis hydraulic, Pneumatic dan General Supplier. Produk Kami : * Hydraulic Hose * Industrial Hose * Pneumatic Part * Hydraulic Part  Dengan harga terbaik dikelasnya, produk berkualitas dan berGARANSI, memberikan solusi dan masukan untuk setiap permasalahan dibidangnya dengan teknikal support ahli dibidangnya. ","
              Jl. Gatot Subroto KM.2 No.23 ( Depan Ruko Harmoni Cimone ) Kel.Cimone Kec.Karawaci, Tangerang - Banten - Indonesia             ",TANGERANG,Banten,085776189919,+81 29-292-8585,081911193393
JAYA PUTRA AL FARISI,"
                                    PREMIUM GOLD
                                ",Baja,"
              jaya putra al farisi adalah home industri yg bergerak di bidang pengrajin logam dan pengecoran logam seperti alumunium, kuningan, tembaga dll, hasil produksi yang sudah pernah : alat-alat scaffolding ( jack base, u head dll) , alat-alat perkapalan( jendela kapal, jangkar kapal) asessoris motor ( behel, foostep, racer, bracket, frame sliider) , alat-alat listrik ( arde, penangkal petir dll) , keperluan mebel seperti kaki sofa atau kaki rotan, menerima order dalam jumlah skala kecil ataupun besar dan menerima order barang sesuai dengan permintaan buyer.            ","
              jalan raya kajen rt:1 rw:1 no: 1            ",tegal,Jawa Tengah,+62 856-8683-354,None,None
TEKAD MAKMUR,"
PREMIUM RUBY
",Baja,"
              TEKAD MAKMUR adalah salah satu divisi dari TEKAD GROUP yang berdiri sejak 1963 di Jawa Barat-BandungKami telah dipercaya oleh IMPORTIR, PRODUSEN, SUPPLIER terkemuka untuk menjadi AGEN RESMI sehingga HARGA dan KUALITAS yang ditawarkan adalah yang TERBAIK. Dengan berpedoman pada motto kami yaitu TERLENGKAP TERMURAH & TERCEPAT kami telah dipercaya untuk menjadi rekanan BANYAK PERUSAHAAN TERNAMA di antaranya : (1) KAHATEX(2) Kurnia(3) PINDAD(4) Dirgantara Indonesia(5) PJKA(6) Insan Sandang(7) RAGAM JAYA(8) Sipatex(9) KIATEX(10) Joantex(11) ASKALIA(12) Vonex(13) BENTARA(14) Sinar Agung(15) JUPATEX(16) Ligar(17) TINGGAL JAYA(18) Karya Mulia(19) BUDIANA(20) Lumajang(21) SARANA TEKNIK(22) Celebit(23) FESTIVAL CITY LINK(24) Teknik Mandiri Citra(25) Grandtex(26) Badjatex(27) BINTANG AGUNGMerupakan suatu KEHORMATAN & KEBANGGAAN untuk segera BERMITRA DENGAN ANDA. SALAM SUKSES SELALU.Hormat kamiSeluruh Team Tekad Makmuremail : tmakmur06@yahoo.com.            ","
              Komplek Cikapundung Electronic Centre Los EE10&EE41            ",Bandung,Jawa Barat,+62 813-1202-4373,None,None
PT. Bintang Makmur Wiramandiri,"
PREMIUM RUBY
",Baja,"
PT. BINTANG MAKMUR WIRAMANDIRIAdalah perusahaan yang bergerak di bidang Jasa Kontraktor dan PerdaganganJasa Kontraktor meluputi Jasa Sipil (Renovasi dan New Building Hotel, Rumah, Kantor, Apartemen dan lainya)Jasa Non Sipil/Fabrikasi (Pembuatan Conveyor semua tipe Conveyor) dan Jasa Maitenance Mesin skup factory maupun office. Sedangkan untuk Bidang PerdaganganMeliputi Perdagangan Cutting Tools, seperti Pisau Bubut, Milling, Matabor, Endmill, Bearing dan lainyaPT. Bintang Makmur Mandiri Menyediakan juga mesin - mesin untuk kebutuhan Melting Furnace/Mesin Peleburan Aluminium dan menyediakan barang - barang kebutuhan sparepart mesinyang berhubungan dengan melting furnace. Pemegang Brand tunggal Strikowestofen German# mesin tungku peleburan aluminium, wadah peleburan ","
              Jl. Raya Setu No.147 Cibitung Bekasi            ",Bekasi,Jawa Barat,+62 813-1758-9536,None,None
HISTEEL,"
                                    PREMIUM GOLD
                                ",Baja,"
Histeel salah satu bisnis PT. Hijrah Insan Karima yang bergerak di bidang distribusi dan perdagangan besi beton, baja, baja ringan dan tools beserta aksesorisnya.Kami menyediakan beberapa kebutuhan bahan bangunan di antaranya : Baja, Baja ringan, Wiremesh, Cakar ayam, Ring besi, Profil baja, CNP, Hollow besi hitam, Hollow galvanis, pipa hitam, pipa galvanis, plat acer, plat bordes, plat strip Siku besi, Siku lubang, UNP, Atap, Atap metal pasir, Polycharbonate, Atap zincalume/Spendek, Floordeck, Pagar BRC, Aksesoris bangunan, Safety equitment, Safety shoes, Body protection, Eye protection, Besi beton.Macam-macam besi beton :
1. Besi polos kami memiliki ukuran mulai dari : Besi Beton Polos 6mm, Besi Beton Polos 8mm, Besi Beton Polos 10mm, Besi Beton Polos 12mm, Besi Beton Polos 16mm, Besi Beton Polos 19mm, Besi Beton Polos 22mm, Besi Beton Polos 25mm.
2. Sedangkan Besi ulir memiliki ukuran mulai dari : Besi Beton Ulir 10mm TS35, Besi Beton Ulir 10mm TS40, Besi Beton Ulir 13mm TS35, Besi Beton Ulir 13mm TS40, Besi Beton Ulir 16mm TS35, Besi Beton Ulir 16mm TS40, Besi Beton Ulir 19mm TS35, Besi Beton Ulir 19mm TS40, Besi Beton Ulir 22mm TS35, Besi Beton Ulir 22mm TS40, Besi Beton Ulir 25mm TS35, Besi Beton Ulir 25mm TS40.

Visi :
Menjadi pusat penjualan besi beton, baja, baja ringan dan tools yang kuat dan berkomitmen di Nusantara. ( Company with Strength and Commitment )
Misi :
1. Memiliki sistem yang comprehensive dan baik.
2. Menjaga dan membina hubungan yang baik dengan para stake holder
3. Membangun serta menjaga nama Histeel.
4. Berorientasi pasar dalam persaingan.
5. Mudah dijangkau oleh customer diseluruh Nusantara.
 
Head Office :
Bekasi
021 - 822 7222 
Branch Office :
Jakarta     
021 - 8490 3377 / 88 / 99
Tangerang
021 - 741 2323
Bogor
021 - 8792 7700 / 7800
Karawang
0267 - 849 0505 / 0606
Cirebon
0231 - 8333 100
Surabaya
031 - 7530 666 / 777 ","
              Jl. Wibawa Mukti No. 69 , Jatiasih, Bekasi, Jawa Barat, Indonesia            ",Bekasi,Jawa Barat,+62 812-9111-3330,None,None
PT DAVINDO JAYA SAKTI,"
                                    PREMIUM GOLD
                                ",Baja,"
Website : www.sandblasting.co.id
PT. DAVINDO JAYA SAKTI sebagai anak perusahaan dari HARSA GROUP yang telah exsis selama 29 tahun, telah menjadi pionir dalam bidang Sandblasting dan Painting ( Corrosion Control) .
Kami telah melayani berbagai perusahaan perusahaan dalam skala nasional maupun internasional yang tersebar hampir di seluruh kawasan Indonesia.
PT. DAVINDO JAYA SAKTI didirikan sejak tahun 1997, pada awalnya kami hanya bergerak dalam bidang insulasi dan waterproofing, maka sejak tahun 2000, kami sudah merambah ke bidang Sandblasting dan painting.
 
Hubungi Kami :
Mr. Robert Saputra Phone : 081317143767
Email :robert@sandblasting.co.id
Whatsapp : 081317143767
 
WORKSHOP : Jl. Cempaka no. 88 Tambun - Bekasi Timur
 
Klik link dibawah ini untuk lebih jelas :
sandblasting.co.id ","
              Jl. Cempaka no. 88 Tambun Bekasi Tmur            ",Bekasi,Jawa Barat,+81 3-1714-3767,None,None
PT. Mandiri Niagamas Cemerlang,"
                                    PREMIUM GOLD
                                ",Baja,"
PT. MANDIRI NIAGAMAS CEMERLANG adalah perusahan penyedia alat kebutuhan industri seperti :
 1. Gland Packing 2. Sheet Packing 3. Rubber Packing 4. Conveyor Belt 5. Industrial Machine 6. Machining 7. Heat Insulation 8. Rubber Lining 9. Casting 10. Mechanical Seal 11. Manufacturing 12. Elastomer Bearing Pad 13. Chemical Coal Additive 14. Heater Element 15. Pallet Kayu 16. Coarse River Aggregate ( Kerikil ) 17. Rubber Fender 18. Pressure Gauge 19. Vibrator 20. Valve 21. Handling Equipment 22. Bearing 23. Clutches & Breakes 24. Universal Joint & Cardan Shaft 25. Conveyor Chains 26. Chains 27. Pulley 28. Coupling 29. Gearbox & Wormgear 30. Gearmotor 31. Electric Motor 32. Control System 33. Hose 34. Slitter 35. Roll Conveyor 36. Pulley Conveyor 37. Pneumatic 38. HydraulicKami berkomitmen untuk memberikan pelayanan terbaik kepada semua klient kami dari setiap produk yang kami tawarkan.Contact Us :PT. MANDIRI NIAGAMAS CEMERLANGOffice     : Jl. Raya Cikarang - Cibarusah No 27, Lippo Cikarang – BekasiPhone     : 021 - 8990 0912Fax       : 021 – 8990 0912         Mobile    : 0812 8132 3388 // 0877 8913 6128Whatsapp : 0877 8913 6128Email     : mandiriniagamascemerlang@gmail.com ","
              Jl. Raya Cikarang - Cibarusah No. 27 , Lippo Cikarang - Bekasi            ",Bekasi,Jawa Barat,+62 877-8913-6128,None,None
PT. DEWANTARA CAHAYA SEJATI,"
                                    PREMIUM GOLD
                                ",Baja,"
 "" PT. DEWANTARA CAHAYA SEJATI ""
Adalah sebuah perusahaan yang menjual material baja stainless steel, Aluminium Alloy, Copper Alloy, Steel Alloy, Titanium, Bronze Alloy, Cast Iron dan Industri pengecoran logam khususnya Bronze, Phospor Bronze, Leaded Bronze, Aluminium Nickel Bronze, Mangan Bronze Dll 
Adapun Material baja yang kami miliki sengaja kami datangkan dari berbagai macam negara yang memiliki kualifikasi dan kualitas Sebagai produsen baja kelas dunia, diantara nya dari negara USA, France, German, Finlandia, UK, Japan, Swedia, Belgium, Italy, Spanyol DLL.
Jenis material baja yang kami supply diantaranya adalah sebagai berikut :
1. ALUMINIUM ALLOY 
    - ALUMINIUM DURAL AA 7075 T651, AA 7050 T651, 
      AA 2024 T4, AA 2011, AA 2017
    - ALUMINIUM MARINE GRADE AA 6061 T651, AA 6082 T651
    - ALUMINIUM MARINE GRADE AA 5083, AA 5052
    - ALUMINIUM PRODAX 
    - ALUMOLD  
2.  COPPER ALLOY


LEAD BRONZE


ALUMINIUM BRONZE 


PHOSPOR BRONZE 


TIN BRONZE


MANGAN BRONZE


SILICON BRONZE 


CZ5 (CuCrZr ) 


BERYLLIUM COPPER 


COPPER NICKEL 


ADMIRALTY BRASS 


BRASS ALLOY


NAVAL BRASS


3. STAINLESS STEEL


MONEL 


INCONEL


INCOLOY 


HASTELLOY


DUPLEX


SUPER DUPLEX 


HEAT RESISTENCE GRADE


WEAR RESISTENCE GRADE


FOOD GRADE


CHEMICAL GRADE 


 4.  STEEL ALLOY


MACHINERY STEEL




CARBON STEEL 




WEAR PLATE 


5. HYDROLIC AND CYLINDER MATERIAL 


HARD CHROMIUM PISTON RODS


HONING SEAMLESS STEEL PIPE 


6. TITANIUM 


TITANIUM GR.1, GR.2, GR.3, GR.4, GR.5      


7.  HOLLOW BAR


HOLLOW BAR STAINLESS STEEL


HOLLOW BAR STEEL ALLOY 


HOLLOW BAR BRONZE ALLOY


HOLLOW BAR ALUMINIUM ALLOY


8.   PENGECORAN LOGAM BRONZE :


ALUMINIUM BRONZE 


PHOSPOR BRONZE


TIN BRONZE


MANGAN BRONZE


SILICON BRONZE 


LEAD BRONZE


BRASS 


 

  ","
              Bekasi Office : JL. Sirojol Munir Woodhill Residence Blok B No.3 Pedurenan Jatiluhur Jatiasih Bekasi  Telp 021-22875852, FAX : 021-29068110 Surabaya Office :Jl. Raya Cemeng Bakalan No.401 Telp 085100657319             ",Bekasi,Jawa Barat,+62 815-8542-0409,None,None
PD RAVIBORDIR Indramayu ,"
                                    PREMIUM GOLD
                                ",Baja,"
PD RAVI BORDIR Adalah perusahaan satu-satunya yg ada di kabupaten Indramayu JAWABARAT. Yang sudah terkenal dengan hasil kwalitas dan ketepatan produksi, juga desain nya. kami sudah berjalan SEJAK tahun 1998. Kami adalah perusahaan yg bergerak dalam bidang produksi & penjualan secara langsung DI TOKO KAMI , maupun ON LINE secara BISNIS. Bidang kami Dalam pembuatan perlengkapan TNI.POLISI.POLPP.DISHUB.SECURITY SEKOLAH PASKIBRA mulai dari Topi. Jaket. Rompi. Kaos. Tas/ ransel. Sepatu PDL/ PDH. Wearpakc. Kemeja. Training. Helm. Logam Gantungan Kuci. Jam Dinding, juga menerima Pembuatan Jas.Jasket. Tenda Pramuka. Tenda Dome. Tenda Kerucut. BORDIR LOGO SEKOLAH Dinas Organisasi. DLLFB : Ravibordir IndramayuPD Ravi BordirIndramayu Jawa barat HP wa 081 324 73 1399 Hp wa 0857 2016 8603 ","
              JL. SILIWANGI (PINTU MASUK BTN PAOMAN ASRI no 60)KEC/Kab. INDRAMAYU kode Pos 45212 Jawa barat IndonesiaHp wa  081324731399 - 085720168603 dekat 500 meteran dekat dengan kantor Bupati Indramayu Jawa barat            ",INDRAMAYU - JAWABARAT INDONESIA. ,Jawa Barat,+62 813-2473-1399,None,None
CV.GISMA CAHAYA ANUGRAH,"
                                    PREMIUM GOLD
                                ",Baja,"
Dari pengalaman lama memahami akan kebutuhan industri di industri di Indonesia, Membuat kami tergerak untuk membantu dan terjun secara langsung dalam memenuhi kebutuhan industri Pagar BRC & Industri pada perusahaan, agar dapat meringankan dan menjadikan mudah dalam memenuhi kebutuhan industri dalam perusahaan Anda. Kami telah menjalin hubungan kuat denagan para produsen, importir, Pabrik, Distributor besar, di Indonesia sehingga dengan mudah dapat memberikan penawaran yang terbaik untuk Anda. Kami hadir dan siap menjadi mitra Anda dalam segala kebutuhan industri Anda demi perkembangandan kemajuan perusahaan Anda.klik my WEB SITE :   https://www.jualpagarbrc.web.idContact Person :CV.GISMA CAHAYA ANUGRAHJl. Raya Masjid RBC No. 88C Kec. Jati Rahayu, Kel. Pondok Melati, Bekasi Kota, Bekasi - Jawa Barat
Telp,   : 021-85521713Mobile : 085210493522 / 08811770390 wA
Email  : gismacahaya@yahoo.com ","
              Jl. Raya Masjid RBC No. 88C Kec. Jati Rahayu, Kel. Pondok Melati, Bekasi Kota, Bekasi - Jawa Barat            ",BEKASI,Jawa Barat,08811770390,+62 852-1049-3522,None
"DUA PUTRA PETIR, CV Telp. 0859-9805-8351 , 0898-3518-351 , 0821-3355-5559 , 0813-1845-5559","
PREMIUM RUBY
",Baja,"
BISMILLAHIRROHMANIRROHIIM....CV. DUA PUTRA PETIR (Your Steel Partner) Distributor berbagai Merek Polycarbonate bergaransi 5-10 tahun yang dilengkapi Double Side UV Protected, diantaranya :1. Solar Flat Clear / Colour Plain / Embosed.2. Solar Tuff Roma / Greeca.3. X TUFF Roma dan Greeca (Colour / Clear).4. X Lite.5. SOLITE.6. Twinlite.7. Lexan.8. POLYBOARD.9. Sealent Neutral (Lem PolyCarbonate).10. Sealent Acetic (Lem PolyCarbonate).11. JASA PEMBUATAN CANOPY / PAGAR Sesuai Permintaan.HARGA DIJAMIN MURAH Untuk Info Lebih Lanjut Menghubungi,Demikian Penawaran dari kami, besar harapan kami untuk bisa bekerjasama dengan Anda dengan memberikan pelayanan yang terbaik penjelasan ringkas. Kami juga Bergerak dibidang trading Besi dan Baja dan alat-alat teknik, memiliki pengalaman yang mumpuni lebih dari 10 Tahun, link dan akses bisnis yang luas menjadikan kami harus terus berinovasi, salah satu melalui Bisnis Online seperti ini adapun produk-produk unggulan kami adalah :1. Carbon Steel Bars (Besi / Galvanis / Stainless Steel)• Besi Beton Polos (Plain Bars) • Besi Beton Ulir (Deformed Bars) • Besi As (Round Bars) Eq St. 41 • Besi As (Round Bars) Eq St. 60, St. 70, St. 90 • As Besi Segi Empat (Square Bars / Vierkan) • As Besi Segi Enam (Hexagonal Bars) (Besi / Galvanis / Stainless Steel) • Silver Steel-Hollow Bars-Tool Steel • Strep Besi (Flat Bars) • Band Eyzer (Strapping band Plates).2. Carbon Steel Pipes (Besi / Galvanis / Stainless Steel)• Pipa Baja Hitam (Black Steel Pipes) • Pipa Air / Galvanis (Galvanized Pipes) • Pipa Seamless (Seamless Pipes) ASTM A 53 / A 106 / API 5 L • Pipa Pancang (ERW Pipes) ASTM A 252 • Pipa Konstruksi STK-400 (Besi / Galvanis / Stainless Steel) • Pipa Perabot (Stalbuist Pipes) • Pipa Kotak (Rectangular & Square Pipes).3. Carbon Steel Plates (Besi / Galvanis / Stainless Steel)• Plat Besi Hitam (Hot Rolled Coil / Sheet) JIS SPHC / JIS SS400 / ASTM A36 • Plat Kapal (Ship Building Plate BKI) • Plat Besi Putih (Cold Rolled Coil / Sheet) JIS SPCC • Plat Bordes (Checkered Plate) • Plat Lubang (Perforated Plate) • Plat Tahan Gesek (Wear-Resistance Plate) • Plat Galvanil (Galvaneal) • Plat Galvanis (Galvanized) • Expanded Metal.4. Carbon Steel Profiles (Besi / Galvanis / Stainless Steel)• Siku Besi (Angle Bars) • Kanal UNP (U-Channel) • Kanal CNP (Lip-Channel) • (Besi / Galvanis / Stainless Steel) • H-Beam I-Beam WF-Beam (Besi / Galvanis / Stainless Steel) • Honey Comb • Plate Grating Galvanis • Kawat Bronjong • Plat Galvanis • Siku Galvanis • Gabion • Kawat Bronjong SNI, Straping Band, Plat Timah, dan masih banyak lagi produk-produk kami, segala macam jenis besi dan baja siap membantu bekerjasama dengan semua pelanggan baik dalam kota maupun luar kota atau bahkan luar pulau dan luar negeri. Terimakasih banyak.
 Hormat Kami,Herry Gusmara, S.Sos DirekturHP : 08599.805.8351 (BOS BESI) / 089.8351.8351 (BESI BESI)WA : 082133.555.559 / 081318.455.559 Email : duaputrapetir@gmail.comD/A : Bukit Plama C5/ 33 Citraland Utara SurabayaOur Website :• www.besi123.com• www.besisurabaya.com
• www.duaputrapetir.co.id• www.pusatbajaindonesia.com
• www.tokobangunansurabaya.com• www.jualbesibajasurabaya.indonetwork.co.id ","
              • Head Ofice : Bukit Palma C5/33 Citraland Utara Kec. Pakal Kota Surabaya Barat (Sememi - Benowo)• Phone : 0821-3355-5559 (Call/WhatsApp)            ",SURABAYA,Jawa Timur,+62 821-3355-5559,+62 813-1845-5559,None
DUA PUTRA PETIR ,"
PREMIUM RUBY
",Baja,"
BISMILLAHIRROHMANIRROHIIM....
 
CV. DUA PUTRA PETIR ( Your Steel Pertner ) Distributor berbagai merek polycarbonate bergaransi 5-10 tahun yang dilengkapi Double Side UV protected 
1. Solar Flat Clear / Colour Plain / Embosed 
2. Solar Tuff Roma / Greeca 
3. X TUFF Roma dan Greeca ( Colour / Clear ) 
4. X Lite 
5. SOLITE 
6. Twinlite 
7. Lexan 
8. POLYBOARD 
9. Sealent Neutral ( Lem PolyCarbonate ) 
10. Sealent Acetic ( Lem PolyCarbonate ) 
11. JASA PEMBUATAN CANOPY / PAGAR Sesuai permintaan 
 
HARGA DIJAMIN MURAH Untuk Info Lebih Lanjut Menghubungi :  
Hp.08599.805.8351 ( BOS BESI ) 
Hp.089.8351.8351   ( BESI BESI )
Email : duaputrapetir@gmail.com 
 
Demikian Penawaran dari kami, besar harapan kami untuk bisa bekerjasama dengan anda dengan memberikan pelayanan yang terbaik penjelasan ringkas Kami juga Bergerak dibidang trading besi dan baja dan alat-alat teknik, memiliki pengalaman yang mumpuni lebih dari 10 tahun, link dan akses bisnis yang luas menjadikan kami harus terus ber inovasi, salah satu melalui bisnis online seperti ini adapun produk-produk unggulan kami adalah :
 
1.Carbon Steel Bars ( besi/ galvanis/ Stainless Steel ) 
• Besi Beton Polos ( Plain Bars) • Besi Beton Ulir ( Deformed Bars) • Besi As ( Round Bars) Eq St.41 • Besi As ( Round Bars) Eq St.60, St.70, St.90 • As Besi Segi Empat ( Square Bars / Vierkan) • As Besi Segi Enam ( Hexagonal Bars) ( besi/ galvanis/ Stainless Steel ) • Silver Steel-Hollow Bars-Tool Steel • Strep Besi ( Flat Bars) • Band Eyzer ( Strapping band Plates) 
 
2. Carbon Steel Pipes ( besi/ galvanis/ Stainless Steel ) 
• Pipa Baja Hitam ( Black Steel Pipes) • Pipa Air / Galvanis ( Galvanized Pipes) • Pipa Seamless ( Seamless Pipes) ASTM A 53 / A 106 / API 5 L • Pipa Pancang ( ERW Pipes) ASTM A 252 • Pipa Konstruksi STK-400 ( besi/ galvanis/ Stainless Steel ) • Pipa Perabot ( Stalbuist Pipes) • Pipa Kotak ( Rectangular & Square Pipes) 
 
3. Carbon Steel Plates ( besi/ galvanis/ Stainless Steel ) 
• Plat Besi Hitam ( Hot Rolled Coil/ Sheet) JIS SPHC/ JIS SS400/ ASTM A36 • Plat Kapal ( Ship Building Plate BKI) • Plat Besi Putih ( Cold Rolled Coil/ Sheet) JIS SPCC • Plat Bordes ( Checkered Plate) • Plat Lubang ( Perforated Plate) • Plat Tahan Gesek ( Wear-Resistance Plate) • Plat Galvanil ( Galvaneal) • Plat Galvanis ( Galvanized) • Expanded Metal 
 
4. Carbon Steel Profiles ( besi/ galvanis/ Stainless Steel ) 
• Siku Besi ( Angle Bars) • Kanal UNP ( U-Channel) • Kanal CNP ( Lip-Channel) ( besi/ galvanis/ Stainless Steel ) • H-Beam I-Beam WF-Beam ( besi/ galvanis/ Stainless Steel ) - Honey Comb - Plate Grating Galvanis -kawat bronjong -plat galvanis -siku galvanis -gabion -kawat bronjong sni , straping band , plat timah , dan masih banyak lagi produk-produk kami, segala macam jenis besi dan baja siap membantu bekerjasama dengan semua pelanggan baik dalam kota maupun luar kota atau bahkan luar pulau dan luar negeri. terimakasih banyak.
 
Hormat Kami
 
Herry Gusmara
Direktur
Telp. : 031-7407380
Fax : 031-7417127 
HP : 0821-33555559 / 08599-8058351
Email : duaputrapetir@gmail.com 
D/A : Bukit Plama C5/ 33 Citraland Utara Surabaya
 
Website :
www.duaputrapetir.co.id
www.besisurabaya.com
www.tokobangunansurabaya.com
www.pusatbajaindonesia.com
www.jualbesibajasurabaya.indonetwork.co.id
www.besi123.com ","
              bukit palma C5/33 Citraland Utara Kec.pakal Kota Surabaya Barat( Sememi Benowo )            ",Surabaya,Jawa Timur,+62 821-3355-5559,+62 813-1845-5559,None
BETA CONSTRUCTION SURABAYA,"
PREMIUM RUBY
",Baja,"
Selamat datang di situs BENGKEL LAS konstruksi baja surabaya. Kami bergerak di bidang pengelasan yang mencakup berbagai pekerjaan seperti pembuatan kuda-kuda WF, pagar, teralis, kanopi, railing tangga, balkon, tangga putar, pintu harmonika, rollingdoor, dll. Kami siap di panggil kapanpun anda membutuhkan kami.
Kami hadir di tengah–tengah anda untuk membantu kesulitan anda. Serahkan pengerjaan besi untuk bangunan Anda pada kami. Kami bersedia datang ke tempat anda untuk mendiskusikan desain yang anda inginkan. Anda dapat memilih produk dari ratusan ‘items’ yang tersedia pada katalog kami, atau mendesain sendiri model unik khusus untuk anda. Dijamin tidak kecewa karena kami adalah ahlinya.
KONSTRUKSI BAJA SUARABAYA Merupakan Perusahaan Jasa dalam bidang Konstruksi Baja , Konstruksi Baja WF, Baja WF, Konstruksi Baja Ringan, mekanik dan electrical gedung , Silo, Listrik dan Telekomunikasi , Rolling Grill, Pintu otomatis / Automatic Door System , Barrier Gate System , Pagar Otomatis / Arm Gate System dan lain-lain yang didukung oleh SDM terlatih dan berpengalaman.
Penanganan yang cepat dan akurat karena ketersediaan tenaga ahli dengan jumlah yang memadai dan berpengalaman sehingga mendapatkan hasil yang sesuai dengan target dan berkualitas.
Beberapa lingkup kerja kami meliputi
Konstruksi Baja Untuk : – Gudang / Pabrik – Gedung Bertingkat – Gedung Olah Raga / Futsal – Hoist – Girder – Dll.
Konstruksi Baja Ringan :  – Atap baja ringan/truss – galvalum – Canopy – Pagar Besi – Pintu Harmonika – Rolling Door, Rolling grile, Rolling Porporate, Dll
BUILDING MECHANICAL & ELECTRICAL – Electrical Wire Rope Hoist – Lift – Access System – dll
Mechanical Electrical : – Pintu Otomatis ( automatic Door System ) – Pintu Garasi / Pintu Pagar Otomatis ( Arm Gate System ) – Pintu Palang Parkir Otomatis ( Barrier Gate System )
Hormat KamiDirekturBETA CONSTRUCTION
“KONTRUKSI BAJA, FLOORDECKING / BONDEK, PINTU GERBANG PABRIK (AUTOMATIC GATE), PAGAR BESI, KANOPI, PINTU PLAT / STEEL DOOR / FIREDOOR, TANGGA PUTAR, RAILLING TANGGA, PINTU HARMONIKA, ROLLING DOOR, RANGKA ATAP BAJA RINGAN ” ","
              Jl. H. Syukur VI Kavling A   Sedati Gede - Sedati            ",Sidoarjo,Jawa Timur,+62 821-3290-9999,None,None
CV Catur Jaya Atap,"
PREMIUM RUBY
",Baja,"
              CV CATUR JAYA ATAP merupakan perusahaan yang bergerak dibidang produksi barang sebagai berikut:1. Pagar BRC2. Tiang pagar BRC3. Pintu swing tunggal/ganda4. Pintu dorong5. Spandek6. Kanal-C7. Reng8. Hollow 2x4 dan 4x49. Wall angelSelain produk diatas kami juga begerak di bidang trading dan supplier besi dan baja dengan produk sebagai berikut:1. WF, IWF, H-BEAM2. UNP3. CNP4. Siku5. Plat polos 6. Plat bordes7. Plat kapal8. Beton eser9. Plat strip10. Pipa gas11. Pipa air12. Hollow galvanis13. Kawat harmonika14. kawat duri dan kawat siletKepuasan customer adalah prioritas kami            ","
              Jl Putra Bangsa Anggaswangi Sukodono Sidoarjo            ",Surabaya,Jawa Timur,+82 33-806-5412,None,None
CV Aneka Steel Teknik,"
PREMIUM RUBY
",Baja,"
Kami merupakan Distributor Besi Surabaya, Distributor Baja Ringan Surabaya dan Toko Besi Surabaya Murah dan Terpercaya.Dengan pengalaman lebih dari 15 Tahun dan memiliki Link Akses Bisnis yang luas menjadikan kami lebih percaya diri untuk melayani anda.Kami menyediakan berbagai macam kebutuhan materials, seperti keperluan konstruksi bangunan, konstruksi perumahan, konstruksi infrastuktur pembangunan daerah, karoseri automotive, high rise building, keperluan industri - industri, struktur rangka atap baja ringan.
Adapun Produk-Produk Kami Adalah :
1. Carbon Steel Bars ( Besi/ Galvanis/ Stainless Steel ) 
 • Besi Beton Polos ( Plain Bars) SNI U24 
 • Besi Beton Ulir ( Deformed Bars) SNI U35, U40, U50 
 • Besi As ( Round Bars) Eq St.41, St.60, St.70, St.90 
 • Besi As Segi Empat ( Square Bars / Vierkan) 
 • Besi As Segi Enam ( Hexagonal Bars) 
 • Besi Strip ( Flat Bars)
 • Band Eyzer ( Strapping Band Plates)
 
2. Carbon Steel Pipes ( Besi/ Galvanis/ Stainless Steel ) 
  • Pipa Hitam ( Black Steel Pipes) 
 • Pipa Air / Galvanis ( Galvanized Pipes) 
 • Pipa Seamless ( Seamless Pipes) Schedule ( Sch) 40 , 80, 160 
 • Pipa Boiler
 • Pipa Kotak ( Rectangular & Square Pipes)
 • Aksesoris dan Fitting Pipa ( SGP , SCh 40 , SCH 80 , Galvanized )
 
3. Carbon Steel Plates ( Besi/ Galvanis/ Stainless Steel ) 
 • Plat Hitam ( Hot Rolled Coil/ Sheet) Jis Sphc/ Jis Ss400/ Astm A36 
 • Plat Kapal ( Ship Building Plate Bki) 
 • Plat Putih ( Cold Rolled Coil/ Sheet) Jis Spcc 
 • Plat Bordes ( Checkered Plate) 
 • Plat Tembaga
 • Plat Aluminium 
 • Plat Galvanil ( Galvaneal) 
 • Plat Galvanis ( Galvanized) 
 • Plat Stainless Steel ( Type 201, 304, 316 )
 • Plat Lubang ( Perforated Plate )
 • Plat Expanded Metal
 
4. Carbon Steel Profiles ( Besi/ Galvanis/ Stainless Steel ) 
 • Siku Besi ( Angle Bars) SS400, SS540 
 • Kanal Unp ( U-Channel) 
 • Kanal Cnp ( Lip-Channel)
 • WF ( Wide Flange ) 
 • H-Beam
 
5. Carbon Steel Wire ( Besi/ Galvanis/ Stainless Steel )
 • Wiremesh ( U50 )
 • Kawat Bendrat
 • Kawat Duri ( Barbed Wire )
 • Kawat Silet ( Razor Wire )
 • Kawat Bronjong ( Gabion Wire )
 • Kawat Paku ( Nails Wire )
 • Kawat BWG ( 8 ,10 , 12 , 14 , 16 )
 • Paku ( Nails )
 
6. Atap Baja Ringan
 • Seng Galvalume KR 5 & KR 9 ( 0.25 , 0.30 , 0.35 , 0.40 , 0.50 ) Warna dan Polos
 • Seng Rol Galvalume ( 0.25 , 0.30 , 0.35 , 0.40 , 0.50 ) Warna dan Polos
 • Reng Galvalume
 • Nok / Wuwung Warna dan Polos
 • Genteng Metal
 • Bondek
 • CNP Galvalume 75 & 80 ( 0.60 , 0.65 , 0.70 , 0.75 , 0.80 )
 • Hollow Galvalume
 • Baut Drilling dan Baut Scrup Kalsiboard
 
7. Power Tools
 • Obeng , Tang , Gergaji , dll
 • Mesin Bor , Mesin Gerinda , Mesin Las (Berbagai Merk)
 • Pompa Air , Blower Ventilator , Kabel Listrik , dll
 
8. Safety Equipment
 • Sarung Tangan ( Benang/ Kulit / Las / Karet )
 • Rompi Jaring , Helm , Topeng Las , dll
 • Tali ( Nylon , PP , Manila )
 • Stationary
 
Dan masih banyak lagi Produk - Produk kami dan berbagai macam jenis Besi dan Baja beserta Alat Alat Teknik (Tools) yang siap memenuhi semua kebutuhan dan keinginan serta kepuasan konsumen baik Pelanggan dari Dalam Kota maupun Luar Kota bahkan Luar Pulau.
Besar harapan kami untuk dapat bekerjasama dengan anda. Salam Sukses untuk Kita Semua. ","
              Randegan Sari  No.22            ",Gresik,Jawa Timur,085103655188,None,None
CV. AGRO INDUSTRI SURABAYA,"
                                    PREMIUM GOLD
                                ",Baja,"
CV. AIS adalah Suplayer Besi Profil dan segala produk Industri, Adapun Material Yang Bisa Kami Supply Meliputi : Grating, Plat Timah, Glasswool, Rockwool, Alumunium, Kuningan, Stainless, Pipa : Carbon Steel, Galvanize, ( Weldid & Semless) API 5L / A106 Gr.B A53 Gr. & B, Dia 1/ 2"" - 54"" DLL Spiral Weldid Steel Line Pipe 4"" - 54"" , Stainless Steel Pipe Steel Pipe, Tubing SS304/ 304L, 316/ 316L DLL, Pipa PVC, Pipa Tembaga. BRAND : SUMITOMO, BKRIE, PPI, EX-CHINA, JAPAN, ETC. Steel Construction : H-Beam, IWF, Besi Beton, Siku, Channel U, CNP, INP, Assental, Plate, ( Hitam, Putih, Kapal, Bodres, Strip, Alumunium) Pipa Kotak, Plte Fittings : Elbow, Reduser, ( Coccentric & Eccentric ) Tee, Union, Coupling, Half, Hex Plug, Tredolet, Weldolet, Sch 10, 20, 40, 80, 160, 3000, Dia 1/ 2"" - 54"" DLL : Stat Bolt, Bolt& Nuth, U-Bolt, ngkhur Bolt, Bermacam2 Semua U Ukuran. BRAND : JAPAN, KOREA, LOKAL, ETC : Forget Flnges A105-Carbon Steel, SS A182 F304/ 304L, 316/ 316L Slip On, Welding Neck, Blind Flangs, Socket Weld, Lap Joint, DLL. ANSI : # 150, 300, 600.900, 1500.2500, JIS10K, 20K, 5K, PN16, PN25, PN40, Di 1/ 2"" - 54"" VALVE : GATE VALVE, CHECK VALVE, GLUBE VALVE, BALL VALVE, STRAENER, BUTTERVLY VALVE, KNIF GATE VALVE, MERK, GLT, KITZ, YONE, KREN, YUSHITKE, DLL. ANSI, # 10K, # 150, # 300, # 600, PN16, PN25, PN40, DLL BEST REGARDS, RAHMAT HIDAYAT 082129847777 DIRECTOR OF AGRO INDUSTRI _ _ _ _ _ _ _ _ _ _ _ _ _ _ _ _ _ _ _ AGRO INDUSTRI SURABAYA KAWASAN INDUSTRI GRESIK JL. KIG SELATAN IV, KAV. 11 RANDUAGUNG, GRESIK, 61121 telp. 0313989496 , HP. 082129847777 , 082129846666 fax. 0313980197 email: industri2034@ gmail.com cc: agroindustrisurabaya@ gmail.com www.agroindustrisurabaya.com  ","
              KAWASAN INDUSTRI GRESIK, JL. KIG SELATAN IV/NO.11 RANDUAGUNG, GRESIK - JAWA TIMUR            ",SURABAYA,Jawa Timur,+82 12-984-6666,+62 821-2984-7777,None
cv.pariwara satu sae,"
                                    PREMIUM GOLD
                                ",Baja,"
CV. Pariwara Satu Sae merupakan Perusahaan yang bergerak di Bidang Media Promosi Periklanan Outdoor maupun Indoor, serta Jasa Branding dan Promosi lainnya.Produk-produk yang kami sediakan antara lain :• Neon Sign + Travo• Lampu LED Samsung + Travo• Huruf Timbul Galvanil, Stainless Steel, Akrilik, Kuningan• Billboard / Papan Nama• Neon Box akrilik / Backlite• Stiker Cutting Scothlite• Stiker Cutting OracalKami didukung oleh tenaga-tenaga Profesional dan Berpengalaman dibidangnya. Kami selalu siap untuk melayani dan memberikan Solusi Marketing Promosi yang terbaik untuk Anda.Telp. 0341-345092 atau HP / WA 08123394055 ","
              • Head Office : Jln. Bareng Raya 2F No. 466 Malang, Jawa Timur, Indonesia.• Phone : 0812-339-4055 (Call or WhatsApp)            ",MALANG,Jawa Timur,+62 812-3394-055,None,None
UTOMO INDOTECH,"
                                    PREMIUM GOLD
                                ",Baja,"

Sering bermasalah dengan hasil Produksi, Limbah, Polusi Udara ??
1. Penyaringan / filtrasinya kurang sesuai .
2. Partikel produk yg kurang halus.

3. Udara dari luar masuk ke proses produksi dan mengkontaminasi produk.
4. Polusi udara dan sering mendapat komplain dari warga sekitar.
5. Hasil limbah yg tidak bisa langsung dibuang krn butuh proses penyaringan.


 
<<<<<<<<<<<<<<<<<KAMI SOLUSINYA>>>>>>>>>>>>> !!!!FAST RESPON !!WA     : +6287758566420Email  : marketing.utomoindotech@gmail.com            ","
              Perum Grand juanda 2 Residence, No 9, Tani Nelayan, Pepe, Kabupaten Sidoarjo, Jawa Timur  61253            ",Sidoarjo,Jawa Timur,+62 877-5856-6420,None,None
"CV. AGRO INDUSTRI SURABAYA divisi STEEL GRATINGS, GLASSWOOL, TIMAH","
                                    PREMIUM GOLD
                                ",Baja,"
STEEL GRATING SURABAYA adalah Manufaktur Steel Grating yang ada di Surabaya. Kami menyediakan Steel Grating dengan ukuran standart baik Serrated maupun Polos. Kami dapat mengerjakan sesuai pesanan dengan Man Power yang cukup untuk mengejar Dead line Waktu Anda. AIS STEEL GRATING / PLAT GRATING AIS Plat Grating dapat secara luas digunakan sebagai penutup parit, parit pipa, saluran bawah tanah, poros ventilasi, cahaya dengan baik dan pemeriksaan baik. dan lain-lain AIS PLAT GRATING terbesar baja produsen kisi dari Cina, dengan 11 set pers pengelasan jalur produksi dan 100, keluaran 000 metrik ton ' setiap tahun. Jenis produk termasuk tidak diobati / baja galvanis kisi, tangga tapak, penutup Trench, Suspended langit-langit. dll kisi AIS adalah mitra profesional dan handal Anda. Ukuran bantalan bar ( mm X mm) : 20 X 3, 25X3, 30X3, 25X5, 30X5 ... 40X 8 ... 100 X 10. Bantalan bar lapangan ( mm) : 12.5, 15, 20, 30, 30, 6, 32, 5, 34, 34, 8, 35, 3, 40, 60, 80 ... Bisa juga menjadi sesuai kebutuhan klien ' , 20, 30, 40 dianjurkan. Sengkang ( transverse bar) lapangan ( mm) : 38, 1, 50, 50, 8, 70, 75, 80, 99, 100, 101.6, 102 ... Bisa juga sesuai kebutuhan klien. 50, 100 dianjurkan. Bahan: Mild Steel Salam Hormat, Rahmat Hidayat 082129846666 AGRO INDUSTRI SURABAYA KAWASAN INDUSTRI GRESIK JL. KIG SELATAN IV, KAV. 11 RANDUAGUNG, GRESIK, 61121TELP. 0313989496 , HP. 082129847777 , 082129846666 FAX. 031 3980197, EMAIL: INDUSTRI2034@GMAIL.COM ","
              KAWASAN INDUSTRI GRESIK, JL. KIG SELATAN IV, NO. 11, RANDUAGUNG, GRESIK-SURABAYA 61121 JAWA TIMUR, TELP. 0313989496 , HP. 082129847777 , 082129846666 FAX. 031 3980197, EMAIL: INDUSTRI2034@GMAIL.COM            ",SURABAYA,Jawa Timur,+62 821-2984-6666,+62 821-2984-7777,None
CV. AGRO INDUSTRI SURABAYA ,"
                                    PREMIUM GOLD
                                ",Baja,"
PRODUCT: STEEL PIPE, RAOUND BAR, SQUARE BAR, FLAT BAR, ANGEL BAR, C CHANNEL, CRC, HRC, HRC PO, COIL SERVICE CENTRE, TUNGSTEN CARBIDE DIES, STEEL/ COPPER WIRE DRAWING, HEADING DIES, SPECIAL ORECER CARBIDE HOT ROLLED IWF, HOT ROLLED H-BEAM, HOT ROLLED ANGEL, HONEY COMB, KING CROSS, HOT ROLLED PLATE, HRC & CRC, SPIRAL PIPE, WELDED BEAM, FLAT BAR, COLD FORM UNP, COLD FORM EQUAL AND UNEQUAL ANGLE, LIPPED CHANNEL, ERW PIPE, ERW SQUARE & RECTANGULAR PIPE, EXPANDED MESH, GUARD RAIL, ROOF & WALL SHEETING, BRIDGE DECK, BAR IN COIL AND WIRE ROD, ROUND & DEFORMED BAR, GALVANIZE WIRE NAIL, NAIL WIRE, ANNEALING WIRE, WIRE MESH & FENCE, NAIL. PLAT BAJA, PLAT HITAM, PLAT BORDES, PLAT KAPAL, PLAT BESI, PLAT ALUMINIUM, PLAT TEMBAGA, PLAT KUNINGAN, PLAT STAINLESS, TELP. 0313989496 , 082129847777 , 082129846666 FAX. 0313980197 EMAIL. INDUSTRI2034@ GMAIL.COM https: / / www.youtube.com/ watch? v= g3qixPk7uF0 11/03/2016
  ","
              KAWASAN INDUSTRI GRESIK, JL.KIG SELATAN IV NO. 11, KOTA GRESIK 61121 JAWA TIMUR            ",SURABAYA,Jawa Timur,+62 821-2984-7777,+62 821-2984-6666,None
CV. Agro Industri Surabaya,"
                                    PREMIUM GOLD
                                ",Baja,"
"" CV. AGRO INDUSTRI SURABAYA ""
 Telp. 0313989496 , HP. 082129847777 , 082129846666 , Fax. 031 3980197,
 EMAIL: INDUSTRI2034@ GMAIL.COM ,
 ALAMAT KANTOR: KAWASAN INDUSTRI GRESIK, JL. KIG SELATAN IV, NO.11, GRESIK 61121
 
AGRO INDUSTRI SURABAYA LEBIH DARI 5 TAHUN BERKUTAT DALAM MELAYANI KEBUTUHAN INDUSTRI, MEMBUAT KAMI TERJUN LANGSUNG DALAM MEMENUHI SEGALA BENTUK KEBUTUHAN INDUSTRI.
 DEMI MEMBERIKAN KEMUDAHAN DAN MEMBANTU MELANCARKAN SEGALA KEBUTUHAN USAHA ANDA. 
KAMI TELAH TERHUBUNG DENGAN SEGALA IMPORTIR, PRODUSEN, DISTRIBUTOR YANG BERKAITAN DENGAN INDUSTRI. SEHINGGA DENGAN MUDAH KAMI DAPAT MEMBERIKAN PENAWARAN PRODUK DENGAN HARGA PALING COMPETITIF DAN BISA DIPERCAYA. KAMI MELAYANI BERBAGAI KEBUTUHAN SEBAGAI BERIKUT
* AGEN KEBUTUHAN INDUSTRI 
* BATEREI INDUSTRI 
* DRAUGHT FAN
 * FIBERGLASS REINFORCED PLASTIC ( FRP)
 * GEAR, GEARBOX, PENURUN KECEPATAN
 * GIR
 * INSTRUMEN ELEKTRONIK 
* INSTRUMEN PENGUJI BAHAN
 * INTERNAL-COMBUSTION ENGINE
 * KAIN MAJUN, MAJONG
 * KERJASAMA & INVESTASI
 * KERTAS SARINGAN
 * KETEL & BOILER
 * LAINNYA
 * MATERIALS HANDLING
 * MEMBUAT & MENEMPA
 * MENGELAS & MENYOLDER
 * MESIN & SUKU CADANG TEKSTIL
 * MESIN BANGUNAN
 * MESIN BEKAS
 * MESIN CETAK
 * MESIN FARMASI
 * MESIN JAHIT
 * MESIN KEHUTANAN 
* MESIN KERTAS
* MESIN KIMIA
* MESIN METALURGI
* MESIN PEMROSES MAKANAN
* MESIN PEMROSES METALIK
 * MESIN PERIKANAN
 * MESIN PERTAMBANGAN
 * MESIN PLASTIK
 * MESIN PRODUK HARIAN
 * MESIN TENTANG PEMBUNGKUSAN
 * MOULD
 * PEKERJAAN PERKAYUAN
 * PEMAMPAT UDARA & PEMISAH UDARA
 * PENDESAIN & PEMROSES MESIN
 * PENDINGIN & PERTUKARAN PANAS
 * PENERANGAN INDUSTRI
 * PENGEPAS PIPA
 * PENGGOSOK
 * PENGHEMAT ENERJI
 * PERALATAN ENGINEERING
 * PERALATAN POMPA & VAKUM
 * PERALATAN TRANSMISI POWER
 * PERANGKAT KERAS & PERALATAN
 * PERSEDIAAN KEBUTUHAN INDUSTRI
 * PETERNAKAN
 * PIPA & TABUNG
 * PIPA ALUMINIUM
 * PIPA BAJA
 * PIPA BESI
 * PIPA COMPOSITE
 * PIPA METAL LAINNYA
 * PIPA PLASTIK
 * PIPA TEMBAGA
 * RANTAI
 * SABUK BAN BERJALAN
 * SENSOR
 * SISTEM DATA ELEKTRONIK
 * SISTEM PEMANASAN
 * VALVE KAMI JUGA MENJUAL: 
FLANGE:BESI ( JIS, PN, ANSI),
 FLANGE SUS FITTING: ELBOW , DOUBLE NIPPLE , DOP , PLUG , REDUCER , SOCK , TEE , VERLOP RING, WATERMOOR. KASA , SARINGAN, 
MESH: MESH JEPANG , MESH TEBAL , MESH LEBAR , MESH DOUBLE , MESH KUNINGAN , MESH NYLON , SCREEN BESI , SCREEN STAINLESS , WELDED MESH , LOKET, KNITTING MESH.
 KAWAT: KWAT STAINLESSH SOFT, KAWAT STAINLESS HARD , KAWAT BAJA.
 KAWAT LAS: KAWAT LAS STAINLESS , KAWAT LAS KUNINGAN , KAWAT LAS PERAK/ TEMBAGA. MANOMATER 
( PRESSURE GAUGE) : MODEL PAYUNG , RAKET, ELEKTRIK , LOW PRESSURE , DIAFRAGMA , MODEL GLYSERIN. 
THERMOMETER: TERMO PAYONG , TERMO RAKET, TERMO CAPILER , TERMO GRAPH , TERMO GRAPH, TERMO GLASS , TERMO PIPA , TERMO DIESEL , TERMO ASPAL , TERMO BATANG , TERMO ELEKTRIK , TERMO POCKET, TERMOSTAT, TERMO KONTROL , TERMO COUPLE , TERMO MAGNIT. 
MISELANU: LANGSOL , ALUMINIUM FOIL , CIRCULAR GLASS , FLEXIBLE RUBBER , GLYSERIN MINYAK , GUNTING, GAUGE SAVER , KIKIR , KLINGER , KOPLING KUNINGAN , SIPHON , BRANSLANG. 
PACKING: PLAT KLINGRIT , KARET PLAT , RAMIE TEFLON , PURE TEFLON , ASBES TEFLON , KEVLAR TEFLON. METER METERAN BAILEY METER , BAROMETER , FLOW INDIKATOR , FLOW SWITCH , HIDROMETER , PRESSURE SWITCH , TACHOMETER , TRANSMITTER , WATER FLOWMETER.
 PLAT: PLAT SS 201 , PLAT SS202 , PLAT SS 304 , PLAT LUBANG BESI , PLAT LUBANG STAINLESS , PLAT LUBANG CAPSUL. 
PIPA: PIPA ORNAMENT NIKEL 1 , PIPA SS ORNAMENT NIKEL 4 , PIPA KOTAK , PIPA SS SCHEDULE , PIPA TEMBAGA BATANG , PIPA TEMBAGA COIL. SIKU , STRIP STAINLESS DAN TEMBAGA. 
AS ( ROUND BAR) : AS STAINLESS STEEL , AS NYLON , AS TEMBAGA , AS TEFLON , AS NOVOTEK , AS POLY ETHELINE , AS POLY PROPHILENE. 
VALVE/ STOP KRAN: BALL VALVE , GATE VALVE , GLOBE VALVE , KNIFE GATE VALVE , BUTTERFLY VALVE , CHECK VALVE , STRAINER VALVE , TUESN , SOLONOID VALVE , SAVETY VALVE , COCK VALVE , FLOAT VALVE , PYL GLASS VALVE , NEEDLE VALVE , STEAM TRAP , PRV , SIGHT GLASS , AIR VENT , FOOT VALVE , DIAFRAM 
VALVE. WOOL: ROCKWOOL , GLASSWOOL , FELTWOOL , ROOFMESH , ALUMUNIUM FOIL BAIK SINGLE MAUPUN DOUBLE. MENGERJAKAN SESUAI KEBUTUHAN ANDA UNTUK PRODUK
 SBB: STEEL GRATING FRP GRATING PIPA CEMENT LINING KAWAT HARMONIKA KAWAT LOKET PLAT LUBANG SCREEN BAJA 
SALAM KENAL
RAHMAT HIDAYAT 
08212986666, 082129847777 0313989496 FAX. 031 3980197
  ","
              KAWASAN INDUSTRI GRESIK, JL. KIG SELATAN IV, NO. 11 GRESIK            ",SURABAYA,Jawa Timur,+62 821-2984-6666,None,None
CV. AGRO INDUSTRI SURABAYA,"
                                    PREMIUM GOLD
                                ",Baja,"
CV. AGRO INDUSTRI adalah Manufaktur  Steel  Grating yang ada di Surabaya. Kami menyediakan Steel Grating dengan ukuran standart baik Serrated maupun Polos.
Kami dapat mengerjakan sesuai pesanan dengan Man Power yang cukup untuk mengejar Dead line Waktu Anda.
Berikut Penawaran kami :
1. Hot & Cold Insulation 2. Roofing 3. Fire proofing 4. Sound proofing 5. Duckting AC Adapun material yang kami supply :
 1. Hot Insulation : - Rockwool ( Roll, Lembar, Pipa ) - Glasswool ( Roll, Lembar ) - Ceramic Fiber ( Roll, Lembar ) - Calsium Silicate ( Lembar, Pipa ) - Asbestos
2. Cold Insulation : - Styrofoam ( Lembar, Pipa ) - Polyurethane ( Lembar, Pipa ) - Rubber Insulation ( Lembar, Pipa Merk : Armaflek & K-flek ) - Glasswool ( Roll, Lembar )
 3. Building Ins. : - Roofmesh - Glasswool ( Roll, Lembar ) - Aluminium Foil S/ S dan D/ S - Aluminium Tape - Spindle Pin
 4. AC Insulation : - Flexible Duct Isolasi / Non Isolasi - Glasswool ( Roll, Lembar ) - Metalizing Tape - Seng BJLS - Glasscloth - Spindle pin Glasswool ( Glass Wool) blanket: The blanket is suitable for acoustic and thermal insulation in tall building, also for refrigeration, air condition machinery room, etc., with properties of good flexibility and installation convenient.
Glasswool Board/ Block/ Slab: Fiberglass wool board is suitable for fireproof, acoustic and thermal insulation in tall building, also for refrigeration, air condition machinery room, etc., with properties of good load-bearing, light weight, low thermal conductivity, non-combustible and chemical stability. Glasswool Pipe Cover: Glasswool pipe covers are suitable for thermal insulation of steam lines, hot water or hot oil lines, also insulation for refrigerating lines.
Specifications: * Glasswool ( Glass Wool) blanket: o The blanket is suitable for acoustic and thermal insulation in tall building, also for refrigeration, air condition machinery room, etc., with properties of good flexibility and installation convenient. * Spec.:
 1. Resin bond content: 3 ~ 8 % *                                                                                                                                2. Density: 16 kg/ m3, 20 kg/ m3, 24 kg/ m3, 32 kg/ m3 *                                                                                     3. Thermal conductivity ( 705C) : 0.042 ~ 0.049 w/ m.k * Subject to density and thickness *                           4. Average acoustic absorptivity: 0.8 ~ 1.1 * Subject to density, thickness and frequency *                        5. Max. service temperature: 300C *                                                                                                                           6. Average fibre diameter: Features: * Availability: o Length x Width: 1200 X 600 mm / 2400 X 1200mm * Thickness: 25 ~ 100mm
 Glasswool Pipe Cover: + Glasswool pipe covers are suitable for thermal insulation of steam lines, hot water or hot oil lines, also insulation for refrigerating lines.                                                                        Spec.: + 1. Density: 48 ~ 96 kg/ m3 o 5. Max. service temperature: 300C o 2. Thermal conductivity ( GB/ T13350-92) : 0.045 ~ 0.032 o w/ m.k o 4. Average acoustic absorptivity: 0.8 ( 500-4000 HZ) o 5. Average fibre diameter: 4.0~ 6.0m o 6.
 Water repellent ( ) :
Best Regards
RAHMAT HIDAYAT AGRO INDUSTRI SURABAYA
PHONE  082129847777 , 082129846666
FAX. 0313980197
 
EMAIL: INDUSTRI2034@ GMAIL.COM  ","
              KAWASAN INDUSTRI GRESIK, JL. KIG SELATAN IV/NO.11 RANDUAGUNG, GRESIK            ",SURABAYA,Jawa Timur,+62 821-2984-7777,+62 821-2984-6666,None
CV. BANGUN SARANA MAKMUR,"
                                    PREMIUM GOLD
                                ",Baja,"
              CV.BANGUN SARANA MAKMUR adalah perusahan general trading dan supplier material. Kami berdiri sejak awal tahun 2001, yang berkompetisi dengan cerdas, cermat dan inovatif sehingga dapat bersaing dalam bisnis. Upaya dan usaha kami menjalankan roda perusahaan adalah merupakan perpaduan terbaik dari semua unsur yang kami miliki berharap bisa mempersembahkan yang terbaik untuk pelanggan dan para mitra kerja. VISI menjadi penyedia dan jasa terbaik di indonesia. MISI - Menyediakan berbagai macam material dengan kualitas yang bagus. - Memenuhi kebutuhan pelanggan dan memberikan solusi - solusi yang inovatif. - Membangun kerjasama yang baik. Kami menyediakan berbagai macam bahan bangunan, antara lain : ALUMINIUM COMPOSITE PANEL, ATAP ALDERON, ATAP ROOFTOP, ATAP AMARI, GENTENG ROYAL, ATAP FORMAX, ATAP GALVALUME & ZINCALUME, POLYCARBONATE, SILICONE SEALANT, PINTU DUMA, KUSEN, PLAFOND, etc. https: / / www.youtube.com/ watch? v= IdpnlXEfD-A            ","
              Jl. Prapen Indah C 22, Surabaya            ",surabaya,Jawa Timur,+62 812-4934-3303,+62 812-2200-1910,+62 812-3111-1660
ASIA PERDANA ABADI,"
                                    PREMIUM GOLD
                                ",Baja,"
Kami menyediakan berbagai produk dengan spesifikasi yang anda butuhkan , Kami juga merupakan Badan Usaha yang bergerak  di bidang Perdagangan dengan spesifikasi sebagai Supplier Peralatan teknik,Peralatan SPBU Pertamina,Gasket Packing, Komponen Mesin Industri serta menangani project.
Kami menyediakan berbagai kebutuhan akan Perlengkapan Industri seperti: - VALVE - FITTING - PIPA - SEAL - GASKET - KAWAT LAS - BERBAGAI KOMPONEN / ALAT FABRIKASI YANG DISESUAIKAN DENGAN KEBUTUHAN SPECIFIK ANDA.
Kami menawarkan berbagai Produk tersebut dengan Specifikasi atau Brand yang Anda butuhkan dengan disertai Sertifikat yang menjamin Keaslian Produk ataupun Specifikasi Produk.. 
untuk mendapatkan informasi silahkan kunjungi / hubungi kantor kami , Terima kasih
Asia Perdana Abadi
 JL .  WIGUNA   1  No. 57 , Surabaya ( OFFICE 1 )JL. NEW GREEN HILL RESIDENCE 2 BLOK DD 11 (OFFICE 2)
( Warehouse ) . JL . Gunung Anyar Jaya Masjid  No. 36 . Rungkut , Surabaya.
Jatim - Indonesia
Telp  : 031 - 8711586
Fax   : 031 - 8711586
Telkomsel Office  : 0851-01476326
Email :  ( asiaperdanaabadi@yahoo.com ),( asiaperdanaabadi@gmail.com
Hubungi Marketing kami :
   –  Eko  SE, (081- 23266026  / WA  )  
–  Deddy, ST ( 0856- 4846-8999 / WA )
–  Avonda SE, ( 085100 21 0161 – 0858 50300 234 )
 
  ","
              JL. WIGUNA 1 No.57 Surabaya (OFFICE 1)JL. NEW GREEN HILL RESIDENCE 2 BLOK DD 11 (OFFICE 2)Gunung Anyar Jaya Masjid No. 36 Surabaya (WAREHOUSE) ",Surabaya,Jawa Timur,+62 812-3266-026,+62 858-5030-0234,+62 856-4846-8999
PT. ABADI METAL UTAMA,"
                                    PREMIUM GOLD
                                ",Baja,"
              PT. Abadi Metal Utama adalah perusahaan yang bergerak di bidang perdagangan besi / baja . Didirikan pada tahun 2002 di Surabaya dengan SK Menteri Kehakiman Nomor : AHU-63769.ah.01.02.PT. Abadi Metal Utama distributor / agen yang menjual :

Pipa Besi
Pipa Stainless
Pipa PVC / Pipa paralon (Pipa UPVC)
Pipa PE / Pipa HDPE
Plat Besi / Coil Besi
Plat Stainless Steel / Coil Stainless Steel
Wiremesh
Atap dan Floordeck
Kawat
Aksesoris Pipa Besi dan Stainless
Aksesoris Pipa PVC dan HDPE
Polycarbonate / Kanopi
dan lainnyaa...

Untuk informasi selengkapnya dapat mengunjungi www.abadimetalutama.com ","
              Raya Sukomanunggal Jaya 5 (Satelit Town Square) blok A5-A6
Surabaya, Jawa timur, Indonesia.            ",Surabaya,Jawa Timur,+62 812-3005-040,None,None
CV. AGRO INDUSTRI SURABAYA ,"
                                    PREMIUM GOLD
                                ",Baja,"
Kami Mulai berkembang dan memulai usaha di Surabaya, perkembangan yang begitu cepat mendesak kami beralih ke Kawasan Industri Gresik, demi kelancaran dan kenyamanan dalam pelayanan terhadap Customer Agro Industri Surabaya. Kawasan Industri Gresik terletak sekitar 60 menit dari Bandara Juanda Surabaya, dan sekitar 20 menit dari pusat Kota Surabaya. Hal ini memudahkan akses Jalur ke Pelabuhan Perak, Stasiun kereta api, maupun jalur antar Propinsi. CV. AGRO INDUSTRI SURABAYA RAHMAT HIDAYAT TELP. 031 3989496 HP. 082129847777 , 082129846666 FAX. 031 3980179 Email. industri20344@ gmail.com 29/08/2017
 
tag:
© 2016 DAFTAR HARGA BESI BAJA MURAH JUAL BESI BAJA BETON ULIR POLOS PLAT BAJA HITAM PLAT KAPAL BAJA WF H BEAM SIKU BAJA BAJA UNP KANAL U SIKU CNP BAJA KANAL C PIPA HITAM MEDIUM SCHEDULE 40 SCHEDULE 80 PIPA BAJA BESI HOLLOW WIREMESH DISTRIBUTOR PABRIK PRODUSEN GROSIR SUPPLIER JUAL HARGA AGEN BESI BAJA 09/03/2017 ","
              KAWASAN INDUSTRI GRESIK JL. KIG Selatan IV, Kav. 11 Randuagung, Gresik, JAWA TIMUR            ",SURABAYA,Jawa Timur,+62 812-9846-666,None,None
CV. RAFINDO TEKNIK,"
                                    PREMIUM GOLD
                                ",Baja,"
              RAFINDO TEKNIK merupakan badan usaha yang lahir dari tekad dan kemampuan yang diperoleh dari pengalaman sebagai karyawan yang meniti karir dari bawah selama kurang lebih 7 tahun. melalui pengalaman pengalaman ini kami berupaya untuk mewujud satu usaha mandiri yang dilandasi oleh semangat kerja yang tinggi serta tekat untuk memberikan pelayanan yang terbaik bagi rekan kami.Kami juga didukung oleh para tenaga ahli yang berpengalaman dibidangnya.            ","
              Jl. Raya Dapet 32A ,Balong panggang, Gresik.61173.  JAWA TIMUR            ",gresik,Jawa Timur,+62 813-3219-7608,None,None
AYIN BETH,"
                                    PREMIUM GOLD
                                ",Baja,"
Pembuatan Ruang Pendingin ( Cold Storage, Air Blast Frezer, Chiller) , Clean Room Menyediakan komponen Cold Storage, seperti Strip Cutain, Sambungan pipa tembaga, Ventilator, Handle, Hinges, Plat PPGI, Compressor Bitzer, Evaporator Eden, dll
Kami menjual cold Storage dengan berbagai ukuran sesuai dengan pesanan.
dan sudah digunakan di Palang Merah Indonesia cabang Malang, Natura Laboratori Prima, Dinas Perikanan Sarmi - Papua, Gudang Sarang Burung, Gudang Buah, Pabrik Krupuk dan lain sebagainya ","
              Babatan Pantai Barat I/40 Kenjeran             ",Surabaya,Jawa Timur,+62 851-0068-0249,None,None
UD. SIDO MUMBUL,"
                                    PREMIUM GOLD
                                ",Baja,"
              UD. SIDO MUMBULPerusahaan kami bergerak di bidang distribusi barang pecah belah / bolo pecah, plastik rumah tangga, peralatan / alat dapur ( kitchen wares) dan kebersihan ( cleaning equipments) , perlengkapan rumah tangga ( house wares / home appliances) dan kebutuhan industri ( industrial wares) lebih dari 30 tahun di Pasar Turi, Surabaya. Kami menjual barang-barang produksi lokal dan impor seperti barang-barang aluminium, kaca, plastik, stainless steel, perkakas, dll. dengan harga dan kuantiti partai ( grosir) untuk dijual kembali ( reseller price).Beberapa merek barang yang kami jual adalah Hock, Lion Star, Maspion, Global Eagle, Green Leaf, Dian Sari, Owl Plast, Technoplast, Bull Star dan masih banyak lagi. Untuk informasi lebih lengkap bisa dilihat pada halaman Katalog Produk kami atau bisa langsung datang ke kantor kami pada hari Senin - Sabtu pada pukul 10: 00 - 17: 00 WIB di jalan Dupak 63, kompleks pertokoan Mutiara Dupak C-22, Surabaya.  Dengan dukungan supplier lokal dan nasional, kami siap untuk memenuhi kebutuhan usaha anda. Kontak kami segera untuk berbisnis dengan kami.Kami juga melayani kebutuhan hotel, rumah sakit, cafe, restoran & katering.Untuk pemesanan produk dapat dilakukan via telepon, short message service ( SMS) , Yahoo! Messenger, Blackberry Messenger ( BBM) dengan sistem pembayaran cash ( transfer bank / kontan) . Pembayaran dapat dilakukan setelah mendapat konfirmasi dari kami atas ketersediaan jumlah produk yang dibutuhkan. Apabila anda serius, dimohon untuk tidak mengirimkan e-mail kepada kami tanpa melakukan konfirmasi terlebih dahulu.  Tersedia kualitas produk biasa, menarik, murah, kuat dan berkualitas tergantung merk dan kebutuhan. Untuk area surabaya kami dapat mengirim, untuk konsumen luar kota dan luar pulau dapat dikirim lewat ekspedisi yang telah disepakati bersama. JAKARTA - BANDUNG - YOGYAKARTA - MAGELANG - SOLO - DENPASAR - SEMARANG - MALANG - SURABAYA - BANYUWANGI - PASURUAN - PROBOLINGGO - JEMBER - PRABUMULIH - MEDAN - JAMBI - PEKANBARU - MAKASSAR - BALIKPAPAN - PONTIANAK - BANJARMASIN - BATAM - PALEMBANG - LAMPUNG - SAMARINDA - PADANG - MATARAM - KALABAHI - MANADO - JAMBI - ACEH - PANGKALAN BUN - KUALA PEMBUANG - BATU LICIN - SAUMLAKI - TUAL - GORONTALO - TANJUNG SELOR - TOLI TOLI - AMBON - BATAM - PANGKALPINANG - WAINGAPU - WAIKABUBAK - KUPANG - ATAMBUA - DILI - PALU - SAMPANG - BANGKALAN - SUMENEP - JAYAPURA - SORONG - BIAK - MANOKWARI - MERAUKE - BAU BAU - TERNATE - TOBELO - KENDARI UD. SIDO MUMBUL - Jln. Dupak 63 / Pertokoan Mutiara Dupak C-22, (031) 5469330 / 081938685700, Surabaya. PIN BBM = 7C5F4B40 / 5B69FFC6 / 228B81D4 WA = +6282143438684 LINE = herry.sutanto E-mail = ud_sido_mumbul@yahoo.com / herrychenzhongqiang@gmail.com Jam Kerja = Senin - Sabtu 10:00 - 17:00 WIB, Hari Minggu / Besar Libur            ","
              Jln. Dupak 63 / Pertokoan Mutiara Dupak C-22, (031) 546-9330 / 0819-3868-5700, Surabaya.
PIN BBM = 7C5F4B40 / 5B69FFC6
WA = 0821-4343-8684
LINE = herry.sutanto            ",Surabaya,Jawa Timur,+62 814-3438-684,None,None
CV. AGRO INDUSTRI SURABAYA (AIS),"
                                    PREMIUM GOLD
                                ",Baja,"
CV. AGRO INDUSTRI SURABAYA Adalah Suplayer berpengalaman lebih dari 7 tahun melayani Kebutuhan Client dari Seluruh Indonesia.Berikut adalah Andalan Produk yang bisa kami tawarkan:Besi Konstruksi, Besi Profil, Steel Grating, Plat Grating, Floor Grating, Glasswool, Rockwool, buble foil, Aluminium, Expanded Metal, Perforated Plate, valve, Plat Timah, Timbal, Tin Plate, Plat Kuningan, Flow meter Oil and Water, Plat Aluminium. Dan masih banyak lagi.Salam Hormat,Rahmat082129847777#JualGratingMurah#JualTimbalMurah#JualGlasswoolMurah#JualRockwoolMurah ","
              JL. KIG SELATAN IV, NO. 11 KAWASAN INDUSTRI GRESIK- JAWA TIMUR
            ",SURABAYA,Jawa Timur,+62 821-2984-7777,+62 821-2984-6666,None
AGRO INDUSTRI SURABAYA  DIVISI BESI KONSTRUKSI ,"
                                    PREMIUM GOLD
                                ",Baja,"
CV. AIS LEBIH DARI 5 TAHUN BERKUTAT DALAM MELAYANI KEBUTUHAN INDUSTRI, MEMBUAT KAMI TERJUN LANGSUNG DALAM MEMENUHI SEGALA BENTUK KEBUTUHAN INDUSTRI. DEMI MEMBERIKAN KEMUDAHAN DAN MEMBANTU MELANCARKAN SEGALA KEBUTUHAN USAHA ANDA. KAMI TELAH TERHUBUNG DENGAN SEGALA IMPORTIR, PRODUSEN, DISTRIBUTOR YANG BERKAITAN DENGAN INDUSTRI. SEHINGGA DENGAN MUDAH KAMI DAPAT MEMBERIKAN PENAWARAN PRODUK DENGAN HARGA PALING COMPETITIF DAN BISA DIPERCAYA. KAMI MELAYANI BERBAGAI KEBUTUHAN SEBAGAI BERIKUT: * AGEN KEBUTUHAN INDUSTRI * ALAT & MESIN PERTANIAN * ALAT PENGUNCI * ALAT PENYARING * ALAT UKUR & TAKSIR * BANTALAN POROS * BATEREI INDUSTRI * DRAUGHT FAN * FIBERGLASS REINFORCED PLASTIC ( FRP) * GEAR, GEARBOX, PENURUN KECEPATAN * GIR * INSTRUMEN ELEKTRONIK * INSTRUMEN PENGUJI BAHAN * INTERNAL-COMBUSTION ENGINE * KAIN MAJUN, MAJONG * KERJASAMA & INVESTASI * KERTAS SARINGAN * KETEL & BOILER * LAINNYA * MATERIALS HANDLING * MEMBUAT & MENEMPA * MENGELAS & MENYOLDER * MESIN & SUKU CADANG TEKSTIL * MESIN BANGUNAN * MESIN BEKAS * MESIN CETAK * MESIN FARMASI * MESIN JAHIT * MESIN KEHUTANAN * MESIN KERTAS * MESIN KIMIA * MESIN METALURGI * MESIN PEMROSES MAKANAN * MESIN PEMROSES METALIK * MESIN PERIKANAN * MESIN PERTAMBANGAN * MESIN PLASTIK * MESIN PRODUK HARIAN * MESIN TENTANG PEMBUNGKUSAN * MOULD * PEKERJAAN PERKAYUAN * PEMAMPAT UDARA & PEMISAH UDARA * PENDESAIN & PEMROSES MESIN * PENDINGIN & PERTUKARAN PANAS * PENERANGAN INDUSTRI * PENGEPAS PIPA * PENGGOSOK * PENGHEMAT ENERJI * PERALATAN ENGINEERING * PERALATAN POMPA & VAKUM * PERALATAN TRANSMISI POWER * PERANGKAT KERAS & PERALATAN * PERSEDIAAN KEBUTUHAN INDUSTRI * PETERNAKAN * PIPA & TABUNG * PIPA ALUMINIUM * PIPA BAJA * PIPA BESI * PIPA COMPOSITE * PIPA METAL LAINNYA * PIPA PLASTIK * PIPA TEMBAGA * RANTAI * SABUK BAN BERJALAN * SENSOR * SISTEM DATA ELEKTRONIK * SISTEM PEMANASAN * VALVE SALAM KENAL RAHMAT HIDAYAT 081230777817 TELP. 0313989496 , HP. 082129846666, 082129847777 FAX. 031-3980197 11/03/2016 ","
              KAWASAN INDUSTRI GRESIK, JL.KIG SELATAN IV/ KAV. 11, Randuagung, Gresik            ",SURABAYA,Jawa Timur,+62 821-2984-6666,+62 821-2984-7777,None
Trijaya Arsitek (081 330 2099 63),"
                                    PREMIUM GOLD
                                ",Baja,"
TRIJAYA ALUMINIUM( Aluminium and Glass Specialist )TRIJAYA ALUMINIUM bergerak di bidang jasa pembangunan Konstruksi, Exterrior, dan Interrior Gedung.Kami telah dipercaya Membangun & mempercantik gedung perkantoran, pusat perbelanjaan, showroom, pabrik, gudang, ruko, rumah tinggal dan fasilitas umum lainnya seperti rumah sakit, tempat ibadah, dan pom bensin (SPBU).Pekerjaan kami telah tersebar tidak hanya di pulau Jawa, tetapi hingga ke Madura, Sumatra, Bali, NTB, NTT, Sulawesi, Kalimantan, Papua.Percayakan pekerjaan :  - Konstruksi Baja - Aluminium Composite Panel (ACP) - Pintu jendela aluminium - Pintu kaca Tempered - Partisi kaca - Shower glass - Curtain wall - Spider System - Kanopy Kaca - Reling Tangga Kaca  - lantai kaca / atap kaca - Reklame - Letter Timbul - Neon Sign - Neon boxke kami yang telah terbukti mengutamakan kwalitas dan ketepatan waktu dalam pengerjaanya. Dapatkan harga yang kompetitif hanya di kami TRIJAYA ALUMINIUM, Didukung oleh tenaga ahli yang telah mempunyai teknik dan pengalaman dalam menangani berbagai proyek skala kecil, menengah maupun besar, Kami percaya bisa memberikan pelayanan terbaik, yang akan membantu memberikan saran & panduan di setiap proses, sehingga impian atau ide Anda bisa terwujud sesuai yang diharapkan.Goal nya adalah harga yang kompetitif dan reasonable, efisien dalam biaya dan waktu tanpa meninggalkan aspek estetika.Selain melayani Jasa pembangunan kami juga melayani penjualan material :Aluminium Composite Panel - Alucobond, Aluclad, Cladbond, Alucopan, Alcopan,- Goldstar, Seven, Alumetal, Alustar,- Winmetal, Maco, Aluprima, AlumebondAluminium Kusen- YKK, incom, Indal- Alexindo, Alko, HP MetalKaca- Asahi, Mulia, Tempered & Non tempered- Clear, Printing, Glass tone, Lacobel, Tinted- Mirror, Black Mirror, Sunergy, One Way- Stopsol, Laminated, TemperedBesi- WF, CNP, Pipa Besi, Hollow Besi, Besi Siku, Plat dllHubungi :Layanan 24jamMoch. Indra PrasetyoHp. 081 330 2099 63Kantor. 031 8490 309Web. www.trijayaaluminium.com ","
              Jagir Sidoresmo VI /140            ",Surabaya,Jawa Timur,+81 3-3020-9963,None,None
CV PRAMANA DWI JAYA,"
                                    PREMIUM GOLD
                                ",Baja,"
PRAMANA DWI JAYA merupakan badan usaha resmi (memiliki SIUP dan TDP) berkedudukan di kota Surabaya dengan merk dagang ""PRAMANA BAJA"" yang bergerak dibidang jasa dan perdagangan serta supplai bahan/material bangunan, khususnya bahan bangunan yang berbahan dasar logam. Untuk operasional pemasaran lebih banyak dilakukan secara online, baik melalui situs pramanabaja.com & pramana dwijaya.com ataupun situs-situs lain serta media sosial. 
PRAMANA DWI JAYA memiliki visi yaitu mengembangkan dan menjadi sebuah badan usaha yang terpercaya, memberikan pelayanan yang profesional, dan menjalin kerjasama dengan berbagai pihak atas dasar saling berbagi dan menguntungkan. ","
              Jl. Raya Bungkal Gg Sumur No 50C , RT 05/ RW 03 Sambikerep            ",SURABAYA,Jawa Timur,+62 812-3374-4374,+62 813-3535-2009,None
PT. Sumber Arum Abadi,"
                                    PREMIUM GOLD
                                ",Baja,"
              Anda butuh alat laboratorium dan reagents microbiology, segera hubungi Perusahan kami"" . PT. SUMBER ARUM ABADI adalah distributor atau subdistributor supplier importir resmi Indonesia yang bergerak dibidang alat Laboratorium dan Microbiology di Surabaya Jawa Timur Indonesia , Dengan Merek Sebagai berikut : acumedia from neogen corp USA, merck KGaA Germany, sigma aldrich USA, waters For HPLC Ireland, ridacount, copan italy, biooscientific, difco, atago, bd, bbl, memmert, hirayama, atago, thermo scientific, thermolyne, funke gerber germany, warring, hach usa, olympus, seedburo, all american, vwr, sibata, horiba, uetech, yellowline, wildco, takemura, ATCC gibson laboratories Inc., As-One, pyrex, brand, biohit, axygen scientific, AZ Taiwan, boeco germany, gast vacuum pump, optika italy Microscope, motic Microscope, interscience france, hettich, and balance Japan, Ohaus Balances and Scale USA, mettler toledo balance USA, presica balance taiwan, kern balances germany, eppendorf, testo, velp scientifica, KNF neuberger, nabertherm vaccuum Pumps Germany, advantec toyo kaisha Ltd. Japan, kett Science And Sensing USA, eppendorf jerman, hanna instrument, IKA, hanil centrifuge taiwan, kern balances germany, GFL water still USA, acumedia, biogen, seward, wildco, haws, seward uk, witega germany, microessential, yazumi, neofilm neogen usa, pobel water stills spain, parafilm m bemis company inc. usa, sanita-kun japan, spectrum instruments australia, analytik jena germany, funke gerber germany, organomation usa, gibertini italy, stat fax 4200 microplate reader, stat fax 4700 microwell reader, automated elisa analyzer iea, labomed in. usa, deltatrak usa, miccroessentiallab usa dll Produk / Jasa Utama Distributor, importir, Agent Resmi ACUMEDIA NEOGEN CORPORATION USA, SEWARD UK, WITEGA BERLIN GERMANY DLL sbb: NEOGEN CORPORATION USA DI INDONESIA PT. Sumber Arum Abadi authorized Distributor of the complete line of food safety diagnostic product manufactured by NEOGEN CORPORATION, LANSING MI, USA COMPANY di Indonesia. Produk NEOGEN yang kami tawarkan untuk keperluan laboratorium antara lain, ACUMEDIA Dehydrated Culture Media, Mycotoxin Test kit, Genaral Microbiology Test Kits, Foodborne Pathogen Test Kits, Food Alergen Test Kits, Food Adulterant Test Kits, Sanitation Test Kits, Drug Residue Test Kits, Natural Toxin Test Kits, Speciation Test Kits, Pesticide Residue Test Kits, Sulfite Residue Test Kits Aplikasi produk ini dapat digunakan untuk industri makanan dan minuman, farmasi, klinis, universitas, sekolah dan banyak lagi. Neogen NeoFilm USA Distributor, importir, agent, dealer resmi di indonesia produk Neofilm Neogen USA untuk Rapid Test For Microbiology. Produk Neofilm yang kami tawarkan sudah AOAC Approval untuk keperluan laboratorium anda di antaranya adalah sbb: Item No. Product 6620 NeoFilm for Aerobic Count 6625 NeoFilm for Rapid Aerobic Count 6630 NeoFilm for Coliform Count 6635 NeoFilm for E. coli / Coliform Count 6640 NeoFilm for Yeast and Mold Count 6645 NeoFilm for Staphylococcus aureus Count. SEWARD INDONESIA PT. Sumber Arum Abadi Distributor resmi indonesia stomacher 80, stomacher 400 circulator, stomacher 3500, stomacher bags, stomacher accessories made in Seward UK Inggris Kualitas terjamin untuk standard laboratorium di Indonesia. ALL AMERICAN USA DI INDONESIA PT. Sumber Arum Abadi adalah supplier, subdisdistributor, distributor, agent, importir resmi all American USA di Indonesia produknya meliputi : Pressure Canner/Cookers | Sterilizers | Automatic Can Sealers, all American USA 25x, all American USA 50x, all American USA 75x, spare part dll. MEMMERT INDONESIA PT. Sumber Arum Abadi supplier, agent, importir ,distributor, subdistributor resmi produk memmert di Indonesia. Produk memmert: Oven, Incubator, Water Bath, Humidity Chamber, CO2 Incubator, Oil Bath, Water Bath, Environmental Chamber dll. HACH INDONESIA PT. Sumber Arum Abadi supplier, agent, importir ,distributor, subdistributor hach indonesia Specialist Water Analysis di Indonesia hach untuk keperluan analisa air minum, air limbah dan lingkungan antara lain: pH Meter, DO, COD, BOD, Organic, TSS, Non-Organic dll. SANITA-KUN JAPAN DI INDONESIA Importir, distributor, subdistributor resmi di indonesia produk SANITA-KUN Japan Rapid Test For Microbiology. Produk SANITA-KUN yang kami tawarkan untuk keperluan laboratorium di antaranya: 1. Aerobic Count, 100 sheet/pk Sanita-Kun 2. Coliform, 100 sheet/pk Sanita-kun 3. Staphylococcus aureus, 100 sheet/pk Sanita-kun 4. E.coli/Coliform, 100 sheet/pk Sanita-Kun 5. Salmonella, 100 sheet/pk Sanita-Kun 6. Aerobic Count rapid test, 100 sheet/pk Sanita-kun 7. Yeast & Mold Rapid test, 100 sheet/pk Sanita-Kun GIBERTINI ITALY DI INDONESIA, PT. SUMBER ARUM ABADI ADALAH IMPORTIR, DISTRIBUTOR, AGENT, SUPPLIER RESMI TIMBANGAN GIBERTINI resmi di indonesia Produknya diantaranya ELECTRONIC BALANCES FOR OENOLOGY, INDUSTRIAL AND PAINTS YANG COCOK UNTUK LAB ANDA KARENA KUALITAS DAN AKURASI YANG HANDALSBB: Analytical Scales Toploading Scales Moisture Scales Micro Scales Yeast Counter Hydrostatic Scales Electronic distilling units Thermostatic baths Oenological analyzer Densimeters High precision piece-counting scales and platforms Scales to be used in hazardous environments ORGANOMATION USA DI INDONESIA. PT. Sumber Arum Abadi adalah distributor, importir, AGENT, SUPPLIER resmi Organimation Usa DI INDONESIA yang diantaranya produknya untuk tes nitrogren evaporator yang sangat berkualitas dan bermutu tinggi typenya sbb: Nitrogen Evaporators N-EVAP Product Line MULTIVAP Product Line MICROVAP Product Line Solvent Evaporators S-EVAP-KD Product Line S-EVAP-RB Product Line Solvent Extractors ROT-X-TRACT-L ROT-X-TRACT-S ROT-X-TRACT-LC Laboratory Chillers LABOMED INC. USA DI INDONESIA, PT. Sumber Arum Abadi adalah distributor, importir, agent, supplier, penjual resmi Labomed Inc. Usa DI INDONESIA yang diantaranya produknya adalah Spectrophotometer UV-Vis yang sangat berkualitas dan bermutu tinggi sangat ideal untuk laboratorium Anda baik lab Industri, perguruan tinggi, rumah sakit, dinas pemerintah dll typenya sbb: UV-Vis Spectrophotometer, Microscopes, Digital cameras for microscopes, cuvette, medical diagnostic product YAZUMI INDONESIA PT. Sumber Arum Abadi supplier, agent, importir ,distributor, subdistributor resmi produk YAZUMI miskroscope, microskop China untuk Lab Sekolah, Lab Industri, Lab Rumah Sakit dan Instansi Pemerintah Baik Yang Binoculair maupun Monoculair atau yang diconnect/ dihubungkan dengan CCD Camera, PC atau Labtop dll OHAUS INDONESIA PT. Sumber Arum Abadi supplier, agent, importir ,distributor, subdistributor resmi OHAUS di Indonesia. OHAUS adalah produsen timbangan asal Amerika Serikat USA. Produk OHAUS yang kami jual adalah: Moisture Balance, Precision Balance, Analytical Balance dan macam-macam timbangan lainnya. dengan harga terjangkau dan kualitas yang tidak diragukan lagi. VELP INDONESIA PT. Sumber Arum Abadi supplier, agent, importir ,distributor, subdistributor resmi VELP di Indonesia. VELP adalah produsen alat laboratorium asal Itali. Produk VELP yang kami jual adalah: Magnetic Stirrer, Vortex Mixer, Overhead Stirrer, BOD Incubator, JLT Flocculator: JLT 4 , Flocculator JLT 6, Kjeldahl Distillation Unit: UDK129, UDK139, UDK149, UDK159, UDK 169, Digestion Unit : DK6, DK6/48, DK8, DK20, DK20/26, DK42/26 dan banyak lagi. LEMARI ASAM ATAU FUMEHOOD INDONESIA PT. Sumber Arum Abadi Distributor resmi fumehood/ fume hood atau lemari asam, enkas, dry oven, colony counter, Laminar, rotator, shaker, magnetic stirer lokal indonesia kualitas internasional bahan berkualitas standard untuk laboratorium industri, rumah sakit, dinas-dinas pemerintah, sekolah, universitas dll MICRO ESSENTIAL INDONESIA PT. Sumber Arum Abadi Adalah supplier, subdistributor, agent, importir, distributor resmi produk micro essential dari USA di indonesia, Selama lebih dari 75 tahun Mikro Esensial Laboratorium, Inc telah memproduksi produk pHydrion digunakan untuk mengukur pH, kemanjuran solusi sanitasi, standar pH buffer dan kit khusus berbagai tes WITEGA LABORATORIEN INDONESIA PT. Sumber Arum Abadi Adalah , Distributor, agent, importir, distributor resmi witega berlin Germany di Indonesia. Produknya meliputi sintesis laboratorium komponen organik sintetik, bahan aktif, bahan kimia dan zat referensi, pembuatan stabil isotop-ditandai senyawa DeltaTRAK USA di INDONESIA PT. Sumber Arum Abadi adalah distributor, agent, importir resmi DeltaTRAK USA di Indonesia. Produk DeltaTRAK USA diantaranya adalah USB Loggers Data Loggers, Chart Recorders, Thermometers, ColdTRAK, TTI, Wireless, Bacteria Testing, Shelf Life, Thermal Labels, ISFET pH Meters, Safety Products, Timers yang semuanya produknya berkualitas cocok untuk lab industri, pemerintah, Universitas, sekolah dll IKA GERMANY IN INDONESIA PT. Sumber Arum Abadi adalah supplier, subdisdistributor, distributor, agent, importir resmi IKA GERMANY di indonesia diantara produknya adalah mixing, heating, distilling and crushing applications. IKA has gained a leading position in the world market with its innovative magnetic stirrers, mixers, overhead stirrers, shakers, homogenizers, mills, rotary evaporators, calorimeters, laboratory reactors and specially developed software for laboratory and analysis applications yang cocok untuk kebutuhan laboratorium Anda. HANNA INSTRUMENTS IN INDONESIA PT. Sumber Arum Abadi adalah supplier, subdisdistributor, distributor, agent, importir resmi HANNA USA di indonesia diantara produknya adalah : Checker HC , Chemical Test Kits , pH Meters, pH/ORP Meters, Ion Selective, pH/ORP/ISE/Meters, Conductivity/TDS , Digital Refractometers , Dissolved Oxygen, Multiparameter , Fertigation Systems , Titration Systems , Chemical Oxygen Demand, Photometers , Turbidity , Temperature , Relative Humidity , Magnetic Stirrers , Mini Panel Controllers , Process Instrumentation , Dosing Pumps , Lux Meters , Reagents, Solutions , Accessories , Hanna Sanitation Systems POBEL WATER STILLS SPAIN DI INDONESIA PT. Sumber Arum Abadi adalah supplier, subdisdistributor, distributor, agent, importir resmi POBEL WATER STILLS SPAIN di Indonesia Produknya diantaranya : Water Stills, DESA TANK, Water Stills, DESA, Water Stills, Model 704, Water Stills, Model 710, Water Stills, Model 720, Water Stills, Model 804, Water Stills, Model 811, Water Stills HYDRO, Water Stills SERI BIHYDRO Parafilm Bemis Company, Inc. USA PT. Sumber Arum Abadi adalah supplier, subdisdistributor, distributor, agent, importir resmi Parafilm M Bemis Company Inc.USA di Indonesia, Produksi tape self sealing yang sudah bertahun-tahun dipecaya untuk aplikasi laboratorium klinis dan industri tersedia dalam model roll sbb: 2″ x 250′ | #PM992 4″ x 125′ | #PM996 20″ x 50′ | #PM998 4″ x 250′ | #PM999 OPTIKA ITALY DI INDONESIA OPTIKA didistribusikan , penjual, supplier, subdistributor, importir oleh PT.SAA. OPTIKA Mikroskop adalah divisi mikroskop optik sebuah perusahaan yang didirikan lebih dari 30 tahun yang lalu sebagai aktor kunci dalam bidang instrumentasi ilmiah. Sebuah tim lebih dari 40 orang di 4 lokasi Eropa bekerja pada pengembangan model baru, produksi, kontrol kualitas, pasokan dan layanan purna jual. Sebuah jaringan distributor lokal meluas ke pengguna akhir keunggulan OPTIKA dalam kualitas, inovasi, harga yang kompetitif dan bantuan. OPTIKA Mikroskop menawarkan lebih dari 80 model mikroskop yang berbeda, dengan aksesoris penuh, untuk bidang yang paling beragam dari mikroskop optik. Sebuah pasar yang menantang, yang OPTIKA Mikroskop pendekatan dengan profesionalitas dan komitmen. FUNKE GERBER GERMANY DI INDONESIA Funke gerber GERMANY adalah Member of German Machinery and Plant Manufacturers Association, yang memproduksi alat-alat laboratorium khususnya spesialis untuk tes atau analisa susu/milk analysis dan analisa bir/alkohol/beer analysis yang sangat berkualitas tinggi karena Funke-Dr.N.Gerber Labortechnik GmbH berdiri sejak tahun 1904, sangat cocok digunakan untuk laboratorium di perguruaan tinggi, industri, dinas-dinas pemerintah, BUMN dll. produknya diantaranya colony star 8500, cryostar I, Fermento flash, Lacto star, lacto flash analyzer, nova safety, ph4440 conductivity ph redox, super nova centrifuge, waterbath wb 436 dll            ","
              Ruko Graha Indah Blok B No.4 Kec.GayunganJl. Gayung Kebonsari            ",Surabaya,Jawa Timur,+62 851-0060-5225,+62 812-3203-447,+62 811-3638-517
AGUNG HYDRAULIC MACHINERY,"
                                    PREMIUM GOLD
                                ",Baja,"
              Kami adalah perusahaan manufaktur mesin2 hydraulic press. Kami menyediakan berbagai macam jenis jenis mesin hydraulic yang berkualitas. Hubungi marketing kami untuk keterangan lebih lanjut.            ","
              Ir. Sukarno 54, batu            ",malang,Jawa Timur,+62 811-369-588,None,None
AKOR GLOBAL ENGINEERING,"
                                    PREMIUM GOLD
                                ",Baja,"
KAMI PERUSAHAAN YG MENGSUPPLY MATERIAL :KAWAT LAS : RB26 , MS 77, B17, LB52 , LB52U, LB52-18, KOBE 6010, NC 36/36L, NC38/38L, NC39/39L,TGS , TIG,CIA1/CIA2, HF 350, HF 500, HF 600RD460, RD260, ENKA, SUMICO, NSN 308, NSN309, NSN312, CIN 1 / CIN 2 ATLANTIK, TECHWELD, WELL, HYUNDAY, WELTEC.AS STAINLESS 304, 316, 316LPLAT STAINLESS STEEL 304, 316, 316L, 430PIPA STAINLESS SCH10, 20, 40, 80SIKU, STREP UNP STAINLESS 304/316 BESI AS ST 42 / ST 60 ( s45c) , ST70, ST90BESI AS HARD CROME HARDEN / PREHARDENPLAT BESI COIL, PLAT KAPAl, PLAT KAPAL BKI,( KS, GDS, GRP)PLAT BESI BORDES, PLAT BESI LUBANGPIPA AIR / PIPA GAS BAKRIE, SPINDO. PIPA SCHEDULE SEAMLESS SCH 40, SCH 80, SCH 120SIKU, UNP, STREP, BEAM H, WFVALVE, FITTING ELBOW SGP, SCH40, SCH80 , FLANGE 5K, 10K, ANSI 150, ANSI 300,KLEM PIPA, UBOLT, HANGER KLEM, DINABOLT, MUR BAUT, JCBCPLAT BESI DAN STAINLESS POTONGAN. SIKU BESI HOTDIP/GALVANIS, STREP BESI HOTDIP/GALVANIS,PIPA PVC / HDPE  RUCIKA / WAVIN.HUB : HERRY WA/HP 08113287876 atau email : goldherry@ yahoo.com / akorglobal@ yahoo.com ","
              Raya Gunung Anyar Emas C2 NO. 6            ",surabaya,Jawa Timur,+62 818-335-695,+62 811-3287-876,None
CV. MITRA SEJATI,"
                                    PREMIUM GOLD
                                ",Baja,"
              kami CV. MITRA SEJATI jual beli. plat besi pipa. kanal. siku. wf. hbem.dll. juga menerima segla potongan sepertias besi dengan diameter 10cm sampai dengan 60cmjuga kami melayani potongan plat besi sesuai permintaan yang anda butuhkan.pipa dan keguuanaannya dengan ukuran pipa berbagai macam ukuran dan kebutuhan, seperti pipa gorong gorrong, pipa reklame, tinga listrik\penerangan jalan, pipa gas, pipa air, pipa pancang dan lain sebgainya.palat besipalt besi dengan segala ukuran tebal panjang dan lebarnya, ketebalan mulai dari 1mm sampai dengan 350mm dengan segala macam kebutuhan anda, bentuk maupun persegi atau bulat,as besias besi dengan segala macan ukuran mulai dari diameter 25mm sampai dengan 600mm. cocok buat pembuatan matras, ger box, bosing, dan alat lainnya, dengan seppek s45c.            ","
              Jl.Dupak Rukun Pasar Loak surabaya stand 1HH / 15 Surabaya            ",Surabaya,Jawa Timur,+81 93-733-1777,085101804460,None
U.D. GEMBONG TEBASAN,"
                                    PREMIUM GOLD
                                ",Baja,"
              Spare part Jeep : Kami menyediakan segala suku cadang Jeep AMERIKA / spare part Jeep Amerika. Mulai dari suku cadang Jeep Ford ( 41-43) , Jeep 44 ( 44-47) , Jeep Willys CJ 3A , CJ 3B , Jeep Mambo , Mitsubishi Jeep , Jeep CJ5 , Jeep CJ6 , Jeep CJ7 , Jeep Wrangler YJ , Wrangler TJ , Jeep Cherokee , Grand Cherokee. Kami juga menyediakan segala keperluan peralatan OFFROAD dan ACCESORIESnya. Produk2 yang lainnya : Jerigen , jurigen , jerry can , winch , towing , Hi Lift Jack , Hitch ball , coupler , remote winch , wireless untuk winch , roller winch , Snatch block , synthetic rope , tali nylon , seling nylon , shackle , kaca spion , kampas kopling , pangkon mesin dll Spare part Jeep / Suku cadang Jeep : Jln. Gembong Tebasan No.9 Surabaya HP : 08123538311 / 087852781414 BB : 25CB91F7 www.sparepartjeep.com            ","
              GEMBONG TEBASAN No .9            ",SURABAYA,Jawa Timur,08123538311,None,None
CV. AIR MAS,"
PREMIUM RUBY
",Baja,"
              Air Mas merupakan Perusahaan Dagang, Importir dan Supplier untuk kebutuhan Industri seperti : Valve, Pipa, Flange, Fitting, Instrument, Spare Part Boiler dan Pneumatic. Dengan berbekal pengalaman yang cukup lama, kami berkomitmen untuk memberikan solusi, cepat delivery tepat waktu, penyediaan barang lengkap dan pelayanan cepat.Untuk Informasi Lebih Lanjut Hubungi :
CV. AIR MASJl. Pejagalan I No. 55 RT 013 RW 003 Pekojan, Tambora, Jakarta Barat
021 - 6983 7055 / 6902 4270811918080 0811915050 081311178080www.airmas55.com ","
              JL. Pejagalan I no. 55 RT 013 RW 003 Pekojan Tambora Jakarta0811918080 0811915050 081311178080             ",Jakarta,DKI Jakarta,+62 811-918-080,None,None
MURIA PILAR ABADI,"
                                    PREMIUM GOLD
                                ",Baja,"
PRODUCT RANGE : * HOT INSULATION - ROCKWOOL - CALSIUM SILICATE - GLASSWOOL - CERAMIC FIBER - ASBESTOS CLOTH - CEMENT * COLD INSULATION - FOAM GLASS - POLYURETANE - POLYSTERENE / STYROFOAM - POLYETHELENE - AEROFLEX - CEMENT - THERMAFLEX * REFRACTORY - CASTABLE - FIRE BRICKS * PARTITION & ACCOUSTIC - GIPSUM BOARD - CALSIBOARD - PROMAT - GLASS CLOTH - THERMACLOTH - HT 800 - BLACK TISSUE, Busa Telor . * ACCESSORIES - S/ S BAND' S CLIP - ALL BAND' S CLIP - MASTIC - ADHESIVE - AL * FOIL * SPINDLE PINS * ETC * METAL JACKETING - ALUMUNIUM SHEET * AL - CORRUGATED * STAINLESS GAVANIZED STEEL - - SOUNDPROOF - PEREDAM SUARA - PIPE SUPPORT / PENYANGGA PIPA ","
              Jl.M.KAHFI I Gg.MENINJO NO.57  Rt 06 Rw.05 CIGANJUR JAGAKARSA JAKARTA SELATAN            ",Jakarta Selatan,DKI Jakarta,+81 3-8438-4874,None,None
Pt Cahaya Bertha Utama,"
                                    PREMIUM GOLD
                                ",Baja,"
PT CAHAYA BERTHA UTAMA sebagai stockies dan distributor untuk produk material steel bagi perindustrian & project di Indonesia. Kami spesialis dalam mensupport ( mensuply ) kebutuhan proyek – proyek industri seperti : Oil & Gas, Pipelines, Konstruksi, Pembangkit Listrik ( Power Plants ) , Pembuatan Kapal ( Ship Building ) , Boiler, Pulp & Paper, Chemical, Dll. Adapun material yang dapat kami suply sebagai berikut : * PIPA : Carbon steel, Galvanis ( Welded & Seamless ) API 5L, A 106 Gr. B, A 53 Gr. A/ A 53 Gr. B, Gr.X 52 Size : ½ ” – 32” Spiral Welded Steel Line Pipe Size : ½ ” – 120” Stainless Steel Pipe SUS 304, 304L, 316, 316L Size : ½ ” – 24” Alloy Steel Pipe A333 Gr. 6, A335 P5, P11, P12 Tubing SS 316, 316L * Fitting : Elbow Tee Reducer Concentric & Eccentric Union Coupling Half Coupling Hex Plug Thredolet Weldolet Sokolet Dll Sch 10, 20, 30, 40, 60, 80, 120, 160 Class # 150, # 1000, # 2000, # 3000, # 6000 Carbon Steel : ASTM/ ASME SA234 WPB, WPC, WPL6, A 105 Alloy steel: ASTM/ ASME SA234 WP5, WP9, WP11, WP12, WP22, WP91 * Flange Weld neck Flange Slip On Flange Blind Flange Socket Weld Flange Lap Joint Class # 150, # 300, # 600, # 900, # 1500, # 2500, JIS 10K, PN 10, 16 Dll Matr’ ASTM A105 ASTM A182 304, 304L, 316, 316L ASTM A350 LF 2 * Valve Gate Valve Glove Valve Check Valve Ball Valve Butterfly Valve Knife Gate Valve Strayner Type : ANSI, JIS, PN Matr’ A 105, A216WCB, A 350 LF2, SS 304, 304L, 316, 316L Brand : Kitz, Tomoe, Toyo, GLT, James Bury * Steel Construction H – Beam IWF Steel Angle Assental Plate Channel U CNP Matr’ SS 400, A36, A 516 Gr. 70, SS 202, SS 304, 304L, SS316, 316L Pressure Vessel, Boiler Plate Dll RUBBER HOSE INDUSTRIAL, FLEXIBLE METALIC HOSE, HIDRAULIC HOSE, FLEXIBLE RUBBER HOSE, CAM LOCK, QUICK COUPLING, FIRE HOSE, DAN PRODUK-PRODUK STEEL DAN HARDWARE LAINNYA Untuk kepuasan client, kami Pt Cahaya Bertha Utama memberikan pelayanan maksimal berupa pengiriman material untuk wilayah JABODETABEK dengan tepat waktu tanpa biaya tambahan, dan selalu siap melakukan Quality Test untuk semua produk yang ditawarkan serta dapat melengkapi Sertifikat produk yang di jual.
 

Pt Cahaya Bertha Utama
MGK Kemayoran LT GF Blok A7 No 08
Jl Angkasa Kav 8-6 Kemayoran jakarta Pusat 10610

Contact Person : Ita CahayaNo Tlp  : 02165865935No Fax  : 02165865935
Mobile  : 081211663830Mobile  : 081343370422
Email   :  cb_utama@yahoo.com ","
              Pt Cahaya Bertha Utama MGK Kemayoran LT GF Blok A7 No 08Jl Angkasa Kav 8-6 Kemayoran jakarta Pusat 1061002165865935 081211663830            ",Jakarta Pusat,DKI Jakarta,+62 812-1166-3830,+62 813-4337-0422,None
PT. BOSINDO  JAYA,"
                                    PREMIUM GOLD
                                ",Baja,"
              Tentang Kami: PT. BOSINDO JAYA adalah Perusahaan Stokist dan pemasok material seperti Pipe, Fittings, Flanges, Valve, Aksesoris Pipe, Steel konstruksi, Rubber Hose dll. untuk berbagai kebutuhan dari: * Oil & Gas Pipe Lines * Petrochemical * Mining * Power Plant * Cement Lining * Pressure Vessel * Boiler * Jetty * Palm * Tank * Konstruksi Baja dll. Perusahaan kami berkomitmen memberikan pelayanan yang terbaik bagi customer, baik dalam penyediaan kualitas produk, pemilihan produk, harga yang bersaing dan ketepatan waktu pengiriman barang. Kami selalu siap melakukan inspeksi produk sebelum barang tersebut dikirim dan setiap produk yang kami tawarkan adalah baru dan dilengkapi dengan certificate. Untuk informasi dan keterangan segera hubungi kami. Hormat kami, Alvin mobile : 0812 1977 7875 email : alvinhotasi@ gmail.com            ","
              Jl. Raya Bekasi KM 21Kawasan Industri PulogadungGdg PTC Lt. 1 Blok A No.76Jakarta            ",Jakarta Timur,DKI Jakarta,+62 812-1977-7875,None,None
pt.inti karya karisma,"
                                    PREMIUM GOLD
                                ",Baja,"
              PT.INTI KARYA KARISMA adalah suatu perusahaan dagang yang berkembang sangat pesat, khususnya dalam bidang penyediaan barang dan alat - alat untuk kebutuhan industri yang ada di Indonesia, meliputi bidang Valev - Valev, Automation System dan Electrical Components Seperti : PNEUMATIC & HYDRAULICS : SMC, KOGANEI, CKD, KURODA, TAIYO, TACO, ROSS, AIRTAC, TOYOOKI, AUTOGIKEN, DAIKIN, UCHIDA, YUKEN, NOK F- TEC, FUJIKURA, JUNRON, MARUHA, NACHI, SHINDENGEN, MAC, ERACON ( NEW ERA ) PISCO, KONDOH, FOTEK, CHANTO, PNEUMAX, SANG- A, MAC, NUMATICS, MYOTOKU, AURORA CONVUM, KONAN, FUJI SEIKI, KINGSTON, JUNRON, KCC, YPC, BIMBA, FABCO- AIR Etc. CLUTCH & BRAKE ELECTROMAGNETIC : OGURA, SHINKO, OSAKI DENGYOSA, SUNTES, MITSUBISHI, AIRFLEK, PLANOX, MIKKI PULLEY, STROMAG, GUMMI, FAWICK, EATON, AUTOGARD, STEARN, ORTLINGHAUS, SIME, BINDER, COREMO, ANTEC, PINTS BAMAG, WARNER, MAYR, AIR CHAMP ELECTRIC & MOTOR : MITSUBISHI, YASKAWA, FUJI ELECTRIC, HITACHI, TOSHIBA, NIKKI DENSO, TSUKASA, TAMAGAWA SEIKI, NISSEI, OGURA, OMRON, RORZE, SANYO DENKI, SAWAMURA, TAMAGAWA SEIKI, ORIENTAL, VEXTA, PANASONIC, YAMATAKE, SHINKO, SHIMPO, NIDEC, MIKI PULLEY, ITOH, MAKISHINKO, TSUBAKI, PATLITE, USHIO, IDEC IZUMI, HANYOUNG, PHILIPS, OSRAM, TOYO FAN, TDK, KOINO, ALPS, NIKKAI ( NKK ) SENSOR & CONTROLS : OMRON, SUNX, SHINKO, KEYENCE, RIKEN, NATIONAL, YAMATAKE, SEEKA, HONEYWELL, IFM, KOYO, EUROTHERM, PEPPERL+ FUCHS, BALLUFF, PILZ, SICK, TURCK, DATASENSOR, TAKENAKA, IDEC IZUMI, KOINO, TOYO , NIPPON AUTOMATION POWER SUPPLIES : COSEL, NEMIC LAMBDA, OMRON, MATSUSHITA, MEAN WELL, ASTEC, MURR, SPELLMAN, ZENTRO, XP Power Supplies COOLANT PUMP : MITSUBISHI, NIPPON OIL PUMP, FUJI ELECTRIC, TERAL TROCHOID PUMP : NIPPON OIL PUMP, FUJI, MITSUBISHI BEARING : THK, IKO, NSK, NB, NMB, EZO, KURODA, SAMICK, HIWIN, NTN Etc TEMPERATURE CONTROL : RKC, TOHO, SHIMADEN, FUJI ELECTRIC, HONEYWELL, ASAHI KEIKI, YOKOGAWA, AMETEK, DYWER, TESCOM, SHIMAX, OPTEK Keuntungan dari pelayanan kami adalah sbb: Untuk permintaan penawaran harga silahkan e- mail ke : PT.INTI KARYA KARISMA Hp : 081286783132, 081218651189 Tlp : 021- 50408997 E- mail : pt.intikaryakarisma@ yahoo.co.id            ","
              Mega Glodok Kemayoran            ",Jakarta,DKI Jakarta,+62 812-8678-3132,None,None
Virindo Steel,"
                                    PREMIUM GOLD
                                ",Baja,"
PT. VIRIYA MAHA INDOTAMA PERKASA Distributor Stainless Steel & Alluminium PlateKami menyediakan material stainless steel Grade 201,304,430 & 316L dan Alluminium PlateSTAINLESS STEEL- Plat Stainless Lembaran- Plat Stainless Coil- Plat Warna Stainless- Plat Bordes Stainless - Plat Lubang Stainless- Siku Stainless- AS Stainless- Hollo Stainless- Pipa Ornament Stainless- Pipa Schedule StainlessALLUMINIUM- Plate Alluminium Lembaran- Plete Alluminium Coil- Plate Bordes AlluminiumVIRINDO PERKASA PT. VIRIYA MAHA INDOTAMA PERKASA Kawasan PerGudangan BIZPARK Pulo Gadung Blok A5 No. 35 Jl. Raya Bekasi KM 21,5 Rawa Terate Cakung Jakarta Timur. 13920http://virindo.comCall/WA   (082122370361) (081519536367)            ","
              Kawasan PerGudangan BIZPARK Pulo Gadung Blok A5 No. 35 Jl. Raya Bekasi KM 21,5 Rawa Terate Cakung Jakarta Timur            ",Jakarta Timur,DKI Jakarta,+62 821-2237-0361,None,None
PT.DWITAMA SUKSES MANDIRI,"
                                    PREMIUM GOLD
                                ",Baja,"
Kami PT. DWITAMA SUKSES MANDIRI adalah salah satu perusahaan terkemuka dibidang perdagangan Steel diantaranya : Pipa, Flange, Fittings, Valve, Gasket, Steel Kontruksi dan juga Material pendukung lainnya seperti Stud Bolt, Insulation, dll untuk kebutuhan Industri Oil & Gas, Pipe Line, Oil & Gas Production, Petrochemical, Mining, Commercial Construction, Ship Building.
Dan kami telah mensupply material hampir keseluruh wilayah Indonesia. PT. Dwitama Sukses Mandiri berkomitmen untuk memberikan pelayanan yang terbaik kepada seluruh Customer kami mulai dari memberikan respon yang cepat dalam hal memberikan penawaran harga, menyediakan produk dengan spesifiksi yang di minta oleh user untuk menjaga agar kerjasama kami dengan Customer berkelanjutan untuk mencapai kesuksesan bersama
 
Adapun Produk kami diantaranya : 
· Pipa Carbon Steel ERW & Seamless API 5L Gr. B Psl 1 / API 5L Gr. X52 Psl 2 
· Pipa Alloy Steel A335 P11 
. Pipa Cast Iron Xinxing, Oro dan PAM Global
. Pipa Tembaga ( Copper Tube ) 
· Pipa Stainless Steel 304/L & 316/L Welded & Seamless 
· Pipa Hitam Brand ISTW / Bakrie / Spindo / Indal Steel
. Pipa Galvanis SNI Brand ISTW / Bakrie / Spindo / Indal Steel
. Pipa Spiral A252 Gr. 2
· Fitting CS A234 WPB/ A105/SS 304/L & 316/L ( Elbow, Tee, Reducer, Hex Nipple, Swage Nipple
  Full Coupling, Half Coupling, Union, Hex Plug, Bushing)  
· Pipe Hot Induction Bend 3D, 4D, 5D, 6D, 8D, 10D Brand Pantec Steel, GBA 
· Ring Joint Gasket, Corrugated Metal Gasket, & Spiral Wound Gasket 
· Valve A216 WCB/Cast Iron/ SUS 304/SUS 316 ANSI 150# ( Ball Valve, Gate Valve, Globe Valve
   Swing & Wafer Check Valve, Y-Strainer, Butterfly Valve, Knife Gate Valve, dll)  
· Flange CS A105/ SS 304/L, 316/L ( Slip On, Blind, Welding Neck, Socket Weld, Threaded dll) . 
· Instrument Fittings : Male & Female Connector, Union, Redusing Union Connector, Union Tee
  Bulkhead Union Connector dll Brand Swagelok, Parker, Fujikin, Hylok dan Pressure Gauge  
· Instrument Valves : 3 Way Manifold, Ball Valve Tree Pieces, dll Bran Swagelok, Whitey, Parker 
· Insullation ( Rockwool, Glasswool) 
. Wrapping Tape Polyken, Primer
· Plate Boiler ASTM A516 Gr. 70
. Steel Pate A283/ A285 Gr. C, A36, SS 400, SPHC, SPCC, dll 
· Plate Kapal BKI, ABS ( 5’ x 20’ - 8’ x 30’ ) dll 
· Plate Steel ASTM A36, SS 400, SPHC, SPCC, dll
 
Dengan Mengacu standar API, ASTM, ANSI/ASME, JIS, DIN & SNI dan telah menjadi kebijakan perusahaan kami untuk selalu meningkatkan mutu pelayanan kami
Silahkan Hubungi Sales kami di :
PT. DWITAMA SUKSES MANDIRI
Mega Glodok Kemayoran Lt. GF Blok A8 No. 3
Telp : 021 - 29070632, 29134034, 29135021
Fax   : 021 29134032
Whatshapp : 081293367825
Up :
Erik                   - marketing01.dsm@gmail.com
Sihar                 - marketing02.dsm@gmail.com
Erwin                 - marketing03.dsm@gmail.com
Abdi Andreas     - marketing06.dsm@gmail.com
 ","
              Mega Glodok Kemayoran Lt. GF Blok A8 No.3 Kemayoran            ",Jakarta Pusat,DKI Jakarta,+62 812-9336-7825,None,None
GARUDA TROPHY ADV,"
                                    PREMIUM GOLD
                                ",Baja,"
              Tempat Pusat Produksi, Jual Beli, Bikin Sedia Menjual Membuat PLAKAT, TROPHY, AWARDS , PIALA, MEDALI, Prasasti, Souvenir, PLAKAT KRISTAL, Akrilik, Granite; Resin, Jasa Cari Menyediakan Cetak Pembuatan Bikin Kilat Cepat Singkat Murah : Plakat Kristal, Plakat Resin, Plakat Fiber, Plakat Akrilik, Plakat Crystal, Plakat Kayu, Plakat Laser, Piala Kristal, Piala Resin, Piala Fiber, Piala Akrilik, Piala Krystal, Piala Kayu, Piala Laser, Trophy Kristal, Trophy Resin, Trophy Fiber, Trophy Akrilik, Trofi Crystal, Trophy Kayu, Trophy Laser, Trofi Kristal, Trofi Resin, Trofi Fiber, Trofi Akrilik, Trofi Kayu, Trofi Laser, Award Kristal, Award Resin, Award Fiber, Award Akrilik, DLL Disaat sekarang ini banyak sekali kegiatan atau acara yang membutuhkan dukungan informasi untuk kegiatan tersebut. Salah satu pendukung yaitu dengan diadakannya barang berupa PLAKAT yang dimaksudkan untuk sebagai cindera mata. Disamping sebagai gift atau hadiah, PLAKAT maupunTROPHY juga bisa digunakan sebagai salah satu media promosi untuk produk kita atau kegiatan yang akan/ atau sudah dilaksanakan sehingga dapat dijadikan kenang-kenangan. Kami Garuda Trophy Adv, sebagai pelaku usaha di bidang Produksi PLAKAT ingin membantu kepada semuanya untuk mewujudkan keinginan pengadaan PLAKAT atau TROPHY tersebut. Usaha Kami bersifat Rumahan ( home industri) dengan dukungan mitra kerja. Namun demikian kami akan sangat memperhatikan pesanan sesuai dengan kebutuhan tanggal acara. Adapun jenis PLAKAT: Plakat Kristal, Plakat Resin, Plakat Fiber, Plakat Akrilik, Plakat Crystal, Plakat Kayu, Plakat Laser, Piala Kristal, Piala Resin, Piala Fiber, Piala Akrilik, Piala Krystal, Piala Kayu, Piala Laser, Trophy Kristal, Trophy Resin, Trophy Fiber, Trophy Akrilik, Trofi Crystal, Trophy Kayu, Trophy Laser, Trofi Kristal, Trofi Resin, Trofi Fiber, Trofi Akrilik, Trofi Kayu, Trofi Laser, Award Kristal, Award Resin, Award Fiber, Award Akrilik, DLL yang sering kami terima order biasanya untuk kebutuhan Seminar, Diklat, Lokakarya, Simposium, Raker, dan lain-lain. Kami melayani pesanan untuk partai besar dan kecil. HUB : 082111235253            ","
              Pusat Perdagangan Senen Blok V Lt II No. 213 Jakarta Pusat            ",Jakarta Pusat,DKI Jakarta,+82 11-123-5253,None,None
PT. SINERGITAMA PERKASA,"
                                    PREMIUM GOLD
                                ",Baja,"
 
PT. SINERGITAMA PERKASA adalah perusahaan terkemuka dalam hal penyediaan dan pemasok kebutuhan Oil, Gas & Petrochemical Project, Geothermal Project, PDAM Project, Commercial Contruction Project, dan juga pembagunan Dermaga.
 
Adapun Produk yang kami sediakan diantaranya : 
· Pipa Carbon Steel ERW, Seamless dan Fittings
· Pipa Cast Iron dan Fittings 
· Pipa & Fittings Stainless Steel 304/ L & 316 / L  Welded & Seamless 
· Pipa Galvanis, Pipa Scafolding Brand ISTW/ BAKRIE/ Spindo/ PPI/ TM 
· Fitting CS A234 WPB/ A105/ SUS 304/ L & 316/ L Sch 10/ 20/ 40/ 80/ 160, # 150/ # 300/ # 600/ # 3000 ( Elbow, Tee, Reducer, Hex Nipple, Swage Nipple, Full Coupling, Half Coupling, Union, Hex Plug, Bushing) 
· Pipe Bend, Hot Induction Bend 5D 
· Flange WN, SO, Blind, Socket, Treaded CS A105/ SS 304/ 316 Ansi 150# , - 2500# type RF, RTJ, FF dll .  
· Insullation ( Rockwool, Glasswool) 
· Plate Boiler ASTM A516 Gr. 70 (4' x 8'; 5' x 20'; 6' x 20'; 8' x 20'; 8' x 30' ) dll 
· Plate Steel ASTM A283/A285 Gr. C; A36, SS 400, SPHC, SPCC, (4' x 8'; 5' x 20'; 6' x 20'; 8' x 20'; 8' x 30' ) dll
 
Jika ingin informasi lebih lanjut, silahkan hubungi kami 
 
Telephone          : 6221 29134032; 29134034; Fax : 6221 29134035 
Contact Person   : Abdi Andreas 
                           Erik
 
Email                 : sales1.sinergitama@gmail.com
                           sales2.sinergitama@gmail.com
                           sales3.sinergitama@gmail.com
 Mobilephone      : 081381003782
Warehouse         : Pergudangan Green Sedayu Bizpark Cakung Blok GS12 No. 008
                           Cakung Jakarta Timur ","
              Mega Glodok Kemayoran LT. GF Blok A8 No. 5; Kemayoran - Jakarta Pusat            ",Jakarta Pusat,DKI Jakarta,+81 3-8100-3782,None,None
PT.TRICON DOS SEJAHTERA,"
                                    PREMIUM GOLD
                                ",Baja,"
              PT.TRICON DOS SEJAHTERA STOCKIST, SUPPLIER & GENERAL CONTRACTOR Jl.Angkasa MGK ( Mega Glodok Kemayoran ) LT.1,Blok.C11 No.19- 20 Telp : ( 021 ) 29070800 Fax : ( 021 ) 29070799 Email:triconsejahtera@gmail.com Dengan hormat, Bersama ini kami ingin memperkenalkan perusahaan kami PT.TRICON DOS SEJAHTERA ( TDS ) sebagai stockies dan distributor untuk produk material steel bagi perindustrian & project di Indonesia. Kami spesialis dalam mensupport ( mensuply ) kebutuhan proyek – proyek industri seperti : Gedung Perhotelan,MALL,APARTEMENT, Oil & Gas, Pipelines, Konstruksi , Pembuatan Kapal ( Ship Building ) , Boiler, Pulp & Paper, Chemical, Dll. Adapun material yang bisa kami supply meliputi : 1.PIPA CAST IRON SBB : * PIPA CAST IRON XINXING * PIPA CAST IRON TIGER * PIPA CAST IRON TYLER * PIPA CAST IRON ORO* PIPA CAST IRON PAM GLOBAL* FITTING CAST IRON * ELBOW CAST IRON * TY 90 CAST IRON * Y BRANCH CAST IRON * REDUCER CAST IRON * DOUBLE Y - BRANCH * 2.PIPA CARBON STEEL ( HITAM ) # * Spesification Of Material * ASTM A106 Gr.B Seamless dan Welded ASTM A53 Gr.B Seamless dan Welded Steel Pipe ASTM API-5L Gr.B Seamless dan Welded Line Pipe Thickness Of Pipe : Sch 10, 20, STD, 40, 80, 160, XS, XXS Brand : China, Jepang, Erofa, Korea. 3. PIPA STAINLESS STEEL# Specification Of Material : ASTM A312 - TP316/ L Seamless and Welded Pipe ASTM A312 - TP304/ L Seamless and Welded Pipe Thikness Of Pipe : Sch 10, 20, STD, 40, 80, 160, XS, XXS Brand : CHINA, JEPANG, EROFA. 4.PIPA HITAM & GALVANIS # Spesification of Material: ASTM A53 Gr.A ERW Pipe ASTM A120 Gr. A ERW Pipe AWWA C 200 Welded Steel Water Pipe Thikness Of Pipe : Sch 10, 20, STD, 40 Brand : China, Lokal ( SNI ) , TM ( Tanpa Merek ) # PIPA SPIRAL WELDED # Spesification Of Material : ASTM A252 Gr.2 Spiral Welded Steel Pipe API 5 L Gr.B Spiral Welded ASTM A 53 Gr.B Spiral olt & Nuts Mechine Bolt dll 5.VALVE  * GATE VALVE     JIS 10K,20K     PN 10,PN16,PN25,PN40     ANSI # 150,ANSI # 300,ANSI # 600,ANSI # 900     ANSI # 1500,ANSI # 2500  * BALL VALVE     JIS 10K,20K     PN 10,PN16,PN25,PN40     ANSI # 150,ANSI # 300,ANSI # 600,ANSI # 900     ANSI # 1500,ANSI # 2500  * GLOBE VALVE     JIS 10K,20K     PN 10,PN16,PN25,PN40     ANSI # 150,ANSI # 300,ANSI # 600,ANSI # 900     ANSI # 1500,ANSI # 2500  * SWING CHECK VALVE     JIS 10K,20K     PN 10,PN16,PN25,PN40     ANSI # 150,ANSI # 300,ANSI # 600,ANSI # 900     ANSI # 1500,ANSI # 25006.CONSTRUCTION :* H BEAM* BESI SIKU* CNP* UNP* BESI BETON* PLATE* BESI WFJika perusahaan bapak membutuhkan material seperti diatas silahkan menghubungi kami ke: Telp 021 - 29070800,Fax 021 - 29070799               Mobile : 081387247601              Email:triconsejahtera@gmail.comAtas perhatian dan kerjasamanya kami ucapkan terima kasihRegardsPeris TPT.TRICON DOS SEJAHTERATelp : 021 - 29070800Fax  : 021 - 29070799Mobile : 081387247601Email:triconsejahtera@gmail.com            ","
              Jln.Angkasa,Gedung MGK ( Mega Glodok Kemayoran ) Lt.1 Blok : C11- No.19-20            ",Jakarta Pusat,DKI Jakarta,+62 813-8724-7601,None,None
BAJA INDO PRIMA,"
                                    PREMIUM GOLD
                                ",Baja,"
Selamat Datang di Website Toko Baja Indo Prima. Kami merupakan perusahaan yang berdiri sejak 2000 bergerak dalam industri Flange, Baut, Expanded Metal, Pipa, Reducer, Plat. Kami berada di Gedung Mega Glodok Kemayoran Jl. Angkasa Lt. GF No. A3-7.Temukan berbagai produk terbaik kami (Alat teknik, Flange, Fitting Besi, Pipa Besi, Valve, Plate Besi) dengan kualitas dan harga jual terbaik yang bisa Anda dapatkan.
Untuk Pemesanan Hubungi : 
Baja Indo Prima
Gedung Mega Glodok Kemayoran 
Jl. Angkasa Lt. GF No. A3-7.
No Tlp : 02129135969
HP : 081332630614
HP : 082225493941 ","
              Mega Glodok Kemayoran, Lantai GF Blok A 3 No 7 , Jl. Angkasa Kav. B6 - Jakarta PusatNo Tlp : 02129135969HP : 081332630614HP : 082225493941            ",Jakarta Pusat,DKI Jakarta,+62 813-3263-0614,None,None
PT. TRICON DOS SEJAHTERA,"
                                    PREMIUM GOLD
                                ",Baja,"
PT. TRICON DOS SEJAHTERA adalah salah satu perusahaan terkemuka di Indonesia, yang dikenal sebagai stockist dan pemasok bahan seperti PIPA, PIPA-KELENGKAPAN, FLENSA, katup, GASKET, STUD BAUT, PLATES, dll Kami telah menjalankan bisnis ini selama lebih dari sepuluh tahun . Kami berkomitmen untuk menyediakan produk berkualitas tinggi dan pelayanan yang terbaik dengan tetap menjaga inovasi dan visi untuk mendorong dan membuat perusahaan kami menjadi yang terbesar dan lebih sukses di masa depan. Perusahaan kami juga beroperasi dalam penyediaan dan dukungan untuk proyek-proyek skala besar dan industri seperti: Oil & Produksi Gas, Refining, Petrokimia, Kimia, Pulp & Paper, Power Plant, Jetty, Boiler, Lining Semen, Pressure Vessel, Palm Oil , Pertambangan, Steam dan Heat transfer Liquid Aplikasi, menghilangkan garam, dll Kami menjaga kemitraan lama didirikan dan memiliki hubungan yang baik dengan produsen baja lokal dan asing. Kami telah bekerja untuk proposal atau sejumlah besar proyek-proyek pemerintah atau swasta. Kami memberikan harga yang kompetitif dan kualitas terbaik, perusahaan kami berkomitmen untuk memberikan pelayanan yang terbaik kepada setiap pelanggan dan pengiriman tepat waktu barang. Kami selalu siap untuk melakukan tes pengendalian mutu untuk semua produk yang ditawarkan. Bahan-bahan yang kami tawarkan adalah baru dan dilengkapi dengan sertifikat pengujian dan pabrik.Silahkan jangan ragu untuk menghubungi kami.Di No. 021 2907 0800 Etx. 12Hp.      0812 4334 8962Cp.    Bpk. Efendi Sijabat ","
              Jl. Angkasa, Gedung Mega Glodok Kemayoran, Lt. UG Blok D-11 No. 2 Jakarta Pusat            ",Jakarta Pusat,DKI Jakarta,+62 812-4334-8962,None,None
PT. Sinar Djaja LKS,"
                                    PREMIUM GOLD
                                ",Baja,"


WE ARE THE BEST IN THIS INDUSTRY
PT. SDL is a branch for Stainless Steel divison from PT. Globalindo Anugerah Jaya Abadi.We have been serving the best quality ofAlloy Steel, Carbon steel, Mild Steel, Stainless steel for more than 50 years.As the biggest Steel Distributor and Stockist in Indonesia,we have been trusted by our customers from all over Indonesia and we guarantee the best price and quality of our products.With industrial experts at your service, you can get a consultation based on the project you are working on.Our best quality of products has been tested and certified by the experts in this industry.
 Office:
 Jl. P.Tubagus Angke no 31, Jakarta Barat
 021-2263-1110
Warehouse:
 Jl. Mangga Ubi no 58, Jakarta Barat
 021-5413778
 


 ","
              Jl. P.Tubagus Angke no 31, Jakarta Barat            ",Jakarta Barat,DKI Jakarta,+62 877-8899-3778,None,None
PT ANDALAN BANGUN SEJAHTERA,"
                                    PREMIUM GOLD
                                ",Baja,"
              Penjelasan Ringkas : PT. ANDALAN BANGUN SEJAHTERA Jl. Sumur Batu Raya no. 1 Kemayoran Jakarta Pusat Indonesia - 10640 Telp : 021 - 42803207, 4227517 Fax : 021 - 42803208 Contact Person : Marketing : email : sales@andalanbangun.com Marketing : Bpk Juni Mobile : +62811 198 0702 Kami menyediakan alat-alat laboratorium & Intrument untuk berbagai keperluan dan kebutuhan dari berbagai merek alat-alat laboratorium berupa: Microbiology, Chemical and Reagent, Laboratory and Scientific Equipment, Medical Equipment, dan Glassware. Product : HACH, MEMMERT, OHAUS, KETT, KERN, TAKEMURA, EPPENDORF, BOECO, JULABO, CORNING, AXYGEN, PYREX, IWAKI, WHATMAN, SOCOREX, BRAND, IKA, ADVANTEC, DIFCO, MERCK CHEMICAL, SIGMA ALDRICH, DURAN, LOVIBOND, INTERSCIENCE, SEWARD, HETTICH, METTLER TOLEDO, ALL AMERICAN, ATAGO, AZ Instrument, BROOKFIELD, CRITERION, EXTECH, FUNKE GERBER, GEMMY, GFL, GILSON, HANNA, HIRAYAMA, RION, USBECK, GOSSELIN, DAIHAN LABTECH, THERMOSSCEINTIFIC, etc., • GENERAL LAB PRODUCT : BEAKERS - Plastic Beaker - Glass Beaker BOTTLES - Aspirator Bottle - BOD Bottle - Round Bottle - Media Bottle - Reagent Bottle - Sample Bottle - Serum Bottle - Specimen Bottle - Universal Bottle - Wash Bottle CRUCIBLES - Porcelain Crucibles - Silica Crucibles - Platinum Crucibles - Crucible Tong DESICATORS - Desiccators ( Non-Vacuum) - Desiccators ( Vacuum) FUNNELS - Powder Funnels - Utility Funnels - Buchner Funnels - Separating Funnels FLASKS - Baffled Shake Flask - Conical Flask - Dewar Flask - Distillation Flask - Filtering Flask - Flat Bottom Flask - Iodine Flask - Kjeldahl Flask - Round Bottom Flask - Tissue Culture Flask - Volumetric Flask MEASURING CYLINDERS - Plastic Measuring Cyclinder - Glass Measuring Cyclinder PIPETTES - Pasteur Pipette - Transfer Pipette - Measuring Pipette - Volumetric Pipette - Micropipette - Pipette Filler TUBES & VIALS - Capillary Tubes - Centrifuge Tubes - Cryo Tubes - Culture Test Tubes - Durham Tubes - Nessler Tubes - Specimen Tubes - Test Tubes - Scintillation Vials - Others Vials TUBING & CONNECTORS - Tubing Connectors - Rubber Tubing - Silicone Tubing - Teflon Tubing STOPPERS - Cork Stopper - Rubber Stopper - Silicone Stopper - Steristopper - Teflon Stopper SYRINGES - Plastic Syringes - Glass Syringes - Micro Syringes - Syringe Filters PETRI DISHES - Plastic Petri Dish - Glass Petri Dish - Moisture Dish BURETTES - Glass Burettes - Automatic Burretes - Bottle-Top Burettes - Micro Burretes FILTER PAPERS & MEMBRANCES - Cellulose Filters - Glass Microfiber Filters - Membrane Filters INDICATOR PAPERS - Litmus Papers - Cobalt Chloride Paper - pH Paper - Universal Indicator Paper MEASURING INSTRUMENTS - Micrometers - Internal & External Calipers - Vernier Calipers - Thickness Gauges BALANCES & SCALES - Pocket Balances - School Balances - Precision Balances - Analytical Balances - Moisture Balances - Spring Scales - Platform Scales - Hanging Scales METER - pH Meters - EC & TDS Meters - ORP Meters - Combo Meters - DO Meters - COD Meters - Photometers - Turbidity Meters - Lux Meter - Moisture Meters THERMOMETER & THERMO-HYGRO - Laboratory Thermometers - Dial Thermometers - Medical Thermometers - Max-Min Thermometer - Wall Thermometers - Infrared Thermometers - Digital Thermometers - Thermocoupe Thermometers - Thermo-Hygrometers - Data Loggers CENTRIFUGES - Small Centrifuges - Hematocrit Centrifuge - Microlitre Centrifuges - Benchtop Centrifuges - Floorstanding Centrifuges CRUSHING INSTRUMENTS - Blenders - Grinders - Homogenizers - Stomachers - Test Sieves STERILIZERS - Glass Bead Sterilizer - Steam Sterilizer - Sterilizing Tube - Sterilizer Accessories OVENS - Universal Ovens - Vacuum Ovens INCUBATORS - Precision Incubator - Cooled Incubator - CO2 Incubator - BOD Incubator - Shaking Incubator LABORATORY BATHS - Oil Bath - Sand Bath - Shaking Water Bath - Ultrasonic Cleaner Bath - Water Bath HEATING INSTRUMENTS - Bunsen Burners - Dry Block Heaters - Heating Mantles - Hot Plates MIXING INSTRUMENTS - Magnetic Stirrers - Overhead Stirrers - Shakers ROTARY EVAPORATORS - Vertical Type - Diagonal Type MICROSCOPES - Monocular Microscopes - Binocular Microscopes - Stereo Microscopes - Microscope Glass Slides - Microscope Cover Slips - Prepared Microscope Slides REFRACTOMETERS - Brix Refractometers - Digital Brix Refractometers - Salinity Refractometers - Digital Salinity Refractometer - Honey Refractometer VISCOMETERS - U-Tube Viscometers - Rotational Viscometers WATER PURIFICATION SYSTEMS - Water Distiller - Water Deionizer OTHERS • Air Analysis • Air Cleaning • Airflow Meters • Animal Care • Apparel • Aquametry • Asphalt • Atomic Absorption • Autoclaves • Bacon Bombs • Bags • Balances • Barometers • Beakers • Blenders • Blood Collection • BOD • Boiling Chips • Borescopes • Bottles • Bottletop Dispensers • Buchner Funnels • Burets • Burners • Calculators • Calipers • Calorimeters • Centrif uge Tubes • Centrifuges • Centrifugeware • Chemicals • Chlorine Analyzers • Chlorine Meters • Clamps & Supports • Cleaning • Clinical Analysis • COD • Colorimeters • Conductivity • Conductivity Meters • Controllers • Counters • Crucibles • Crushing • Cryogenics • Cultur e Media • Culture Tubes • Cuvettes • Cylinders • Dairy Testing • Deionization / Distillation • Desiccators • Discontinued items • Dispensers & Pipetters • Dissolved Oxygen • Dri-Baths • Drug Testing • Dry Baths • Drying Ovens • Educational Products • Electrochemistry • Emergency Equipment • Environmental Chambers • Evaporating Dishes • Extraction Equipment • Extraction Thimbles • Filtration • FisherBrand • Flame Photometers • Flash Point • Flasks • Flocculators • Flowmeters • Fluorimeters • Food Analysis • Food Processing • Freezers • Fume Hoods • Funnels • Furnaces • Furniture • Gas Chromatography • Gas Regulators • General Laboratory • Glassware • Glassware Dryers • Glove Boxes • Gloves • Graduated Cylinders • Hardness Testers • Haws • Health Care • Heating • Heating Blocks • Heating Elements • Heating Mantles • Heating Tapes/ Mats/ Blankets • Histology • Homogenizers • Hot Plates & Stirrers • Humidity • Hydrometers • Hygrometers • Ice Makers • Imhoff Cones • Incubators • Information • ISE • Jars • Karl Fischer Titrators • Kneader • Lab Jacks • Labeling • Laboratory Reactors • Les • Life Science • Light Meters • Liquid Handling • Magnetic Stirrers • Magnets • Materials Testing • Medical Products • Melting Point • Microscopes • Milk Testing • Mixing • Moisture Analyzers • Mortars and Pestles • Multiparameter Meters • Multiwell Plates • Organizers • ORP • Ovens • PCR/ Life Science • Penetrometers • Petri Dishes • Petroleum Testing • pH Buffer Standards • pH Controllers • pH Electrodes • pH Meters & Testers • pH Transmitters • Photometers • Pipet Fillers • Pipet Washers • Pipets • Pipettes • Pipetting • Pitchers • Plastic Labware • Plumbing Fixtures • Polarimeters • Porcelain ware • Pressure Meters • Process Instrumentation • Pumps • Pumps & Dispensers • Pyrometers • Racks • Recorders • Refractometers • Refrigerators & Freezers • Reverse Osmosis Information • Rheology • Rockers • Rotary Evaporators • Rotators • Rubber Stoppers • Rubber Tubing • Safety • Sample Handling • Sample Preparation • Separatory Funnels • Serum Vial Seals • Serum Vial Stoppers • Serum Vials • Shakers • Sieves and Shakers • Siphons & Pumps • Slide Warmers • Soil Sampling • Soil Testing • Solutions • Sound Meters • Soxhlet Extractors • Specimen Containers • Spectrophotometers • Standards • Steam Baths • Sterilizers • Stir Bars • Stirring • Stirring Hot Plates • Stirring Plates • Stoppers • Tachometers • TDS Testers • Teflon Labware • Temperature & Humidity • Test Papers • Test Tube Racks • Test Tubes • Thermal Cyclers • Thermistor Products • Thermocouples • Thermometers • Thermoreactors • Timers and Stopwatches • Titrators • Tools • Trays • Tube Racks • Tubing • Turbidity Meters • Ultrasonic Cleaners • Vacuum Pumps • Vials • Videos • Viscosity • Vortex Mixers • Vwr • Water Baths • Water Chillers • Water Purification • Water Testing • Weather • Weights dan Kebutuhan instrument pendukung Laboratorium            ","
              JL. Sumur Batu No.1 RT.01 - RW.06 Kel.Sumur Batu - Kec.. Kemayoran            ",Jakarta Pusat,DKI Jakarta,+62 811-1980-702,None,None
PT. ANUGRAH CEMERLANG NUSANTARA ( ACN),"
                                    PREMIUM GOLD
                                ",Baja,"
              Bergerak dalam bidang anti karat kapal ZINC ANODE dan ALUMUNIUM ANODE, sedia berbagai ukuran S - B untuk Alumunium dan Zinc Anode. bersertificate BKI, serta menyediakan chemical  PT. ANUGRAH CEMERLANG NUSANTARA Telp : (021) 89601835 Fax : (021) 86902353 contac person Sugeng Prayitno : 081806714949, Soenaryo : 08174873469             ","
              Jl.Curug raya 15c. Pondok Kelapa, Jakarta Timur            ",Jakarta Timur,DKI Jakarta,081806714949,None,None
