Name,Membership,Category,Description,Address,City,Province,telp1,telp2,telp3
PT. JASTRACO PUTRA MANDIRI,"
                                    PREMIUM GOLD
                                ",Undername Import,"
PT. Jastraco Putra Mandiri Adalah sebuah perusahaan International Freight Forwarder terdepan yang memberikan ONE STOP SOLUTION dalam menangani kebutuhan impor dan ekspor perusahaan Anda dengan pelayanan dan harga terbaik. Kami memiliki komitmen tinggi dalam menangani setiap aspek kebutuhan pengiriman barang dengan kompetensi jaringan luas di pelayaran dan kepabeanan.
Sebagai salah satu perusahaan penyedia jasa cargo export import (International Freight Forwarder Company) di Jakarta - Indonesia, Jastraco Logistics senantiasa berusaha memberikan pelayanan yang terbaik untuk setiap customer. Dengan pengalaman lebih dari 10 tahun perusahaan kami telah menjadi partner ratusan customer yang mempercayakan pengiriman cargo mereka, termasuk perusahaan internasional, eksportir, importir, grosir, pengecer, individu, dan toko online.
Kami menyediakan Jasa pengiriman Barang paket melalui jalur darat dengan harga yang kompetitif dan lead time yang sesuai jadwal. Armada kami mempunyai jadwal teratur dan rutin.
Pengiriman Jalur Laut FCL (Full Container Load) - Pengangkutan dengan memakai unit container ukuran D20, D40 feet atau lainnya.LCL (Less than Container Load).
Pengiriman Jalur Udara Pengangkutan barang dan pengiriman cepat melalui pesawat. Pilihan tepat untuk komoditas fashion, sampel dan komoditas lainnya yang membutuhkan waktu cepat untuk tiba di tempat Anda.Waktu pengiriman barang dari negara asal, proses clearance sampai tiba di tujuan terorganisasi dengan jadwal yang tepat dan efisien.
Tidak perlu khawatir akan kehilangan barang. Selama dalam proses pengiriman, setiap barang mendapatkan jaminan keamanan oleh asuransi terpercaya.Kami juga melayani jasa pengurusan Custom Clearance untuk pengiriman laut dan udara dengan waktu yang cepat dan didukung oleh Team kami yang professional. Percayakan administrasi pengiriman atau pengeluaran barang dari pelabuhan muat atau bongkar kepada jastraco Logistics, sebagai solusi untuk kelancaran bisnis Anda.
Hubungi Kami
Yadi 
HP/Wa 081383314342 ","
              Perumahan Cibubur Country, Ruko Food Market 7 No. 26Kel. Cikeas Udik, Kec. Gunung Putri - Bogor 16966            ",Bogor,Jawa Barat,+62 813-8331-4342,None,None
PT. Rajawali Trans Logistic,"
                                    PREMIUM GOLD
                                ",Undername Import,"
PT RAJAWALI TRANS LOGISTICS adalah Perusahaan pengiriman barang domestik swasta yang telah berdiri dan berpengalaman lebih dari 5 tahun. Sebagai penyedia jasa pengiriman barang yang berpengalaman, kami memberikan solusi total rantai pasokan untuk kebutuhan logistik dan manajemen pengiriman (mis. Layanan Door to Door, Pengangkutan, dokumen Pengiriman Barang, dll.)
 
Kami menawarkan semua jenis layanan pengiriman barang di Indonesia, serta transportasi laut internasional. Kami menawarkan solusi transportasi yang disesuaikan dengan kebutuhan dengan harga pasar yang kompetitif. Kepuasan pelanggan adalah prioritas utama kami, kami sangat berkomitmen untuk mencakup seluruh rantai pasokan dengan solusi pengiriman yang dipersonalisasi dan hemat biaya. Kami memastikan bahwa barang Anda sampai di tujuan dengan aman dan dengan harga terbaik. Semuanya diatur oleh tim profesional bermotivasi tinggi dengan latar belakang logistik yang luas. Jadi jika Anda berencana untuk mengekspor atau mengimpor barang dan sedang mencari perusahaan ekspedisi dengan pengalaman dan pengetahuan yang luas tentang peraturan bea cukai di Indonesia, jangan ragu untuk menghubungi kami untuk membantu Anda dalam operasi logistik.
 

TIM KITA
Di PT RAJAWALI TRANS LOGISTICS, kami selalu bekerja dengan hati-hati dalam memilih pribadi yang tepat, berpengalaman, dan sangat terlatih untuk mengelola dan menangani bisnis Anda dengan benar.
 
PENGLIHATAN
Menjadi perusahaan jasa pengiriman dan logistik multinasional di Indonesia.
 
MISI
Membantu pelanggan dalam mengirimkan barang dengan layanan yang sangat baik dan tepat waktu. Dipenuhi dengan tenaga manusia yang andal, transportasi unit tepat waktu, dan harga terjangkau.
 
TAGLINE
‚Äú KEPUASAN PELANGGAN ADALAH HARGA TETAP ‚Äù
 
 
JASA
- Door To Door Project Cargo
- Kargo umum
- Wadah
- Kargo Proyek (mis. Minyak & Gas, Infrastruktur, Proyek Pipa, Semen, dll.)
- Heavylifts dan Turnkey Projects
- Izin Kustom
- Shore Crane, Forklift, dan Unit Medis Lainnya
- Bongkar muat
 
PELANGGAN KAMI
- WIJAYA KARYA, TBK.
- WIKA BETON, TBK.
- ADHI KARYA, TBK.
- WASKITA KARYA, TBK.
- ADHIMIX PRECAST INDONESIA
- STEEL PIPE INDUSTRY INDONESIA (SPINDO)
- PETROWOOD BANGUN MANDIRI
- PENGIRIMAN ADITYA ARYAPRAWIRA
- LAYANAN PEROLEUM HUABEI
- DLL
 
HUBUNGI KAMI
- Jln. Perak Barat No. 171 Surabaya
- (031) 3288-7007-10 / 0813-3250-5800
- rajawalilogistic@gmail.com ","
              KANTOR PUSAT (SURABAYA)üìç Jln. Perak Barat No. 171 SurabayaPHONE / WHATSAPP‚òéÔ∏è 0813-3250-5800‚Äî            ",SURABAYA,Jawa Timur,+62 813-3250-5800,None,None
Pressti Cargo ( Pressti Asia Indonesia ),"
PREMIUM RUBY
",Undername Import,"
PRESSTI CARGO - INTERNATIONAL FREIGHT FORWARDER - CUSTOM CLEARANCE  PRESSTI CARGO ( PT. PRESSTI ASIA INDONESIA ) adalah perusahaan yang bergerak di bidang Jasa Import Import Door To Door, Jasa Import borongan, Jasa Import Undername, Jasa Customs clearance, Jasa Ekspedisi, Jasa Freight Forwarding, Jasa PPJK dan Jasa Export-Import.  JASA FREIGHT FORWARDING PRESSTI CARGO ( PT. PRESSTI ASIA INDONESIA ) membantu anda dibidang Freight Forwarding yaitu pengurusan semua pengiriman dan penerimaan barang melalui darat, laut dan udara.  JASA PPJK PRESSTI CARGO ( PT. PRESSTI ASIA INDONESIA ) membantu anda dalam kegiatan pengurusan pemenuhan kewajiban pabean untuk dan atas kuasa importir atau eksportir.  JASA EKSPOR-IMPOR PRESSTI CARGO ( PT. PRESSTI ASIA INDONESIA )membantu anda memberikan layanan Jasa Ekspor Impor untuk mengurusi barang yang akan anda ekspor maupun impor.  JASA CUSTOM CLEARENCE PRESSTI CARGO ( PT. PRESSTI ASIA INDONESIA ) membantu anda dalam pengurusan customs clearance untuk kegiatan export dan import.  JASA IMPORT DOOR TO DOOR PRESSTI CARGO ( PT. PRESSTI ASIA INDONESIA ) melayani import borongan mulai dari menjemput barang dari shipper dan mengantar sampai ketempat tujuan  JASA UNDER NAME PRESTI CARGO ( PT. PRESSTI ASIA INDONESIA ) Membantu perusahaan-perusahaan yang akan melakukan kegiatan import dari berbagai negara dengan cara Import Lisensi / Under Name,bagi perusahaan yang belum memiliki fasilitas izin import 

PT.PRESSTI ASIA INDONESIA MEMBERIKAN PELAYANAN YANG HEMAT ( MURAH ) DAN CEPAT UNTUK EKSPOR DAN IMPOR BARANG SECARA ‚Äò DOOR TO DOOR‚Äô   Kami adalah spesialis dalam pengiriman barang ekspor dan impor dengan layanan ‚Äò Door to Door Service‚Äô. Melalui layanan ini Kami akan mengangkut barang mulai dari pintu sipengirim sampai ke pintu sipenerima barang. Anda dapat memanfaatkan layanan kami dengan harga terjangkau karena kami menawarkan harga yang kompetitif serta dikombinasikan dengan layanan transportasi cepat ke dan dari berbagai negara di dunia.  JASA FREIGHT FORWARDING ( PT. PRESSTI ASIA INDONESIA ) membantu anda dibidang Freight Forwarding yaitu pengurusan semua pengiriman dan penerimaan barang melalui darat, laut dan udara.  JASA PPJK ( PT. PRESSTI ASIA INDONESIA ) membantu anda dalam kegiatan pengurusan pemenuhan kewajiban pabean untuk dan atas kuasa importir atau eksportir.  JASA EKSPOR-IMPOR ( PT. PRESSTI ASIA INDONESIA ) membantu anda memberikan layanan Jasa Ekspor Impor untuk mengurusi barang yang akan anda ekspor maupun impor.  JASA CUSTOM CLEARENCE ( PT. PRESSTI ASIA INDONESIA ) membantu anda dalam pengurusan customs clearance untuk kegiatan export dan import.  JASA IMPORT DOOR TO DOOR ( PT. PRESSTI ASIA INDONESIA ) melayani import borongan mulai dari menjemput barang dari shipper dan mengantar sampai ketempat tujuan  JASA UNDER NAME ( PT. PRESSTI ASIA INDONESIA ) Membantu perusahaan-perusahaan yang akan melakukan kegiatan import dari berbagai negara dengan cara Import Lisensi / Under Name, bagi perusahaan yang belum memiliki fasilitas izin import
INDONESIA
Pressti Cargo Asia
Our operational hourMon - Sat : 08.00 - 17.00 WIB
AddressJl. Raya Lenteng Agung Kav. 22 no. 20Jakarta Selatan 12610Indonesia
Contact numberPhone : (62-21) 7888 6595 (Hunting)(Mobile) Phone : +62 813 1414 4434 - Ardi(Mobile) Phone : +62 812 8806 5657 - Roki(Mobile) Phone : +62 878 7854 5898 - Yuda
Fax(62-21) 7888 6594 
Emailgeneral@pressticargo.com - general@pressticargo.co.id
Websitewww.pressticargo.co.id
 ( PT. PRESSTI ASIA INDONESIA )  JL. RAYA LENTENG AGUNG KAV 22 NO. 20 JAKARTA SELATAN 12610 Telp : ( 021 ) 7888 6595 Faks : ( 021 ) 7888 6594 Website : www.pressticargo.com  Email: general@pressticargo.com  general@pressticargo.co.id  ","
              Jl. Raya Lenteng Agung Kav. 22 No. 20 Jakarta Selatan             ",Jakarta Selatan,DKI Jakarta,+62 812-8050-7675,+62 813-1414-4434,None
