Name,Membership,Category,Description,Address,City,Province,telp1,telp2,telp3
ABP Mandiri,"
PREMIUM BLUE ONYX
",Plasma Cutting,"
              Abp Mandiri berdiri pada tahun 2005. Perusahaan Kami bergerak dalam produksi logam khususnya untuk spare part sepeda motor. seperti begasi, tutup mesin, setir, planger, pedal rem, paha rem, dll. untuk saat ini, pangsa pasar kami meliputi wilayah jawa, jakarta, bali, kalimantan dll.            ","
              Jl. Kol. Sugiono Ngingas Selatan No. 14B            ",Rt. 03 Rw. 01 Waru Sidoarjo,Jawa Timur,+62 857-3164-0001,+62 812-3276-743,None
Mitra Usaha Mandiri CV,"
                                    PREMIUM GOLD
                                ",Plasma Cutting,"
Kami adalah perusahaan produsen dan penyalur barang-barang keperluan industri dan rumah tangga, diantaranya :
- Pengolahan air bersih dan air minum diantaranya : filter air bersih, filter air PAM, filter air sumur, filter air sungai, filter air danau, filter air limbah, filter softener, filter demineraliser, filter besi dan mangan, filter demin TDS = 0, filter penjernih air rumah tangga, filter RO alkalin, filter kolam renang, mixed bed filter, filter ultra filtrasi dan lain-lain.
- Filter Media, diantaranya : Pasir silika Bangka, pasir silika Lampung, pasir silika Tuban, pasir silika Rembang, gravel silika, batu silika, tepung silika, pasir aktif, resin kation, resin anion, resin softener, resin mixed bed, resin Purolite, resin amberlite, resin dowex, resin lewatit, karbon aktif AXO, karbon aktif KSH, karbon aktif powder, karbon aktif granular, karbon aktif tempurung kelapa, karbon aktif batu bara, karbon aktif premium, karbon aktif davao, karbon aktif Haycarb, antrasit filter media lokal, antrasit filter media import, ferrolite, manganese green sand, zeolit dan manganese green sand plus. 
- Mendesain Dan Merakit Pembuatan Air Demin Dari Bahan Abaku Air Laut, Air Payau, Air Tawar Dll.
- Mendisain Dan Merakit Pengolahan Air Baku Menjadi Air Minum Sehat Dengan Kualifikasi Tertentu, Seperti Air Alkali (Ph 8), Air Anti Oksidan, Air Murni (Tds)Kami menyediakan Mesin Ro Air Laut, Mesin Ro Air Payau, Mesin Desalinasi Air Laut, Mesin Penyulingan Air Laut, Mesin Pengolah Air Laut Menjadi Air Tawar, Mesin Swromesin Ro Murah, Jual Pasir Silika Murah, Agen Pasir Silika, Distributor Pasir Silika. ","
              Jl. Pucang Anom no. 22, Surabaya             ",Surabaya,Jawa Timur,+62 812-3459-0404,+62 822-3333-4224,None
Supra Karya Mandiri,"
                                    PREMIUM GOLD
                                ",Plasma Cutting,"
              cv supra karya mandiri adalah perusahaan yang bergerak dibidang pengadaan barang dan jasa untuk kebutuhan mesin mesin las co2 mig, tig argon, stick smaw dengan merk merk handal seperti PANASONIC, OTC,MAC,NAKAMA, cnr,daesung, helvi dan yang lainnya perahu karet, ban renang double dan single, banana boat, perahu rafting, helm, dayung dan keperluan untuk repasi/ repair perahu karet dan ban renang seperti lem PVC, lem hypalon, pembersih lem/ liquid glue cleaner, dan kebutuhan industri khususnya alat-alat tehnik seperti : selang single untuk gas lpg/ achythelene, oksigen, selang double untuk gas lpg/ achethelene, mesin-mesin las stick/ SMAW/ MMA portabel inverter dc120A, 160A, 200A, 315A, 400A, mesin las tig inveter 160A, 200A, 315A, 500A mesin las co2 inveter 350A, 500A, mesin las thyristor tig/ co2/ SMAW dengan merk: PANASONIC KR350II, PANASONIC KR500II, PANASONIC WP300,NAKAMA, NICHIA-JAPAN AC TRANSFORMER, TEHNICA, NORITECH , CHINA, OTC , welding cable SUPERFLEX , TEHNICA, BLACK CHINA, PAINT MARKER MARKAL USA thermomelt stick, B pain stick, Dalo marker, kedok las automatic made in swizzerland, LENCO, WELDCRAFT TIG ACCECORIES, DRIIL SHARPENER pengasah mata bor DRILLDOCTOR USA 350/ 300X, 500X, 750X, MIG GUN PANASONIC, REGULATOR CROWN PANASONIC fcr226, 2503, 803 FOR CO2, FOR ARGON NEW CROWN FR-1, REGULATOR LPG, ACY, OKSIGEN, UNILIGTH, TUNGSTEN RED , GREEN, COLLET , COLLET BODY, selang oksigen acythelene, single doubel, heating torch chiyoda. untuk info lebih lanjut mohon hubungi: miss Annie hp. 081316496477 atau robert hp: 08118682122 telp.021-6451105 fax 021-6451093 email : suprakaryamandiri@gmail.com kami juga menerima perbaikan/ repair untuk perahu karet dan ban renang berbahan PVC dan hypalon"" "" kami juga menerima perbaikan mesin las berbagai merk: panasonic, miller, lincoln engine, cnr, daesung, tehnica, weldteco, SAF, essab, fronius, hillman, shyuan, WIM, dragon, Nichia, daichi, MAC japan etc"".            ","
              jalan pademangan raya 8 no.13 pademangan timur             ",jakarta utara,DKI Jakarta,+81 3-1066-0744,None,None
