Name,Membership,Category,Description,Address,City,Province,telp1,telp2,telp3
CV. MEGASUKSES,"
                                    PREMIUM GOLD
                                ",Driver,"
              Support industri, Industrial supplier. Menyediakan segala support industri, komponen electronics, IGBT Power Modules, Standard Parts, Spare Parts Mesin, Aksesoris fargo printer hdp 5000, YMCK Ribbon, Film Ribbon, cleaning kit dll. Interested, please call or send message via email Komponen elektronik: MITSUBISHI IPM DIPIPM Tyristor Module MOSFET Modules Darlington/ Transistor Module HVDIODE Modules IGBT Modules SANREX Thyristors IGBT Modules 3 Phase SCR 3 Phase Diode Diode Module Diode Bridge Thyristor Module Stud Tyristor Darlington Mosfet Triac IXYS POWER SEMICONDUCTOR MIDORI POTENTIO METERS SAKAE POT EUPEC Thyristors IGBT Modules Thyristor Module Diode Module Disc Tyristor Stud Tyristor SEMIKRON Thyristors IGBT Modules Thyristor Module Thyristor / Diode Modules Diode Bridge 3 phase Diode Module Disc Tyristor & Diode Stud Tyristor & Diode Darlington Mosfet FUJI ELECTRIC IGBT Modules PIM IGBT Modules 6-Pack IGBT Modules 4-Pack IGBT Modules 2-Pack IGBT Modules 1-Pack IGBT Modules IPM IGBT Discr TOSHIBA IGBT Module CRYDOM Solid State Relays SIEMENS Disc Thyristor IR / VISHAY IGBT Diode Thyristor Module Thyristor Diode Module Diode - Module Stud thyristor SCR - M NIHON Diode Module Diode Bridge Disc Thyristor GTO   Jika Anda berdomisili di Indonesia | Jakarta | Bandung | Bogor | Tangerang | bali | pekanbaru | yogyakarta | pontianak | banjarmasin | balik papan | bekasi | batam | semarang | surabaya | medan | banda aceh | makasar | palembang | padang | pontianak | cari IGBT| komponen elektronik | kami siap kirim ke kota anda, seluruh indonesia | cek harga | distributor | agen | terlengkap            ","
              Komplek Ruko San Fransisco, Blok A1 No 14, Depan Perum. Putri Tujuh, Batu Aji

Telp : 0778 3850407: WA 081283446344,  081276662006            ",Batam,Kepulauan Riau,+62 812-8344-6344,None,None
CV. BERKAT JAYA ABADI,"
                                    PREMIUM GOLD
                                ",Driver,"
              Mengambil respon ini sebagai moto, PT. Berkat Jaya Abadi, didirikan di surabaya pada tahun 2001 dengan tujuan untuk berkontribusi pada proses modernisasi, khususnya dalam teknologi ilmiah di indonesia , dan berfungsi sebagai langkah awal untuk pembangunan Indonesia. Dengan kekuatan kita pada teknologi yang baik. Sumber daya manusia yang berpengalaman dalam peralatan laboratorium, PT. Berkat Jaya Abadi menyediakan berbagai layanan kepada Pelanggan kami termasuk konsultasi, riset, instalasi dan layanan purna jual. yang selalu berkesinambungan, Kami unggul dalam memasok alat-alat laboratorium untuk perdagangan yang di terima baik oleh pihak proffesional di Indonesia. PT. Berkat Jaya Abadi menyediakan peralatan di bidang Biomolecular, Bahan Kimia, Surface Aerator, Alat-alat Laboratorium. kita tidak hanya akan membantu mereka untuk membangun laboratorium yang sesuai dengan standar GLP. Tetapi juga membantu perusahaan-perusahaan produksi untuk mendapatkan keuntungan untuk mencapai standar GMP kombinasi peralatan laboratorium canggih dan produk yang tahu bagaimana menjadi dasar penting layanan terbaik yang kami berikan. Pasar Indonesia memiliki potensi masa depan yang cerah di bidang peralatan laboratorium. Sebuah perusahaan yang memiliki Visi dan Misi, seperti Berkat Jaya Abadi, tidak akan puas dengan prestasi yang ada. Bisnis yang kita lakukan adalah Bisnis sciense. Ini juga merupakan tugas yang serius akan menguntungkan negara-negara yang terlibat dalam jangka yang sangat panjang di masa depan. Setiap staf di PT. Berkat Jaya Abadi adalah melaksanakan misi meningkatkan teknologi. Kami sepenuhnya berkomitmen untuk berkontribusi untuk membangun jembatan perdagangan dan teknologi antara Indonesia dan Dunia            ","
              Jl.Wonorejo Permai Timur VI no. 6 (Nirwana Eksekutif Blok EE -111            ",Surabaya,Jawa Timur,+62 813-3044-2375,None,None
PT. Total Abadi Solusindo ( Authorized Distributor & General Contractor ),"
                                    PREMIUM GOLD
                                ",Driver,"
              PT. Total Abadi Solusindo adalah Perusahaan yang bergerak di bidang Industrial Automation System & Electrical Component, instruments juga Controls. Perusahaan kami mampu memenuhi semua kebutuhan Industri baik dalam segi penjualan maupun pelayanan. SUPPORT BRAND & ALL MANUFACTURE: AC INVERTER DRIVES : YASKAWA ALLEN BRADLEY ABB MITSUBISHI SIEMENS OMRON SCHNEIDER HITACHI TOSHIBA LS/ LG HYUNDAI PANASONIC SUMITOMO FUJI ELECTRIC LENZE EMERSON FISHER DELTA DANFOSS SANYO DENKI SUOER TECO VACON BOSCH REXROTH EATON KEB AKAO UNICO INVT EWM KACO QUICK CUTES SANKEN BALDOR WELGEN SUNFAR XANTREX PLASMA VICTRON MECHRON ERGUS GENIUS WELDMAN INVERTEK SMA LAMA RCHE TEK-DRIVE PROMAC MIYACHI NOVA ELECTRIC SEW WINNER TAIYO SOLARMAX TELEMECANIQUE THERMAL ARC BRECON WEG ORIENTAL VEXTA NISSEI NORD SANTERNO PARKER SSD IMO PLC ( Programmable Logic Controllers ) : MITSUBISHI OMRON ABB ALLEN BRADLEY SIEMENS IDEC SCHNEIDER KOYO KEYENCE HITECH HITACHI FOXBORO FATEK LS/ LG DELTA NAIS GEFRAN FINDER GE FANUC NATIONAL YOKOGAWA PANASONIC MATSUSHITA UNITRONICS FUJI ELECTRIC TELEMECANIQUE AKIRA HAMILTON MONITOR / HMI ( Human Machine Interface ) : PROFACE WEINTEK HITECH HAKKO KINCO WECON ALLEN BRADLEY MITSUBISHI OMRON SCHNEIDER SIEMENS HITACHI YASKAWA ABB GE FANUC DELTA M2i BEIJER PEPPERL+ FUCHS EATON CIMON FATEK MAPLE SYSTEM KRONO TECH XYCOM ADVANTECH PARKER WEINVIEW PANASONIC RS AUTOMATION - RS OEMAX AU OPTRONICS UNITRONICS TEMPERATURE CONTROLLER : AZBIL YAMATAKE OMRON IFM RKC EUROTHERM SHINKO SICK SIKA FOX E+ E REX TOHO TOKY FUJI ELECTRIC MURR EMKO BETA WEST OMEGA JUMO HYODA TURCK ETAC DELTA FOTEK SUNIL S IRCO SIGMA BAUMER FLUKE WATLOW YAMARI COMARK NAGANO GOSSEN FENWALL FUJITA FI NETEK BURKERT SINYEI AUTONICS SIEMENS MILTRONICS SHIMADEN KERONICS ASHCROFT HANYOUNG SHENG MA ROSEMOUNT HONEYWELL HENGSTLER DATASENSOR SAGINOMIYA SPIRAX SARCO SENSORTRONICS WIKA ENDRESS+ HAUSER SHINKO TECHNOS SANYO TEDEA-HUNTLEIGHT DANFOSS HAYASHI GENERAL INSTRUMENT SANWOH TAKAMISAWA TIPPKEMPER KROHNE WEICHI SENSOR & CONTROL : AZBIL YAMATAKE IFM SICK TURCK OPTEX TAKEX TAKENAKA SUNX GEMS SENSOR IDEC TOKY NAIS KOYO HONEYWELL KEYENCE WECO NAIS PARKER KONICS DATASEN SOR KFPS GEFRAN JOHNSON CONTROLS AUTONICS ANLY DANAHER CIKACHI MICROSWITCH WILLIAM CONTROLS SENSORTRONICS DOTECH TELCO SEEKA INFRA FOTEK LEUZE TOKYO SENSOR RIKEN BAUMER BINDER SENTEC FUTRON SUMTAK BANNER HOKUYO SUNGHO BALLUFF VISOLUX HANYOUNG UB SEIKI SCHUTER ROSEMOUNT AECO NGK DATALOGIC PULSOTRONICS ORION HEIDENHAIN MET ROL DENSO NATIONAL KANSAI WENGLOR OMEGA WATLOW TIPPKEMPER KOMORI FUTEK TELEM ECANIQUE ELTROTEC VIGOR HAMILTON PEPPERL+ FUCHS DATA HARVEST MICRO DETECTOR CONTRINEX TEDEA HUNTLEIGHT SINYEI E+ E ELEKTRONIK KROHNE SIEMENS SCHNEIDER ORION LEUZE ALLEN BRADLEY CARLO GAVAZZI OMRON FUJI ELECTRIC DATALOGIC ROTARY ENCODER & COUNTER : NIDEC NEMICON KOYO TAMAGAWA TAMAGAWA SEIKI SUMTAK HEIDENHAIN OMRON KUBLER HENGSTLER IKA WEST LS MECAPION TOK FUTEK MAHR REP VERTEX TAKEDA THOMAS DEUBLIN SAKURA HAYASHI KASH IYAMA FULLER SHOWA GIKEN DUF-NORTON FUJI SEIKI WILLIAM CONTROL MTL NSD PEPPERL+ FUCHS VISOLUX IFM HUBNER LIKA AVTRON ELCIS TURCK BAUMER ELTRA BALLUFF HOHNER EMETA JDA BEI TEKEL FOTEK DYNAPAR RAYTEC NORTHSTAR SICK EDWARDS STEGMANN DA NAHER PRESSURE & FLOWMETER : FUJI ELECTRIC DWYER KROM SCHRODER MARSH BELLOFRAM SHIMPO IMADA VDO ENERPAC POLYFLEX HERCULES KEM TOSHIBA FLOMEC TURB O ABB NAGANO FUTRON ROSEMOUNT KONICS VEGA GEMS SENSOR KOBOLD ENDRESS+ HAUSER HONEYWELL AB IFM JUMO WIKA SICK OMEGA SUNIL TURCK FUTEK HYODA MARSH A NCHOR BAUMER FISHER NORGREN ASCHROFT OPTEX FA DANFOSS REXPOWER YOSHITAKE HUNTLEIGHT KURTZ SAGINOMIYA SUGINO ASAHI OSAKA TAIYO-HERION TELEMECANIQUE PARKER FINETEK ADTEK EMA LUTRON NOSHOK ADTECH KE LLER K-TEK BARTON SIGNET SCHNEIDER TAKUWA KERONICS SIEMENS-MOORE PENN JOHNSON AIGO MAGNETROL YTC DITECH E+ E MILTRONICS NIPPON ELECTRIC BURKERT TOKICO NITTO TOKYO KEISO ELSTER CROWN NIAGARA KEM-KUEPPERS NUFLO VORTEK ULTRASONIC PEACOCK VEGA BAR WATER METER & TESTER : HANNA WATERFLO BBE B GBX YUKO ASAHI ITRON FUZHOU HORIBA AMICO BOSCO BMETE R TACO EUTECH SHINJU B' BRAND B-METERS KENT SCHLUMBERGER SAPPEL EESIFLO INVENSYS MEINECKE HELLIGE LA MOTTE AQUA METRO FLUKE CHAMPION SONY TREND HI-LO BAKER ASKER HIOKI FUJI SEIKI TOGOSHI ATTONIC TECLOCK DELTA TOYOSEIKI TACHOMETERS : ONO-SOKKI LINE SEIKI HENGSTLER WEST SHIMPO FEMA LUTRON AVTRON KURAMOTO KADOGUCHI SANWA PROV A/ TES RHEINTACHO DYNALCO SANPOMETER PNEUMATIC-HYDRAULICS-PUMPS-VALVE : SMC SUNTES KOGANEI NOP ( NIPPON OIL PUMP ) TERAL TAIYO CKD DAIKIN YUKEN AIRTAC TOYOOKI YTC TACO HITACHI KONAN CHANTO FESTO PISCO ROTORK NORGREN NEW ERA NOK F-TEC AURORA PARKER/ KURODA ASCO ROSS DUNGS JUFAN DELTRON HINAKA NITTO KOYO CR YPC TPC C & C VESTA VERSA WABCO SANKO WATTS AIRTEC HAFNER CONVUM MINDMAN HERCULES SUMITO MO FUJIKURA HUMPHREY NUMATICS UB SEIKI JOUCOMATIC NIHON SEIKI FUJI SEIKI REXROTH EATON NACHI BOSCH RIKEN OGURA BALDOR KAYABA ENERPAC TOKIMEC HO RIUCHI NIHON SPINDLE MAC HERION YPL BIFOLD KANEKO KEIHIN HONEYWELL TOHO TOYO ULVAC ASAHI BANJO ARGUS FABCO ISUKA MAXON ROTEX SHOWA HIROSE YAMATO JOHNSON THOMPSON WEC O SAMSON PASCAL KOSMEK SPIRAX SARCO BODIN EBARA HONDA MARCH KOKEN HANIL SANWA VOGEL ORION FINDER TERADA UC HIDA STUART WILDEN YANMAR ZENITH KOMATSU MITSUBA DAISHIN MONOFLO SIEMENS SUN TEC EBARA POWER CLUTCH & BRAKE : OGURA OSAKI DENYOSHA SHINPONIA SUNTES TSUBAKI MIKI PULLEY MITSUBISHI EATON YASKAWA REXROTH NIIKA TRANTEX MATRIX LENZE NEKEN AIR CHAMP WARNER AIRFLEX CAMCO STROMAG KEB SANYO PLANOX POWER SUPPLY AC-DC CONVERTER : MEANWELL COSEL FINE SUNTRONIX SANYO DENKI OMRON ALLEN BRADLEY SIEMENS TDK-LAMBDA NEMIC LAMBDA IDEC IDEC IZUMI MURR SANKI UNIPOWER METRONIX SANKEN ETA RAFFLES KIKUSUI POWER-ONE PULS EMERSON AEC ARTESYN GOSSEN YAMADA XP FUJI ELECTRIC ITOH LA MARCHE TAPE DISPENSER : ELM YAESU STROBOSCOPE : SHIMPO POKAI MONARCH INSTRUMENT FLUKE LANDTEK APEX MICROSCOPE : OLYMPUS MEIJI KYOWA LEICA INDUCTION MOTOR - SERVO MOTOR - GEAR MOTOR - AC-DC MOTOR & AIR MOTOR : TOSHIBA SIEMENS HITACHI MITSUBISHI YASKAWA LENZE SUMITOMO TSUBAKI YOKOGAW A ALLEN BRADLEY TAMAGAWA STEGMANN CEM SHANGYANG PANASONIC FUJI ELECTRIC ABB HONEYWELL SHINANO ORIENTAL BARCOL-AIR TMEIC SKK SIGMA SEW GTR B ALDOR SNT TVT HORZ BAUER NISSEI SITI XAJONG BISON FLENDER YASKOW TRAMEC DINA MIC TSUKASA BODINE SPG WEG KEB AEG TECO TOYO VDO DAEWO BENTLY ENERPAC GAST H AMILTON RELIANCE FENNER MIKI PULLY SAWAMURA VEXTA HIGEN RORZE ELECTROL SHINKO BAUMULLER ELCO LS MARATHON BOSCH TELEMECANIQUE METRONIX NIDEC TAIYO GLOBE VIBRATOR MOTOR : URAS ADK QUANTUM ITAVIBRAS AVITEQ YASKAWA AEG TRM TORCH VIMEC VIBTEC SIG NAL LIGHTS : PATLITE M-SYSTEM WATANABE AUTONICS HANYOUNG ARROW SHINHO ADTECH SAFETY RELAY : PILZ IDEC IZUMI LEUZE RIKEN AB SIEMENS OMRON SCHNEIDER MITSUBISHI ABB SICK PHOENIX IFM EATON CROUZET EUCHNER HENGSTLER RS COMPONENTS KEYENCEE ALTECH MAUSER PANASONICS WEIDMULLER HONGFA PEPPERL+ FUCHS WENGLOR MURR FARNELL FINDER HITECH MTL INSTRUMENT ZIPPSWITCH FESTO GE CARLO GAVAZZI TAKEX LS FUJI OLGEN SANYU OKITA SUNGHO WILMAR TOKY TOKIN FUJITSU HON EYWELL NATIONAL TOYO SEIKI MATSUSHITA KRAUS & NAIMER FOTEK FINE SUNTRONIX GEMS GRINDING WHEEL : NORITAKE NRS KOYO FUJI MIURA MIWA ANCHOR MITSUI UNTER NORTON Keuntungan dari Pelayanan Kami adalah sbb : - Harga yang kami tawarkan lebih bersaing. - Stock yang cukup lengkap. - Kualitas dan keaslian barang terjamin / Asli dan Brand New - Barang dapat kami kirim sesuai dengan tanggal kebutuhan - Untuk Barang yang membutuhkan import/ indent dari luar, kami memiliki waktu pengiriman lebih cepat. - Kemudahan dalam pembayaran. - Engineering yang handal Untuk Permintaan Penawaran Harga & Stock Silahkan Hubungi Team' S Sales kami Dibawah ini : 
Marketing :1. Yadi. Mobile : + 62-81297691617
Phone : 021 – 80808849 Ext.208
2. Ahmad Sudarman.
Mobile : + 62-81282819147
Phone : 021 – 80808849 Ext.209PT. TOTAL ABADI SOLUSINDO
Authorized Distributor & Energy Management ContractorJl.Dr.Krt Radjiman Widyodiningrat Ruko D'Arcade Blok A19D’Mansion Jatinegara Indah Central Bussiness Park, Pulo Jahe, Cakung , Jakarta Timur 13930Phone   : +62-21-80808849 |Fax.  +62-21-80808848Email   : info@totalabadisolusindo.co.idEmail   : sales@totalabadisolusindo.co.idWeb     : www.totalabadisolusindo.comSUPPORT ALL BRAND & ALL MANUFACTURE :
|INVERTER|PLC|HMI|SOFT STARTER|AC SERVO|SENSOR & CONTROLLER|POWER SUPPLY|CIRCUIT BREAKER & CONNECTOR|TACHOMETER|FILTER|BATTERY CHARGER||ENCODER & COUNTER|SCALE & INDICATOR||FLOW METER|TESTER|WATER METER|SIGNAL LAMP|SAFETY RELAY|LOADCELL|FAN & BLOWER|INSTRUMENTS|GENSET||MODULE|VALVE|PUMP|PNEUMATIC & HYDRAULIC|PRESSURE TRANSMITTER|CLUTCH & BRAKE|ELECTRIC MOTOR|SHOCK ABSORBER|GRINDING WHELL|PANEL|PIPE|CABLE|
  ","
              Jl.Dr.Krt Radjiman Widyodiningrat Ruko D'Arcade Blok A19Jatinegara Indah Central Bussiness Park, Pulo Jahe, Cakung , Jakarta Timur 13930            ",DKI Jakarta,DKI Jakarta,+81 297-69-1617,None,None
PT. SARANA westcar coupling & vibrator motor quantum ( please send email : saranagroup@ cbn.net.id),"
                                    PREMIUM GOLD
                                ",Driver,"
              PT SARANA WESTCAR TRANSFLUID & VIBRATOR MOTOR OMB QUANTUM AUTHORIZED DISTRIBUTOR WESTCAR and QUANTUM VIBRATOR in Indonesiatelp 021 6519582fax 65305868-6400893email : saranateknik@cbn.net.idattn: ivanronaldWESTCAR ROTOFLUID s.r.l, MILANO - ITALY WESTCAR began manufacturing and marketing their own line of fluid and flexible couplings in 1978.ROTOFLUID ALFA “ K”ROTOFLUID ALFA “ SCF K”ROTOFLUID ALFA “ DCF K”ROTOFLUID ALFA “ K-S” “ SCF K-S” “ DCF K-S”ROTOFLUID ALFA “ K-LRV” “ SCF K-LRV” “ DCF K-LRVROTOFLUID ALFA “ K-LRU” “ SCF K-LRU” “ DCF K-LRU”ROTOFLUID ALFA “ K-FRV” “ SCF K-FRV” “ DCF K-FRVROTOFLUID ALFA “ K-FRU” “ SCF K-FRU” “ DCF K-FRUROTOFLUID ALFA “ K-AB” “ SCF K-AB” “ DCF K-ABROTOFLUID ALFA “ K-FRD” “ SCF K-FRD” “ DCF K-FRDROTOFLUID ALFA “ K-AFF” “ SCF K-AFF” “ DCF K-AFFROTOFLUID ALFA “ K-FR-PAV” “ SCF K-PAV” “ DCF K-PAVROTOFLUID couplings BETA pulleyROTOFLUID BETA “ X” SCF DCFROTOFLUID BETA “ J” SCF DCFROTOFLUID BETA “ H” SCF DCFROTOFLUID BETA “ Z” -“ ZI” SCF DCF ...QUANTUM VIBRATOR The BM series is a complete range of vibrating motors with foot base mounting, covering most of applications needs on vibrating equipments in the different industrial sectors. All the BM range is manufactured in conformity to the EEC Directives in force ( Safety of Machines 2006/ 42/ CE; Low Tension 2006/ 95/ CE, Electromagnetic Compatibility 2004/ 108/ CE) , and it is available conform to ATEX 94/ 9/ CE, in execution Ex II 3D tD A22 IP65 for zone Dust-22 and 3G EEx nA II T3 for zone Gas-2.Characteristics Transfluid Power Transmission Equipment Transfluid Couplings Transfluid Couplings are used on all types of industrial equipment driven by internal combustion engines and electric motors. They improve overall performance and protect both driving and driven machines Please click on the left menu to access our line of series: K-Series Fluid Couplings KX-Series Fluid Couplings BM Series Flexible Couplings KSL-Variable Fill Fluid Couplings KPT-Variable Fill Fluid Couplings KPTO-Drain-type Fluid Couplings            ","
              Kompleks Perkantoran Sunter Permai Blok B.11 Jl. Danau Sunter Utara Kav.K-2 Sunter Agung            ",DKI JAKARTA,DKI Jakarta,+62 815-1968-4035,None,None
PT PETRO TEKNIK PERSADA ,"
                                    PREMIUM GOLD
                                ",Driver,"
PETRO Teknik Group adalah sebuah didirikan sejak Oktober 1998.Product kami; BALDOR di INDONESIA untuk BALDOR AC MOTOR/ MOTORS BALDOR AC CONTROL BALDOR DC MOTOR/ MOTORS BALDOR DC CONTROL BALDOR EXPLOSION PROOF BALDOR EXPLOSION PROOF MOTOR/ MOTORS BALDOR GEAR MOTOR/ MOTORS RELIANCE di INDONESIA RELIANCE MOTOR/ MOTORS RELIANCE ELECTRIC RELIANCE ELECTRIC MOTOR/ MOTORS RELIANCE EXPLOSION PROOF AUTHORIZED DISTRIBUTOR DODGE di INDONESIA DODGE PARAFLEX COUPLING/ COUPLINGS DODGE PILLOW BLOCK BEARING/ BEARINGS DODGE GEAR REDUCER MOTOR/ MOTORS DODGE GEAR COUPLING/ KOPLING KB ELECTRONICS PENTA POWER KB PENTA POWER DC CONTROLLER MOTOR/ MOTOR.PT PETRO TEKNIK PERSADA ( EXCLUSIVE DISTRIBUTOR BALDOR MOTOR - DODGE REDUCER-BEARING-COUPLING)DISTRIBUTOR RESMI DODGE, RELIANCE, KB PENTA dan BALDOR di IndonesiaWWW.BALDOR.CO.IDEMAIL : petroteknik@cbn.net.id ","
              Kompleks Perkantoran Sunter Permai Blok B.11 Jl. Danau Sunter Utara Kav. K-2 Sunter Agung email : petroteknik@cbn.net.id            ",DKI JAKARTA,DKI Jakarta,+62 815-1968-4035,None,None
PT. SARANA TEKNIK,"
                                    PREMIUM GOLD
                                ",Driver,"
              PT.SARANA TEKNIKTEL 651 9582FAX 65305868-6400893EMAIL : saranagroup@ cbn.net.idwww.sarana-teknik.comPT. SARANA TEKNIK Distributor, penjual, stockist, Bearing, Coupling, Electric motor, servomotor, gardan shaft, conveyor, powerlock, pump industrial, vacum pump, gear pump, universal jointing, belt konveyor, ban berjalan, blower, gearbox, Pulley, sprocket, variator, Lowara pump, ebara pump, baldor electric motor, rexnord Coupling, reynold coupling, yuema pump, cnp pump, sihi pump dll check di website kami www.sarana-teknik.com dan hubungi nomor kami untuk keperluan anda.Kami telah mendidedikasikan diri untuk memecahkan masalah-masalah industri Kami didukung oleh engineer yang sangat ahli serta divisi penjualan kami dan perwakilan layanan pelanggan yang terlatih memberikan bantuan teknis kepada pelanggan kami selalu akan berusaha untuk memberikan, membantu, memberikan berpengetahuan, dan efisien. Electric Motor Distributor di Indonesia.Pump distributor: Centrifugal pump, vacuum pump, Gear pump, Sihi sterling pump, Lowara pump, ebara pump, CNP Pump, APP pump, Southern cross pump, Franklin electric pump, yuema gear pump, Oriental Koshin pumpElectric Motor: Baldor Electric motor, Explosion Prof motor BALDOR, CMG ac dc electric motor, Bonfiglioli electric motor, westcar electric motor, toyo electric motor, electrim electric motor, yuema electric motor, motovario electric motor, Mitsubishi electric motor, quantum electric motor, Siemens electric motor, reliance electric motor, teco electric motor. Gear dan gear motor; Bonfiglioli Ridutori gear motor, Yuema gear motor, Mitshubishi gear motor, Motovario gear motor, Quantum gear motor, Reliance gear motor, Siemens gear motor, Teco gear motor, Flender gear motor, fenner gear, Omega Motori gear reducer. Coupling, Centa, Transfluid coupling, Dodge coupling, falk coupling, Fenner coupling, Flender coupling, addax coupling, IDD-FCL Coupling, KOPFLEX coupling, KTR coupling, LoveJoy coupling, Masterflex coupling, Mitsuboshi coupling, NBK coupling, Normex coupling, Rahthi coupling, Rexnord coupling, Seisha coupling, TB WOOD' S coupling, Thomas coupling, Tsubaki coupling, Westcar coupling, Chain: Link-Belt, AVE, Rexnord, Tsubaki, Fenner, Renold, DID, MTK. Sprocket: Mtk sprocket, Tsubakhi sprocket, Renold sprocket Pulley: Fenner pulley, Master Pro pulley, NBK pulley, Gardan shaft: GWB cardan shaft, KKN cardan shaft, Quantum cardan Shaft, San Kyu cardan shaft Pump: Koshin pump, Southern Cross pump, Sterling Sihi pump. Material Handling: Jointing, Universal jointing: KTR, Quantum, Sankyu Blower: Cuan Fan blower. Power Lock, Locking Bush: Quantum. Sprocket: MTK Sprocket, Tsubaki Sprocket, Renold. Pulley: Fenner Pulley, Master Pro Pulley, NBK Pulley. Gardan Shaft: Gwb Cardan Shaft, Sankyu Gardan Shaft, Quantum cardan Shaft. Jointing: Ktr jointing, Quantum jointing, Sankyu jointing, Universal Jointing. Conveyor belt: Link belt conveyor, continental conveyor, Star Conveyor, Flexco conveyor. Bearing: Fag bearing, SKF Bearing, NTN Bearing, INA Bearing, Iko bearing, dodge bearing, rexnord bearing, linkbelt bearing, morse bearing, seal master bearing, Timken bearing, nsk bearing.Kami mempertahankan tingkat tertinggi pengetahuan tentang semua produk kami. Silakan hubungi kami di alamat berikutHEAD QUARTERPT. Sarana TeknikPhone : ( 021) 651-9582 ( Hunting)Fax : ( 021) 65305868 - 6400893Fax Bebas Pulsa : 0800-1-666-777Email : saranagroup@cbn.net.idWebsite : www.sarana-teknik.comRepresentative;Jl. Raya Industri No.54 Jababeka Cikarang - IndonesiaTelp : ( 021) 8983 5649, 8983 5702, 3013 3532Fax : ( 021) 8983 5882Email : sarana_ cikarang@cbn.net.idRuko Sentra Tropodo Blok C7 Jl. Raya Tropodo No.115 Waru, SurabayaTelp : ( 031) 868 5823 - 24Fax : ( 031) 868 5825Email : sarana_ surabaya@cbn.net.idJl.Imam Bonjol No.61 Dadapsari Semarang 50173Telp : ( 024) 3566 377, 3566 365Fax ( 024) 356 9019Email : sarana_ smg@ cbn.net.idJl.Cendrawasih IV No.4 Rt 39 Komplek Bumi Lingkar Basirih Banjarmasin-Kalimantan Selatan 70246Telp : ( 0511) 4225 020, 0815 9633116 Fax ( 0511) 4225 010Email : saranabanjar@cbn.net.idJ            ","
              Kompleks Perkantoran Sunter Permai Blok B.11, Jl. Danau Sunter Utara Kav. K-2, Sunter Agung            ",Jakarta Utara,DKI Jakarta,+62 815-1968-4035,None,None
