Name,Membership,Category,Description,Address,City,Province,telp1,telp2,telp3
PT.Rizki Jaya Abadi Transportasi,"
                                    PREMIUM GOLD
                                ",Pelayaran,"
PERUSAHAAN JASA TRANSPORTASI TRUCKING PENGIRIMAN KE SELURUH WILAYAH INDONESIAPengiriman Barang Menggunakan COLT DIESEL, FUSO ENGKEL, TRONTON, TRAILER, LOW BED, SELF LOADER, DOLLY, CONTAINER, KAPAL TONGKANG, KAPAL LOS CARGO & KAPAL LCT? Melalui Darat dan Laut? KAMI SOLUSINYA !!! Kami melayani pengiriman barang partai besar maupun kecil ke seluruh wilayah IndonesiaVISI Perusahaan :Menjadi perusahan jasa transportasi yang BERKUALITAS, BERINTEGRITAS, PROFESIONAL, UNGGUL, TERKEMUKA, TERPERCAYA dan TERDEPAN di wilayah Indonesia dalam layanan dan kinerja serta mengutamakan kepuasan pelanggant.
MISI Perusahaan :

Mengembangkan karyawan yang berkompeten dengan menciptakan lingkungan kerja yang baik untuk mendukung tercapainya kepuasan custommer
Membantu Custommer dalam pengiriman barang yang baik dan tepat waktu
Melakukan kegiatan bisnis sesuai dengan standart manajemen CV RIZKI JAYA ABADI
Meningkatkan produktifitas kerja karyawan
Mensejahterakan taraf hidup karyawan
Meningkatkan nilai perusahaan bagi para mitra bisnis
Selalu berinovasi dalam setiap perkembangan
Selalu memberikan pelayanan berkualitas yang terbaik kepada seluruh sutommer

Legalitas Perusahaan :

Nomor Pokok Wajib Pajak ( NPWP) No : 02.938.3031-603.000
Tanda Daftar Perusahaan Persekutuan Komanditer ( TDP) No : 13.17.3.60.05745 berlaku sampai dengan 14 Juli 2019
Surat Ijin Usaha Perdagangan ( SIUP) Disperindag No : 510/ 509-1067/ 404.6.2/ 2019

Beberapa wilayah besar daerah tujuan yang kami tangani adalah sebagai berikut : BALI, JAWA, JAKARTA, SUMATERA, SULAWESI DAN KALIMANTAN Pengiriman VIA â€“ Kapal Los Cargo : BANJARMASIN, BALIKPAPAN, SAMPIT, KUMAI, SAMARINDA, BONTANG, MAKASAR, KUPANG DAN IRIAN JAYA. Untuk Informasi lebih lanjut dan informasi harga dapat langsung menghubungi : CS      : 031-8985294 / 031-8987289 HP      : 0812357777014Email : rizkijayaabadi@ymail.com ","
              Jalan Raya By Pass Krian KM 30 Ruko Keraton Residence Superblock No 9 Krian, Sidoarjo, Jawa Timur, Indonesia            ",Sidoarjo,Jawa Timur,+62 813-5777-7014,+62 813-5469-7558,+62 812-1782-9942
