Name,Membership,Category,Description,Address,City,Province,telp1,telp2,telp3
PT. PAVA MANDIRI,"
PREMIUM RUBY
",Forklift,"
PT. PAVA MANDIRI berdiri sejak tahun 2015 bergerak dalam bidang fabrikasi berbagai macam part industri yang berbahan POLYURETHANE
Produk yang kami hasilkan seperti : 
Pigging pipa, 
Roda forklif, 
Belt cleaner dll.
 
Polyurethane  yang biasa disebut PU merupakan bahan cat premium yang berkualitas tinggi. Bahan yang dihasilkan dari POLYMERISASI dari URETHANE. Urethane dihasilkan dari reaksi antara Polyisocyanete dengan bahan yang mempunyai gugus Hidroksil. Pada umumnya yang dinamakan PU adalah suatu bahan yang terdiri dari dua komponen dimana terdapat bahan PU dan isocyanete sebagai Hardener, Bahan ini merupakan suatu jenis coating yang bisa menghasilkan lapisan film yang kuat dan keras, tahan terhadap panas, bahan Kimia dan goresan, tidak mudah robek.
Secara umum Polyrethane merupakan   pengisolvenan antara karet dan plastik sehingga didapatkan pelarutan material tahan gesek, tahan aus, tahan terhadap beberapa kimia ringan seperti oli dan Gemuk, stabil dalam suhu dingin samapi dengan 0 drajad Celcius, flexsible terhadap suhu panas S/D 100 drajad celcius. Lebih unggul dibandingkan dengan bahan lain seperti karet besi, kayu maupun plastik.
Kegunaan Polyurethane sangat membantu jalannya proses industri dan mengoptimalkan proses produksi. Oleh karena itu sebaiknay peralatan industri dilengkapi dengan polyurethane sebagai perlindungan dan peningkatan kinerja .
Beberapa Keunggulan Polyurethane :
1. Kekerasannya sangat beragam yaitu dari shore A sampai dengan shore D.
2. Amat sangat tahan aus.
3. Amat sangat tahan pukulan.
4. Amat sangat tahan gesek.
5. Cocok untuk heavy duty industry.
6. Kekenyalan yang sangat baik.
7. Tetap flexible pada temperature rendah.
8. Kemampuan isolasi yang baik.
9. Ketahanan terhadap keburukan yang disebabkan oleh atmosfir, oksigen dan ozon.
10. Tahan terhadap oli, gemuk dan beberapa bahan kimia  lainnya. ","
              Samudra Office TangerangRuko Graha Boulevard Summarecon Serpong Blok GBVB 10Jl. Gading Serpong Boulevard, Curug Sangereng, Kec. Klp. Dua, Tangerang Telp. 021-28541720/082113345602            ",TANGERANG ,Banten,+62 813-1778-9949,None,None
PT. Mulya Natama Teknik,"
                                    PREMIUM GOLD
                                ",Forklift,"

Kami PT. Mulya Natama Teknik specialist Polyrethane., Rubber Roll, Nylon, Teflon steinless, Alumunium Technical & Custome Product, bubut, hardchrome, spare part escalator, elevator, travolator dan Roda Forklift.
 ","
              Jl. Raya Regency 2, Blok AB.1 No.04Pasar Kemis, Tangerang-Banten            ",Tangerang,Banten,+62 812-9552-996,None,None
CV. Indo Raya Abadi ,"
                                    PREMIUM GOLD
                                ",Forklift,"
              CV. Indo Raya Abadi merupakan Perusahaan yang bergerak dibidang Suplay Pneumatic, Hydraulic, Filter Udara, Filter kompresor dan perlengkapan kebutuhan Spart Industri Textile dan lainya.            ","
              Citra Prima Serpong Dua Blok. HH3 No. 2,Muncul ,Tangerang Selatan Email : indorayaabadi82@gmail.com            ",Tangerang  Selatan,Banten,+62 812-9198-7382,+62 812-8805-4401,None
PT. DENKO WAHANA SAKTI,"
PREMIUM BLUE ONYX
",Forklift,"
              Welcome to PT Denko Wahana Sakti PT Denko Wahana Sakti didirikan pada Bulan November Tahun 1992. Berawal dari sebuah kantor di daerah Ketapang, Jakarta Pusat yang bergerak dalam bisnis penjualan Turbin Ventilator, Castor Wheel serta beberapa produk Material Handling PT Denko Wahana Sakti sebagai Holding Company dari DENKO GROUP melakukan ekspansi dengan menambah bidang bisnis penjualan yang baru dan membuka cabang yang di Kota Surabaya pada Tahun 1994, kemudian di Kota Bandung pada Tahun 1997 dengan nama PT Denko Wahana Prima. Dan PT. Denko Wahana Sakti Semarang berdiri pada tanggal 1 Mei 2008 untuk memenuhi kebutuhan produk-produk denko di area Jawa Tengah dan Yogyakarta Divisi Belden PT Denko Wahana Sakti merupakan Distributor berbagai jenis kabel dengan brand Belden yang merupakan brand terkemuka di pasar kabel saat ini. Kami menjual Kabel UTP Belden, rs485,rj45 dan rs232 Belden, Coaxial rg8 dan rg11, fiber optic belden, Patch Cord, Patch Panel, modular cat6 dan Face Plate dengan kantor di Jakarta, Surabaya dan Semarang ( melayani area Jawa Tengah dan daerah istimewa Yogyakarta ) Divisi Material Handling Kami juga menjual berbagai produk material handling seperti Hand Pallet Truck, Manual stacker, full electric stacker, electric pallet truck, aluminium work platform, drum porter, hand truck prestar, drum handler, drum tipper, drum gripper, trolly 3 susun, hand truck, pallet truck with scale, mini forklift, vertical lift, Hand truck, scissor lift, hand stacker full electric, hand stacker manual, hand drum lift, hand drum lift semi electric, lift table, trolly, tangga elektrik, turbine ventilator, semi electric stacker, hand pallet, tangga electric, hand stacker semi electric, forklift, pallet mesh, forklift, reach truck, pallet mover,electric tractor, towing dan hand pallet Divisi Dalton Tools Kami adalah distributor chainsaw, hand tool, Ladder, jack equipment, dustbin, gergaji pohon, mesin las, genset tiger, generator spakins, kunci pas, gergaji kayu, air compressor, welding machine, tang, mesin las inverter, kunci ring, engine water pump, mesin las, dongkrak botol, water pump, generator, genset , tong sampah, dongkrak buaya, bootle jack, floor jack, jack stand dan tangga Divisi Chastor Wheel Kami juga membantu anda untuk menyediakan roda trolley / chastor wheel berbagai tipe untuk kebutuhan industrial serta kebutuhan untuk roda scafolding, bed rumah sakit, troley supermarket, troley bandara dan laini-lainnya. Merk-merk terbaik yang kami sediakan diantara, Roda Nansin, Nippon, Star Rollen, Shengteng / STG, Shenpay, Sumo, Helver, Global dan Roda Triple-S. Divisi Turbin Ventilator Tersedia juga ditempat kami alat sirkulasi udara / turbin ventilator merk DENKO yang akan membantu mengeluarkan udara panas, kelembaban dan bau tidak sedap pada ruangan pabrik, ruangan produksi dan ruangan rumah anda. Menjadikan udara didalam ruangan pabrik, gudang dan rumah anda menjadi lebih nyaman dan segar. Kami telah membangun bisnis jangka panjang dengan pelanggan kami diseluruh Indonesia, jika anda tertarik dengan beberapa model dan tipe produk yang kami tawarkan didalam website ini, silahkan hubungi kami. Kami siap memberikan layanan konsultasi kepada anda, untuk memilih produk teknik berkualitas TERBAIK dengan harga yang TERMURAH dan tentunya bisa memenuhi kebutuhan anda saat ini. Terimakasih. PT DENKO WAHANA SAKTI Contact Person : Helmi Efendi, ST Office : Jalan Banjardowo Tengah Blok C No 8 Genuk, Semarang 50117, Jawa Tengah INDONESIA Fax : 024-76580141 Email 1 : pt_dws_semarang@yahoo.co.id Email 2 : helmi_effendi@denko.co.id Jam Kantor : Senin - Ju'mat : 08.00 - 17.00 Cara Pembayaran : Tunai, Pembayaran tempo bisa saja dilakukan bila kami telah survey ke tempat anda dan semuanya memenuhi kriteria yang kami telah tetapkan.            ","
              Jalan Banjardowo Tengah - Kompleks Industri Banjardowo Blok C No 8 Genuk, Semarang, Jawa Tengah INDONESIA            ",Semarang,Jawa Tengah,+62 812-3592-407,None,None
PT TRIGUNA KARYA NUSA,"
                                    PREMIUM GOLD
                                ",Forklift,"
              SALES - PARTS - SERVICE - RENTAL HEAVY DUTY EQUIPMENTKami adalah perusahaan yang bergerak dalam bidang jasa trading, support alat alat industri, meaning dan pertanian di Indonesia antara lain ( Forklift, Generator Set, Towing Tractors, Wheel Loader, Hydraulic Excavator, Mini Excavator, Backhoe Loader, Skid Steer Loader, Motor Grader, Bulldozer, Vibrator Roller, Stacker Container, Asphalt Finisher, Traction Battery, Concrete Batch Plant, Concrete Boom Pump, Concrete Line Pump, Concrete Trailler Pump, Concrete Truck Mixer, Crawler Crane, Truck Crane, Telescopic Crane, Solid Tyres, UPS power Supply, Panel Genset, Attachment Forklift).            ","
              M Gold Tower Lt. 16 B, Jl. KH Noer Ali Inspeksi Kalimalang            ",Bekasi,Jawa Barat,+62 811-9614-415,+62 812-8163-815,None
PT HASTA KARYA TEKNIK,"
                                    PREMIUM GOLD
                                ",Forklift,"
              Kami bergerak di bidang Electrical, Mechanical dan Fabrikasi untuk kebutuhan industri. Bidang electrical meliputi Pembuatan panel distribusi, repair electrical part sampai dengan pembuatan sistem automation menggunakan plc dan HMI. Bidang Mechanical meliputi overhoul dan trouble shooting mesin industri seperti, milling cnc , bubut cnc, injection moulding, die casting dll. Maker mesin seperti Fanuc, moriseiki, takizawa, takamaz, okuma howa, enshu, toshiba, niigata, jsw, nissei , hitachi seiki dllJasa Pembuatan Spray Booth, Backing Oven, Conveyor, Maskig Jig Painting.            ","
              Jalan Raya Selang Jati No 56 RT 03 RW 03 Kampung Selang Jati Desa Wanajaya Kecamatan Cibitung Kabupaten Bekasi Jawa Barat Indonesia            ",Bekasi,Jawa Barat,+62 813-1580-2088,None,None
PT DAVINDO JAYA SAKTI,"
                                    PREMIUM GOLD
                                ",Forklift,"
Website : www.sandblasting.co.id
PT. DAVINDO JAYA SAKTI sebagai anak perusahaan dari HARSA GROUP yang telah exsis selama 29 tahun, telah menjadi pionir dalam bidang Sandblasting dan Painting ( Corrosion Control) .
Kami telah melayani berbagai perusahaan perusahaan dalam skala nasional maupun internasional yang tersebar hampir di seluruh kawasan Indonesia.
PT. DAVINDO JAYA SAKTI didirikan sejak tahun 1997, pada awalnya kami hanya bergerak dalam bidang insulasi dan waterproofing, maka sejak tahun 2000, kami sudah merambah ke bidang Sandblasting dan painting.
 
Hubungi Kami :
Mr. Robert Saputra Phone : 081317143767
Email :robert@sandblasting.co.id
Whatsapp : 081317143767
 
WORKSHOP : Jl. Cempaka no. 88 Tambun - Bekasi Timur
 
Klik link dibawah ini untuk lebih jelas :
sandblasting.co.id ","
              Jl. Cempaka no. 88 Tambun Bekasi Tmur            ",Bekasi,Jawa Barat,+81 3-1714-3767,None,None
CV. Globalindo Teknik Mandiri,"
                                    PREMIUM GOLD
                                ",Forklift,"
CV GLOBALINDO TEKNIK MANDIRIKami merupakan Perusahaan yang bergerak dalam bidang Perdagangan umum, Pabrikasi Mesin, dll.VISI Menjadi dan membuat jaringan sumber distribusi mesin, elektronik, jasa yang dibutuhkan oleh konsumen (masyarakat umum).MISI ¬∞ Memberikan kepuasaan dalam pelayanan kepada konsumen/ customer. Selalu berusaha untuk menjadi yang terbaik dalam melakukan suatu hal yang baru agar kebutuhan konsumen/ customer bisa terpenuhi. ¬∞ Memberikan kinerja yang tepat waktu sesuai dengan yang dijanjikan dan yang diinginkan pihak konsumen/ customer.Dengan visi dan misi yang telah tercantum di atas anda boleh mempercayakan kepada kami untuk masalah kinerja kami. Pelayanan yang kami berikan kepada konsumen/ customer adalah menjadi hal utama yang kita Prioritaskan dan perhatikan. Menjaga kepercayaan customer itu adalah tanggung jawab kami untuk memberikan pelayanan/ service yang baik. Dengan dedikasi yang kita pelajari dari waktu ke waktu, kita akan selalu menjadi yang terbaik.CV Globalindo Teknik Mandiri terdiri dari beberapa divisi yang fokus dan spesialisasi di produk;- Mesin Marka Jalan dan Kelengkapannya : Mesin marka jalan thermopastic ¬∞ Mesin marka jalan coldplastic ( cat dingin) ¬∞ Mesin marka jalan screed ¬∞ Mesin marka jalan profile ¬∞ Mesin marka jalan sprayer coldplastic ¬∞ Mesin Preheater ( pengaduk cat thermoplastik) ¬∞ Mesin Penghapus Marka Jalan ¬∞ Cat Thermoplastik- Peralatan Test Teknik Sipil : Alat Testing Beton, Concrete, Testing Jembatan, Testing Asphal, Testing Aggregate, - Rambu Lalulintas - Rambu Pabrik - Rambu Kerja - Rambu Parkir - Lampu Lalulintas ( Traffic Light) - Delineator Post - Paku Jalan ( Road Stud) - Traffic Cone ( Rubber/ Plastic) - Cermin Lalulintas ( Safety Mirror) - Speed Gun - Road Barrier - Cat Thermoplastik - Glass Bead- Mesin Bor Tanah atau SAMPLING, Hand Auger dan Bor Pertambangan : Bor Biopori, Bor Tanah, Soil Auger, Bor Banka, Bor Gambut, Bor Bibit, Bor Jacro, Bor Power Rig, Bor Pile, Bor Sumur, Bor Pasir, Bor Nikel, Bor Timah, Bor Sawit, Hand Auger, Hole Digger Auger, Sampler Auger, Soil Sampler Tube, Double Ring Sampler / Infiltration, Soil Sampler, Soil Core Sampler, Soil Probes, Soil Auger & Sampling Kit, Sediment & Water Sampling, Bor Hole Preparation Kit, Bailers, Basic Hand Auger Set, Geotechnical Sampling & Testing, Professional Soil Sampling Kit, Soil Auger & Cor Sampling Kit, Peat Soil Auger Kit, Rain Gauge, Bor Spiral, Gouge auger set, Standard Hand Auger Set, Panci Penguapan, Gear down hole and Accessories Part: - Core Barrel Assy ( PQ3, HQ3, NQ3) dan parts - Inner Tube Assy - Inner Tube, Split, Outer Tube - Over shot Assy dan parts ( produk Australia dll) , Hoisting Plug, Head Assy - Cap Assy - Chasing Shoe Bit - Drill rods, Casing pipe PQ3 ( HWT) , HQ3, NQ3 ( Merk Sandvik ( dari Eropa) , Australia, Crown, Asahi) - Diamond Bits Impreg - Tungsten Bit - Threewing bit - PCD Bit - Reamer Bit - Surface Step Bit - Water Swivel - Core Lifter Case - Core Lifter - Stop Ring - Shut of Valve - Stabilizer Ring - Adaptor Coupling - Locking Coupling - Inner Tube Wrench - Cross Sub - Saver Sub - Tricone Bit - Lifting Dog - Latch, Drilling Mud: - Polymer - Bentonite ( Ausgel/ Stargel) - Hivis ( CR-650) - Austroll - Baraswell Engine: - FMC Been Pump- ALAT KLIMATOLOGI, METEOROLOGI, HIDROLOGI DAN GEOFISIKA : Fiber Glass MastCRM-10, Meteorological Probe ( Temperature and Humidity Sensor) , Sangkar Meteorologi Ukuran Besar ( Weather-Shelter) , Alat Ukur Curah Hujan Otomastis ( Rain Recorder Tipe Hellmann) , Psychrometer With Maximum and Minimum Thermometer + Holder, Counter Anemometer DR A MULLER, LUTRON AM4206M Anemometer, LUTRON ABH4224 Anemometer, Trotec T210 Thermohygrometer, Wind Run Counter Anemometer, Sunshine Duration - Sensor CSD3, Wind Sensor compact, First Class Wind Velocity Sensor, Weather and Thermal Radiation Shield - Compact, Weather and Thermal Radiation Shield, Sangkar Meteorologi, Tinta untuk Sample Charts, Panci Penguapan ( Evaporation Pan) , Weighing Precipitation Gauge, Sample Charts: Barograph, Thermograph, Hygrograph dan Thermo-Hygrograph- PERLENGKAPAN MALARIALOGI : Sangkar Nyamuk - Mosquito Box - Mosquito Breeder - Tempat Telur Nyamuk - Bio Assay Kit - Tempat Makanan Nyamuk - Box Pin - Pinning Block - Aspirator Nyamuk - Killing Jar - Plastic Box - Insect Cabinet - Insect Drawer- MESIN PERTANIAN : Mesin Pengolahan Gula Semut - Mesin Pengolahan Limbah Kayu - Mesin Pengolahan Tapioka Singkong - Mesin Pengolahan Pemotongan Ayam - Mesin Pengolahan Pakan Ternak - Mesin Pengolahan Melinjo - Mesin Pengolahan Mete - Mesin Pengolahan Sorgum / Hermada - Mesin Pengolahan Kakao / Coklat - Mesin Pengolahan Kacang - Mesin Pengolahan Cabe - Mesin Pengolahan Kemiri - Mesin Pengolahan Teh - Mesin Pengolahan Minyak Atsiri - Mesin Pengolahan Kopi - Mesin Pengolahan Karet - Mesin Pengolahan Kedelai / Soya - Mesin Pengolahan Tahu - Mesin Pengolahan Tempe - Mesin Pengolahan Jagung - Mesin Pengolahan Jeruk - Mesin Pengolahan Mie - Mesin Pengolahan Kompos - Mesin Pengolahan Sagu - Mesin Pengolahan Sabut Kelapa - Mesin Pengolahan Briket - Mesin Pengolahan Apel - Mesin Pengolahan Jarak - Mesin Pengolahan Padi - Mesin Pengolahan Sawit - Mesin Pengolahan Kentang - Mesin Pengolahan Bawang - Mesin Pengolahan Tanah / Soil - Mesin Pengolahan Tebu - Mesin Pengolahan Pupuk Organik - Mesin Pengolahan Emas / Ballmill / Glundung - Mesin Pengolahan Limbah - Mesin Pengolahan Sampah - Mesin Pengolahan Fiber - Mesin Pengolahan Makanan - Mesin Pengolahan Kripik - Mesin Pengolahan Dodol - Mesin Press Uang - Mesin Ethanol - Mesin Cetak Batako Pressn- Mesin Cetak Paving / Conblock - Mesin Cetak Batako Apung - Mesin Batako Hebel - Aplikasi Teknologi Resin - Alat Panen Sagu - Alat Panen Karet - Alat Panen Sawit - Ubinan ( Alat Analisis) - Green House - Pembuatan Batu Penyosok, Pembuatan Batu Penyosok- PELATIHAN : Teknik Pengolahan Minyak Atsiri ¬∞ Teknik Pengolahan Ethanol ¬∞ Teknik Pengolahan Tahu ¬∞ Teknik Pengolahan Jeruk ¬∞ Teknik Pengolahan Emas ¬∞ Teknik Pengolahan Tepung ¬∞ Teknik Pengolahan VCO ¬∞ Teknik Pengolahan Gula Jagung ¬∞ Teknik Pengolahan Gula Singkong / Cassava- PERLENGKAPAN JALAN RAYA : Rambu Lalulintas - Rambu Pabrik - Rambu Kerja - Rambu Parkir - Lampu Lalulintas ( Traffic Light) - Delineator Post - Paku Jalan ( Road Stud) - Traffic Cone ( Rubber/ Plastic) - Cermin Lalulintas ( Safety Mirror) - Speed Gun - Road Barrier - Cat Thermoplastik - Glass Bead - Mesin Marka Jalan - Mesin Preheater ( pengaduk cat thermoplastik) - Mesin Marka Jalan Profil - Mesin Marka Jalan Cold Plastic - Mesin Penghapus Marka Jalan - Concrete Cutter - Cover Blade - High Frequency Converter - Tamping Rammer - Plate Compactor Ride-On Trowels - Mechanical Engine Vibrator - Internal Vibrator - Concrete Power Trowel - Generator Engine - Electric Concrete Vibrator- SOIL & ASPHALT COMPACTION : Vibratory Rammer / Tamping Rammer - Single Direction and Reversible Vibratoy Plates - RIde-on Vibratory Roller - Double Drum Vibratory Rollers ( baby Roller)- DEMOLITON :Asphalt / Concrete Cutter /Diamond Cutting Blade - Gasoline Cut-off Saws - Drilling Hammers, Breaker Hammers - Gasoline Engine Breaker / Chisel Tools, Peralatan Geology, Peralatan Pengairan, Peralatan Survey dan Pemetaan, Alat Alat Teknik Civil, - Concrete Vibrator, - Plate Compator, - Vibro Roller, - Mesin Vacuum Jalan, - Tamping Rammer, - Concrete Mixer- FABRIKASI STEEL STRUCTURE : Beam, platform, ladder, handrail, insert plate, conduit pipe bending, and Container Basket - Pagar Besi, Meja Inspeksi, Meja Laboratorium, Lemari Besi, Lemari Kayu, Lemari Alumunium, pekerjaan besi / steel; stainless; alumunium, dll.- Fabrikasi Tenda, Tenda Pleton, Tenda Pengungsi, Tenda Pramuka, Tenda Dapur, Tenda PMI, Tenda Komando, Tenda Regu, Pergola, Awning, dll- ALAT PERTANIAN : Arboriculture and Holticulture Tools and Machinery - Soil Moisture - Soil Thermometer - Wood Moisture Meter - Thermohygrometer - Grain Moisture Meter - Soil pH Meter - Soil Salinity Meter - Pocket Penetrometer - Soil test kit - Soil Munsell Chart - Soil NPK Tester - Soil Auger - Dodos, Agrek Egrek, Alat Panen Kelapa Sawit - Sadap, Deres, Ember Karet, Emposan Tikus, Perangkap Tikus, Kandang Nyamuk - Peralatan tes concrete, jalan, beton, Hand Bor / Auger, Bucket Auger, One-Piece Auger, Soil Sampling Auger, Soil Core, Bor Tanah, Bor Banka, Bor Pertambangan, Bor Sample Tanah, Bor Gambut, Bor Sawah, Bor Kebun, Bor Biopori, Bor Resapan, Standard Penetration Test, Sample Extruder, Sample Extruder Electric, Dynamic Cone Penetrometer, Corps of Engineer Soil Surface Sampler, Dutch Cone Penetrometer, Plate Bearing Test Set, Field CBR Test Set, Proving Ring Penetrometer, TVA Penetrometer, Liquid Limit Test Set, Plastic Limit Test Set, Shrinkage Limit Test Set, Steel Augr Bucket Sludge Sampler Kit, Split Core Sampler, Extendible Core Sampler Kit, Soil Gas Vapor Probe, Sand / loose Sediment Probe, Sediment Sampler, Soil Sampler Tube, Soil Profiler, Peralatan Kehutanan, Mesin Pertanian, Alat Pertanian, Alat Peternakan, Dll.Address;Jl. Raya Johar No.26 rt.005 rw.004Kel.Cibadak, Kec.Tanah SarealKota Bogor 16161Contact Person;0812 1314 0604 (Abdullah)0813 1421 0880 (Nuswan)Office;0251-8329302E-mail;info@globalindoteknikmandiri.co.idLinks;globalindoteknikmandiri.co.idglobalindoteknikmandiri.comcarialat.comcarialat.co.idalatmarkajalan.combengkelpertanian.compabrikfurnitur.comfurniturelab.co.idbortambang.commesinhebel.com            ","
              Jl. Raya Johar No.26 rt.005 rw.004 Kel.Cibadak, Kec.Tanah Sareal Kota Bogor 16161            ",Bogor,Jawa Barat,+62 812-1314-0604,None,None
"AVODAMITRA INDOTECH, CV","
PREMIUM RUBY
",Forklift,"
              TIMBANGAN DIGITAL / WEIGHING SCALE : Jembatan Timbang , Conveyor Belt scale , Bagging Scale , Batching scale , AMP Scale , Batching plant scale , Floor Scale , Bench Scale , Timbangan hewan , Timbangan sapi , Timbangan emas , hand pallet scale , pocket scale , loadcell , waterproof scale BEST BRAND ; USA , EUROPE , JAPAN , KOREA , CHINA , TAIWAN , INDONESIA PROGRAM APLIKASI TIMBANGAN Program jembatan timbang , AMP , Batching plant , Chek weigher , belt scale , industrial automation MELAYANI SERVICE SEMUA MERK DAN TERA METROLOGY LEGAL TOTAL INDUSTRIAL MACHINERY : Stones Crusher Plant, Batching Plant , Bagging Scale , Conveyor Check Weigher , Conveyor belt scale , Aspalt mixing plant INDUSTRIAL AUTOMATION ; Electrical and control panel touch sceen , programable , database INDUSTRIAL INSTRUMENT Floow control, Temperatur control , Mouisture control TOTAL Weighing Solution and Automation            ","
              OFFICE 1 / WORKSHOP : Jl. Pranti Semampir RT 10 / RW 04, Samping Perum OASIS Village, Sedati, Sidoarjo 61253OFFICE 2 : Jl. Gunung Anyar Tengah No. 58A, Surabaya 60294 , Telp           ;  081357505788 081331599789Email        ;  avodamitra@yahoo.com            ",Sidoarjo,Jawa Timur,+62 813-5750-5788,+62 813-3159-9789,None
PT. SEMERU INTI SUKSES,"
PREMIUM RUBY
",Forklift,"
PT. Semeru Inti Sukses didirikan pada tahun 2012, merupakan salah satu perusahaan yang tergabung dalam kelompok usaha dari PT. Semeru Teknik yang telah berdiri sejak tahun 1978, untuk mendukung industri dan project ventilation di Indonesia. PT. Semeru Inti Sukses merupakan perusahaan importir dan distributor mesin industrial, fan, dan mesin pendukung peralatan industri untuk industri skala kecil, menengah, dan besar pada sektor pertanian, maritim, pertambangan, dan kehutanan. Hingga saat ini, kami melayani seluruh pelanggan yang tersebar di seluruh wilayah Indonesia. Kami merupakan pemegang merek ternama seperti Spectek, Takafan, dan masih banyak lainnya.Produk yang kami tawarkan memang spesialis di bidang industrial, building ventilation, marine blower, ducting in building, techincal supply, actuators, lifting tools, cooling tower, grill, dan lain-lain. Demi menunjang permintaan kebutuhan pelanggan serta layanan purna jual, kami memiliki distributor yang berada pada kota-kota besar lainnya di seluruh wilayah Indonesia, seperti Banjarmasin, Samarinda, Makasar, dan Kendari. Specialized in Building, Industrial Ventilation & Marine Blower Specialized Ducting in Industrial & Building :1. Air Compressor2. Aneka Grill3. Cooling Tower4. Lifting Tools / Hoist5. Noise, Shock & Vibration Control6. Safety Shoes7. Welding Machine / Mesin LasKANTOR PUSAT (SURABAYA)Jln. Raden Saleh No. 8 SurabayaT. 0315358158, 5358159 (Hunting) 5346212F. 0315358157E. sales@semeruintisukses.co.id, sales@semeruintisukses.com, sales@intisukses@gmail.comW. www.semeruintisukses.co.idBBM. 535A07A9WA. 081217922281LINE. sis_fan / 081217922261SMS. 081938590577KANTOR CABANG (SEMARANG)
Jln. MT. Haryono 728, SemarangHP. 087832073205, 085713747055E. salessemarang@semeruintisukses.co.idKANTOR CABANG (BANDUNG)CV. Bamboo Jaya TeknikJln. ABC Kompleks Ruko Banceuy Permai | Blok B3 No. 72 BandungT. 0224233605F. 0224235605E. bamboojayateknik@gmail.com ","
              KANTOR PUSAT (SURABAYA)üìç Jln. Raden Saleh No. 8 SurabayaKANTOR CABANG (SEMARANG)üìç Jln. MT. Haryono 728 SemarangKANTOR CABANG (BANDUNG)üìç Jln. ABC Kompleks Ruko Banceuy Permai | Blok B3 No. 72 Bandung‚Äî            ",SURABAYA,Jawa Timur,+62 817-9387-577,+62 812-1792-2281,None
CV. Artha Kharisma,"
PREMIUM BLUE ONYX
",Forklift,"
Artha Kharisma adalah sebuah perusahaan yang bergerak di bidang jual beli dan jasa rental alat berat seperti Excavator, Bulldozer, Grader, Loader, Truck, Vibro, Crane, dan Truck. Semua alat berat kami sediakan dalam keadaan sehat dan siap untuk digunakan. Selain itu kami juga menyediakan berbagai tipe dan merk alat berat seperti Komatsu, Kobelco, Hitachi, Caterpillar, Sakai, Mitsubishi, Zoomlion, dan Kato. Untuk info lebih lanjut mengenai unit kami bisa langsung mengunjungi workshop kami di Jalan Sidotopo Kidul 61 Surabaya (Artha Kharisma) atau hubungi WA Kami di 0813-3181-2666 (Ibu Vivi) ","
              Jl. Sidotopo Kidul 61 Surabaya            ",Surabaya,Jawa Timur,+62 813-3181-2666,None,None
PT Laksana Anda Jaya,"
PREMIUM BLUE ONYX
",Forklift,"
PT. Laksana Anda Jaya
Merupakan perusahaan yang bergerak di bidang penyediaan material konstruksi yang terletak di Sidoarjo Jawa Timur.
Perusahaan ini berdiri sejak tahun 1985 dan sudah terpercaya untuk melayani berbagai proyek konstruksi di Indonesia. Perusahaan kami juga telah bekerja sama dengan beberapa perusahaan-perusahaan besar maupun BUMN diantaranya PT. Varia Usaha Beton, PT. Wijaya Karya dan PT. Artha Beton 
Kami merupakan distributor penyedia Besi Plat yg mana sudah berstandar SNI, dan salah satu produk yg kami tawarkan adalah besi plat hitam, yang mana disini tersedia berbagai jenis ukuran. 
Berikut yang kami tawarkan : 
‚Ä¢ Jual besi Plat lembaran Baru tebal 1,8 mm s/d 4 mm
(Ukuran bisa sesuai plat standart , 4 feet x 8 feet / 120 cm x 240 cm ) Atau potongan bisa sesuai dengan permintaan.
‚Ä¢ Jual besi plat potongan baru dan bekas sesuai dengan potongan
‚Ä¢ Jual besi plat dari tebal 2 mm sampai dengan 30 mm ( bisa di potong sesuai ukuran permintaan customer )
‚Ä¢ Jual Paku S
 
 
Kami juga menerima jasa :
‚Ä¢ Jasa potong Plat
‚Ä¢ Jasa rol plat
‚Ä¢ Jasa pres Plat
‚Ä¢ Jasa lubang plat
‚Ä¢ Jasa penyewaan forklift
 
Dengan pengalaman kami dalam bidang besi dan jasa kontruksi bangunan selama 35 tahun, kami berusaha memberikan pelayanan yang terbaik untuk pelanggan, kepuasan pelanggan adalah prioritas bagi kami dan menjadikan perusahaan kami bisa memenuhi kebutuhan pasar, kami selalu melakukan evaluasi dalam memberikan pelayanan. Kritik dan saran dari pelanggan kami sangat kami perhatikan sebagai garansi yang kami berikan.
 
Untuk pemesanan bisa di order langsung via WhatsApp : 081804072920 / 087819509777
No. Kantor : (031) 8543059
 
Atau bisa datang ke workshop kami di jln. Kolonel Sugiono No. 177 Pulosari Waru Sidoarjo
  ","
              Jl. Kol. Sugiono No. 177 Pulosari Waru Sidoarjo            ",Sidoarjo,Jawa Timur,+62 878-1950-9777,None,None
PT SEAN INDONESIA,"
                                    PREMIUM GOLD
                                ",Forklift,"
PT SURYA ENERGI ANUGERAH NUSANTARA INDONESIA ( PT SEAN INDONESIA ) was established in  2017, and rapidly grew into and aggressive and commited distributor of industrial, General Contractor, Mechanical & Electrical, Civil and Construction, Logistic Solutions, Design and Supply. 
In the General Contractor, Mechanical & Electric, Civil and Construction, Design & Supply, PT SEAN INDONESIA has M1 category ( Grade 5 ) & NFPA Member* Scope of work PT SEAN INDONESIA *
‚Ä¢ GENERAL CONTRACTOR, MECHANICAL & ELECTRIC, CIVIL & CONSTRUCTION, DESIGN & SUPPLY ( M1 category ‚Äì Grade 5 ) ‚Äì NFPA MEMBER
‚Ä¢ SAFETY SPECIALIST of FIXED FIRE FIGHTING SYSTEM, FIRE DETECTION & GENERAL ALARM SYSTEM
‚Ä¢ SAFETY SPECIALIST of BUILDING, INDUSTRIAL ,MARINE FIRE PROTECTION SYSTEM & EQUIPMENT AND LIFE SAVING
‚Ä¢ A PROFESSIONAL SUPPLIER for INDUSTRIAL SECTIONAL DOORS, LOADING DOCK SYSTEMS, HIGH SPEED DOORS, & AUTOMATION SYSTEM
‚Ä¢ MATERIAL HANDLING, WAREHOUSE EQUIPMENT & SAFETY EQUIPMENT
‚Ä¢ STORAGE RACKING SYSTEM, SOLUTION OF AS/RS, AUTOMATION EQUIPMENT,  WAREHOUSE PROTECTION ‚Ä¢ MPM PLASTIC PROTECTIONS‚Ä¢ SOLAR PANEL, SOLAR SYSTEM, SOLAR INVERTER, SOLAR COMPONENT
‚Ä¢ RENTAL FORKLIFT, HAND PALLET  - SERVICE AND SPARE PART
‚Ä¢ APPLIANCES CUSTOMIZED FILTRATION, WORK OF RUBBER SEALS, VITTON, PU, NBR, GRAPHITE, NYLON etc
‚Ä¢ SEAN Conveyor Product's gravity roller conveyors are available in many sizes and configurations. Gravity roller will convey light, medium, and heavy loads that have firm flat bottoms such as cartons, totes, cases, skids, drums, etc.
Through ingenious design and quality that‚Äôs proven and tested, Sean Indonesia is the supplier for product to many Foreign Based Companies ( PMA ) in the manufacturing, Pharmaceutical, Chemical ,cigarette Industrial and others. 
We company‚Äôs commitment is simple and yet something that we sincerely wish for all of our customers, Principals, employees, and shareholder... ‚Äú  We serve, innovation and solution ‚Äú  ","
               Office : The Taman Dhika Cluster Boulevard BL 8 No. 8 , Jl Kesatrian Buduran - Sidoarjo 61252            ",Sidoarjo,Jawa Timur,+82 12-228-5168,None,None
CV. INOMEK,"
                                    PREMIUM GOLD
                                ",Forklift,"
ABOUT USEstablished in 2017 in Surabaya, INOMEK is a company that focused in the distribution of innovative industrial mechanical such us Pneumatic & Vacuum Automation, Pressure & Temperature Gauge, Valves, Ergonomic Handling, Vacuum Conveyor and Metal Detector with Ejection System, etc. We are committed to distributing only qualified products and services, provides high-quality equipment, proper application, and model selection, and backed up by strong after-sales service leave ""no-worries"" in operation performance.VISSION To be the best company that distribution Innovative Industrial Mechanical in Indonesia.MISSION

CUSTOMER TALK, WE LISTEN. The voice of the customer will always drive the development of ou strategic plans and actions.
CONTINUOUS IMPROVEMENT (KAIZEN) IS OUR WAY OF LIFE. Set breakthrough objectives, experiment and learn every day, eliminate waste in our business processes, and benchmark the best, then better them.
INNOVATION DEFINE OUR FUTURE. Individual and organizational creativity will drive breakthrough ideas for technology, products, solutions, and processes.
 ","
              PERUMAHAN STAR LOTUS BLOK A NO 26. SUKODONO, KABUPATEN SIDOARJO. JAWA TIMUR-INDONESIA.            ",Kabupaten Sidoarjo,Jawa Timur,+62 878-4207-0711,None,None
PT. ANEKA PERKASA MASINDO,"
                                    PREMIUM GOLD
                                ",Forklift,"
Apabila Anda sudah mempunyai Bengkel Cuci Mobil atau Motor dan ingin menggunakan System Cuci Mobil atau Motor dengan memakai Hidrolis Cuci atau Single Post atau Snow Wash maka bergabunglah dengan perusahaan kami untuk menjadi mitra kerjasama.Kami PT. ANEKA PERKASA MASINDO merupakan Supplier Peralatan Bengkel Mobil yang berdiri Sejak Tahun 1988, yang menyediakan,1. Peralatan Bengkel Cuci Mobil yang meliputi : a) Hidrolik Cuci Merk Discovery, b) High Pressure Merk Densin, c) Vacum Cleaner Wet & Dry Merk Ghibli, d) Snow Wash, dll.2. Peralatan Toko Ban yang meliputi : a) Alat Buka Ban Merk Sicam Made in Italy, b) Wheel Balancer Merk Sicam Made in Italy, c) Wheel Aligment Merk Sicam Made in Italy, d) Finish Balancer Merk CEMB Made in Italy, e) Air Inflator Merk PCL Made in England, f) Nitrogen Generator Made in China, g) Scissor Lift Texo Made in Italy, h) Ceegos, Evereternal Made in China.3. Peralatan Bengkel Mesin yang meliputi : a) Engine Tuner, Timing Light, Dll Merk Okuda Made Japan, b) Compresi Tester, Radiator Cap Tester, Dll Merk NPA Japan, c) Engine Scanner, 4 Gas Analyzer and Smoke Tester erk BrainBee Made in Italy.4. Peralatan Bengkel Cat yang meliputi : a) Sprayboth, Infrared Lamp, Multi Spot Termomecanica Made in Italy, b) Spraygun, Dryer, Air Filter, Dll.5. Peralatan Bengkel Bubut, Genset, Dll.Kami siap untuk Memberikan Servis, Spare Part dan Garansi, dari Peralatan Bengkel yang Bapak/Ibu Beli dari kami. Serta siap menjadi Konsultan Anda dalam Desain, Bangunan, Tenaga Ahli dan Software Bengkel.-----
Hubungi Kontak Kami Sekarang untuk Dapatkan Penawaran Terbaik dan Harga Bersaing (CALL/WHATSAPP).
‚Ä¢ Phone : 0812-356-6954 (Donny Julahardi)
‚Ä¢ e-Mail : donny@anekaperkasamasindo.com‚Ä¢ Website : www.HidrolikCuciMobilMurah.com
 ","
              ‚Ä¢ Branch Office : Jln. Undaan Wetan 28-T Surabaya, Jawa Timur, Indonesia‚Ä¢ Phone : 0812-356-6954 (Call or WhatsApp)            ",SURABAYA,Jawa Timur,+62 812-3566-954,None,None
PT. Bina Pertiwi,"
PREMIUM BLUE ONYX
",Forklift,"
PT BINA PERTIWICALL : 082116688533 / 081219572050 (WA)PT Bina Pertiwi (BP) didirikan pada 15 November 1976, fokus di bidang Agriculture, Material handling, Power and Energy, dan Construction. Dimiliki sepenuhnya oleh PT United Tractors Tbk (UT) yang juga merupakan bagian dari PT Astra Internasional, Tbk. Serta didukung oleh karyawan yang berkompeten dan tim manajemen yang solid, kami hadir di seluruh Indonesia melalui kantor cabang dan perwakilan yang siap melayani anda.
 
Bina Pertiwi selalu berusaha memberikan pelayanan terbaik dengan meningkatkan jangkauan dan kemampuan untuk memenuhi permintaan pelanggan melalui ketersediaan suku cadang, jasa perbaikan dan jasa perawatan yang ditangani oleh mekanik yang bersertifikat serta dilengkapi dengan pelatihan operator.
 
Bina Pertiwi juga memiliki komitmen untuk terus melakukan perbaikan demi memberikan solusi terbaik bagi para pelanggan.PT Bina PertiwiJl. Raya Bekasi KM. 22, Jakarta 13910PIC : CHRIS HP : 081219572050 / 082116688533 ","
              Jl. Raya Bekasi KM. 22, Jakarta 13910            ",Jakarta Timur,DKI Jakarta,+62 812-1957-2050,None,None
"PT. Denko Wahana Sakti, ","
                                    PREMIUM GOLD
                                ",Forklift,"
PT. Denko Wahana SaktiEmail : bahri@denko.co.idTelp : 0838-9872-7628
Didirikan pada bulan November tahun 1992, PT. DENKO WAHANA SAKTI adalah perusahaan yang bergerak dibidang penjualan barang barang tehnik. Kami selalu memakai prinsip ‚Äù Utamakan Kualitas, Harga serta Pelayanan Terbaik ‚Äù ( Mr Bahridenko Jkt Pst - W.A, Call, Sms = 0838-9872-7628 )Yang berbendera di bawah Denko Wahana Sakti, PT, Jakarta Pusat adalah DISTRIBUTOR Resmi untuk Product-Product Material Handling, Seperti : -Forklift Elektrik Kapasitas 1600kg, 2000kg, 2500kg, 3000kg. - Forklift Diesel Kapasitas 3000kg, 5000kg - Tangga Listrik Hidroulik Elektrik - Battery Automatis, Alat Lifter Orang, Tinggi 6 , 8, 10, 12, 14, 16, 18, 20 m - 42 m, dll. Alat untuk pasang Lampu Jalan, Maintenance Gedung, Cat Gedung, Reparasi Gedung, Perbaikan, Proyek, Bandara, Sport Hall, Gudang, Pabrik, dsb. - Hand Lift - Hand Stacker Manual/ Semi / Auto , Kapasitas 1 ton, 1, 5 ton, 2 ton dg tinggi 1, 6m, 2m, 2, 5m, 3m, 4m, 5m - Hand Troly, Kapasitas 150 kg, 300 kg, 400 kg, 500 kg, dll. ( Nb 101, NF 301, NG 401 ) - Castor Roda, Bahan Besi, Rubber - Karet, Nylon , PU - Poly Urethane Size 4 inch, 5 "" , 6 inch, 8 "" dsb. - Pallet Mesh - Pallet Besi Keranjang Lipat - Pallet Bronjong Besi Lipat Type ( Stockist Stocky 2, 3, 5, 7 ) Kapasitas 800 kg, 1, 2 ton, 1, 5 ton - Drum Handler - Gripper - Tipper - Lifter , ( ALat pindah dan Angkat Drum ) Kapasitas 350 kg, 700 kg. - Hand Pallet / Alat Pindah Angkat Pallet Kayu, Plastik, Besi . Manual / Battery semi Auto & Full Auto Kapasitas 2 Ton, 3 ton, 4 ton. - Cat ORCHA , Cat Pelapis Atap Anti Panas, Anti Bocor, Anti Berisik. Kemasan Pail - 20 kg, 1 paket = 2 Pail u Base Coat dan Top Coat. dan ...... PABRIKAN - MANUFACTURED yang sudah bersertifikat ISO URS 9001, untuk Product sbb : - Denko' s ROOF VENTILATOR - Kipas Atap Otomatis Tanpa Listrik Denko' s Size - Type DT 14"" , 16 Inch, 24 "" , 30 Inch, 36 "" , 42 Inch Material Aluminium dan Stainless Steel. - Alat Sirkulator Udara / Alat Ventilator Udara Otomatis non Listrik - Alat untuk Menghilangkan Panas Ruangan, Bau Pengab Tak Sedap, Asap didalam Ruangan, Kelembaban, dan Debu2 halus Ruangan. - Alat Penyejuk Udara secara Alami - Natural tanpa Listrik, dll Anda Membutuhkan Alat2 diatas ..? Atau Mengalami Problem2 - Masalah seperti diatas ? Tepat disini Solusi Murah dan Alasannya... ! ...Mr Bahridenko - Jkt, Agustus - Desember 2020! ...HP 0838-9872-7628 ( Call, W.A, SMS ) ","
              Mr. Bahridenko - 0838-9872-7628 ( Call, W.A, Sms) , Head Office : Komplek Duta Merlin, Blok C no 1-3, Jalan Gajah Mada No 3-5, Harmoni - Istana Negara Jakarta Pusat            ",DKI - Jakarta Pusat,DKI Jakarta,+62 812-9396-361,None,None
HANDI CIPTA PERKASA,"
                                    PREMIUM GOLD
                                ",Forklift,"
              Kami Adalah Perusahaan Yang Bergerak Dalam Penyediaan Suku Cadang Untuk Mesin-Mesin Industri, Alat Berat, Genset, Truck, Dll Suku Cadang Yang Kami Sediakan Diantaranya Untuk : Cummins Komatsu Caterpillar Kobelco Hitachi Perkins Furukawa Deutz Detroit Diesel Scania Volvo Mitsubishi Nissan Hino John Deere Kubota New Holland Suku Cadang Untuk Forklift: Komatsu Mitsubishi Tcm Nissan Filter Dengan Merek: Fleetguard Racor Donaldson Fhass Baldwin Sakura Jimco Dll Turbocharg er Dengan Merek: Garret Holset Switzer Dan Kami Akan Memberikan Penawaran Harga Terbaik Untuk Bapak/ Ibu. Terima Kasih Handi Gunawan            ","
              Jl Kebon Jeruk 9 No.22D  Maphar Tamansari            ",Jakarta Barat,DKI Jakarta,+62 813-1565-3185,None,None
PT. SEJAHTERA SARI MANDIRI,"
                                    PREMIUM GOLD
                                ",Forklift,"
              PT. Sejahtera Sari Mandiri didirikan thn. 1994 dengan usaha Battery Industri. Sejak berdiri perusahaan lebih banyak menangani Motive Power Battery atau Traction Battery/Battery Forklift Elektrik. Spesialisasi dan pengalaman perusahaan pada Traction Battery, Locomotive Mining Battery, AGV Battery, Automotive Battery.Dengan kemampuan dan pengalaman panjang dalam seluk beluk Battery Industri khususnya Motive Power Battery, diharapakan menjadi mitra strategis dan memberi solusi bagi pelanggan dengan prinsip saling menguntungkan.PT Sejahtera Sari Mandiri - Era BatteryTelp  021 2289 2008, 021 2232 5625Hp. 081297472000 | 081294938000atau email: info@erabattery.com            ","
              Jl. Kemuning Raya No. 29, Utan Kayu Utara, Matraman            ",Jakarta Timur,DKI Jakarta,+62 812-9493-8000,+62 812-9747-2000,None
BERKAT PARTINDO ABADI,"
                                    PREMIUM GOLD
                                ",Forklift,"
Berkat Partindo Abadi adalah perusahaan yang berbegerak dalam bidang penjualan Ban Alat Berat dan Velg Alat Berat untuk Dump Truck, Mobile Crane, Forklift, Loader, Traktor, Grader, Backhoe, Compactor, Road Roller, Vibro, Tandem, Wheel Dozer, Skidder, Reach Stacker, Straddle Carrier, Gantry Gate, Harvester, Finisher, Paver, Skidder, Bob Cat, dan Alat Berat lainnya.
Berkat Partindo Abadi memberikan hanya pelayanan yang terbaik, produk unggulan tepat guna, dan harga yang kompetitif kepada setiap pelanggan dan mitra kerjanya. Silahkan Hubungi Kami : CV. Berkat Partindo Abadi Sales 1 : 0858 88 20 22 66 .Sales 2 : 0858 33 66 88 99 .Fax : 021 - 2960 8397 ( Fax) .Email : info@berkatpartindoabadi.com .Website : https://berkatpartindoabadi.com . ","
              CV. Berkat Partindo Abadi - MGK Kemayoran - Lantai UG - Blok A18 / 7 - Jl. Angkasa Kav. B6 - Kemayoran - Jakarta Pusat            ",Jakarta Pusat,DKI Jakarta,+62 858-3366-8899,None,None
Indo Autozone,"
                                    PREMIUM GOLD
                                ",Forklift,"
Indo Autozone merupakan perusahaan distributor yang bergerak dalam penjualan ban alat berat seperti ban forklift, ban loader, ban grader, ban traktor, ban vibro, ban crane, ban reach stacker, ban dump truck, ban telehandler, dan sebagainya. Juga tersedia velg untuk unit alat berat yang telah disebutkan sebelumnya seperti velg loader, velg forklift, velg vibro, velg grader, dan lain lain. Kami terus berkomitmen untuk menjadi mitra terbaik dalam penyediaan ban alat berat diberbagai sektor di Indonesia, meliputi industri, konstruksi, pertambangan, perkebunan, pelabuhan, bandar udara, produksi, pergudangan, dan sebagainya. Kami bertekad untuk menjadi solusi terdepan untuk kebutuhan kendaraan industrial dan alat berat Anda. Didukung oleh tim teknis yang handal, kompeten dan profesional, kami juga menyediakan layanan service untuk forklift, mulai dari perawatan rutin sampai perbaikan yang memerlukan keahlian khusus seperti overhaul (turun mesin) dan perbaikan transmisi. Selain itu, kami juga menyediakan jasa penyewaan atau rental forklift harian maupun kontrak, dari kapasitas 2 ton sampai 25 ton. Sejak berdirinya Indo Autozone di tahun 2012, kami memiliki portfolio client yang tersebar merata di berbagai wilayah Indonesia, mulai dari Sumatera, Jawa, Sulawesi, Kalimantan bahkan Papua. Ini merupakan bukti kepercayaan pelanggan terhadap kami dan tentunya totalitas komitmen Indo Autozone untuk kepuasan Anda. Indo Autozone Alamat: Jalan Hibrida Raya Blok PE 10 No. 27, Kelapa Gading Permai, 14250, Jakarta Utara, Indonesia Telp: (62) ( 021) 4584 7292 Fax: (62) ( 021) 4584 2094 HP (1): +62 851 0058 5553 HP (2): +62 877 8805 5651   Business Hours Senin - Jumat : 08.00 ‚Äì 17.00 Sabtu : 08.00 ‚Äì 14.00 Minggu dan Hari Libur TutupWebsitewww.indoautozone.co.idwww.banforklift.idMedia Sosialwww.facebook.com/indo.autozone.jakartaInstagram: indo.autozone.jakarta ","
              Jln. Hibrida Raya Blok PE 10 No. 27, Kelapa Gading Permai, Jakarta Utara            ",Jakarta Utara,DKI Jakarta,+62 877-8805-5651,None,None
pt.inti karya karisma,"
                                    PREMIUM GOLD
                                ",Forklift,"
              PT.INTI KARYA KARISMA adalah suatu perusahaan dagang yang berkembang sangat pesat, khususnya dalam bidang penyediaan barang dan alat - alat untuk kebutuhan industri yang ada di Indonesia, meliputi bidang Valev - Valev, Automation System dan Electrical Components Seperti : PNEUMATIC & HYDRAULICS : SMC, KOGANEI, CKD, KURODA, TAIYO, TACO, ROSS, AIRTAC, TOYOOKI, AUTOGIKEN, DAIKIN, UCHIDA, YUKEN, NOK F- TEC, FUJIKURA, JUNRON, MARUHA, NACHI, SHINDENGEN, MAC, ERACON ( NEW ERA ) PISCO, KONDOH, FOTEK, CHANTO, PNEUMAX, SANG- A, MAC, NUMATICS, MYOTOKU, AURORA CONVUM, KONAN, FUJI SEIKI, KINGSTON, JUNRON, KCC, YPC, BIMBA, FABCO- AIR Etc. CLUTCH & BRAKE ELECTROMAGNETIC : OGURA, SHINKO, OSAKI DENGYOSA, SUNTES, MITSUBISHI, AIRFLEK, PLANOX, MIKKI PULLEY, STROMAG, GUMMI, FAWICK, EATON, AUTOGARD, STEARN, ORTLINGHAUS, SIME, BINDER, COREMO, ANTEC, PINTS BAMAG, WARNER, MAYR, AIR CHAMP ELECTRIC & MOTOR : MITSUBISHI, YASKAWA, FUJI ELECTRIC, HITACHI, TOSHIBA, NIKKI DENSO, TSUKASA, TAMAGAWA SEIKI, NISSEI, OGURA, OMRON, RORZE, SANYO DENKI, SAWAMURA, TAMAGAWA SEIKI, ORIENTAL, VEXTA, PANASONIC, YAMATAKE, SHINKO, SHIMPO, NIDEC, MIKI PULLEY, ITOH, MAKISHINKO, TSUBAKI, PATLITE, USHIO, IDEC IZUMI, HANYOUNG, PHILIPS, OSRAM, TOYO FAN, TDK, KOINO, ALPS, NIKKAI ( NKK ) SENSOR & CONTROLS : OMRON, SUNX, SHINKO, KEYENCE, RIKEN, NATIONAL, YAMATAKE, SEEKA, HONEYWELL, IFM, KOYO, EUROTHERM, PEPPERL+ FUCHS, BALLUFF, PILZ, SICK, TURCK, DATASENSOR, TAKENAKA, IDEC IZUMI, KOINO, TOYO , NIPPON AUTOMATION POWER SUPPLIES : COSEL, NEMIC LAMBDA, OMRON, MATSUSHITA, MEAN WELL, ASTEC, MURR, SPELLMAN, ZENTRO, XP Power Supplies COOLANT PUMP : MITSUBISHI, NIPPON OIL PUMP, FUJI ELECTRIC, TERAL TROCHOID PUMP : NIPPON OIL PUMP, FUJI, MITSUBISHI BEARING : THK, IKO, NSK, NB, NMB, EZO, KURODA, SAMICK, HIWIN, NTN Etc TEMPERATURE CONTROL : RKC, TOHO, SHIMADEN, FUJI ELECTRIC, HONEYWELL, ASAHI KEIKI, YOKOGAWA, AMETEK, DYWER, TESCOM, SHIMAX, OPTEK Keuntungan dari pelayanan kami adalah sbb: Untuk permintaan penawaran harga silahkan e- mail ke : PT.INTI KARYA KARISMA Hp : 081286783132, 081218651189 Tlp : 021- 50408997 E- mail : pt.intikaryakarisma@ yahoo.co.id            ","
              Mega Glodok Kemayoran            ",Jakarta,DKI Jakarta,+62 812-8678-3132,None,None
PT.SINARDO PRATAMA,"
                                    PREMIUM GOLD
                                ",Forklift,"
PT. SINARDO PRATAMA sebagai stockies dan distributor untuk produk material steel bagi perindustrian & project di Indonesia. Kami spesialis dalam mensupport ( mensuply ) kebutuhan proyek ‚Äì proyek industri seperti : Oil & Gas Pipelines Konstruksi,Pembangkit Listrik ( Power Plants )  Pembuatan Kapal ( Ship Building )  Boiler, Pulp & Paper, Chemical, Dll. Adapun material yang dapat kami suply sebagai berikut : * PIPA : Carbon steel, Galvanis ( Welded & Seamless ) API 5L, A 106 Gr. B, A 53 Gr. A/ A 53 Gr. B, Gr.X 52 Size : ¬Ω ‚Äù ‚Äì 32‚Äù Spiral Welded Steel Line Pipe Size : ¬Ω ‚Äù ‚Äì 120‚Äù Stainless Steel Pipe SUS 304, 304L, 316, 316L Size : ¬Ω ‚Äù ‚Äì 24‚Äù Alloy Steel Pipe A333 Gr. 6, A335 P5, P11, P12 Tubing SS 316, 316L * Fitting : Elbow Tee Reducer Concentric & Eccentric Union Coupling Half Coupling Hex Plug Thredolet Weldolet Sokolet Dll Sch 10, 20, 30, 40, 60, 80, 120, 160 Class # 150, # 1000, # 2000, # 3000, # 6000 Carbon Steel : ASTM/ ASME SA234 WPB, WPC, WPL6, A 105 Alloy steel: ASTM/ ASME SA234 WP5, WP9, WP11, WP12, WP22, WP91 * Flange Weld neck Flange Slip On Flange Blind Flange Socket Weld Flange Lap Joint Class # 150, # 300, # 600, # 900, # 1500, # 2500, JIS 10K, PN 10, 16 Dll Matr‚Äô ASTM A105 ASTM A182 304, 304L, 316, 316L ASTM A350 LF 2 * Valve Gate Valve Glove Valve Check Valve Ball Valve Butterfly Valve Knife Gate Valve Strayner Type : ANSI, JIS, PN Matr‚Äô A 105, A216WCB, A 350 LF2, SS 304, 304L, 316, 316L Brand : Kitz, Tomoe, Toyo, GLT, James Bury * Steel Construction H ‚Äì Beam IWF Steel Angle Assental Plate Channel U CNP Matr‚Äô SS 400, A36, A 516 Gr. 70, SS 202, SS 304, 304L, SS316, 316L Pressure Vessel, Boiler Plate Dll RUBBER HOSE INDUSTRIAL, FLEXIBLE METALIC HOSE, HIDRAULIC HOSE, FLEXIBLE RUBBER HOSE, CAM LOCK, QUICK COUPLING, FIRE HOSE, DAN PRODUK-PRODUK STEEL DAN HARDWARE LAINNYA Untuk kepuasan client, kami PT. SINARDO PRATAMA memberikan pelayanan maksimal berupa pengiriman material untuk wilayah JABODETABEK dengan tepat waktu tanpa biaya tambahan, dan selalu siap melakukan Quality Test untuk semua produk yang ditawarkan serta dapat melengkapi Sertifikat produk yang di jual.

PT. SINARDO PRATAMA
Jl. Gunung Sahari Selatan 
Komp. Mega Glodok Kemayoran Lt. GF Blok A11 No.2
Kemayoran, Jakarta Pusat
Telp     : 021 2913 5143
Fax      : 021 2913 5744
Marketing: Togi Rahmad
Mobile : 082122129193
Email     togirahmad@yahoo.co.id
Marketing:Martha
Mobile  :081385590755
Email    marthamanalu71@gmail.com

 
  ","
              Jl. Gunung Sahari Selatan Komp. Mega Glodok Kemayoran Lt. GF Blok A10 No.11Kemayoran, Jakarta PusatMartha Hp : 081385590755Togi Hp : 082122129193 ",Jakarta Pusat,DKI Jakarta,+62 821-2212-9193,None,None
DUTA KHANSA MANDIRI,"
                                    PREMIUM GOLD
                                ",Forklift,"
              CV.  DUTA KHANSA MANDIRI menyediakan: Jasa KONTRAK SERIVICE  & Penjualan Sparepart Alat berat dari China, Jepang, Korea maupun UK & USA .  Dengan merek XGMA, LIUGONG, XCMG, CHANGLIN, WEICHAI, YUCHAI, CATERPILAR, KOMATSU, CATERPILLAR, HYUNDAI , DOOSAN, KOBELCO, HITACHI, LONKING, SDLG, SHANTUI, WEICHAI, YUCHAI, XINCHAI,TIANLY, SEM, KOHLER ENGINE, PERKINS, CUMMINS, TOYOTA , TCM, MITSUBISHI , BOULI , HANGCHA, PATRIA ,LOVOL, HELLY, CHANLIN, PUMP HYDRAULIC ALAT BERAT dll.CV.  DUTA KHANSA MANDIRI menyediakan: Jasa & Penjualan Sparepart FORKLIFT, ALAT BERAT, GENSET dan Engine  merek ISUZU, KOMATSU,CATERPILLAR, HITACHI,CUMMINS  , TCM, MITSUBISHI, WEICHAI, YUCHAI, FAW ENGINE ,NISSAN ,HINO  dll..CV.  DUTA KHANSA MANDIRI merupakan DISTRIBUTOR resmi penyalur Oli , MINYAK PELUMAS  , PELUMAS OLI  dengan Merek """"PanaOil""""""""PanaOil"""" merek Oli yang setara dengan oli kelas tinggi yang sudah beredar di Indonesia.Sedangkan Untntu Kebutuhan KUSUS ,  Mesin KAPAL MARINE  Kami juga menyedikan dengan merek  ''NUSA OIL'' Kami menyediakan dengan harga terbaik Kelebihan SPARE PARTS kami menggunakan komponen utama yang sudah banyak di pasaran sehingga memudahkan untuk pencarian Spare Parts, seperti;Bulldozer, Motor Grader, Wheel Loader, Vibratory Compactor, Tandem Vibratory Roller, Pneumatic Roller, Forklift1. XCMG ( Bulldozer, Motor Grader, Wheel Loader, Vibratory Compactor, Tandem Vibratory Roller, Pneumatic Roller, Forklift)2. LIUGONG ( Bulldozer, Grader, Wheel Loader, Vibratory Compactor, Tandem Vibratory Roller, Pneumatic Roller, Forklift)3. LONKING( Bulldozer, Grader, Wheel Loader, Vibratory Compactor, Tandem Vibratory Roller, Pneumatic Roller, Forklift)4. CHANGLIN ( Bulldozer, Grader, Wheel Loader, Vibratory Compactor, Tandem Vibratory Roller, Pneumatic Roller)5. SHANTUI ( Bulldozer, Grader, Wheel Loader, Excavator)6. CHENGONG ( Hydraulic Excavator, Mini Excavator, Skid Steer Loader, Wheel Loader)7. ZOOMLION ( Bulldozer, Grader, Wheel Loader, Excavator)8. TIANGONG  / SINOMACH ( Bulldozer, Grader, Wheel Loader, Excavator)9. SDLG ( Bulldozer, Grader, Wheel Loader)10. SANY ( Excavator, Wheel loader, Crane etc)11. YUTONG ( Bulldozer, Grader, Wheel Loader, Vibratory Compactor, Tandem Vibratory Roller, Pneumatic Roller,12. LUTONG ( Tandem, Compactor)13. LUYANG ( Tandem, Compactor)14. FAW SHACMAN HOWO SANY DONGFENG CHENGLONG DFLZ ( Truck)15. WEICHAI ( Engine for Marine and Industrial )16. YUCHAI ( Engine for Marine and Industrial )17. HYUNDAI ( Hydraulic Excavator, Mini Excavator, Skid Steer Loader, Wheel Loader)18. DOOSAN ( Hydraulic Excavator, Mini Excavator, Skid Steer Loader, Wheel Loader)19. VOLVO ( Hydraulic Excavator, Mini Excavator, Skid Steer Loader, Wheel Loader)20. GENSET PARTS ( CUMMINS PERKINS MITSHUBISHI MAN DEUTZ CATERPILLAR YANMAR VOLVOProduk Utama :1. Jual Baterai / Aki / Batteray Traction Untuk Forklift Electric2. Jual Sparepart Alat Berat LIUGONG, LONKING, XCMG, XGMA, SDLG ,HYUNDAI, CATERPILAR, HITACHI  ( WHEEL LOADER, EXCAVATOR, MOTOR GLADER, VIBRO, BULLDOZER, CATERPILAR).   3. Jual Engine Parts : Weichai, Yuchai, Perkins, Cummins, Mitsubishi, Isuzu, Cummins,Toyota dll4. Jual spareparts forklift , Forklift Sparepart : TCM, Mitsubishi, Toyota, Nichiyu Forklift dll5. Jual spare parts Genset , Sparepart: shinchai, shangchai, shanghai, Weichai, Cummins, Perkins, , caterpilar , Marine DLL./Attachment :1. FORK2. Extention FORKS, Sepatu FORK3. Bale Clamp, Paper Roll Clamp dllJual Aneka  ATTACHMENT :Type Baterai Traction, Ban / Tire / Tyre, Forks / Garpu forklift dan sarung fork, Bale Clamp & Attachment , Chain Lift lainnya.MENYEDIAKAN Jasa Perbaikan :- Overhaul Engine / Transmisi / General Overhaul Unit- Kontrak Maintenance / Kontrak Service - Repair alat berat  - Perbaikan forklift- Perbaikan Excavator- Perbaikan whell loader - Perbaikan Alat berat , dllCV. DUTA KHANSA sebagai perusahaan yang bergerak dibidang pengadaan barang dan jasa, kami menyediakan solusi  bisnis  inovatif  kepada perusahaan yang ingin menjadi mitra kami yang mana kami selalu mengutamakan mutu serta kepercayaan demi kelangsungan  bisnis yang harmonis dan berkelanjutan.Contact Us :Mobile      : 085285628186  Whatsapp : 085285628186      fax   Only : 021 7324196  ( only fax .  call before/ after  fax done )Email       : by Whatsap
PERWAKILAN  :
1. Pekalongan Wiradesa.  Smarang  Jawa Tengah
    Contact : HP/WA   081548065555./ 085285628186
2. Kota Bandung  Jawa Barat
    Contack  : HP/WA  081220096566.
HUBUNGI   PERWAKILAN KAMI TERDEKAT. ","
              Head Office :Jl.Dr Cipto Mangunkusumo no.37 Paninggilan Utara Ciledug TANGERANG. Fax ( Only ) : 021 7324196  HP / WA : 085285628186  Warehouse:Jl. Raya Taman Sari,  Asem Reges  Lantai 2  AKS: 52   JAKARTA.   Fax  ( Only ) : 021 7324196 HP / WA :   085285628186Perwakilan  :1. Pekalongan Wiradesa.  Jawa Tengah    Contact : HP/WA   081548065555. 0852856281862. Kota Bandung  Jawa Barat    Contack  : HP/WA  081220096566.HUBUNGI   PERWAKILAN KAMI TERDEKAT.              ","JAKARTA  & TANGERANG 085285628186, Cabang : BANDUNG (081220096566)  & PEKALONGAN (081548065555.) JATENG",DKI Jakarta,085285628186,None,None
Sumber Berkat Abadi,"
                                    PREMIUM GOLD
                                ",Forklift,"
SUMBER BERKAT ABADI
Kami Specialist menyediakan :
¬†
1. Auto Synchronous Generator
= Woodward, Smartgen, ComAp, Datakom
Speed Control & Actuator
= Woodward, GAC, Segma, Cummins
¬†
2. Battery Charger
= BAE, SEG, Smartgen BAC, CSS, Aspire, Datakom SMPS & Firetrol
¬†
3. AVR
= Stamford, Leroy Somer, Marrelli, Mecc Alte, Taiyo, Basler, Caterpillar, OEM
¬†
4. VDO Gauge & VDO Sender
¬†
5. Turbocharger
= Holset, Garrett, KMP, Perkins, IHI, Mitsubishi, Caterpillar
¬†
6. Relay Protection, Overcurrent, Overvoltage & Trafo
= Broyce Control & SEG
¬†
7. Solenoid & MPU
= Woodward, HEL, Deutz, Kubota, DENSO, OEM
¬†
8. Stater Motor & Alternator
= Bosch, Mahle, Iskra, Delco Remy, Hitachi, OEM
COS
= Smartgen & Kyoritsu
¬†
9. Fuse MV
= SIBA, Bussmann, Schneider, Siemens
¬†
10. Spare Parts Generator
= Cummins, Komatsu, Perkins, Deutz, Caterpillar, Yanmar & Kubota
¬†
11. Undercarriage Excavator
¬†
12. Potensiometer, Dioda, Switch, Connector
= Vishay Spectrol, Bourns
¬†
HP / WA : 08788-24-000-19
Bpk. Sonny Pranata ","
              Jl. Pintu Air 3 No. 25-C Pasar Baru            ",Jakarta Pusat,DKI Jakarta,+62 878-8240-0019,None,None
cv lamtama sianturindo,"
                                    PREMIUM GOLD
                                ",Forklift,"
Menjual macam macam spareparts Truck Eaton Fuller Transimission Parts Fast Fuller Transmission Parts FAW Fast Fuller Transmission Parts Shacman Truck Parts CAMC Fast Fuller Transmission Parts Sinotruck Truck Parts Foton Truck Parts Foton Auman Truck Fast Fuller Transmission Parts Kenworth Truck Parts Wabco Brake Valve Parts Meritor Parts Bulldozer Dresser and Dressta Parts Bendix Valve Parts Bendix Kompresor Parts Dana Spicer Parts DAF Genuine Parts PACCAR Genuine Parts Volvo FH16 Parts, Menjual FKM Seal Oring : Parco, Parker, Kalrez Dupont, National Komatsu caterpillar Cummins VOLVO MACK  GEAR GEAR ","
              jln. raya cilincing no 20 , rt 015 / rw 016 . semper barat , cilincing jakarta utara            ",Jakarta utara,DKI Jakarta,+81 3-1001-1108,None,None
Central_ Alat_ Berat,"
                                    PREMIUM GOLD
                                ",Forklift,"
              Kami CV. AZTEKINDO MANDIRI Sebagai Central Alat Berat yang bergerak dibidang penjualan alat-alat berat dan Spare Parts alat berat Meliputi mesin construction dan Mesin2 untuk Kebutuhan Industri Dan Kami Menjual segala macam Ragam SPARE PARTS untuk mesin konstruksi merk China dan korea :1. ASPHALT MIXING PLANT Cap. 40-60 TPH, 60-80 TPH, 66-96 TPH, 150 TPH etc.2. STONE CRUSHER PLANT CAP. 30-40 TPH, 40-60 TPH, 60-80 TPH, 90-100 TPH etc.3. CONCRETE BATCHING PLANT CAP. 30 M3 PER HOUR, 60 M3 PER HOUR, 100 M3 PER HOUR etc.4. XGMA ( Bulldozer, Motor Grader, Wheel Loader, Vibratory Compactor, Tandem Vibratory Roller, Pneumatic Roller, Forklift)5. XCMG ( Bulldozer, Motor Grader, Wheel Loader, Vibratory Compactor, Tandem Vibratory Roller, Pneumatic Roller, Forklift)6. LIUGONG ( Bulldozer, Grader, Wheel Loader, Vibratory Compactor, Tandem Vibratory Roller, Pneumatic Roller, Forklift)7. LONKING( Bulldozer, Grader, Wheel Loader, Vibratory Compactor, Tandem Vibratory Roller, Pneumatic Roller, Forklift)8. CHANGLIN ( Bulldozer, Grader, Wheel Loader, Vibratory Compactor, Tandem Vibratory Roller, Pneumatic Roller)9. SHANTUI ( Bulldozer, Grader, Wheel Loader, Excavator)10. CHENGONG ( Hydraulic Excavator, Mini Excavator, Skid Steer Loader, Wheel Loader)11. ZOOMLION ( Bulldozer, Grader, Wheel Loader, Excavator)12. TIANGONG ( Bulldozer, Grader, Wheel Loader, Excavator)13. SDLG ( Bulldozer, Grader, Wheel Loader)14. SANY ( Excavator, Wheel loader, Crane etc)15. YUTONG ( Bulldozer, Grader, Wheel Loader, Vibratory Compactor, Tandem Vibratory Roller, Pneumatic Roller,16. LUTONG ( Tandem, Compactor)17. LUYANG ( Tandem, Compactor)18. FAW SHACMAN HOWO SANY DONGFENG CHENGLONG DFLZ ( Truck)19. WEICHAI ( Engine for Marine and Industrial )20. YUCHAI ( Engine for Marine and Industrial )21. HYUNDAI ( Hydraulic Excavator, Mini Excavator, Skid Steer Loader, Wheel Loader)22. DOOSAN ( Hydraulic Excavator, Mini Excavator, Skid Steer Loader, Wheel Loader)23. VOLVO ( Hydraulic Excavator, Mini Excavator, Skid Steer Loader, Wheel Loader)24. GENSET PARTS ( CUMMINS PERKINS MITSHUBISHI MAN DEUTZ CATERPILLAR YANMAR VOLVO)25. All Parts of Machinery Industry ( Pump, Motor, Generator Set, Conveyor, Bearings, Hydraulic and Pneumatic Tools)26. CONVEYOR BELT STAR INDIA, BELTRAM KOREA, PIX, CONTINENTAL etc27. AIRMAN COMPRESSOR PDS 185 , PDS175, PDS 265S, PDS 39OS, PDS 655, PDS 750, PDSF140 etc28. SPARE PARTS KOMATSU CATERPILLAR KOBELKO HITACHI DSB29. JINLING EXCAVATOR PARTSKeunggulan dari produk-produk diatas menggunakan komponen utama yang sudah banyak di pasaran sehingga memudahkan untuk pencarian Spare Parts, seperti;- Engine CUMMINS ( HYUNDAI, XGMA), MITSUBISHI ( HYUNDAI), YUCHAI ( XGMA XCMG, LIUGONG, CHANGLIN, SDLG) ETC- Main pump KAWASAKI ( HYUNDAI), GRUNDFOS & REXROTRH ( XGMA)- Travel Motor KAYABA ( HYUNDAI), Transmission ZF ( XGMA)Demikianlah informasi ini semoga dapat menjadi bahan pertimbangan Bapak dalam menentukan pembelianSpare parts alat-alat berat. Dan kami dengan senang hati sekali akan membantu anda apabila ada kebutuhan mengenai produk diatas ke nomor telepon kami di +6282123338987 atau +6281513177298 atau chek disitus kami WWW.AZTEKINDO.COM ","
              Pasar Asem Reges Lantai 2 ALO 2 AKS No.111-113            ",Jakarta Barat,DKI Jakarta,+62 815-1317-7298,None,None
CV.CENTRAL ASIA TEKNIK,"
                                    PREMIUM GOLD
                                ",Forklift,"
              Perusahaan dagang khusus alat2 teknik : Tools, Hardware, Heavy Duty, Machinery, Safety Equipment, Technical Supplier GENERAL SUPPLIER Distributor For STANLEY, Stanley Hand Tools, Stanley measuaring tools, Stanley laser tools, Q-Light, Stanley tools, SUN& RUN, SIMPLEX, YAMANOTE, JASON, SUN RUN, OPT, PANDA, HILTY, TECHWAY, HEYCO, RIDGID, TOKU, TEKIRO, TOMECO, ELORA, DEKKO, GEDORE, PROCUT, DeFelsko, ATA, BOSUN, FUJIYAMA, TOMECO, VESSEL, H& L, FLAG, PICUS, NETUREN, BULLOCK, MULTIPRO, SELLERY, MAKITA, BOSCH, MAKTEC, HITACHI, WEST LAKE, FIRMAN, TIGER, GENERAL, MISAKA, YAMAWA, YAMAMOTO, JIANG CHAI, ASTRAKOERA, MIKAWA, HONDA, MULTI EQUIPMENT, GreenPower, NOVELTEC. Perusahaan dagang khusus alat2 teknik : Tools, Hardware, COSMEC, REX, WEKA, MCC, Dragon, BALDUL.Aneka mesin Trafo las, Stabilizer, Genset, Pompa air, Pemadam api. Viking, Hoseky..dll atau kunjungi kami di http: / / indonetwork.co.id/ central_ asia_ teknik www.stanleytools.com ( Untuk PRoduct Stanley, Sebutkan no part nya untuk mengetahui harganya) NITTO, Delvo, MEDO, Tigon, ASADA, Hydrovane, Makishinko, Takeda, Nippon Sharyo, PACIFIC, AIRMAN, Sohken, GASBOY, HUSKY, FUKUDA, SMC , SHIYUAN, Swan, Starke. Serta alat2 konstruksi seperti Bar bender dan Bar Cutter buatan Jepang, Cina dan Korea            ","
              LTC Glodok Lantai GF 1 Blok B19 No.8Jl.Hayam Wuruk No.127JAKARTA BARAT            ",Jakarta,DKI Jakarta,+62 811-9958-228,None,None
