Name,Membership,Category,Description,Address,City,Province,telp1,telp2,telp3
CV. MEGASUKSES,"
                                    PREMIUM GOLD
                                ",Videografi,"
              Support industri, Industrial supplier. Menyediakan segala support industri, komponen electronics, IGBT Power Modules, Standard Parts, Spare Parts Mesin, Aksesoris fargo printer hdp 5000, YMCK Ribbon, Film Ribbon, cleaning kit dll. Interested, please call or send message via email Komponen elektronik: MITSUBISHI IPM DIPIPM Tyristor Module MOSFET Modules Darlington/ Transistor Module HVDIODE Modules IGBT Modules SANREX Thyristors IGBT Modules 3 Phase SCR 3 Phase Diode Diode Module Diode Bridge Thyristor Module Stud Tyristor Darlington Mosfet Triac IXYS POWER SEMICONDUCTOR MIDORI POTENTIO METERS SAKAE POT EUPEC Thyristors IGBT Modules Thyristor Module Diode Module Disc Tyristor Stud Tyristor SEMIKRON Thyristors IGBT Modules Thyristor Module Thyristor / Diode Modules Diode Bridge 3 phase Diode Module Disc Tyristor & Diode Stud Tyristor & Diode Darlington Mosfet FUJI ELECTRIC IGBT Modules PIM IGBT Modules 6-Pack IGBT Modules 4-Pack IGBT Modules 2-Pack IGBT Modules 1-Pack IGBT Modules IPM IGBT Discr TOSHIBA IGBT Module CRYDOM Solid State Relays SIEMENS Disc Thyristor IR / VISHAY IGBT Diode Thyristor Module Thyristor Diode Module Diode - Module Stud thyristor SCR - M NIHON Diode Module Diode Bridge Disc Thyristor GTO   Jika Anda berdomisili di Indonesia | Jakarta | Bandung | Bogor | Tangerang | bali | pekanbaru | yogyakarta | pontianak | banjarmasin | balik papan | bekasi | batam | semarang | surabaya | medan | banda aceh | makasar | palembang | padang | pontianak | cari IGBT| komponen elektronik | kami siap kirim ke kota anda, seluruh indonesia | cek harga | distributor | agen | terlengkap            ","
              Komplek Ruko San Fransisco, Blok A1 No 14, Depan Perum. Putri Tujuh, Batu Aji

Telp : 0778 3850407: WA 081283446344,  081276662006            ",Batam,Kepulauan Riau,+62 812-8344-6344,None,None
CV. JAYA MAKMUR ABADI,"
PREMIUM RUBY
",Videografi,"
CV. Jaya Makmur Abadi, perusahaan yang bergerak dibidang perdagangan umum Material Konstruksi & material lainnya, dan telah berpengalaman lebih dari 10 Tahun. 
Berdiri sejak Tahun 2005 dengan nama Jaya Makmur Abadi, dan diresmikan pada tahun 2010 oleh notaris Edward Agustin menjadi CV. Jaya Makmur Abadi. 
CV. Jaya Makmur Abadi bekerja sama dengan beberapa Pabrik & Distributor Material dan hingga kini sudah melayani lebih dari 900 pelanggan, yang terdiri dari pelanggan pribadi/perusahaan baik dari dalam & luar daerah di Indonesia. 
 
Visi & Misi : 


Menciptakan sistem perusahaan yang sistematis & fleksibel dalam hal pelayanan.
Menciptakan lapangan kerja & Sumber daya Manusia yang terampil, profesional& handal. 
Menciptakan pelayanan & kerjasama yang berkesinambungan dengan pelanggan.
Menjadi perusahaan multinasional yang dapat memberi sumbangsih terhadap perekonomian di Indonesia. 

CV. Jaya Makmur Abadi.General Supplier & Trading : Besi Beton & Baja. Rangka Baja Ringan & Atapnya.Aluminium Kusen Pintu & Jendela.Plywood & Kayu lainnya.Pipa Paralon & Pipa Lainnya. 
Keramik & Granit.Perlengkapan Sanitary. Aksesories Pintu & Jendela.
Segala jenis Kaca Bangunan.Aluminium Composite Panel.Kawat Baja & Besi. 
Karpet Import & VINYL. Kusen, Pintu & Jendela Kayu. Windows Fashion.Mekanikal Elektrikal.Meubelair Kantor & Sekolah.
Pipa HDPE.Pipa Air Panas.HPL.Cat.Pipa Gorong-Gorong.Plat Kapal.Dll.
Untuk melengkapi kebutuhan pelanggan, kami juga menyediakan Jasa Kontraktor, Jasa Arsitek & Jasa Konsultan.
Untuk informasi lebih jelas, dapat menghubungi Marketing kami.
Terima kasih. www.jayamakmurabadi.co.id
CV. Jaya Makmur Abadi 
Jl. Brigjend Katamso No. 2 Samarinda. Kalimantan Timur 75117.Telp : 0541-7802915Fax. : 0541-766315Email : sales@jayamakmurabadi.co.id
 

 
 ","
              Head Office :Jl. Brigjend Katamso No. 2. Samarinda. Kalimantan Timur ",Samarinda ,Kalimantan Timur,+62 823-5215-3244,+62 813-4942-8940,+62 852-4900-5619
CV.Mitra Duta Elektrindo,"
                                    PREMIUM GOLD
                                ",Videografi,"
CV. Mitra Duta Elektrindo adalah perusahaan yang bergerak dalam PENGADAAN, PEMASANGAN DAN PERAWATAN RAMBU SUAR/ Sarana Bantu Navigasi dan Pelayaran ( SBNP) . NPWP : 31.563.780.1-606.000 SIUP : 503/ 7375.A/ 436.6.11/ 2012 TDP : 130135132578 API : 133702527-P ","
              Jalan Kedung Tarukan Baru 1A  No.9 Mojo Gubeng 
            ",Surabaya,Jawa Timur,+62 817-9321-893,None,None
RAMAJAYA PLASTIK,"
                                    PREMIUM GOLD
                                ",Videografi,"

RAMAJAYA PLASTIK

 
Ramajaya Plastik adalah suatu jenis usaha yang bergerak di bidang press mika, Berdiri sejak Tahun 2003 berlokasi di Ds. Loderesan, Kedung waru, Tulungagung, Jawa Timur.  Produk Kami Meliputi : Tas Plastik kemasan Busana Muslim, Tas plastik kemasan Kain Batik, Kemasan Seprei, Kemasan Bedcover, Kemasan Sepatu dan sandal. Sampul Kartu, Sampul KSK, Sampul STNK, Sampul BPKB, Sampul Uji Kir. Tas Spoon Bound, Tabung Mika, Dll.   Head office at Ds. Loderesan, Kedungwaru Tulungagung, Jawa Timur Call : 085850158509  Email : ramajaya_ 2006@yahoo.com WA : 082143715326  ","
              Ds. Loderesan RT 2 / RW 3 No 31 Kedung waru Tulungagung            ",Tulungagung,Jawa Timur,+62 821-4371-5326,None,None
CV.CENTRAL ASIA TEKNIK,"
                                    PREMIUM GOLD
                                ",Videografi,"
              Perusahaan dagang khusus alat2 teknik : Tools, Hardware, Heavy Duty, Machinery, Safety Equipment, Technical Supplier GENERAL SUPPLIER Distributor For STANLEY, Stanley Hand Tools, Stanley measuaring tools, Stanley laser tools, Q-Light, Stanley tools, SUN& RUN, SIMPLEX, YAMANOTE, JASON, SUN RUN, OPT, PANDA, HILTY, TECHWAY, HEYCO, RIDGID, TOKU, TEKIRO, TOMECO, ELORA, DEKKO, GEDORE, PROCUT, DeFelsko, ATA, BOSUN, FUJIYAMA, TOMECO, VESSEL, H& L, FLAG, PICUS, NETUREN, BULLOCK, MULTIPRO, SELLERY, MAKITA, BOSCH, MAKTEC, HITACHI, WEST LAKE, FIRMAN, TIGER, GENERAL, MISAKA, YAMAWA, YAMAMOTO, JIANG CHAI, ASTRAKOERA, MIKAWA, HONDA, MULTI EQUIPMENT, GreenPower, NOVELTEC. Perusahaan dagang khusus alat2 teknik : Tools, Hardware, COSMEC, REX, WEKA, MCC, Dragon, BALDUL.Aneka mesin Trafo las, Stabilizer, Genset, Pompa air, Pemadam api. Viking, Hoseky..dll atau kunjungi kami di http: / / indonetwork.co.id/ central_ asia_ teknik www.stanleytools.com ( Untuk PRoduct Stanley, Sebutkan no part nya untuk mengetahui harganya) NITTO, Delvo, MEDO, Tigon, ASADA, Hydrovane, Makishinko, Takeda, Nippon Sharyo, PACIFIC, AIRMAN, Sohken, GASBOY, HUSKY, FUKUDA, SMC , SHIYUAN, Swan, Starke. Serta alat2 konstruksi seperti Bar bender dan Bar Cutter buatan Jepang, Cina dan Korea            ","
              LTC Glodok Lantai GF 1 Blok B19 No.8Jl.Hayam Wuruk No.127JAKARTA BARAT            ",Jakarta,DKI Jakarta,+62 811-9958-228,None,None
 PT BIMATAMA TEKNIK,"
                                    PREMIUM GOLD
                                ",Videografi,"
BIMATAMA TEKNIK adalah perusahaan suplier barang-barang mechanical electrical.
Termasuk didalamnya semua barang dan jasa yang berkaitan dengan mechanical electrical.
 
Kami melayani perusahaan-perusahaan, kantor, pabrik, supermarket, pendidikan, gereja, bank, koperasi, asuransi, hingga home user atau pengguna di rumah.
Kami membantu mereka memberikan solusi dibidang mechanical electrical, menyediakan barang-barang mechanical electrical yang berkualitas, bergaransi, dengan harga terbaik.
 
Semenjak berdiri tahun 2001, hingga saat ini, kami telah dipercaya untuk bekerja sama dengan berbagai produsen produk-produk elektrik.
Client kami tersebut memberikan dukungan sepenuhnya terhadap produk-produk yang dijual melalui bimatama.com. Dukungan yang diberikan berupa garansi terhadap produk, maupun harga yang bersaing. Produk-produk yang kami jual antara lain:
1. AC
2. Kabel
3. Genset dan Sparepart
4. MCB/ MCCB
5.Power Outlet / stop contact
6.Switch/ Saklar
7.Pipa-pipa
8. dll
Di bimatama.com kami berusaha menyajikan informasi produk selengkap mungkin untuk Anda, semua hanya sejauh satu klik saja.
Karena kami menyadari lalu lintas dalam kota yang semakin padat, waktu Anda yang sangat berharga, dan beberapa daerah di Indonesia yang hingga saat ini kesulitan memperoleh informasi mengenai produk-produk komputer yang berkualitas.
Bila ada informasi yang masih Anda perlukan yang tidak tercantum disini, silahkan hubungi kami.
Kami selalu berusaha memberikan pelayanan yang terbaik untuk setiap pelanggan kami. Semua produk yang kami jual, mendapat dukungan garansi yang jelas dari para vendor produk yang bersangkutan.
Jadi tidak perlu kuatir mengenai garansi produk kami, karena beberapa vendor bahkan mempunyai jaringan service yang cukup luas.
Mereka mempunyai service center dibeberapa kota besar di Indonesia, jika ada kerusakan, Anda bisa membawa produk tersebut ke service center terdekat dari kota Anda.
Jika Anda mengalami kesulitan untuk mengurus garansi suatu produk, kami akan tetap membantu Anda. Jangan ragu untuk memberikan informasi kepada kami, bila memang Anda mengalami kesulitan untuk mengoperasikan suatu produk tertentu.
Kami berusaha memberikan informasi selengkap mungkin untuk semua produk.
Namun, ada banyak produk yang tidak bisa kami tampilkan disini.
Disamping itu harga barang yang sangat fluktuatif, karena kebanyakan adalah produk import, membuat kami tidak selalu dapat mencantumkan harga yang tepat. Dalam hal ini, kami juga berusaha memberikan harga seakurat mungkin.
Namun, karena banyaknya jumlah barang, masih ada peluang bahwa harga yang tercantum sudah tidak sesuai lagi.
Jadi, untuk mendapatkan harga terbaik, jangan ragu untuk menghubungi kami.
Lihat dihalaman Contact Us. Supaya kami dapat memberikan pelayanan yang terbaik, kami terbuka terhadap saran dan masukan dari Anda. ","
              JL. Gading Griya Lestari Blok E3 No 1, Sukapura Cilincing Jakarta Utara            ",Jakarta Utara,DKI Jakarta,+62 812-8386-6664,081213047095,None
Axia Prima Sejahtera,"
                                    PREMIUM GOLD
                                ",Videografi,"
              PT. Axia Prima Sejahtera, adalah perusahaan yang berada di Indonesia yang bergerak dalam bidang sistem keamanan/ perlengkapan & produk berteknologi yang berkualitas tinggi, dapat dipercaya dan berstandard kelas dunia. Dimana penyedia produk kami adalah beberapa negara besar yang unggul dalam bidang sistem keamanan & produk perlengkapan seperti Jerman, Amerika, Canada, Denmark, Korsel, RRC, Jepang & Taiwan. Jika anda membutuhkan sistem keamanan atau solusi teknologi untuk perusahaan, kami akan memberikan saran dan membantu anda dalam perencanaan, konsultasi, penyediaan, instalasi, pelatihan, 24 jam dan 7 hari dalam seminggu untuk dukungan pelayanan purna jual berdasarkan kontrak pemeliharaan dan layanan telepon. Permasalahan anda dalam sistem keamanan dan produk teknologi akan ditanggapi secepatnya oleh tim ahli dan teknisi profesional yang telah berpengalaman lebih dari 10 tahun yang telah menerima pelatihan baik didalam maupun luar negeri. Kami menyediakan sistem keamanan dan produk berteknologi dengan standard tinggi dan manajemen perencanaan untuk instansi pemerintahaan, sektor swasta maupun perorangan."" "" "" Sebagai; distributor, disain, konsultan, penjualan, instalasi, perawatan, jasa dibidang Sistem Keamanan serta perlengkapan keamanan ( Security System & Security Equipment ) "" "" ""Distributor Resmi untuk Produk Keamanan Siemens Jerman dan Indonesia Distributor resmi untuk Produk CCTV Pelco AmerikaContact : Name : F. Heru Sukrisna, S.SI Email : axiasejahtera@axia.co.id, heru.krisna@axia.co.id Email Sales Manager : winarkodanang@axia.co.idEmail Sales Engineer : billy.gumilar@axia.co.id , akhmad@axia.co.id.Telephone : 021 - 7661187, 021 - 7502301, 021 - 98561299Mobile : 0811 8067 877Fax : 021 - 7590 8764Facebook : Axia Security Systems,Twitter : @axiasecuritysys            ","
              Plaza Karinda Blok B1 No. 14, Jl. Karang Tengah Raya, Lebak Bulus,            ",Jakarta Selatan,DKI Jakarta,+62 811-8067-877,None,None
PT. MITRA SEJATI COMINDO,"
                                    PREMIUM GOLD
                                ",Videografi,"
              PT. Mitra Sejati Comindo, adalah sebuah perusahaan dengan pengalaman bertahun tahun dalam menangani produk ID Card Printer. Kami tahu apa yang diinginkan pelanggan , dan kami memiliki keahlian dalam menyesuaikan solusi untuk memenuhi kebutuhan spesifik sesuai dengan harapan pelanggan. Solusi dan produk kami dapat diaplikasikan untuk keamanan, transportasi, perhotelan, Pemerintah, penegakan hukum, dan ritel. PELANGGAN KAMI : Pelanggan kami berasal dari berbagai industri seperti Telekomunikasi, Pemerintahan, TNI & Polri, Perusahaan komersial, industri, ritel, minyak dan gas, universitas dan sekolah, rumah sakit dan klinik, pengelolaan gedung dan tempat tinggal. Secara geografis, pelanggan kami di seluruh indonesia, dari Sumatera, Jawa, Bali, Sulawesi, Kalimantan dan Papua. YANG PASTI HARGA KAMI LEBIH MURAH.            ","
              Kencana Tower, Level 2 Business Park Kebon Jeruk            ",Jl. Raya Meruya Ilir No. 88 Jakarta Barat. Telp: (021) 5841058 WhatsApp: 0813-1006-3955,DKI Jakarta,+62 813-1006-3955,None,None
CV. VITO MULTILINDO,"
                                    PREMIUM GOLD
                                ",Videografi,"
Halo Customers ! ! , terima kasih menjumpai account kami, anda membuka website yang tepat untuk mencari barang-barang unik untuk dibeli atau diperdagangkan kembali, disini anda akan menemui barang - barang yang laris diperdagangkan silahkan melihat poduk - produk terlaris kami. dan jangan ragu untuk menghubungi kami jika anda berminat untuk membeli, anda juga berpeluang untuk menjadi agen kami, yang pasti anda akan mendapatkan peluang bisnis yang terbaik dan menyenangkan, Siapapun anda, kami siap melayani dengan senang hati, kepuasan konsumen tujuan utama kami, Salam sukses dari kami untuk anda, Tuhan memberkati !
 
 
BELANJA VIA SMS : KETIK : (Nama anda, nama barang , jumlah barang , alamat lengkap , no.Telepon / Hand Phone) . Contoh : (Winda , Super Mop , 2 , Jl. Sawo No.12 Fatmawati Jakarta, 021798833 , 0817-822 516) KIRIM SMS KE : 0811-9830-522
Nanti akan ada  jawaban , jumlah nominal yang harus di transfer dan nomer rekening untuk transfer pembayaran. 
 
UNTUK PELAYANAN YANG LEBIH CEPAT, SILAHKAN MENGHUBUNGI KAMI LANGSUNG VIA TELEPHONE DI 021-43922804-5, 90655131, 
AVAILABLE CONTACT ON : WHATSAPP AND LINE ( 0811 - 9830- 522) 
Jam kerja : 09.00 WIB - 17.00 WIB SENIN S.D JUMAT 09.00 WIB - 15.00 WIB SABTU ( Minggu & Hari Raya Tutup ) .
 
 
********PENTING********
Semua informasi yang ada di Web kami up date. Dilarang Meng copy gambar dan keterangan product dari kami. tanpa izin Terima kasih . PERUSAHAAN TERPERCAYA RESMI TERDAFTAR DENGAN : SIUP, TDP & telah PKP TIPS BELANJA AMAN ON LINE , ( Terutama untuk anda di luar Jakarta ) : - Pastikan telpon yang anda tuju adalah nomer fixed line telkom, dan ada nomer fax , bukan hanya nomer HP saja. - Pastikan selalu ada yang menjawab. - UNTUK WILAYAH JAKARTA Mintalah pembayaran COD , ( barang datang baru dibayar ) , tanpa embel - embel harus transfer DP lebih dulu. - Pastikan alamat kantor tervalidasi / benar . - Jika pembayaran harus transfer karena jarak anda jauh, mintalah no rekening Bank atas nama perusahaan. - Setelah pengiriman barang lewat expedisi mintalah nomer resi kiriman sebagai bukti barang telah terkirim. - Mintalah Faktur / Invoice resmi dengan kop perusahaan, ini penting karena akan dibutuhkan dikemudian hari. - Berhati-hatilah kepada penjual yang mengatas namakan perusahaan PT/ CV orang lain ( usaha abal-abal) , dengan kamuflase sebagai penyalur produk, dengan motif lempar tanggung jawab karena usaha mereka sebenarnya tidak terdaftar badan hukum resmi, pastikan rekening transfer bank sesuai dengan nama perusahaan, bukan pribadi. JANGAN SAMPAI ANDA TERTIPU BELI PADA KAMI PASTI AMAN DAN NYAMAN ...! ! "" Kami bangga dapat melayani dengan baik dan professional "" Perusahaan kami memiliki semua syarat di atas , belanja anda aman bersama dengan kami,Terima kasih .
  ","
              JL. A. Lagoa Terusan C1 , RT002 RW02  No.10 , Koja Jakarta Utara - Tanjung Priok            ",Jakarta Utara,DKI Jakarta,085714451151,None,None
