Name,Membership,Category,Description,Address,City,Province,telp1,telp2,telp3
CV. TRIPUTRA EXPRESS,"
",Jasa Pengiriman barang,"
              Triputra Express kami perusahaan yang bergerak dibidang jasa ekspedisi, pengiriman barang ke seluruh kota di indonesia. Melayani pengiriman menggunakan armada darat, laut dan udara dengan harga terjangkau.            ","
              Jl. Brigjend Katamso No. 2D, Samarinda            ",Samarinda,Kalimantan Timur,+62 812-8313-6594,+62 857-5475-8415,+62 857-8456-1045
PT. Kanam Jaya Manunggal,"
PREMIUM RUBY
",Jasa Pengiriman barang,"
Tentang Kami
PT. Kanam Jaya Manunggal merupakan salah satu perusahaan yang bergerak dalam bidang pelayanan jasa outsourcing/alih daya untuk memenuhi kebutuhan di perkantoran, industry, hotel, apartemen, pusat perbelanjaan dll.
Adapun layanan kami yang tesedia adalah; Cleaning Service, Kurir, Officeboy, Pengemudi, Receptionist dll.
Visi Perusahaan
Menjadi penggiat dan pemimpin terdepan dalam bidang usaha outsourcing dengan memprioritaskan etos kerja dan Etika yang professional, effective dan inovatif yang slalu mengedepankan nilai kemanusiaan dan profesionalisme tenaga kerja Indonesia sesuai dengan harkat dan martabat manusia Indonesia.
Misi Perusahaan
Peningkatan kualitas kuantitas dan variasi produk dengan tetap mempertahankan input sumber daya yang ada merupakan indicator tercapainya effisiensi dalam suatu perusahaan sebagai syarat tercapainya perusahaan yng berkembang dan berdaya saing tinggi sehingga dapat memberikan pelayanan yang professional dan berkualitas kepada pengguna jasa dengan tolak ukur, yaitu:
a. Kepuasan Mitra Kerja
Mitra kerja merasa terpenuhi keinginan dan kebutuhannya bahkan dapat melebihi harapan yang ada, serta membangun dan membina serta meningkatkan hubungan dengan pengguna jasa.
b. Memberikan Pelayanan Terbaik
Yaitu memastikan pelayanan yang diberikan merupakan pelayanan yang paling baik yang dapat diberkan.
c. Citra yang baik
Dengan bekerja secara professional dan berkualitas akan mewujudkan citra yang positif baik bagi perusahaan atau perusahaan pengguna jasa.
d. Memberikan Kesejahteraan Bagi Stakeholder dan Karyawan
Stakeholder dan karyawan adalah asset yang harus dipertahankan. Bahkan dengan pembinaan yang dilakukan pada akhirnya akan memberikan nilai tambah dan dapat menumbuh kembangkan perusahaan.
 


Pelayanan Kami
PT. Kanam Jaya Manunggal menyediakan jasa layanan cleaning service yang didukung oleh tenaga-tenaga yang handal,  professional serta berpengalaman dibidangnya dan didukung dengan peralatan kebersihan yang modern.
 
Pelayanan jasa Pengemudi. Keahlian personil pengemudi kami memiliki keahlian khusus yang jarang dimiliki oleh perusahaan outsource lainnya, yaitu bahwa pengemudi kami mendapatkan bimbingan serta berpengalaman bekerja membawa ekspatriat terutama berpengalaman di perusahaan-perusahaan jepang. Sehingga tidaklah heran apabila pengguna jasa perusahan kami 95% adalah perusahaan jepang.
 
Receptionist
Kami menyediakan layana jasa untuk receptionis sesua qualifikasi yang anda butuhkan.


Perizinan Usaha


Akte Notaris Ilmiawan Dekrit s., SH, MH No.48, Tanggal 23 Desember 2016
Pengesahan Akte Pendirian Men Kum Ham No.AHU-0057857.AH.01.01. TAHUN 2016
Tanda Daftar Perusahaan (TDP) No.10.27.1.70.06393
Surat Izin Usaha Perdagangan (SIUP) No.503/534/Kpts/HO-DPMPTSP/VII/2017
Surat Izin Perdagangan (SIUP) Kecil Nomor: 0435/10-27/PK/VIII/2017
Surat Izin Operasional Perusahaan (PPJP)No.560/6020-SK/HI & JAMSOS
Surat Keterangan Domisili Usaha (SKDU). Nomor:503/08-Ek.Bang
Nomor NPWP: 08.986.589.2-448.000
Sertifikat Kepesertaan BPJS Nomor: 170000000270757

PT. Kanam Jaya Manunggal - Biro Jasa Terbaikwww.kanamjayamanunggal.co.idKami mencari kandidat SDM/ Perkerja berpengalaman dan Profesional diberbagai bidang dengan selektif.Formulir Lowongan Kerja bisa klik link :http://bit.ly/FormulirLamaranKerjaPTKanamJayaManunggal

 ","
              Komp. Roko Pondok Cabe Mutiara, Blok B-15, Gaplek, Pondok Cabe Tanggerang Selatan            ",Tangerang Selatan,Banten,+62 811-805-024,None,None
Maju Mukti,"
                                    PREMIUM GOLD
                                ",Jasa Pengiriman barang,"
              UMKM dibidang agribisnis, hydroponik sayuran, budidaya kelinci dan budidaya jangkrik beserta olahannya serta hasil - hasil produk Peternakan dan pertanian lainnya juga wahana eduwisata agro/ outingclass/ outbond / ODMG (out Door Manejemen Game)            ","
              Jl. Wiratama no 3 RT 01 RW 01 Desa Karangnanas Kecamatan Sokaraja Kabupaten Banyumas Provinsi Jawa Tengah kode pos 53181            ",Banyumas,Jawa Tengah,085867764000,+81 226-68-8773,None
PT ARTA COMINDO,"
                                    PREMIUM GOLD
                                ",Jasa Pengiriman barang,"
              PT ARTA COMINDO , Berdiri Bulan November 2011, Product & Services : 1. Installation VSAT Antenna 2. Installation Radio , R/ L , BWA 3. Delivery Materials Telecomunication 4. Materials Production & Prepared : - Antenna Fiber for VSAT System 1, 2 ~ 4, 6 Mtr - Pedestal VSAT Antenna - Cable & Connector IF - BUC JNRC and LNB Zinwell            ","
              Plaza Summarecon Bekasi ,Level 7 Jl. Bulevar Ahmad Yani,Kav K01 Bekasi ,17143            ",Bekasi,Jawa Barat,+62 822-6113-5842,None,None
PT. JASTRACO PUTRA MANDIRI,"
                                    PREMIUM GOLD
                                ",Jasa Pengiriman barang,"
PT. Jastraco Putra Mandiri Adalah sebuah perusahaan International Freight Forwarder terdepan yang memberikan ONE STOP SOLUTION dalam menangani kebutuhan impor dan ekspor perusahaan Anda dengan pelayanan dan harga terbaik. Kami memiliki komitmen tinggi dalam menangani setiap aspek kebutuhan pengiriman barang dengan kompetensi jaringan luas di pelayaran dan kepabeanan.
Sebagai salah satu perusahaan penyedia jasa cargo export import (International Freight Forwarder Company) di Jakarta - Indonesia, Jastraco Logistics senantiasa berusaha memberikan pelayanan yang terbaik untuk setiap customer. Dengan pengalaman lebih dari 10 tahun perusahaan kami telah menjadi partner ratusan customer yang mempercayakan pengiriman cargo mereka, termasuk perusahaan internasional, eksportir, importir, grosir, pengecer, individu, dan toko online.
Kami menyediakan Jasa pengiriman Barang paket melalui jalur darat dengan harga yang kompetitif dan lead time yang sesuai jadwal. Armada kami mempunyai jadwal teratur dan rutin.
Pengiriman Jalur Laut FCL (Full Container Load) - Pengangkutan dengan memakai unit container ukuran D20, D40 feet atau lainnya.LCL (Less than Container Load).
Pengiriman Jalur Udara Pengangkutan barang dan pengiriman cepat melalui pesawat. Pilihan tepat untuk komoditas fashion, sampel dan komoditas lainnya yang membutuhkan waktu cepat untuk tiba di tempat Anda.Waktu pengiriman barang dari negara asal, proses clearance sampai tiba di tujuan terorganisasi dengan jadwal yang tepat dan efisien.
Tidak perlu khawatir akan kehilangan barang. Selama dalam proses pengiriman, setiap barang mendapatkan jaminan keamanan oleh asuransi terpercaya.Kami juga melayani jasa pengurusan Custom Clearance untuk pengiriman laut dan udara dengan waktu yang cepat dan didukung oleh Team kami yang professional. Percayakan administrasi pengiriman atau pengeluaran barang dari pelabuhan muat atau bongkar kepada jastraco Logistics, sebagai solusi untuk kelancaran bisnis Anda.
Hubungi Kami
Yadi 
HP/Wa 081383314342 ","
              Perumahan Cibubur Country, Ruko Food Market 7 No. 26Kel. Cikeas Udik, Kec. Gunung Putri - Bogor 16966            ",Bogor,Jawa Barat,+62 813-8331-4342,None,None
PT. Centranusa Pasific Indokargo ( JAKARTA PONTIANAK),"
                                    PREMIUM GOLD
                                ",Jasa Pengiriman barang,"
              JASA PENGIRIMAN BARANG JAKARTA - PONTIANAK ( KAPAL CEPAT) PT. Centranusa Pasific Indokargo adalah Perusahaan jasa pengiriman barang via laut dengan Layanan Port to Port, Port to Door ( Request) . Jasa layanan CPINDOKARGO adalah sebagai berikut :~ Domestik Service: Jasa pengiriman barang / kirim barang / kargo/ cargo laut / paket kilat. Berdasarkan geografis wilayah Indonesia yang terdiri dari kepulauan, kami memberikan alternative layanan pengiriman barang, yaitu Sea Freight - Jasa pengiriman barang domestik melalui laut dengan kapal cepat sendiri.~ Jasa Ekspedisi Laut luar pulau / antar kota lintas pulau / antar kota lintas propinsi, ekspedisi muatan kapal laut-emkl, kapal cepat, kapal cargo, kapal barang, kapal cepat, ekspedisi laut, ekspedisi muatan kapal laut.PT. Centranusa Pasific adalah sebuah perusahaan swasta yang berdiri di Kalimantan Barat pada tahun 2004 dan bergerak dibidang jasa pengiriman barang diseluruh wilayah Indonesia, khususnya pada daerah Kalimantan barat. Adapun yang melatar belakangi berdirinya perusahaan ini adalah ingin turut mendukung perkembangan serta pertumbuhan perekonomian di Indonesia khususnya dalam mendistribusikan barang-barang kebutuhan masyarakat serta kebutuhan Industri secara Fast, Accurate, Safe and Trustworthy sesuai dengan motto perusahaan kami. Kemudian seiring perkembangan serta tingginya permintaan dari customer- customer kami, untuk itu kami dapat membantu mendistribusikan barang-barang sampai dengan baik ke alamat penerima yang di tuju maka kami menyediakan media pendukung seperti armada sendiri dan tenaga ahli yang professional dalam pengiriman barang. Hal itu bertujuan untuk mempermudah mencapai sasaran dan tujuan pelanggan yang ditentukan dan menyediakan armada laut sendiri untuk mempercepat tempuh jarak pengiriman barang milik pelanggan. Perusahaan tersebut memiliki 3 armada juga seperti Kapal kargo Express 1, Kapal kargo Express 2 dan Kapal kargo 88. Rute baru kami akan segera dibuka untuk kota Banjarmasin, Surabaya dan Palembang, hal ini hanya untuk memberikan pelayanan yang terbaik, kemudahan pelanggan serta kepuasan pelanggan dalam pengiriman barang. Berbagai Macam Jenis Barang / Paket Yang Siap Kami Kirimkan Untuk Membantu Anda Atau Usaha Anda Antara Lain :- Dokumen- Pakaian-Tupperware- Segala bentuk Sparepart- Mesin- Konveksi- Percetakan- Besi- Pompa- Alat Listrik- Alat Elektronik- Alat Komputer, aksesoris Komputer dan Tinta Komputer- Alat Berat- Alat Kesehatan- Alat Rumah Tangga- Alat Safety- Motor dan Sparepart Motor- Sparepart Mobil- Makanan Kering- Material Advertising- Biji Plastik ( Specialist)- Dan Lain Lain.Harga terbaik dengan pelayanan terbaik ( Harga Termurah Khusus Pontianak dan Kalimantan Barat ) Promo Harga Undian Setiap Harinya untuk konfirmasi harga terbaik silahkan hubungi kami di 021 6591108 atau 087888676657. dan datang ke gudang kami.            ","
              Jl. Mangga Besar 1 no 61 e            ","Taman sari, Jakarta barat",DKI Jakarta,None,None,None
